{"type":"FeatureCollection","features":[{"type":"Feature","properties":{"kind":"bare_dam","month":"2015-10","area_ha":2.35},"geometry":{"type":"MultiPolygon","coordinates":[[[[121.31295,23.6878],[121.312757,23.687617],[121.312663,23.687255],[121.31237,23.687162],[121.312172,23.68734],[121.312169,23.687521],[121.312459,23.687885],[121.31295,23.6878]]],[[[121.310783,23.688589],[121.310883,23.68841],[121.311179,23.688322],[121.311084,23.688051],[121.310294,23.688493],[121.31039,23.688675],[121.310783,23.688589]]],[[[121.300656,23.690736],[121.300854,23.690557],[121.300758,23.690376],[121.300072,23.690368],[121.299973,23.690457],[121.300165,23.69073],[121.300656,23.690736]]],[[[121.299958,23.691631],[121.299474,23.691084],[121.29918,23.691081],[121.299085,23.690899],[121.298789,23.690986],[121.298787,23.691167],[121.298885,23.691168],[121.298785,23.691347],[121.298978,23.69153],[121.299469,23.691535],[121.299568,23.691446],[121.299662,23.691718],[121.299958,23.691631]]],[[[121.30387,23.692396],[121.303673,23.692484],[121.30377,23.692576],[121.303669,23.692755],[121.304059,23.69294],[121.304161,23.69267],[121.30387,23.692396]],[[121.303966,23.692578],[121.303866,23.692667],[121.303868,23.692577],[121.303966,23.692578]]],[[[121.303959,23.69312],[121.304154,23.693212],[121.304254,23.693033],[121.304059,23.69294],[121.303959,23.69312]]],[[[121.297949,23.695311],[121.297952,23.69504],[121.298049,23.695132],[121.298246,23.695044],[121.29844,23.695226],[121.298441,23.695136],[121.298736,23.695139],[121.298836,23.69496],[121.298642,23.694777],[121.298543,23.694866],[121.298348,23.694774],[121.298248,23.694953],[121.298054,23.694771],[121.297855,23.694949],[121.297562,23.694855],[121.297362,23.695214],[121.297655,23.695308],[121.297654,23.695398],[121.297949,23.695311]]],[[[121.302534,23.697168],[121.302536,23.696987],[121.302929,23.696901],[121.302834,23.696719],[121.302539,23.696716],[121.302242,23.696984],[121.302336,23.697256],[121.302534,23.697168]]]]}}]}