{"type":"FeatureCollection","features":[{"type":"Feature","properties":{"kind":"bare_slide","month":"2016-08","area_ha":63.94},"geometry":{"type":"MultiPolygon","coordinates":[[[[121.298642,23.702362],[121.298836,23.702545],[121.299033,23.702457],[121.298941,23.702004],[121.299039,23.702005],[121.299046,23.701464],[121.299145,23.701374],[121.298753,23.70137],[121.298657,23.701188],[121.298069,23.701182],[121.298162,23.701544],[121.298356,23.701727],[121.298355,23.701817],[121.298059,23.701904],[121.298052,23.702446],[121.298246,23.702629],[121.298442,23.702631],[121.298642,23.702362]]],[[[121.299112,23.703902],[121.299403,23.704177],[121.2996,23.704088],[121.299605,23.703727],[121.299312,23.703634],[121.299217,23.703362],[121.299119,23.703361],[121.299126,23.702819],[121.298933,23.702636],[121.298734,23.702815],[121.298442,23.702631],[121.298341,23.702901],[121.298439,23.702902],[121.29853,23.703445],[121.298823,23.703538],[121.298918,23.70372],[121.299115,23.703722],[121.299112,23.703902]],[[121.298823,23.703538],[121.298922,23.703449],[121.298921,23.703539],[121.298823,23.703538]]],[[[121.299395,23.704809],[121.299398,23.704538],[121.299203,23.704445],[121.299001,23.704894],[121.299196,23.704987],[121.299395,23.704809]]],[[[121.298701,23.705343],[121.2987,23.705433],[121.298504,23.705431],[121.298404,23.70561],[121.298208,23.705608],[121.298009,23.705787],[121.298007,23.705967],[121.298299,23.706151],[121.298198,23.70633],[121.298586,23.706696],[121.298983,23.706339],[121.298888,23.706067],[121.299085,23.705979],[121.298993,23.705526],[121.29919,23.705438],[121.299093,23.705347],[121.299195,23.705077],[121.299,23.704985],[121.298897,23.705345],[121.298701,23.705343]],[[121.298888,23.706067],[121.298791,23.705976],[121.298889,23.705977],[121.298888,23.706067]]],[[[121.294863,23.706384],[121.29496,23.706475],[121.295157,23.706387],[121.295161,23.706116],[121.294966,23.706024],[121.295067,23.705754],[121.295265,23.705666],[121.295169,23.705484],[121.294678,23.705569],[121.294675,23.70575],[121.294577,23.705749],[121.294669,23.706201],[121.294278,23.706107],[121.294282,23.705836],[121.29448,23.705657],[121.294483,23.705477],[121.294289,23.705294],[121.293897,23.70529],[121.293599,23.705557],[121.293494,23.706098],[121.293689,23.70619],[121.29359,23.70628],[121.293684,23.706552],[121.294762,23.706654],[121.294863,23.706384]]],[[[121.301407,23.708443],[121.301409,23.708262],[121.301119,23.707988],[121.300628,23.707983],[121.300338,23.707708],[121.299944,23.707794],[121.299946,23.707704],[121.299553,23.7077],[121.299361,23.707427],[121.298969,23.707423],[121.298581,23.707057],[121.29868,23.706968],[121.298584,23.706786],[121.298485,23.706875],[121.298192,23.706782],[121.298091,23.707052],[121.297993,23.707051],[121.298088,23.707232],[121.298482,23.707146],[121.298478,23.707417],[121.298672,23.7076],[121.298771,23.707511],[121.298966,23.707603],[121.298767,23.707872],[121.299254,23.708058],[121.29935,23.708239],[121.299842,23.708155],[121.299937,23.708336],[121.300426,23.708432],[121.300526,23.708343],[121.30043,23.708161],[121.300626,23.708163],[121.300722,23.708345],[121.300919,23.708257],[121.301012,23.708619],[121.301407,23.708443]]],[[[121.297861,23.709668],[121.297566,23.709665],[121.297474,23.709212],[121.297572,23.709213],[121.297577,23.708852],[121.297875,23.708584],[121.29817,23.708497],[121.298078,23.708045],[121.297881,23.708133],[121.297877,23.708404],[121.297582,23.708491],[121.297284,23.708758],[121.297282,23.708939],[121.297184,23.708938],[121.297279,23.70912],[121.296985,23.709116],[121.296885,23.709296],[121.298047,23.710392],[121.298039,23.711024],[121.298234,23.711117],[121.29844,23.710397],[121.297861,23.709668]],[[121.298053,23.709941],[121.297954,23.71003],[121.297955,23.70994],[121.298053,23.709941]]],[[[121.301371,23.711241],[121.300111,23.710054],[121.300018,23.709692],[121.29953,23.709506],[121.299337,23.709233],[121.29914,23.709321],[121.299235,23.709593],[121.299915,23.710052],[121.299717,23.71023],[121.299909,23.710503],[121.300301,23.710507],[121.300689,23.710873],[121.300782,23.711235],[121.301075,23.711329],[121.301268,23.711602],[121.301465,23.711513],[121.301371,23.711241]]],[[[121.293973,23.714501],[121.294462,23.714597],[121.294565,23.714237],[121.29486,23.71415],[121.294767,23.713787],[121.294963,23.71379],[121.295059,23.713971],[121.295353,23.713975],[121.295551,23.713796],[121.295555,23.713525],[121.295948,23.713439],[121.296154,23.712719],[121.295959,23.712627],[121.295856,23.712987],[121.29566,23.712985],[121.29546,23.713253],[121.295166,23.71325],[121.295165,23.71334],[121.294574,23.713514],[121.293979,23.71405],[121.293876,23.71441],[121.293479,23.714767],[121.293576,23.714858],[121.293871,23.714771],[121.293973,23.714501]]],[[[121.297501,23.714721],[121.297602,23.714451],[121.297797,23.714543],[121.297892,23.714815],[121.298187,23.714728],[121.298191,23.714457],[121.297802,23.714182],[121.297906,23.713732],[121.297712,23.713549],[121.297515,23.713637],[121.297409,23.714268],[121.296914,23.714624],[121.296911,23.714804],[121.297106,23.714897],[121.297107,23.714807],[121.297501,23.714721]]],[[[121.290118,23.716806],[121.290119,23.716716],[121.290513,23.71663],[121.290613,23.716451],[121.290809,23.716453],[121.291109,23.716005],[121.290718,23.71591],[121.290618,23.716089],[121.290422,23.716087],[121.290123,23.716445],[121.289927,23.716443],[121.289629,23.716711],[121.289724,23.716983],[121.289922,23.716804],[121.290118,23.716806]]],[[[121.299024,23.718259],[121.299224,23.71799],[121.299519,23.717903],[121.299821,23.717274],[121.300117,23.717187],[121.300026,23.716645],[121.300124,23.716646],[121.300129,23.716285],[121.300424,23.716198],[121.300329,23.715926],[121.299934,23.716192],[121.29983,23.716642],[121.299732,23.716641],[121.299727,23.717003],[121.299629,23.717001],[121.299325,23.717721],[121.298829,23.718167],[121.299024,23.718259]]],[[[121.286562,23.718754],[121.28686,23.718486],[121.287253,23.7184],[121.287552,23.718042],[121.287748,23.718044],[121.287844,23.718226],[121.289217,23.718241],[121.289604,23.718607],[121.289998,23.718521],[121.290093,23.718702],[121.290391,23.718435],[121.290782,23.718529],[121.290982,23.718261],[121.291178,23.718263],[121.291467,23.718627],[121.291664,23.718629],[121.291763,23.71854],[121.291666,23.718449],[121.291771,23.717908],[121.292168,23.717551],[121.29237,23.717102],[121.292175,23.71701],[121.291973,23.717459],[121.291483,23.717454],[121.290987,23.7179],[121.29079,23.717897],[121.290893,23.717537],[121.290699,23.717355],[121.290112,23.717258],[121.289913,23.717526],[121.290108,23.717619],[121.290297,23.718163],[121.289999,23.71843],[121.289803,23.718428],[121.289712,23.717885],[121.289419,23.717792],[121.28952,23.717522],[121.289816,23.717435],[121.289818,23.717255],[121.289624,23.717072],[121.289133,23.717157],[121.289132,23.717247],[121.288543,23.71724],[121.288351,23.716967],[121.288058,23.716874],[121.288057,23.716964],[121.287664,23.71696],[121.287465,23.717228],[121.28717,23.717225],[121.286977,23.717042],[121.286979,23.716862],[121.286687,23.716678],[121.286788,23.716499],[121.286594,23.716316],[121.286398,23.716314],[121.286295,23.716674],[121.285998,23.716851],[121.285996,23.717032],[121.285798,23.71721],[121.285407,23.717115],[121.285208,23.717294],[121.285002,23.718014],[121.285294,23.718198],[121.285594,23.71775],[121.285789,23.717842],[121.286186,23.717485],[121.28638,23.717668],[121.286377,23.717939],[121.286571,23.718031],[121.286368,23.718571],[121.286562,23.718754]],[[121.287064,23.717856],[121.287068,23.717585],[121.287166,23.717586],[121.28726,23.717858],[121.287064,23.717856]],[[121.287068,23.717585],[121.286873,23.717493],[121.286875,23.717312],[121.287071,23.717314],[121.287068,23.717585]]],[[[121.294002,23.719829],[121.294003,23.719739],[121.294298,23.719652],[121.294205,23.71929],[121.294106,23.719379],[121.293419,23.719371],[121.293418,23.719461],[121.293223,23.719369],[121.293025,23.719547],[121.29312,23.719729],[121.293317,23.719731],[121.293607,23.720005],[121.293806,23.719827],[121.294002,23.719829]]],[[[121.290754,23.720696],[121.290659,23.720424],[121.290957,23.720157],[121.29096,23.719976],[121.290668,23.719792],[121.29067,23.719612],[121.290866,23.719614],[121.291058,23.719977],[121.291254,23.719979],[121.291453,23.719711],[121.291647,23.719893],[121.291843,23.719896],[121.292042,23.719717],[121.292041,23.719807],[121.292432,23.719902],[121.292624,23.720175],[121.29292,23.720088],[121.292825,23.719816],[121.292727,23.719815],[121.292635,23.719363],[121.292148,23.719086],[121.292055,23.718724],[121.291561,23.718989],[121.291655,23.719261],[121.291457,23.71944],[121.29136,23.719348],[121.291163,23.719437],[121.291072,23.718894],[121.290878,23.718711],[121.29058,23.718979],[121.290384,23.718976],[121.290385,23.718886],[121.289992,23.718972],[121.289987,23.719333],[121.290085,23.719334],[121.290083,23.719515],[121.290278,23.719607],[121.290274,23.719878],[121.290372,23.719879],[121.290072,23.720327],[121.290557,23.720784],[121.290754,23.720696]]],[[[121.298188,23.722223],[121.298284,23.722405],[121.298481,23.722317],[121.298483,23.722136],[121.297902,23.721588],[121.298101,23.721409],[121.298297,23.721411],[121.29849,23.721594],[121.29859,23.721505],[121.298593,23.721234],[121.298495,23.721233],[121.298596,23.721054],[121.298401,23.720961],[121.298202,23.72114],[121.298106,23.720958],[121.297812,23.720955],[121.297815,23.720774],[121.297716,23.720773],[121.297818,23.720503],[121.297721,23.720412],[121.297524,23.7205],[121.297135,23.720225],[121.297142,23.719683],[121.296947,23.719591],[121.296749,23.719769],[121.296745,23.72004],[121.296647,23.720039],[121.296841,23.720222],[121.296839,23.720402],[121.29664,23.720581],[121.296638,23.720761],[121.296832,23.720944],[121.296539,23.72085],[121.296436,23.72121],[121.296337,23.7213],[121.296142,23.721207],[121.296041,23.721387],[121.296235,23.721569],[121.296433,23.721391],[121.29653,23.721482],[121.296826,23.721395],[121.296921,23.721577],[121.297314,23.721581],[121.297408,23.721853],[121.297701,23.721947],[121.297793,23.722399],[121.298188,23.722223]],[[121.29722,23.721219],[121.297027,23.721036],[121.297223,23.721038],[121.29722,23.721219]],[[121.297027,23.721036],[121.29693,23.720945],[121.297028,23.720946],[121.297027,23.721036]]],[[[121.294473,23.721279],[121.294476,23.721098],[121.294282,23.720916],[121.293599,23.720637],[121.293698,23.720548],[121.293606,23.720096],[121.29341,23.720093],[121.293411,23.720003],[121.29292,23.720088],[121.293307,23.720454],[121.293305,23.720634],[121.29379,23.721001],[121.293788,23.721181],[121.293886,23.721182],[121.293781,23.721723],[121.294172,23.721818],[121.294171,23.721908],[121.294465,23.721911],[121.294659,23.722094],[121.294657,23.722274],[121.29495,23.722368],[121.295336,23.722824],[121.295826,23.722829],[121.295825,23.722919],[121.296314,23.723015],[121.296415,23.722836],[121.296906,23.722751],[121.296615,23.722477],[121.295928,23.722559],[121.295832,23.722378],[121.295636,23.722375],[121.295543,23.722013],[121.295838,23.721926],[121.295743,23.721654],[121.29535,23.72174],[121.29525,23.72192],[121.294857,23.721915],[121.294567,23.721641],[121.294668,23.721372],[121.294473,23.721279]],[[121.294567,23.721641],[121.294467,23.72173],[121.294469,23.72164],[121.294567,23.721641]]],[[[121.298069,23.723847],[121.297874,23.723755],[121.29798,23.723124],[121.297882,23.723123],[121.297887,23.722761],[121.297789,23.72276],[121.297889,23.722581],[121.297694,23.722488],[121.297595,23.722578],[121.297692,23.722669],[121.297593,23.722758],[121.297673,23.724114],[121.297868,23.724206],[121.298069,23.723847]]],[[[121.309784,23.697608],[121.309978,23.697791],[121.310077,23.697702],[121.310083,23.69725],[121.31028,23.697162],[121.310185,23.69698],[121.310383,23.696802],[121.31048,23.696893],[121.310775,23.696806],[121.310583,23.696533],[121.310287,23.69662],[121.309692,23.697156],[121.309689,23.697426],[121.309493,23.697424],[121.309494,23.697334],[121.309296,23.697422],[121.309488,23.697785],[121.309784,23.697608]]],[[[121.307425,23.698034],[121.307039,23.697578],[121.306843,23.697576],[121.306454,23.697301],[121.306458,23.69703],[121.306655,23.696942],[121.306657,23.696761],[121.306464,23.696578],[121.306267,23.696576],[121.306167,23.696756],[121.305677,23.69675],[121.305569,23.697472],[121.305861,23.697655],[121.305956,23.697927],[121.306152,23.69793],[121.306247,23.698202],[121.306445,23.698023],[121.307131,23.698031],[121.30713,23.698121],[121.307425,23.698034]],[[121.306445,23.698023],[121.306348,23.697932],[121.306446,23.697933],[121.306445,23.698023]]],[[[121.309455,23.700313],[121.309454,23.700404],[121.30965,23.700406],[121.310146,23.69996],[121.309957,23.699416],[121.309664,23.699322],[121.30957,23.699051],[121.309273,23.699228],[121.308984,23.698864],[121.308985,23.698773],[121.30928,23.698686],[121.309282,23.698506],[121.309481,23.698327],[121.309776,23.69824],[121.309584,23.697967],[121.309388,23.697965],[121.309089,23.698323],[121.308796,23.698229],[121.308694,23.698499],[121.3082,23.698765],[121.308394,23.698947],[121.308295,23.699037],[121.308288,23.699578],[121.308385,23.69967],[121.308188,23.699758],[121.308185,23.699938],[121.308379,23.700121],[121.30877,23.700216],[121.308963,23.700489],[121.309455,23.700313]]],[[[121.311941,23.705307],[121.311942,23.705217],[121.312138,23.705219],[121.312146,23.704587],[121.312049,23.704496],[121.311853,23.704493],[121.311655,23.704672],[121.311651,23.704943],[121.311355,23.70512],[121.311448,23.705482],[121.311647,23.705304],[121.311941,23.705307]]],[[[121.31066,23.705745],[121.310853,23.706018],[121.311148,23.705931],[121.310859,23.705566],[121.310663,23.705564],[121.310568,23.705292],[121.310275,23.705199],[121.310074,23.705558],[121.31066,23.705745]]],[[[121.310079,23.705196],[121.309884,23.705104],[121.309886,23.704923],[121.309984,23.704925],[121.30989,23.704653],[121.309596,23.704649],[121.309594,23.70474],[121.309301,23.704646],[121.3092,23.704916],[121.308805,23.705092],[121.308803,23.705273],[121.308997,23.705456],[121.308993,23.705726],[121.308698,23.705813],[121.308989,23.706088],[121.308882,23.706718],[121.308684,23.706897],[121.308292,23.706893],[121.308196,23.706711],[121.308,23.706709],[121.3078,23.706978],[121.307604,23.706975],[121.307217,23.70661],[121.30722,23.706339],[121.307419,23.706161],[121.307615,23.706163],[121.307905,23.706437],[121.308104,23.706258],[121.308107,23.705988],[121.308504,23.705631],[121.308407,23.705539],[121.30821,23.705628],[121.308115,23.705356],[121.307921,23.705263],[121.307925,23.704902],[121.308023,23.704903],[121.307932,23.70436],[121.307541,23.704266],[121.307542,23.704175],[121.307248,23.704172],[121.307049,23.704441],[121.306655,23.704527],[121.306946,23.704801],[121.306944,23.704982],[121.307333,23.705166],[121.307329,23.705528],[121.307427,23.705529],[121.307422,23.70589],[121.30703,23.705886],[121.307031,23.705795],[121.306736,23.705882],[121.30683,23.706154],[121.306928,23.706155],[121.306826,23.706515],[121.307117,23.706699],[121.307114,23.70697],[121.307405,23.707244],[121.307895,23.707249],[121.308193,23.706982],[121.308287,23.707254],[121.308385,23.707255],[121.308285,23.707434],[121.308674,23.70771],[121.308971,23.707442],[121.308877,23.70717],[121.309074,23.707082],[121.309276,23.706632],[121.30987,23.706187],[121.309777,23.705825],[121.310073,23.705648],[121.309976,23.705557],[121.310079,23.705196]],[[121.309297,23.705007],[121.309593,23.70483],[121.309786,23.705103],[121.309489,23.70528],[121.309297,23.705007]]],[[[121.308762,23.708433],[121.308665,23.708342],[121.308469,23.708339],[121.308072,23.708696],[121.308168,23.708878],[121.308364,23.70888],[121.308265,23.708969],[121.30836,23.709241],[121.308556,23.709243],[121.308656,23.709064],[121.308951,23.708977],[121.308954,23.708796],[121.308759,23.708704],[121.308762,23.708433]]],[[[121.310219,23.709532],[121.310028,23.709169],[121.310226,23.708991],[121.309839,23.708625],[121.309642,23.708623],[121.309644,23.708533],[121.309447,23.708531],[121.309446,23.708621],[121.309055,23.708526],[121.308956,23.708616],[121.309051,23.708888],[121.309249,23.708709],[121.309445,23.708711],[121.309736,23.708985],[121.310022,23.709621],[121.310219,23.709532]]],[[[121.311099,23.709723],[121.311395,23.709636],[121.311396,23.709545],[121.311885,23.709641],[121.312183,23.709373],[121.312086,23.709282],[121.311692,23.709368],[121.311693,23.709278],[121.311301,23.709273],[121.311302,23.709183],[121.310813,23.709087],[121.310714,23.709177],[121.310806,23.709629],[121.310608,23.709808],[121.3109,23.709991],[121.311099,23.709723]]],[[[121.307567,23.709865],[121.307561,23.710316],[121.307853,23.7105],[121.307953,23.71032],[121.308148,23.710413],[121.308347,23.710234],[121.308353,23.709783],[121.308452,23.709694],[121.308257,23.709601],[121.307959,23.709869],[121.307862,23.709778],[121.307567,23.709865]],[[121.307959,23.709869],[121.308056,23.70996],[121.307958,23.709959],[121.307959,23.709869]]],[[[121.306729,23.714009],[121.307027,23.713742],[121.307029,23.713561],[121.306931,23.71356],[121.307034,23.7132],[121.307529,23.712844],[121.307433,23.712662],[121.307137,23.712749],[121.30684,23.713017],[121.306837,23.713198],[121.306444,23.713284],[121.306539,23.713556],[121.306242,23.713733],[121.30624,23.713914],[121.306729,23.714009]]],[[[121.301326,23.714672],[121.301624,23.714405],[121.301626,23.714224],[121.301528,23.714223],[121.301631,23.713863],[121.301729,23.713864],[121.301731,23.713684],[121.302027,23.713596],[121.302132,23.713056],[121.302034,23.713055],[121.301939,23.712783],[121.301743,23.712781],[121.301651,23.712328],[121.30136,23.712054],[121.301259,23.712324],[121.301063,23.712322],[121.300864,23.7125],[121.300857,23.713042],[121.300955,23.713043],[121.301045,23.713676],[121.301336,23.71395],[121.301232,23.7144],[121.301033,23.714579],[121.301326,23.714672]],[[121.301639,23.713231],[121.301737,23.713232],[121.301734,23.713503],[121.301636,23.713502],[121.301639,23.713231]]],[[[121.305724,23.715894],[121.306024,23.715446],[121.305731,23.715353],[121.305441,23.714988],[121.305245,23.714986],[121.305144,23.715256],[121.304946,23.715344],[121.305234,23.715889],[121.305724,23.715894]]],[[[121.304044,23.724454],[121.304046,23.724274],[121.303852,23.724091],[121.303858,23.72364],[121.304053,23.723732],[121.304351,23.723465],[121.304456,23.722924],[121.304261,23.722831],[121.304263,23.722651],[121.304559,23.722564],[121.30466,23.722294],[121.304563,23.722203],[121.304367,23.722201],[121.304366,23.722291],[121.303189,23.722278],[121.303191,23.722188],[121.302701,23.722092],[121.302508,23.721909],[121.30251,23.721729],[121.302315,23.721636],[121.302213,23.721906],[121.302311,23.721907],[121.302309,23.722088],[121.302503,23.72227],[121.302498,23.722632],[121.302596,23.722633],[121.302594,23.722813],[121.302397,23.722901],[121.302392,23.723262],[121.302294,23.723261],[121.302482,23.723896],[121.302677,23.723988],[121.302778,23.723718],[121.302876,23.723719],[121.303452,23.724719],[121.303844,23.724723],[121.303946,23.724453],[121.304044,23.724454]],[[121.303081,23.723089],[121.303176,23.723271],[121.30298,23.723269],[121.302885,23.723087],[121.303081,23.723089]],[[121.302694,23.722634],[121.302892,23.722546],[121.303082,23.722999],[121.302886,23.722997],[121.302692,23.722814],[121.302694,23.722634]]],[[[121.300515,23.724325],[121.30061,23.724507],[121.300807,23.724509],[121.30091,23.724059],[121.301108,23.723971],[121.301012,23.723789],[121.30062,23.723785],[121.300524,23.723603],[121.30023,23.7236],[121.300031,23.723778],[121.300029,23.723959],[121.299735,23.723956],[121.299734,23.724046],[121.299438,23.724133],[121.299436,23.724314],[121.299827,23.724408],[121.299826,23.724498],[121.300022,23.724501],[121.300122,23.724321],[121.300515,23.724325]]],[[[121.307656,23.725758],[121.307658,23.725578],[121.307855,23.72558],[121.307857,23.725399],[121.308053,23.725401],[121.30806,23.72486],[121.308256,23.724862],[121.308258,23.724681],[121.309435,23.724694],[121.309538,23.724334],[121.309342,23.724332],[121.309343,23.724242],[121.308852,23.724327],[121.308755,23.724235],[121.308858,23.723785],[121.308565,23.723691],[121.308374,23.723328],[121.308177,23.723416],[121.308081,23.723235],[121.307885,23.723232],[121.307497,23.722867],[121.307299,23.723045],[121.307291,23.723677],[121.307389,23.723678],[121.307284,23.724219],[121.306395,23.724661],[121.306392,23.724932],[121.306294,23.724931],[121.306291,23.725111],[121.306094,23.725199],[121.305992,23.725469],[121.306187,23.725562],[121.306289,23.725292],[121.306685,23.725025],[121.306687,23.724845],[121.306985,23.724577],[121.307279,23.72458],[121.307473,23.724763],[121.307468,23.725124],[121.307271,23.725212],[121.307268,23.725393],[121.306972,23.72557],[121.30687,23.72584],[121.307064,23.726023],[121.30726,23.726025],[121.307261,23.725935],[121.307458,23.725937],[121.30746,23.725756],[121.307656,23.725758]],[[121.30856,23.724143],[121.308658,23.724144],[121.308655,23.724324],[121.308557,23.724323],[121.30856,23.724143]]],[[[121.303215,23.727877],[121.30302,23.727784],[121.303022,23.727604],[121.30322,23.727516],[121.303223,23.727245],[121.302836,23.726879],[121.302839,23.726608],[121.302741,23.726607],[121.302843,23.726338],[121.302744,23.726337],[121.302748,23.726066],[121.302553,23.725973],[121.302559,23.725522],[121.302461,23.725521],[121.302463,23.72534],[121.30266,23.725252],[121.302764,23.724802],[121.302862,23.724803],[121.302871,23.724171],[121.302676,23.724078],[121.302573,23.724438],[121.302084,23.724343],[121.301687,23.7247],[121.301684,23.72488],[121.301291,23.724966],[121.301286,23.725327],[121.301675,23.725602],[121.301667,23.726234],[121.302155,23.72642],[121.302054,23.7266],[121.301861,23.726417],[121.301663,23.726505],[121.301661,23.726686],[121.301464,23.726774],[121.301459,23.727135],[121.301557,23.727136],[121.301554,23.727407],[121.301652,23.727408],[121.301746,23.72768],[121.302044,23.727412],[121.30224,23.727415],[121.302434,23.727597],[121.302432,23.727778],[121.302233,23.727956],[121.302526,23.72805],[121.302525,23.72814],[121.303115,23.728056],[121.303215,23.727877]],[[121.30206,23.726148],[121.302162,23.725879],[121.302358,23.725881],[121.302355,23.726152],[121.30206,23.726148]]],[[[121.306357,23.72764],[121.306553,23.727642],[121.306459,23.72728],[121.305969,23.727275],[121.305968,23.727365],[121.305675,23.727272],[121.305674,23.727362],[121.305378,23.727449],[121.30537,23.728081],[121.305565,23.728173],[121.305267,23.728441],[121.305362,23.728713],[121.305758,23.728446],[121.30576,23.728266],[121.305956,23.728268],[121.305953,23.728539],[121.305855,23.728538],[121.305949,23.72881],[121.306148,23.728631],[121.306344,23.728633],[121.306357,23.72764]]]]}},{"type":"Feature","properties":{"kind":"bare_dam","month":"2016-08","area_ha":24.97},"geometry":{"type":"MultiPolygon","coordinates":[[[[121.31227,23.687341],[121.312369,23.687252],[121.312277,23.686799],[121.31218,23.686708],[121.311885,23.686795],[121.311785,23.686884],[121.31188,23.687156],[121.312074,23.687339],[121.31227,23.687341]]],[[[121.305935,23.691967],[121.306042,23.691246],[121.305847,23.691154],[121.305846,23.691244],[121.305355,23.691329],[121.305253,23.691599],[121.305545,23.691783],[121.305445,23.691962],[121.305541,23.692053],[121.305935,23.691967]]],[[[121.298853,23.693605],[121.298752,23.693875],[121.299241,23.693971],[121.299435,23.694154],[121.300024,23.69407],[121.300023,23.69416],[121.300414,23.694255],[121.300516,23.693985],[121.300712,23.693987],[121.300612,23.694076],[121.300708,23.694258],[121.30149,23.694447],[121.301585,23.694719],[121.301876,23.694903],[121.302174,23.694635],[121.301397,23.694085],[121.301497,23.693905],[121.301303,23.693723],[121.301107,23.693721],[121.301012,23.693539],[121.300815,23.693537],[121.300518,23.693804],[121.300325,23.693531],[121.300622,23.693354],[121.300624,23.693173],[121.300332,23.69299],[121.300335,23.692809],[121.300042,23.692716],[121.299947,23.692444],[121.299556,23.692349],[121.299358,23.692527],[121.299164,23.692345],[121.299166,23.692164],[121.299364,23.692076],[121.299268,23.691894],[121.299665,23.691537],[121.300057,23.691542],[121.300251,23.691725],[121.300148,23.692085],[121.300343,23.692177],[121.300741,23.69173],[121.301035,23.691733],[121.301135,23.691554],[121.301429,23.691557],[121.301629,23.691288],[121.301825,23.69129],[121.302213,23.691656],[121.30221,23.691836],[121.302012,23.692015],[121.302007,23.692376],[121.302298,23.69265],[121.302495,23.692562],[121.302301,23.692379],[121.302306,23.692018],[121.302604,23.69175],[121.302898,23.691754],[121.303382,23.69221],[121.303871,23.692306],[121.303673,23.692484],[121.303666,23.693026],[121.303859,23.693209],[121.304056,23.693211],[121.304248,23.693484],[121.304642,23.693398],[121.304843,23.692949],[121.304745,23.692948],[121.304651,23.692676],[121.304354,23.692853],[121.303968,23.692397],[121.30436,23.692402],[121.304359,23.692492],[121.304555,23.692494],[121.304556,23.692404],[121.304849,23.692497],[121.304948,23.692408],[121.304946,23.692589],[121.305044,23.69259],[121.304944,23.692769],[121.305335,23.692864],[121.305434,23.692775],[121.305341,23.692412],[121.305539,23.692234],[121.305246,23.69214],[121.305248,23.69196],[121.305054,23.691867],[121.304756,23.692135],[121.304754,23.692316],[121.304557,23.692314],[121.304268,23.691949],[121.303974,23.691946],[121.303684,23.691582],[121.303097,23.691485],[121.303098,23.691395],[121.302803,23.691482],[121.302806,23.691301],[121.303101,23.691214],[121.302908,23.690941],[121.302418,23.690936],[121.302218,23.691204],[121.302022,23.691202],[121.301829,23.691019],[121.302127,23.690662],[121.30242,23.690755],[121.302817,23.690398],[121.303011,23.690581],[121.303208,23.690493],[121.303112,23.690311],[121.30341,23.690043],[121.302828,23.689586],[121.302632,23.689583],[121.302531,23.689763],[121.302237,23.68976],[121.302137,23.689939],[121.30145,23.689932],[121.301355,23.68975],[121.300963,23.689746],[121.300961,23.689836],[121.300178,23.689737],[121.299979,23.690006],[121.299685,23.690003],[121.299387,23.69027],[121.298608,23.68981],[121.298607,23.6899],[121.298313,23.689897],[121.298312,23.689988],[121.297919,23.690074],[121.297522,23.69043],[121.297519,23.690611],[121.297618,23.690612],[121.297614,23.690883],[121.297905,23.691157],[121.298103,23.690979],[121.298396,23.691072],[121.298098,23.69134],[121.298096,23.69152],[121.298487,23.691615],[121.298583,23.691796],[121.298485,23.691795],[121.298383,23.692065],[121.298187,23.692063],[121.297993,23.69188],[121.297892,23.69215],[121.298283,23.692245],[121.298378,23.692426],[121.298771,23.692431],[121.298671,23.69252],[121.298768,23.692611],[121.298664,23.693062],[121.29915,23.693428],[121.299149,23.693518],[121.298853,23.693605]],[[121.305246,23.69214],[121.305147,23.69223],[121.305148,23.692139],[121.305246,23.69214]],[[121.299148,23.693609],[121.299248,23.693429],[121.299542,23.693432],[121.299541,23.693523],[121.299148,23.693609]],[[121.301298,23.694174],[121.301199,23.694173],[121.301202,23.693992],[121.3013,23.693994],[121.301298,23.694174]],[[121.300126,23.6938],[121.300322,23.693802],[121.300319,23.693983],[121.300221,23.693982],[121.300126,23.6938]],[[121.300029,23.693709],[121.29993,23.693798],[121.299931,23.693708],[121.300029,23.693709]],[[121.301341,23.690833],[121.30105,23.690559],[121.301249,23.690381],[121.30154,23.690565],[121.301341,23.690833]],[[121.29821,23.690257],[121.298111,23.690347],[121.298112,23.690256],[121.29821,23.690257]],[[121.298405,23.69035],[121.298307,23.690349],[121.29831,23.690168],[121.298408,23.690169],[121.298405,23.69035]]],[[[121.303034,23.69636],[121.303038,23.696089],[121.303335,23.695822],[121.30324,23.69564],[121.302844,23.695907],[121.302842,23.696087],[121.302745,23.695996],[121.302548,23.696084],[121.302837,23.696448],[121.303034,23.69636]]],[[[121.299193,23.697673],[121.299097,23.697491],[121.299295,23.697403],[121.299302,23.696861],[121.298914,23.696496],[121.299013,23.696406],[121.298916,23.696315],[121.299016,23.696226],[121.299024,23.695594],[121.298829,23.695501],[121.298831,23.695321],[121.298541,23.695047],[121.298245,23.695134],[121.298249,23.694863],[121.298151,23.694862],[121.298252,23.694592],[121.298057,23.6945],[121.297854,23.695039],[121.297658,23.695037],[121.297659,23.694947],[121.297462,23.695035],[121.29746,23.695216],[121.297753,23.695309],[121.297749,23.69558],[121.297554,23.695487],[121.297452,23.695848],[121.297645,23.69603],[121.297841,23.696032],[121.298124,23.696939],[121.297928,23.696936],[121.297735,23.696663],[121.297537,23.696842],[121.297829,23.697026],[121.297923,23.697298],[121.29822,23.69712],[121.298117,23.69748],[121.29841,23.697574],[121.298407,23.697754],[121.29821,23.697842],[121.298305,23.698114],[121.2986,23.698027],[121.298702,23.697758],[121.299193,23.697673]],[[121.298702,23.697758],[121.298605,23.697666],[121.298703,23.697667],[121.298702,23.697758]],[[121.298516,23.696943],[121.298417,23.697032],[121.298418,23.696942],[121.298516,23.696943]],[[121.298426,23.69631],[121.298327,23.696399],[121.298328,23.696309],[121.298426,23.69631]]],[[[121.302238,23.697255],[121.302341,23.696895],[121.302636,23.696807],[121.302542,23.696536],[121.302346,23.696533],[121.302147,23.696712],[121.302145,23.696892],[121.301948,23.696981],[121.301944,23.697251],[121.302041,23.697343],[121.302238,23.697255]]],[[[121.29809,23.699557],[121.298186,23.699738],[121.297792,23.699824],[121.29798,23.700459],[121.299157,23.700472],[121.298966,23.700018],[121.298868,23.700017],[121.298872,23.699746],[121.298774,23.699745],[121.298777,23.699474],[121.299076,23.699116],[121.299181,23.698576],[121.299577,23.698309],[121.300067,23.698314],[121.300168,23.698135],[121.30095,23.698324],[121.301545,23.697789],[121.30135,23.697696],[121.301255,23.697424],[121.301059,23.697422],[121.300959,23.697602],[121.300665,23.697599],[121.300564,23.697778],[121.30027,23.697775],[121.300271,23.697685],[121.299976,23.697772],[121.299876,23.697951],[121.299482,23.698037],[121.299184,23.698395],[121.298891,23.698301],[121.298692,23.69848],[121.298784,23.698932],[121.298487,23.6992],[121.298483,23.699471],[121.29809,23.699557]],[[121.299181,23.698576],[121.299084,23.698484],[121.299182,23.698485],[121.299181,23.698576]],[[121.298483,23.699471],[121.29858,23.699562],[121.298482,23.699561],[121.298483,23.699471]],[[121.301152,23.697875],[121.300955,23.697873],[121.300957,23.697782],[121.301153,23.697784],[121.301152,23.697875]]]]}},{"type":"Feature","properties":{"kind":"water","month":"2016-08","area_ha":4.3},"geometry":{"type":"MultiPolygon","coordinates":[[[[121.280061,23.69096],[121.280257,23.690962],[121.28026,23.690781],[121.27987,23.690596],[121.279769,23.690776],[121.279965,23.690778],[121.280061,23.69096]]],[[[121.27967,23.690865],[121.279769,23.690776],[121.279671,23.690775],[121.27967,23.690865]]],[[[121.281729,23.690888],[121.281633,23.690706],[121.281437,23.690704],[121.281336,23.690974],[121.281729,23.690888]]],[[[121.281336,23.690974],[121.28114,23.690972],[121.281039,23.691151],[121.280745,23.691148],[121.280649,23.690966],[121.280257,23.690962],[121.280256,23.691052],[121.280549,23.691146],[121.280548,23.691236],[121.281136,23.691243],[121.281137,23.691152],[121.281333,23.691154],[121.281336,23.690974]]],[[[121.279567,23.691225],[121.27967,23.690865],[121.279572,23.690864],[121.27957,23.691045],[121.27898,23.691128],[121.27888,23.691308],[121.279173,23.691401],[121.279174,23.691311],[121.279567,23.691225]]],[[[121.284259,23.692361],[121.284263,23.69209],[121.28397,23.691996],[121.283875,23.691724],[121.283582,23.691631],[121.283585,23.69145],[121.283389,23.691448],[121.283482,23.69181],[121.283775,23.691904],[121.283869,23.692176],[121.284065,23.692178],[121.284062,23.692449],[121.284258,23.692451],[121.284254,23.692722],[121.284549,23.692725],[121.284552,23.692454],[121.284259,23.692361]]],[[[121.284744,23.692818],[121.284549,23.692725],[121.284642,23.693087],[121.284838,23.69309],[121.284744,23.692818]]],[[[121.289988,23.696668],[121.289502,23.696392],[121.289504,23.696211],[121.289211,23.696118],[121.289208,23.696389],[121.289498,23.696663],[121.289694,23.696665],[121.28979,23.696847],[121.289986,23.696849],[121.289988,23.696668]]],[[[121.290082,23.69703],[121.290079,23.697211],[121.290274,23.697303],[121.290277,23.697123],[121.290082,23.69703]]],[[[121.290566,23.697487],[121.290274,23.697303],[121.290368,23.697666],[121.290661,23.697759],[121.290566,23.697487]]],[[[121.292026,23.698316],[121.291832,23.698133],[121.291343,23.698038],[121.291438,23.69831],[121.291732,23.698313],[121.291828,23.698495],[121.292024,23.698497],[121.292026,23.698316]]],[[[121.293981,23.698789],[121.293886,23.698608],[121.293101,23.698599],[121.293099,23.698779],[121.293295,23.698782],[121.293294,23.698872],[121.293981,23.698789]]],[[[121.294763,23.698978],[121.294571,23.698705],[121.294375,23.698703],[121.294274,23.698883],[121.294763,23.698978]]],[[[121.295546,23.699077],[121.295743,23.699079],[121.296041,23.698722],[121.295452,23.698805],[121.295252,23.699074],[121.29486,23.69907],[121.294861,23.698979],[121.294763,23.698978],[121.294858,23.69925],[121.295348,23.699256],[121.295546,23.699077]]],[[[121.311777,23.687516],[121.312075,23.687249],[121.31188,23.687156],[121.311882,23.686976],[121.311686,23.686973],[121.311492,23.686791],[121.311386,23.687422],[121.311288,23.687421],[121.311382,23.687783],[121.31148,23.687784],[121.311581,23.687514],[121.311777,23.687516]],[[121.311586,23.687153],[121.311685,23.687064],[121.311684,23.687154],[121.311586,23.687153]]],[[[121.308389,23.691723],[121.308786,23.691367],[121.30869,23.691185],[121.308096,23.69163],[121.308389,23.691723]]],[[[121.303233,23.696182],[121.303235,23.696001],[121.303137,23.696],[121.303034,23.69636],[121.302936,23.696359],[121.302934,23.69654],[121.303032,23.696541],[121.30293,23.696811],[121.303128,23.696723],[121.303135,23.696181],[121.303233,23.696182]]],[[[121.30283,23.69699],[121.302735,23.696718],[121.302637,23.696717],[121.302537,23.696897],[121.302341,23.696895],[121.302437,23.697076],[121.302241,23.697074],[121.302238,23.697255],[121.302532,23.697258],[121.302535,23.697077],[121.30283,23.69699]]],[[[121.300959,23.697602],[121.301059,23.697422],[121.300472,23.697326],[121.300568,23.697507],[121.30027,23.697775],[121.300564,23.697778],[121.300665,23.697599],[121.300959,23.697602]]],[[[121.299876,23.697951],[121.299878,23.69777],[121.300172,23.697774],[121.300173,23.697683],[121.29939,23.697585],[121.299389,23.697675],[121.2988,23.697759],[121.298895,23.69794],[121.299093,23.697852],[121.299285,23.698125],[121.299876,23.697951]]],[[[121.2987,23.697848],[121.298797,23.697939],[121.298798,23.697849],[121.2987,23.697848]]],[[[121.2986,23.698027],[121.298699,23.697938],[121.298601,23.697937],[121.2986,23.698027]]],[[[121.299285,23.698125],[121.299087,23.698304],[121.299283,23.698306],[121.299285,23.698125]]],[[[121.298988,23.698393],[121.299087,23.698304],[121.298989,23.698303],[121.298988,23.698393]]],[[[121.298292,23.699108],[121.298091,23.699467],[121.298483,23.699471],[121.298487,23.6992],[121.298784,23.698932],[121.298788,23.698662],[121.29869,23.69866],[121.298793,23.6983],[121.298598,23.698208],[121.2986,23.698027],[121.298404,23.698025],[121.298396,23.698657],[121.298298,23.698656],[121.29839,23.699109],[121.298292,23.699108]],[[121.298393,23.698838],[121.298589,23.69884],[121.298588,23.69893],[121.298392,23.698928],[121.298393,23.698838]]],[[[121.298482,23.699561],[121.298581,23.699472],[121.298483,23.699471],[121.298482,23.699561]]],[[[121.29789,23.699826],[121.297895,23.699464],[121.2975,23.699641],[121.297498,23.699821],[121.297597,23.699732],[121.29789,23.699826]]]]}}]}