{"type":"FeatureCollection","features":[{"type":"Feature","properties":{"kind":"bare_slide","month":"2016-02","area_ha":5.79},"geometry":{"type":"MultiPolygon","coordinates":[[[[121.294288,23.705384],[121.293799,23.705289],[121.293599,23.705557],[121.293794,23.70565],[121.293894,23.70547],[121.29409,23.705473],[121.294284,23.705655],[121.294383,23.705566],[121.294288,23.705384]]],[[[121.294478,23.705838],[121.29477,23.706022],[121.294769,23.706112],[121.294473,23.706199],[121.294667,23.706382],[121.294665,23.706562],[121.294567,23.706561],[121.294662,23.706743],[121.295353,23.706389],[121.295356,23.706209],[121.295064,23.706025],[121.295461,23.705668],[121.295365,23.705487],[121.295071,23.705483],[121.295072,23.705393],[121.294779,23.7053],[121.294679,23.705479],[121.294383,23.705566],[121.294478,23.705838]]],[[[121.298437,23.710577],[121.298344,23.710215],[121.297763,23.709667],[121.297468,23.709663],[121.297472,23.709393],[121.296985,23.709116],[121.296884,23.709386],[121.297079,23.709479],[121.297173,23.709751],[121.297369,23.709753],[121.297563,23.709935],[121.297656,23.710298],[121.297949,23.710391],[121.298142,23.710664],[121.298437,23.710577]]],[[[121.302132,23.713056],[121.302134,23.712875],[121.301939,23.712783],[121.301838,23.713053],[121.301935,23.713144],[121.302132,23.713056]]],[[[121.301326,23.714672],[121.301329,23.714492],[121.301625,23.714314],[121.301531,23.714043],[121.301629,23.714044],[121.301731,23.713684],[121.302029,23.713416],[121.302031,23.713235],[121.30174,23.713052],[121.301651,23.712328],[121.301553,23.712327],[121.301458,23.712055],[121.301262,23.712053],[121.300766,23.712499],[121.300759,23.713041],[121.300857,23.713042],[121.300854,23.713313],[121.300952,23.713314],[121.300947,23.713675],[121.301239,23.713859],[121.301234,23.71422],[121.300935,23.714578],[121.301129,23.71476],[121.301326,23.714672]]],[[[121.297403,23.71472],[121.297507,23.714269],[121.297604,23.714361],[121.297801,23.714272],[121.297804,23.714002],[121.297706,23.714],[121.29781,23.71355],[121.297713,23.713459],[121.297416,23.713726],[121.29741,23.714178],[121.296914,23.714624],[121.297009,23.714805],[121.297403,23.71472]]],[[[121.289724,23.716983],[121.290021,23.716715],[121.289633,23.71644],[121.289835,23.715991],[121.289544,23.715716],[121.28934,23.716346],[121.289045,23.716343],[121.288945,23.716522],[121.289434,23.716618],[121.289724,23.716983]]],[[[121.298132,23.718972],[121.298229,23.719063],[121.298625,23.718796],[121.298431,23.718614],[121.298331,23.718793],[121.298035,23.71888],[121.29804,23.718519],[121.298733,23.717985],[121.298736,23.717804],[121.298834,23.717805],[121.298738,23.717624],[121.298443,23.717711],[121.29834,23.718071],[121.297746,23.718516],[121.297743,23.718696],[121.297545,23.718875],[121.297641,23.719056],[121.298132,23.718972]]]]}},{"type":"Feature","properties":{"kind":"bare_dam","month":"2016-02","area_ha":7.32},"geometry":{"type":"MultiPolygon","coordinates":[[[[121.299567,23.691536],[121.299664,23.691628],[121.299765,23.691358],[121.299184,23.69081],[121.298691,23.690985],[121.298783,23.691438],[121.29898,23.69144],[121.299075,23.691621],[121.299567,23.691536]]],[[[121.298677,23.692068],[121.298876,23.69189],[121.298681,23.691798],[121.29858,23.691977],[121.298677,23.692068]]],[[[121.298191,23.691792],[121.297994,23.69179],[121.297996,23.6917],[121.297798,23.691788],[121.297991,23.692061],[121.298187,23.692063],[121.298185,23.692244],[121.297987,23.692332],[121.298083,23.692513],[121.298676,23.692159],[121.29858,23.691977],[121.298286,23.691974],[121.298191,23.691792]]],[[[121.298663,23.693152],[121.299158,23.692796],[121.298966,23.692523],[121.298769,23.692521],[121.298571,23.692699],[121.298566,23.693061],[121.298663,23.693152]]],[[[121.298134,23.696126],[121.297746,23.695851],[121.297748,23.69567],[121.298045,23.695493],[121.297951,23.695131],[121.29756,23.695036],[121.297361,23.695305],[121.297457,23.695396],[121.297753,23.695309],[121.297752,23.695399],[121.297454,23.695667],[121.29745,23.695938],[121.297743,23.696031],[121.297932,23.696575],[121.29813,23.696487],[121.298134,23.696126]]],[[[121.298604,23.697756],[121.298505,23.697755],[121.298508,23.697575],[121.298606,23.697576],[121.298512,23.697214],[121.29871,23.697126],[121.298712,23.696945],[121.298615,23.696854],[121.298418,23.696942],[121.298419,23.696851],[121.298028,23.696757],[121.29773,23.697024],[121.297727,23.697295],[121.297921,23.697478],[121.298312,23.697573],[121.298405,23.697935],[121.298604,23.697756]]],[[[121.298963,23.700289],[121.298965,23.700108],[121.298772,23.699926],[121.298779,23.699384],[121.299076,23.699116],[121.299079,23.698936],[121.298786,23.698842],[121.298685,23.699022],[121.298391,23.699018],[121.297994,23.699375],[121.297992,23.699556],[121.298284,23.69974],[121.29828,23.70001],[121.298669,23.700286],[121.298666,23.700466],[121.299059,23.70047],[121.299061,23.70029],[121.298963,23.700289]]],[[[121.299876,23.690366],[121.299682,23.690183],[121.299486,23.690181],[121.299089,23.690538],[121.299186,23.690629],[121.29958,23.690543],[121.299773,23.690726],[121.299876,23.690366]]],[[[121.300852,23.690738],[121.300755,23.690646],[121.300953,23.690468],[121.300663,23.690194],[121.300467,23.690192],[121.300366,23.690371],[121.30017,23.690369],[121.299972,23.690548],[121.300261,23.690912],[121.300751,23.690917],[121.300852,23.690738]]],[[[121.304745,23.692948],[121.304651,23.692676],[121.304063,23.692669],[121.304064,23.692579],[121.303866,23.692667],[121.304059,23.69294],[121.304549,23.692946],[121.304548,23.693036],[121.304745,23.692948]]],[[[121.301687,23.694359],[121.301397,23.694085],[121.301101,23.694172],[121.301104,23.693991],[121.301302,23.693813],[121.301012,23.693539],[121.300714,23.693806],[121.300518,23.693804],[121.300324,23.693622],[121.300326,23.693441],[121.300524,23.693353],[121.300429,23.693081],[121.300233,23.693079],[121.300035,23.693257],[121.300128,23.693619],[121.29993,23.693798],[121.299537,23.693794],[121.299345,23.693521],[121.299148,23.693609],[121.299052,23.693427],[121.298656,23.693694],[121.298751,23.693966],[121.299338,23.694062],[121.299532,23.694245],[121.29973,23.694067],[121.299926,23.694069],[121.300119,23.694342],[121.300414,23.694255],[121.300415,23.694164],[121.300611,23.694167],[121.300805,23.694349],[121.30149,23.694447],[121.301489,23.694537],[121.301687,23.694359]],[[121.300612,23.694076],[121.300516,23.693985],[121.300614,23.693986],[121.300612,23.694076]]],[[[121.302237,23.697345],[121.302336,23.697256],[121.30234,23.696985],[121.302831,23.6969],[121.302445,23.696444],[121.302148,23.696622],[121.302046,23.696982],[121.301749,23.697159],[121.301942,23.697432],[121.302237,23.697345]]],[[[121.300951,23.698234],[121.301644,23.6977],[121.301452,23.697427],[121.301059,23.697422],[121.30096,23.697511],[121.301054,23.697874],[121.300464,23.697958],[121.300364,23.698137],[121.300461,23.698228],[121.300951,23.698234]]]]}},{"type":"Feature","properties":{"kind":"water","month":"2016-02","area_ha":0.61},"geometry":{"type":"MultiPolygon","coordinates":[[[[121.312464,23.687524],[121.312466,23.687343],[121.31227,23.687341],[121.312273,23.68707],[121.312175,23.687069],[121.312173,23.68725],[121.311684,23.687154],[121.311685,23.687064],[121.311881,23.687066],[121.311883,23.686885],[121.311589,23.686882],[121.311592,23.686702],[121.311295,23.686879],[121.311391,23.687061],[121.311587,23.687063],[121.311484,23.687423],[121.312172,23.68734],[121.312171,23.68743],[121.312464,23.687524]]],[[[121.308294,23.691542],[121.308888,23.691097],[121.30889,23.690916],[121.308695,23.690824],[121.308794,23.690735],[121.3087,23.690463],[121.308602,23.690462],[121.308598,23.690732],[121.3085,23.690731],[121.308597,23.690823],[121.308591,23.691274],[121.308296,23.691361],[121.308294,23.691542]]]]}}]}