{"type":"FeatureCollection","features":[{"type":"Feature","properties":{"kind":"bare_slide","month":"2016-11","area_ha":31.53},"geometry":{"type":"MultiPolygon","coordinates":[[[[121.294773,23.713336],[121.294176,23.713962],[121.293881,23.714049],[121.293877,23.714319],[121.293779,23.714318],[121.293875,23.7145],[121.294071,23.714502],[121.29437,23.714144],[121.294566,23.714146],[121.29476,23.714329],[121.294863,23.713969],[121.295648,23.713888],[121.295747,23.713798],[121.295653,23.713526],[121.29605,23.71317],[121.296156,23.712539],[121.295961,23.712446],[121.295857,23.712897],[121.295659,23.713075],[121.295463,23.713073],[121.295362,23.713252],[121.294773,23.713336]],[[121.294672,23.713516],[121.294769,23.713607],[121.294671,23.713606],[121.294672,23.713516]]],[[[121.289458,23.714812],[121.289063,23.714989],[121.28916,23.71508],[121.28906,23.71526],[121.289447,23.715625],[121.289441,23.716076],[121.289539,23.716078],[121.289439,23.716257],[121.289731,23.716441],[121.29013,23.715903],[121.289935,23.715811],[121.289737,23.715989],[121.289643,23.715627],[121.28994,23.71545],[121.290041,23.71518],[121.290337,23.715093],[121.290339,23.714912],[121.290144,23.71482],[121.289747,23.715177],[121.289551,23.715175],[121.289458,23.714812]],[[121.289551,23.715175],[121.289452,23.715264],[121.289453,23.715174],[121.289551,23.715175]]],[[[121.289336,23.716617],[121.289143,23.716344],[121.288653,23.716339],[121.288453,23.716607],[121.28816,23.716514],[121.288059,23.716784],[121.287765,23.71678],[121.287267,23.717317],[121.287461,23.717499],[121.287657,23.717501],[121.28776,23.717141],[121.288152,23.717146],[121.288248,23.717327],[121.288446,23.717149],[121.288643,23.717151],[121.288836,23.717334],[121.288735,23.717604],[121.289224,23.717699],[121.289524,23.717251],[121.289621,23.717343],[121.289818,23.717255],[121.28982,23.717074],[121.289722,23.717073],[121.289824,23.716803],[121.290216,23.716807],[121.290217,23.716717],[121.290513,23.71663],[121.290418,23.716358],[121.290319,23.716447],[121.289731,23.716441],[121.28963,23.71662],[121.289336,23.716617]],[[121.289236,23.716797],[121.289431,23.716889],[121.28933,23.717069],[121.289135,23.716976],[121.289236,23.716797]]],[[[121.290874,23.718982],[121.290679,23.718889],[121.290585,23.718617],[121.290879,23.718621],[121.290878,23.718711],[121.291172,23.718714],[121.291171,23.718805],[121.291368,23.718716],[121.291371,23.718536],[121.290982,23.718261],[121.290984,23.71808],[121.291082,23.718081],[121.290988,23.717809],[121.290692,23.717896],[121.290592,23.718076],[121.290396,23.718074],[121.290097,23.718431],[121.290095,23.718612],[121.290384,23.718976],[121.29058,23.718979],[121.290676,23.71916],[121.290874,23.718982]]],[[[121.282713,23.720607],[121.282715,23.720427],[121.282813,23.720428],[121.28272,23.720065],[121.282918,23.719887],[121.28321,23.720071],[121.283607,23.719714],[121.283511,23.719532],[121.283216,23.719619],[121.28322,23.719349],[121.283318,23.71935],[121.283222,23.719168],[121.282527,23.719792],[121.281938,23.719876],[121.281937,23.719966],[121.281641,23.720053],[121.281636,23.720415],[121.282024,23.72078],[121.282416,23.720784],[121.282417,23.720694],[121.282713,23.720607]]],[[[121.289284,23.72059],[121.28909,23.720407],[121.288793,23.720675],[121.289085,23.720858],[121.289186,23.720589],[121.289284,23.72059]]],[[[121.285547,23.721361],[121.285746,23.721183],[121.285651,23.720911],[121.285948,23.720733],[121.285853,23.720461],[121.285559,23.720458],[121.285558,23.720548],[121.285362,23.720546],[121.285261,23.720726],[121.284966,23.720813],[121.285156,23.721266],[121.285353,23.721178],[121.285547,23.721361]]],[[[121.288395,23.721122],[121.288393,23.721212],[121.288689,23.721125],[121.288692,23.720854],[121.28879,23.720855],[121.288696,23.720583],[121.288302,23.720669],[121.288202,23.720849],[121.288006,23.720846],[121.288007,23.720756],[121.287712,23.720843],[121.287804,23.721296],[121.288098,23.721299],[121.288198,23.721119],[121.288395,23.721122]]],[[[121.293004,23.721173],[121.292905,23.721171],[121.292911,23.72072],[121.292716,23.720628],[121.292615,23.720897],[121.292517,23.720896],[121.292511,23.721348],[121.292609,23.721349],[121.292507,23.721619],[121.292895,23.721984],[121.293092,23.721896],[121.293188,23.722078],[121.293482,23.722081],[121.293583,23.721901],[121.293484,23.7219],[121.293487,23.72172],[121.293001,23.721353],[121.293004,23.721173]],[[121.293195,23.721536],[121.293096,23.721625],[121.293097,23.721535],[121.293195,23.721536]]],[[[121.296618,23.722296],[121.296816,23.722118],[121.296728,23.721394],[121.296926,23.721216],[121.296637,23.720851],[121.29644,23.720849],[121.296341,23.720938],[121.296436,23.72121],[121.296238,23.721299],[121.296241,23.721118],[121.296046,23.721026],[121.295944,23.721295],[121.296235,23.721569],[121.296334,23.72148],[121.296529,23.721573],[121.296522,23.722114],[121.296423,23.722204],[121.296618,23.722296]]],[[[121.29494,23.72309],[121.295043,23.72273],[121.294849,23.722547],[121.294551,23.722815],[121.294355,23.722813],[121.294358,23.722632],[121.294456,23.722633],[121.29436,23.722452],[121.294163,23.72254],[121.29406,23.7229],[121.294158,23.722901],[121.294253,23.723173],[121.294644,23.723268],[121.294645,23.723177],[121.29494,23.72309]]],[[[121.293755,23.723709],[121.294152,23.723352],[121.294154,23.723172],[121.293768,23.722716],[121.293272,23.723162],[121.293076,23.72316],[121.292689,23.722704],[121.292492,23.722792],[121.292487,23.723153],[121.292585,23.723155],[121.292583,23.723335],[121.292873,23.723699],[121.29307,23.723611],[121.293264,23.723794],[121.293265,23.723704],[121.293755,23.723709]]],[[[121.29715,23.726636],[121.29745,23.726188],[121.297256,23.726005],[121.296961,23.726092],[121.29667,23.725818],[121.296676,23.725367],[121.296973,23.725189],[121.297074,23.72492],[121.297367,23.725013],[121.297964,23.724388],[121.297866,23.724387],[121.297771,23.724115],[121.297575,23.724113],[121.297375,23.724381],[121.297179,23.724379],[121.296987,23.724106],[121.29679,23.724104],[121.296892,23.723834],[121.296794,23.723833],[121.296798,23.723562],[121.296603,23.72347],[121.296503,23.723559],[121.296594,23.724102],[121.296396,23.72428],[121.296002,23.724366],[121.295602,23.724994],[121.295209,23.72508],[121.295103,23.72562],[121.295593,23.725716],[121.295883,23.72599],[121.296179,23.725903],[121.29628,23.725633],[121.296378,23.725634],[121.296472,23.725997],[121.296765,23.72609],[121.296857,23.726543],[121.29715,23.726636]]],[[[121.299499,23.704358],[121.299507,23.703726],[121.299214,23.703633],[121.299123,23.70309],[121.298929,23.702907],[121.298733,23.702905],[121.298933,23.702636],[121.298836,23.702545],[121.298638,23.702633],[121.298541,23.702542],[121.298642,23.702362],[121.298156,23.701996],[121.298056,23.702175],[121.298154,23.702176],[121.29815,23.702447],[121.298344,23.70263],[121.29834,23.702991],[121.298533,23.703174],[121.29853,23.703445],[121.298627,23.703536],[121.298922,23.703449],[121.298822,23.703628],[121.299115,23.703722],[121.299108,23.704264],[121.299206,23.704265],[121.299102,23.704715],[121.299199,23.704806],[121.299396,23.704718],[121.299401,23.704357],[121.299499,23.704358]]],[[[121.299197,23.704897],[121.299101,23.704805],[121.298903,23.704893],[121.298997,23.705256],[121.299194,23.705168],[121.299197,23.704897]]],[[[121.298786,23.706337],[121.299085,23.705979],[121.299091,23.705528],[121.299189,23.705529],[121.298997,23.705256],[121.298701,23.705343],[121.2987,23.705433],[121.298406,23.70543],[121.298009,23.705787],[121.298105,23.705968],[121.297808,23.706146],[121.297904,23.706327],[121.298393,23.706423],[121.298586,23.706696],[121.298783,23.706608],[121.298786,23.706337]]],[[[121.297958,23.709759],[121.297861,23.709668],[121.29747,23.709573],[121.297475,23.709122],[121.297379,23.70903],[121.296788,23.709205],[121.297079,23.709479],[121.297076,23.709659],[121.297173,23.709751],[121.29737,23.709662],[121.29766,23.710027],[121.297955,23.70994],[121.297958,23.709759]]],[[[121.29991,23.710413],[121.299909,23.710503],[121.300301,23.710507],[121.300402,23.710328],[121.30011,23.710144],[121.300112,23.709963],[121.299823,23.709599],[121.299627,23.709597],[121.299238,23.709322],[121.299138,23.709501],[121.299525,23.709867],[121.299818,23.70996],[121.299815,23.710231],[121.299619,23.710229],[121.299419,23.710498],[121.299614,23.71059],[121.299714,23.710411],[121.29991,23.710413]]],[[[121.298247,23.710124],[121.297955,23.70994],[121.297854,23.71021],[121.297756,23.710208],[121.297949,23.710391],[121.298043,23.710753],[121.29824,23.710665],[121.298247,23.710124]]],[[[121.301631,23.713863],[121.301534,23.713772],[121.301643,23.71296],[121.301839,23.712962],[121.30174,23.713052],[121.301832,23.713504],[121.302328,23.713058],[121.302037,23.712784],[121.301841,23.712782],[121.30184,23.712872],[121.301645,23.71278],[121.301555,23.712146],[121.30136,23.712054],[121.300864,23.7125],[121.300862,23.712681],[121.30096,23.712682],[121.300861,23.712771],[121.300855,23.713222],[121.300953,23.713223],[121.300949,23.713494],[121.301239,23.713859],[121.301234,23.71422],[121.300936,23.714487],[121.301129,23.71476],[121.301522,23.714675],[121.301533,23.713862],[121.301631,23.713863]]],[[[121.298185,23.714909],[121.298284,23.71482],[121.298288,23.714549],[121.29819,23.714548],[121.29829,23.714368],[121.297803,23.714092],[121.297807,23.713821],[121.297709,23.71382],[121.29781,23.71355],[121.297615,23.713458],[121.297513,23.713818],[121.297414,23.713817],[121.297409,23.714268],[121.297113,23.714355],[121.297011,23.714715],[121.297204,23.714898],[121.297304,23.714809],[121.298185,23.714909]]],[[[121.298326,23.719154],[121.298327,23.719064],[121.298621,23.719067],[121.29862,23.719158],[121.298915,23.719071],[121.298918,23.71889],[121.29882,23.718889],[121.298926,23.718258],[121.299618,23.717814],[121.299622,23.717543],[121.300118,23.717097],[121.300125,23.716555],[121.300223,23.716557],[121.300227,23.716286],[121.300424,23.716198],[121.30033,23.715835],[121.299836,23.716191],[121.299627,23.717182],[121.299429,23.71727],[121.299226,23.71781],[121.29903,23.717808],[121.298732,23.718075],[121.298628,23.718526],[121.298331,23.718793],[121.298035,23.71888],[121.298139,23.71843],[121.297944,23.718337],[121.297746,23.718516],[121.297743,23.718696],[121.297546,23.718785],[121.297641,23.719056],[121.298326,23.719154]]],[[[121.302121,23.721454],[121.301933,23.720819],[121.302231,23.720552],[121.302238,23.72001],[121.302141,23.719919],[121.301944,23.720007],[121.301837,23.720638],[121.301739,23.720637],[121.301736,23.720907],[121.301638,23.720906],[121.301632,23.721358],[121.301826,23.721541],[121.302022,23.721543],[121.302121,23.721454]]],[[[121.302295,23.723171],[121.302292,23.723442],[121.30239,23.723443],[121.302286,23.723893],[121.302481,23.723986],[121.302471,23.724708],[121.302373,23.724707],[121.302272,23.724977],[121.301879,23.724973],[121.301777,23.725333],[121.301381,23.725599],[121.301475,23.725871],[121.301766,23.726145],[121.302162,23.725879],[121.302164,23.725698],[121.302358,23.725881],[121.302555,23.725793],[121.302463,23.72534],[121.30276,23.725163],[121.302764,23.724802],[121.302862,23.724803],[121.302777,23.723808],[121.302973,23.723811],[121.303173,23.723542],[121.303467,23.723545],[121.303568,23.723366],[121.30406,23.72319],[121.304161,23.723011],[121.30377,23.722916],[121.303674,23.722735],[121.303872,23.722556],[121.304263,23.722651],[121.304562,23.722293],[121.304465,23.722202],[121.303975,23.722196],[121.303974,23.722287],[121.302896,23.722184],[121.302508,23.721909],[121.302515,23.721368],[121.30232,23.721275],[121.302218,23.721545],[121.302021,23.721633],[121.302311,23.721907],[121.302308,23.722178],[121.302503,23.72227],[121.302499,23.722541],[121.302597,23.722542],[121.302399,23.722721],[121.302393,23.723172],[121.302295,23.723171]],[[121.302595,23.722723],[121.302696,23.722543],[121.30289,23.722636],[121.302984,23.722998],[121.302595,23.722723]],[[121.302787,23.723086],[121.302983,23.723088],[121.302982,23.723179],[121.302785,23.723176],[121.302787,23.723086]]],[[[121.301841,23.727952],[121.302135,23.727955],[121.302231,23.728137],[121.30233,23.728048],[121.302427,23.728139],[121.302917,23.728144],[121.302918,23.728054],[121.303113,23.728147],[121.303312,23.727968],[121.303216,23.727786],[121.30302,23.727784],[121.302826,23.727602],[121.303028,23.727152],[121.302833,23.72706],[121.302838,23.726699],[121.30274,23.726698],[121.302744,23.726337],[121.302646,23.726335],[121.302747,23.726156],[121.302553,23.725973],[121.302157,23.72624],[121.302154,23.726511],[121.301558,23.727046],[121.301554,23.727407],[121.301845,23.727591],[121.301746,23.72768],[121.301841,23.727952]],[[121.301845,23.727591],[121.301945,23.727502],[121.301944,23.727592],[121.301845,23.727591]],[[121.302049,23.727051],[121.302148,23.726962],[121.302147,23.727052],[121.302049,23.727051]],[[121.30245,23.726333],[121.30255,23.726244],[121.302548,23.726334],[121.30245,23.726333]]]]}},{"type":"Feature","properties":{"kind":"bare_dam","month":"2016-11","area_ha":7.89},"geometry":{"type":"MultiPolygon","coordinates":[[[[121.297807,23.691156],[121.298301,23.6908],[121.298107,23.690708],[121.298208,23.690438],[121.297819,23.690163],[121.297522,23.69043],[121.297519,23.690611],[121.297618,23.690612],[121.29771,23.691065],[121.297807,23.691156]]],[[[121.299875,23.690456],[121.299777,23.690455],[121.299878,23.690185],[121.299685,23.690003],[121.299585,23.690092],[121.299488,23.69],[121.298801,23.690083],[121.298705,23.689902],[121.298411,23.689898],[121.298798,23.690354],[121.298994,23.690356],[121.299187,23.690539],[121.298988,23.690808],[121.298692,23.690895],[121.298785,23.691347],[121.298978,23.69153],[121.299273,23.691533],[121.299274,23.691443],[121.299667,23.691357],[121.299769,23.691087],[121.299575,23.690904],[121.299872,23.690637],[121.299875,23.690456]],[[121.299675,23.690725],[121.299578,23.690634],[121.299676,23.690635],[121.299675,23.690725]],[[121.299578,23.690634],[121.299481,23.690542],[121.29958,23.690543],[121.299578,23.690634]]],[[[121.298381,23.692246],[121.298869,23.692432],[121.299068,23.692163],[121.298875,23.69198],[121.298775,23.69207],[121.298286,23.691974],[121.298085,23.692333],[121.29828,23.692425],[121.298381,23.692246]]],[[[121.299633,23.693975],[121.29973,23.694067],[121.299928,23.693888],[121.299737,23.693525],[121.300133,23.693258],[121.29994,23.692985],[121.299744,23.692983],[121.299347,23.69334],[121.299444,23.693431],[121.299344,23.693611],[121.299051,23.693517],[121.298655,23.693784],[121.298751,23.693966],[121.299045,23.693969],[121.299044,23.694059],[121.299534,23.694064],[121.299633,23.693975]]],[[[121.29842,23.696761],[121.298127,23.696668],[121.297927,23.697027],[121.29822,23.69712],[121.29841,23.697574],[121.298606,23.697576],[121.298904,23.697308],[121.298802,23.697578],[121.298997,23.697671],[121.299098,23.697401],[121.299196,23.697402],[121.299003,23.697219],[121.299105,23.696859],[121.298814,23.696675],[121.298516,23.696943],[121.29842,23.696761]],[[121.298614,23.696944],[121.298711,23.697035],[121.298613,23.697034],[121.298614,23.696944]]],[[[121.298592,23.698659],[121.298397,23.698567],[121.298496,23.698478],[121.298402,23.698206],[121.298005,23.698563],[121.298295,23.698837],[121.298491,23.698839],[121.298592,23.698659]]],[[[121.298666,23.700466],[121.298866,23.700197],[121.298671,23.700105],[121.29877,23.700016],[121.298678,23.699563],[121.298384,23.69956],[121.298186,23.699738],[121.297991,23.699646],[121.297792,23.699824],[121.29798,23.700459],[121.298666,23.700466]]],[[[121.300457,23.690914],[121.300754,23.690737],[121.300756,23.690556],[121.300658,23.690555],[121.300761,23.690195],[121.300664,23.690104],[121.30027,23.69019],[121.300171,23.690279],[121.300267,23.690461],[121.300069,23.690639],[121.300163,23.690911],[121.300262,23.690822],[121.300458,23.690824],[121.300457,23.690914]]],[[[121.301725,23.69147],[121.301628,23.691378],[121.301924,23.691201],[121.30183,23.690929],[121.301731,23.691018],[121.301534,23.691016],[121.301439,23.690835],[121.30134,23.690924],[121.301045,23.690921],[121.301047,23.69083],[121.300653,23.690916],[121.300847,23.691099],[121.300845,23.69128],[121.300747,23.691278],[121.300842,23.69146],[121.300942,23.691371],[121.301333,23.691466],[121.301433,23.691286],[121.301531,23.691287],[121.301529,23.691468],[121.301431,23.691467],[121.301526,23.691648],[121.301725,23.69147]],[[121.300943,23.691281],[121.300944,23.69119],[121.30114,23.691192],[121.301139,23.691283],[121.300943,23.691281]]],[[[121.303485,23.69185],[121.303681,23.691852],[121.303781,23.691673],[121.303293,23.691487],[121.303295,23.691397],[121.302803,23.691482],[121.302707,23.6913],[121.302413,23.691297],[121.30222,23.691114],[121.301924,23.691201],[121.302118,23.691384],[121.302019,23.691473],[121.302115,23.691655],[121.302996,23.691755],[121.303188,23.692028],[121.303384,23.69203],[121.303485,23.69185]]],[[[121.306418,23.692515],[121.30632,23.692513],[121.306419,23.692424],[121.306327,23.691972],[121.305935,23.691967],[121.305839,23.691786],[121.305544,23.691873],[121.305834,23.692147],[121.305929,23.692419],[121.306028,23.69233],[121.306223,23.692422],[121.306124,23.692511],[121.30622,23.692693],[121.306418,23.692515]]],[[[121.302732,23.696989],[121.30303,23.696721],[121.302836,23.696539],[121.30264,23.696537],[121.302544,23.696355],[121.302347,23.696443],[121.302637,23.696717],[121.302732,23.696989]]],[[[121.300952,23.698143],[121.301148,23.698146],[121.301545,23.697789],[121.301547,23.697608],[121.301353,23.697425],[121.300862,23.69751],[121.300958,23.697692],[121.301154,23.697694],[121.301152,23.697875],[121.300662,23.697779],[121.300661,23.697869],[121.300366,23.697956],[121.300364,23.698137],[121.300657,23.698231],[121.300655,23.698321],[121.300951,23.698234],[121.300952,23.698143]]]]}},{"type":"Feature","properties":{"kind":"water","month":"2016-11","area_ha":3.04},"geometry":{"type":"MultiPolygon","coordinates":[[[[121.304623,23.694843],[121.30433,23.694749],[121.304328,23.69493],[121.304131,23.694928],[121.304129,23.695108],[121.303932,23.695196],[121.303928,23.695467],[121.30373,23.695646],[121.303824,23.695918],[121.304121,23.69574],[121.304224,23.69538],[121.30442,23.695382],[121.304423,23.695111],[121.304619,23.695114],[121.304623,23.694843]],[[121.304224,23.69538],[121.304127,23.695289],[121.304225,23.69529],[121.304224,23.69538]]],[[[121.303131,23.696452],[121.303033,23.696451],[121.303136,23.696091],[121.30294,23.696088],[121.302935,23.69645],[121.302642,23.696356],[121.30264,23.696537],[121.302836,23.696539],[121.302932,23.69672],[121.30303,23.696721],[121.303131,23.696452]]],[[[121.301945,23.697161],[121.301649,23.697338],[121.301646,23.697519],[121.301942,23.697432],[121.301945,23.697161]]],[[[121.301645,23.697609],[121.301646,23.697519],[121.30145,23.697517],[121.301449,23.697607],[121.301645,23.697609]]],[[[121.291147,23.698036],[121.291148,23.697945],[121.290952,23.697943],[121.29095,23.698124],[121.291342,23.698128],[121.291345,23.697947],[121.291147,23.698036]]],[[[121.291733,23.698223],[121.291734,23.698132],[121.291342,23.698128],[121.291438,23.69831],[121.291732,23.698313],[121.292023,23.698587],[121.292026,23.698316],[121.291733,23.698223]]],[[[121.292314,23.698771],[121.292513,23.698592],[121.292023,23.698587],[121.292021,23.698677],[121.292314,23.698771]]],[[[121.298781,23.699203],[121.298884,23.698843],[121.298493,23.698749],[121.298488,23.69911],[121.298291,23.699198],[121.298288,23.699378],[121.298781,23.699203]]],[[[121.295348,23.699256],[121.295546,23.699077],[121.295451,23.698896],[121.295252,23.699074],[121.294763,23.698978],[121.294858,23.69925],[121.294957,23.699161],[121.295348,23.699256]]],[[[121.298582,23.699382],[121.298483,23.699471],[121.298189,23.699468],[121.298187,23.699648],[121.29858,23.699562],[121.298582,23.699382]]],[[[121.298089,23.699647],[121.298186,23.699738],[121.298187,23.699648],[121.298089,23.699647]]],[[[121.31178,23.687336],[121.312172,23.68734],[121.312171,23.68743],[121.312367,23.687432],[121.312369,23.687252],[121.312175,23.687069],[121.312174,23.687159],[121.311487,23.687242],[121.311385,23.687512],[121.31158,23.687604],[121.311582,23.687424],[121.311778,23.687426],[121.31178,23.687336]]],[[[121.308591,23.691274],[121.308888,23.691097],[121.308892,23.690736],[121.308794,23.690735],[121.308798,23.690464],[121.308602,23.690462],[121.308595,23.691003],[121.308693,23.691004],[121.308591,23.691274]]],[[[121.308191,23.691902],[121.308193,23.691721],[121.308488,23.691634],[121.308591,23.691274],[121.308395,23.691272],[121.307997,23.691719],[121.307505,23.691894],[121.307502,23.692075],[121.308191,23.691902]]],[[[121.306915,23.691978],[121.307014,23.691889],[121.306916,23.691888],[121.306915,23.691978]]],[[[121.307013,23.691979],[121.30711,23.692071],[121.307111,23.69198],[121.307013,23.691979]]],[[[121.306417,23.692605],[121.30701,23.69225],[121.306915,23.691978],[121.306817,23.691977],[121.306815,23.692158],[121.30662,23.692065],[121.306618,23.692246],[121.306325,23.692152],[121.306417,23.692605]]],[[[121.306417,23.692605],[121.306318,23.692694],[121.306416,23.692695],[121.306417,23.692605]]],[[[121.306119,23.692872],[121.306318,23.692694],[121.306121,23.692692],[121.306223,23.692422],[121.306028,23.69233],[121.305918,23.693231],[121.306116,23.693143],[121.306119,23.692872]]],[[[121.305817,23.693501],[121.30562,23.693589],[121.305616,23.69386],[121.305813,23.693772],[121.305817,23.693501]]],[[[121.30532,23.694038],[121.305317,23.694218],[121.30522,23.694127],[121.304925,23.694214],[121.304824,23.694484],[121.30502,23.694486],[121.305021,23.694396],[121.305412,23.69449],[121.305512,23.694311],[121.305708,23.694313],[121.305616,23.69386],[121.305518,23.693859],[121.305515,23.69413],[121.30532,23.694038]]]]}}]}