{"type":"FeatureCollection","features":[{"type":"Feature","properties":{"kind":"bare_slide","month":"2016-07","area_ha":8.24},"geometry":{"type":"MultiPolygon","coordinates":[[[[121.294961,23.706385],[121.29496,23.706475],[121.295157,23.706387],[121.29506,23.706296],[121.295161,23.706116],[121.294967,23.705934],[121.295266,23.705576],[121.294876,23.705391],[121.294577,23.705749],[121.294671,23.706111],[121.294472,23.706289],[121.294666,23.706472],[121.294961,23.706385]]],[[[121.301308,23.708532],[121.301409,23.708262],[121.301119,23.707988],[121.300628,23.707983],[121.300338,23.707708],[121.300042,23.707796],[121.300044,23.707705],[121.299553,23.7077],[121.299456,23.707608],[121.299355,23.707878],[121.299158,23.707966],[121.29935,23.708239],[121.299546,23.708242],[121.299745,23.708063],[121.300132,23.708429],[121.300426,23.708432],[121.300526,23.708343],[121.30043,23.708161],[121.300626,23.708163],[121.300625,23.708253],[121.300918,23.708347],[121.300819,23.708436],[121.300914,23.708618],[121.301308,23.708532]]],[[[121.295452,23.713885],[121.295555,23.713525],[121.29585,23.713438],[121.295952,23.713168],[121.29605,23.71317],[121.296053,23.712899],[121.296151,23.7129],[121.296157,23.712448],[121.29606,23.712357],[121.295863,23.712445],[121.295857,23.712897],[121.29556,23.713164],[121.295068,23.713249],[121.29487,23.713427],[121.295059,23.713971],[121.295452,23.713885]]],[[[121.30113,23.71467],[121.301625,23.714314],[121.301531,23.714043],[121.301629,23.714044],[121.301731,23.713684],[121.302027,23.713596],[121.30193,23.713505],[121.302029,23.713416],[121.302035,23.712964],[121.301742,23.712871],[121.301745,23.7126],[121.301647,23.712599],[121.301651,23.712328],[121.301553,23.712327],[121.301458,23.712055],[121.301161,23.712323],[121.300964,23.712321],[121.300863,23.71259],[121.300765,23.712589],[121.300761,23.71286],[121.300955,23.713043],[121.301253,23.712775],[121.301449,23.712777],[121.301643,23.71296],[121.30164,23.713141],[121.301442,23.713319],[121.301246,23.713317],[121.30115,23.713135],[121.300953,23.713223],[121.300949,23.713494],[121.301336,23.71395],[121.301033,23.714579],[121.30113,23.71467]],[[121.301736,23.713322],[121.301637,23.713412],[121.301638,23.713321],[121.301736,23.713322]]],[[[121.289822,23.716984],[121.289922,23.716804],[121.290217,23.716717],[121.29022,23.716537],[121.290025,23.716444],[121.290027,23.716264],[121.290224,23.716175],[121.290227,23.715995],[121.290129,23.715994],[121.290229,23.715814],[121.290034,23.715722],[121.289934,23.715901],[121.289738,23.715899],[121.289643,23.715627],[121.28994,23.71545],[121.289943,23.715179],[121.290337,23.715093],[121.29034,23.714822],[121.290146,23.714639],[121.28995,23.714637],[121.28985,23.714817],[121.289358,23.714902],[121.289455,23.714993],[121.289351,23.715443],[121.289545,23.715626],[121.289446,23.715715],[121.28954,23.715987],[121.289143,23.716344],[121.289434,23.716618],[121.289429,23.716979],[121.289526,23.717071],[121.289822,23.716984]]],[[[121.298131,23.719062],[121.298228,23.719153],[121.298328,23.718974],[121.298524,23.718976],[121.298924,23.718439],[121.298729,23.718346],[121.298133,23.718881],[121.298035,23.71888],[121.29804,23.718519],[121.297845,23.718427],[121.297642,23.718966],[121.297935,23.71906],[121.297934,23.71915],[121.298131,23.719062]]],[[[121.296933,23.720674],[121.29703,23.720765],[121.297328,23.720498],[121.297134,23.720315],[121.297142,23.719683],[121.297045,23.719592],[121.296749,23.719769],[121.296646,23.720129],[121.296841,23.720222],[121.296839,23.720402],[121.296542,23.720579],[121.296638,23.720761],[121.296933,23.720674]]],[[[121.30337,23.723454],[121.303569,23.723275],[121.303864,23.723188],[121.30387,23.722737],[121.304068,23.722558],[121.304559,23.722564],[121.304757,23.722385],[121.304663,23.722113],[121.304073,23.722197],[121.304072,23.722288],[121.303582,23.722282],[121.30348,23.722552],[121.303088,23.722548],[121.302798,23.722183],[121.302601,23.722271],[121.302987,23.722727],[121.302983,23.723088],[121.30337,23.723454]]]]}},{"type":"Feature","properties":{"kind":"bare_dam","month":"2016-07","area_ha":4.55},"geometry":{"type":"MultiPolygon","coordinates":[[[[121.311494,23.6867],[121.311405,23.685977],[121.31121,23.685885],[121.311009,23.686244],[121.311107,23.686245],[121.3112,23.686697],[121.311296,23.686789],[121.311494,23.6867]]],[[[121.30095,23.690739],[121.300953,23.690468],[121.300663,23.690194],[121.300467,23.690192],[121.300366,23.690371],[121.300071,23.690458],[121.300165,23.69073],[121.300754,23.690737],[121.300752,23.690827],[121.30095,23.690739]]],[[[121.307418,23.69099],[121.307522,23.69054],[121.307131,23.690445],[121.307032,23.690535],[121.307226,23.690717],[121.307124,23.690987],[121.307221,23.691079],[121.307418,23.69099]]],[[[121.29947,23.691445],[121.299469,23.691535],[121.299764,23.691448],[121.299474,23.691084],[121.29918,23.691081],[121.299085,23.690899],[121.298789,23.690986],[121.298785,23.691347],[121.298978,23.69153],[121.29947,23.691445]]],[[[121.30584,23.691695],[121.305942,23.691426],[121.30604,23.691427],[121.305945,23.691155],[121.305553,23.691151],[121.305255,23.691418],[121.30535,23.69169],[121.30584,23.691695]]],[[[121.300057,23.691542],[121.299961,23.69136],[121.299764,23.691448],[121.29986,23.69163],[121.300057,23.691542]]],[[[121.305238,23.692773],[121.305237,23.692863],[121.305434,23.692775],[121.305436,23.692594],[121.305338,23.692593],[121.305441,23.692233],[121.305344,23.692142],[121.304948,23.692408],[121.304944,23.692769],[121.305041,23.692861],[121.305238,23.692773]]],[[[121.304447,23.693306],[121.304543,23.693397],[121.304741,23.693309],[121.304744,23.693038],[121.304842,23.693039],[121.304748,23.692767],[121.304455,23.692674],[121.304456,23.692583],[121.304161,23.69267],[121.303968,23.692397],[121.303772,23.692395],[121.303673,23.692484],[121.303665,23.693116],[121.303858,23.693299],[121.304056,23.693211],[121.304248,23.693484],[121.304447,23.693306]]],[[[121.298133,23.696216],[121.297936,23.696304],[121.297934,23.696485],[121.298032,23.696486],[121.298125,23.696848],[121.298323,23.69667],[121.298716,23.696674],[121.298909,23.696857],[121.298905,23.697218],[121.298707,23.697306],[121.298705,23.697487],[121.298998,23.69758],[121.299296,23.697313],[121.2993,23.696951],[121.299202,23.69695],[121.299109,23.696588],[121.298914,23.696496],[121.299025,23.695504],[121.298636,23.695228],[121.298542,23.694957],[121.298146,23.695223],[121.29834,23.695406],[121.298334,23.695857],[121.298529,23.69595],[121.298527,23.69613],[121.298328,23.696309],[121.298132,23.696307],[121.298133,23.696216]],[[121.298328,23.696309],[121.298425,23.6964],[121.298327,23.696399],[121.298328,23.696309]]]]}}]}