{"type":"FeatureCollection","features":[{"type":"Feature","properties":{"kind":"bare_slide","month":"2016-12","area_ha":18.8},"geometry":{"type":"MultiPolygon","coordinates":[[[[121.308025,23.697137],[121.308324,23.696779],[121.308618,23.696783],[121.308719,23.696603],[121.309013,23.696606],[121.309114,23.696337],[121.308824,23.696063],[121.308628,23.69606],[121.308626,23.696151],[121.308137,23.696055],[121.307944,23.695872],[121.307946,23.695692],[121.308044,23.695693],[121.307948,23.695511],[121.307654,23.695508],[121.307356,23.695776],[121.307063,23.695682],[121.306964,23.695771],[121.306955,23.696494],[121.306757,23.696672],[121.307247,23.696677],[121.307246,23.696768],[121.307637,23.696862],[121.307829,23.697135],[121.308025,23.697137]],[[121.308722,23.696332],[121.308819,23.696424],[121.308721,23.696423],[121.308722,23.696332]]],[[[121.305538,23.699909],[121.30574,23.69946],[121.306136,23.699194],[121.306139,23.698923],[121.306336,23.698835],[121.306342,23.698383],[121.306541,23.698205],[121.306835,23.698208],[121.307232,23.697851],[121.307136,23.697669],[121.306646,23.697664],[121.306452,23.697481],[121.306454,23.697301],[121.306653,23.697122],[121.306556,23.697031],[121.306162,23.697117],[121.305969,23.696934],[121.305971,23.696754],[121.305481,23.696748],[121.304191,23.697908],[121.304185,23.69836],[121.303988,23.698448],[121.303982,23.698899],[121.303785,23.698987],[121.303781,23.699258],[121.303584,23.699346],[121.303579,23.699707],[121.303481,23.699706],[121.30348,23.699797],[121.303676,23.699799],[121.303777,23.699619],[121.304365,23.699626],[121.304558,23.699899],[121.305538,23.699909]]],[[[121.303267,23.701149],[121.303563,23.700971],[121.30357,23.70043],[121.303084,23.700063],[121.302985,23.700152],[121.302975,23.700965],[121.303171,23.700967],[121.303267,23.701149]]],[[[121.295498,23.702779],[121.295399,23.702868],[121.295495,23.70305],[121.295692,23.702962],[121.295691,23.703052],[121.296181,23.703057],[121.29618,23.703148],[121.296474,23.703151],[121.296772,23.702883],[121.29736,23.70289],[121.297855,23.702534],[121.297861,23.702083],[121.298157,23.701905],[121.298545,23.702271],[121.298543,23.702451],[121.298445,23.70245],[121.298442,23.702631],[121.298143,23.702989],[121.29814,23.70326],[121.298237,23.703351],[121.298434,23.703263],[121.298529,23.703535],[121.298627,23.703536],[121.298525,23.703806],[121.298916,23.7039],[121.299017,23.703721],[121.298823,23.703538],[121.298921,23.703539],[121.299027,23.702908],[121.298832,23.702816],[121.298834,23.702635],[121.299631,23.701741],[121.299436,23.701648],[121.299341,23.701377],[121.298753,23.70137],[121.298657,23.701188],[121.297873,23.70118],[121.297575,23.701447],[121.297182,23.701533],[121.297081,23.701713],[121.296885,23.701711],[121.296588,23.701978],[121.295898,23.702242],[121.295798,23.702331],[121.295793,23.702782],[121.295498,23.702779]],[[121.295793,23.702782],[121.295889,23.702874],[121.295791,23.702873],[121.295793,23.702782]],[[121.295889,23.702874],[121.295986,23.702965],[121.295888,23.702964],[121.295889,23.702874]]],[[[121.294123,23.702945],[121.294521,23.702497],[121.293933,23.702491],[121.293735,23.702669],[121.293928,23.702852],[121.293926,23.703033],[121.293432,23.703298],[121.29343,23.703479],[121.293624,23.703661],[121.293919,23.703574],[121.294021,23.703305],[121.294216,23.703397],[121.294414,23.703219],[121.294416,23.703038],[121.294123,23.702945]],[[121.294123,23.702945],[121.294024,23.703034],[121.294025,23.702943],[121.294123,23.702945]]],[[[121.303474,23.707833],[121.303478,23.707562],[121.303676,23.707384],[121.30397,23.707387],[121.304071,23.707208],[121.304365,23.707211],[121.304465,23.707031],[121.303883,23.706573],[121.303788,23.706302],[121.303298,23.706296],[121.303299,23.706206],[121.302712,23.706109],[121.302033,23.70556],[121.301931,23.70583],[121.302126,23.705922],[121.302123,23.706193],[121.302413,23.706467],[121.302611,23.706379],[121.302608,23.706559],[121.302311,23.706827],[121.302307,23.707098],[121.302793,23.707465],[121.30279,23.707645],[121.302984,23.707828],[121.303278,23.707831],[121.303277,23.707921],[121.303474,23.707833]]]]}},{"type":"Feature","properties":{"kind":"bare_dam","month":"2016-12","area_ha":42.38},"geometry":{"type":"MultiPolygon","coordinates":[[[[121.299347,23.69334],[121.299546,23.693162],[121.299548,23.692981],[121.298867,23.692522],[121.298776,23.691979],[121.298385,23.691885],[121.298285,23.692064],[121.298089,23.692062],[121.297987,23.692332],[121.298569,23.69288],[121.298765,23.692882],[121.299151,23.693338],[121.299347,23.69334]]],[[[121.301406,23.693363],[121.301803,23.693006],[121.301315,23.69282],[121.301213,23.69309],[121.301312,23.693091],[121.301406,23.693363]]],[[[121.29581,23.701428],[121.296302,23.701343],[121.2966,23.700985],[121.296796,23.700987],[121.296897,23.700808],[121.297191,23.700811],[121.297291,23.700632],[121.297586,23.700635],[121.297686,23.700455],[121.29847,23.700464],[121.298769,23.700106],[121.299357,23.700113],[121.299754,23.699756],[121.300048,23.699759],[121.300144,23.699941],[121.30034,23.699943],[121.300631,23.700217],[121.300629,23.700397],[121.300331,23.700665],[121.302194,23.700685],[121.302294,23.700506],[121.302686,23.70051],[121.303083,23.700153],[121.302893,23.6997],[121.303091,23.699521],[121.303579,23.699707],[121.303584,23.699346],[121.303781,23.699258],[121.303785,23.698987],[121.303982,23.698899],[121.303988,23.698448],[121.304185,23.69836],[121.304191,23.697908],[121.305481,23.696748],[121.306069,23.696755],[121.306169,23.696575],[121.306856,23.696583],[121.306955,23.696494],[121.306964,23.695771],[121.307063,23.695682],[121.306574,23.695586],[121.306186,23.695311],[121.306189,23.69504],[121.306386,23.694952],[121.30639,23.694681],[121.306195,23.694589],[121.305995,23.694858],[121.305799,23.694856],[121.305217,23.694398],[121.305516,23.69404],[121.30581,23.694043],[121.305811,23.693953],[121.306007,23.693955],[121.305907,23.694134],[121.306101,23.694317],[121.306298,23.694229],[121.306301,23.693958],[121.306399,23.693959],[121.306305,23.693687],[121.306404,23.693598],[121.306015,23.693323],[121.306116,23.693143],[121.305921,23.693051],[121.305822,23.69314],[121.305917,23.693322],[121.30572,23.69341],[121.305718,23.69359],[121.305425,23.693497],[121.305226,23.693675],[121.305223,23.693946],[121.304927,23.694033],[121.304827,23.694213],[121.30473,23.694121],[121.304533,23.69421],[121.30405,23.693662],[121.302872,23.69374],[121.302772,23.693919],[121.303062,23.694193],[121.302864,23.694372],[121.302668,23.69437],[121.302468,23.694638],[121.302857,23.694914],[121.303835,23.695105],[121.304124,23.695469],[121.303529,23.696005],[121.302158,23.695899],[121.302055,23.696259],[121.302446,23.696354],[121.302639,23.696627],[121.302342,23.696804],[121.30234,23.696985],[121.301943,23.697342],[121.301353,23.697425],[121.300857,23.697872],[121.300072,23.697953],[121.299971,23.698133],[121.299185,23.698305],[121.299084,23.698484],[121.298691,23.69857],[121.298595,23.698388],[121.298399,23.698386],[121.2981,23.698744],[121.298393,23.698838],[121.298586,23.699111],[121.298388,23.699289],[121.297994,23.699375],[121.297993,23.699465],[121.297602,23.699371],[121.297502,23.69955],[121.297305,23.699548],[121.297113,23.699275],[121.296721,23.699271],[121.296528,23.698998],[121.296234,23.698995],[121.296235,23.698904],[121.294861,23.698979],[121.294863,23.698889],[121.294176,23.698882],[121.294177,23.698791],[121.293589,23.698785],[121.29359,23.698695],[121.293198,23.69869],[121.293197,23.698781],[121.292705,23.698865],[121.292702,23.699136],[121.292897,23.699229],[121.292877,23.700764],[121.293458,23.701312],[121.293948,23.701317],[121.294044,23.701499],[121.295809,23.701518],[121.29581,23.701428]],[[121.300926,23.70013],[121.300732,23.699947],[121.300735,23.699766],[121.300933,23.699588],[121.30152,23.699685],[121.301714,23.699868],[121.301415,23.700225],[121.300926,23.70013]],[[121.298971,23.699657],[121.298777,23.699474],[121.29878,23.699294],[121.298978,23.699115],[121.29937,23.699119],[121.299661,23.699393],[121.299362,23.699751],[121.298971,23.699657]],[[121.3044,23.696917],[121.304304,23.696735],[121.304503,23.696557],[121.304699,23.696559],[121.304893,23.696742],[121.304693,23.697011],[121.3044,23.696917]],[[121.305813,23.693772],[121.30591,23.693863],[121.305812,23.693862],[121.305813,23.693772]]]]}},{"type":"Feature","properties":{"kind":"water","month":"2016-12","area_ha":3.42},"geometry":{"type":"MultiPolygon","coordinates":[[[[121.307583,23.69343],[121.307977,23.693254],[121.308073,23.693436],[121.308269,23.693438],[121.30837,23.693258],[121.308664,23.693261],[121.308764,23.693082],[121.309058,23.693085],[121.309159,23.692906],[121.309355,23.692908],[121.309357,23.692727],[121.309162,23.692635],[121.30917,23.692003],[121.308877,23.691909],[121.308683,23.691727],[121.308686,23.691546],[121.308099,23.691449],[121.308289,23.691903],[121.30809,23.692081],[121.307699,23.691987],[121.307696,23.692258],[121.308089,23.692172],[121.308477,23.692537],[121.308475,23.692718],[121.308177,23.692985],[121.307785,23.692981],[121.307591,23.692798],[121.307594,23.692527],[121.307299,23.692614],[121.30701,23.69225],[121.306518,23.692335],[121.305923,23.69287],[121.305921,23.693051],[121.306019,23.693052],[121.306316,23.692784],[121.306512,23.692786],[121.306706,23.692969],[121.307196,23.692975],[121.307583,23.69343]]],[[[121.305726,23.692958],[121.305728,23.692778],[121.305339,23.692503],[121.305336,23.692774],[121.305531,23.692866],[121.305529,23.693047],[121.305723,23.693139],[121.30572,23.69341],[121.305818,23.693411],[121.305824,23.69296],[121.305726,23.692958]]],[[[121.306117,23.693053],[121.306018,23.693142],[121.306116,23.693143],[121.306117,23.693053]]],[[[121.289786,23.697118],[121.289789,23.696937],[121.289297,23.697022],[121.289491,23.697205],[121.289786,23.697118]]],[[[121.289786,23.697118],[121.289785,23.697208],[121.289686,23.697297],[121.289882,23.697299],[121.289884,23.697119],[121.289786,23.697118]]],[[[121.290371,23.697395],[121.290272,23.697484],[121.29037,23.697485],[121.290371,23.697395]]],[[[121.290272,23.697484],[121.290174,23.697483],[121.290274,23.697303],[121.289881,23.697389],[121.289879,23.69757],[121.290072,23.697753],[121.29017,23.697754],[121.290272,23.697484]]],[[[121.29037,23.697485],[121.290268,23.697755],[121.290464,23.697757],[121.290468,23.697486],[121.29037,23.697485]]],[[[121.290267,23.697845],[121.29017,23.697754],[121.290169,23.697844],[121.290267,23.697845]]]]}}]}