{"type":"FeatureCollection","features":[{"type":"Feature","properties":{"kind":"bare_slide","month":"2017-01","area_ha":9.65},"geometry":{"type":"MultiPolygon","coordinates":[[[[121.294568,23.706471],[121.294665,23.706562],[121.294964,23.706205],[121.294769,23.706112],[121.294767,23.706202],[121.294374,23.706288],[121.294181,23.706015],[121.293887,23.706012],[121.293792,23.70583],[121.293594,23.705919],[121.293592,23.706099],[121.29369,23.7061],[121.293588,23.70637],[121.293685,23.706461],[121.294274,23.706468],[121.294272,23.706558],[121.294568,23.706471]]],[[[121.298149,23.710122],[121.297861,23.709668],[121.297467,23.709754],[121.297661,23.709937],[121.297659,23.710117],[121.29795,23.710301],[121.29804,23.710934],[121.298235,23.711026],[121.298335,23.710937],[121.298339,23.710576],[121.298241,23.710575],[121.298344,23.710215],[121.298149,23.710122]],[[121.298149,23.710122],[121.29805,23.710212],[121.298051,23.710121],[121.298149,23.710122]]],[[[121.30184,23.712872],[121.30155,23.712508],[121.301556,23.712056],[121.301459,23.711965],[121.300865,23.71241],[121.300856,23.713132],[121.300954,23.713133],[121.301045,23.713676],[121.30124,23.713768],[121.301334,23.71404],[121.30163,23.713953],[121.301639,23.713231],[121.30193,23.713505],[121.302031,23.713235],[121.302327,23.713148],[121.302037,23.712784],[121.30184,23.712872]],[[121.301838,23.713053],[121.30174,23.713052],[121.30164,23.713141],[121.301742,23.712871],[121.30184,23.712872],[121.301838,23.713053]]],[[[121.299024,23.718259],[121.299026,23.718078],[121.299321,23.718082],[121.299519,23.717903],[121.299622,23.717543],[121.299819,23.717455],[121.299821,23.717274],[121.300118,23.717097],[121.300225,23.716376],[121.300127,23.716375],[121.300033,23.716103],[121.299735,23.716371],[121.299628,23.717092],[121.29953,23.717091],[121.299226,23.71781],[121.29903,23.717808],[121.298732,23.718075],[121.298827,23.718347],[121.299024,23.718259]]],[[[121.30163,23.721538],[121.302024,23.721362],[121.302034,23.72064],[121.302231,23.720552],[121.302238,23.72001],[121.302141,23.719919],[121.301944,23.720007],[121.301939,23.720368],[121.301841,23.720367],[121.301837,23.720638],[121.301639,23.720816],[121.301632,23.721358],[121.301534,23.721357],[121.30163,23.721538]]],[[[121.302162,23.725879],[121.302164,23.725698],[121.30236,23.7257],[121.302359,23.72579],[121.302557,23.725702],[121.302464,23.72525],[121.30276,23.725163],[121.302764,23.724802],[121.302862,23.724803],[121.302872,23.72408],[121.302774,23.724079],[121.302874,23.7239],[121.302777,23.723808],[121.302973,23.723811],[121.303569,23.723275],[121.303863,23.723279],[121.304061,23.7231],[121.304064,23.72292],[121.303967,23.722828],[121.30377,23.722916],[121.303674,23.722735],[121.303872,23.722556],[121.304363,23.722562],[121.304462,23.722472],[121.304464,23.722292],[121.30427,23.722109],[121.303877,23.722195],[121.303876,23.722285],[121.302896,23.722184],[121.302897,23.722094],[121.3027,23.722182],[121.302894,23.722365],[121.302985,23.722908],[121.302497,23.722722],[121.302393,23.723172],[121.302295,23.723171],[121.302384,23.723894],[121.302579,23.723987],[121.302572,23.724529],[121.302474,23.724528],[121.302371,23.724888],[121.302272,23.724977],[121.301979,23.724883],[121.301876,23.725243],[121.30168,23.725241],[121.301578,23.725511],[121.301381,23.725599],[121.301477,23.725781],[121.301869,23.725785],[121.301965,23.725967],[121.302162,23.725879]],[[121.302886,23.722997],[121.302787,23.723086],[121.302788,23.722996],[121.302886,23.722997]]],[[[121.303417,23.727427],[121.303713,23.72725],[121.303719,23.726799],[121.303817,23.7268],[121.303821,23.726529],[121.303919,23.72653],[121.303922,23.726259],[121.303729,23.726076],[121.303533,23.726074],[121.303432,23.726254],[121.303137,23.726341],[121.303231,23.726613],[121.303331,23.726524],[121.303526,23.726616],[121.303523,23.726797],[121.303326,23.726885],[121.30332,23.727336],[121.303417,23.727427]]],[[[121.303213,23.728057],[121.303313,23.727878],[121.303119,23.727695],[121.302923,23.727693],[121.302925,23.727512],[121.302827,23.727511],[121.30283,23.727331],[121.303028,23.727152],[121.302739,23.726788],[121.302838,23.726699],[121.302741,23.726607],[121.302747,23.726156],[121.302553,23.725973],[121.302357,23.725971],[121.302253,23.726421],[121.302642,23.726697],[121.302443,23.726875],[121.302433,23.727688],[121.302628,23.72778],[121.302721,23.728142],[121.303213,23.728057]]]]}},{"type":"Feature","properties":{"kind":"bare_dam","month":"2017-01","area_ha":4.73},"geometry":{"type":"MultiPolygon","coordinates":[[[[121.300556,23.690825],[121.300755,23.690646],[121.300757,23.690466],[121.30027,23.69019],[121.300072,23.690368],[121.300169,23.690459],[121.300069,23.690639],[121.300362,23.690732],[121.30036,23.690823],[121.300556,23.690825]]],[[[121.299568,23.691446],[121.299567,23.691536],[121.299763,23.691539],[121.299863,23.691359],[121.29957,23.691266],[121.299376,23.691083],[121.299379,23.690902],[121.299872,23.690637],[121.299877,23.690276],[121.29978,23.690184],[121.298996,23.690176],[121.298802,23.689993],[121.298904,23.689723],[121.298708,23.689721],[121.298607,23.6899],[121.298117,23.689895],[121.298407,23.690259],[121.2988,23.690173],[121.299187,23.690539],[121.299185,23.69072],[121.298789,23.690986],[121.298785,23.691347],[121.299078,23.691441],[121.299076,23.691531],[121.299568,23.691446]]],[[[121.298762,23.693063],[121.299257,23.692707],[121.299065,23.692434],[121.298867,23.692522],[121.29887,23.692341],[121.299067,23.692253],[121.298973,23.691981],[121.298876,23.69189],[121.29858,23.691977],[121.298579,23.692067],[121.298286,23.691974],[121.298085,23.692333],[121.298182,23.692424],[121.298381,23.692246],[121.298772,23.69234],[121.298769,23.692521],[121.298572,23.692609],[121.298569,23.69288],[121.298762,23.693063]]],[[[121.301101,23.694172],[121.301104,23.693991],[121.30091,23.693809],[121.301009,23.693719],[121.300914,23.693538],[121.300717,23.693536],[121.300617,23.693715],[121.300325,23.693531],[121.300232,23.693169],[121.30043,23.692991],[121.300237,23.692808],[121.300336,23.692719],[121.30024,23.692537],[121.300044,23.692535],[121.299941,23.692895],[121.299645,23.693072],[121.299642,23.693253],[121.299934,23.693437],[121.300029,23.693709],[121.299537,23.693794],[121.299345,23.693521],[121.298953,23.693516],[121.298951,23.693607],[121.298656,23.693694],[121.298752,23.693875],[121.299241,23.693971],[121.29924,23.694061],[121.300025,23.69398],[121.300126,23.6938],[121.300322,23.693802],[121.300321,23.693892],[121.300615,23.693896],[121.300806,23.694259],[121.301101,23.694172]]],[[[121.298718,23.696494],[121.298823,23.695953],[121.29853,23.695859],[121.298431,23.695949],[121.298527,23.69613],[121.29833,23.696128],[121.298234,23.696037],[121.298335,23.695767],[121.29814,23.695675],[121.298041,23.695764],[121.298138,23.695855],[121.298136,23.696036],[121.298037,23.696035],[121.298131,23.696397],[121.298522,23.696491],[121.298521,23.696582],[121.298718,23.696494]]],[[[121.298609,23.697305],[121.298712,23.696945],[121.298419,23.696851],[121.298221,23.69703],[121.298218,23.69721],[121.298412,23.697393],[121.298609,23.697305]]],[[[121.300952,23.698143],[121.301346,23.697967],[121.301349,23.697787],[121.301251,23.697786],[121.301352,23.697516],[121.300766,23.697329],[121.300666,23.697508],[121.30086,23.697691],[121.301154,23.697694],[121.300855,23.698052],[121.300952,23.698143]]]]}},{"type":"Feature","properties":{"kind":"water","month":"2017-01","area_ha":0.1},"geometry":{"type":"Polygon","coordinates":[[[121.311584,23.687334],[121.311586,23.687153],[121.312272,23.68716],[121.312271,23.687251],[121.311584,23.687334]]]}}]}