{"type":"FeatureCollection","features":[{"type":"Feature","properties":{"kind":"bare_slide","month":"2017-10","area_ha":18.11},"geometry":{"type":"MultiPolygon","coordinates":[[[[121.288175,23.71543],[121.287882,23.715337],[121.287781,23.715516],[121.288074,23.71561],[121.288175,23.71543]]],[[[121.289726,23.716802],[121.290219,23.716627],[121.290221,23.716446],[121.289928,23.716353],[121.289929,23.716262],[121.290224,23.716175],[121.290222,23.716356],[121.290417,23.716448],[121.291209,23.715915],[121.291114,23.715643],[121.290916,23.715822],[121.290719,23.71582],[121.29052,23.716088],[121.290324,23.716086],[121.290325,23.715996],[121.290128,23.716084],[121.29013,23.715903],[121.290228,23.715905],[121.290133,23.715633],[121.289936,23.715721],[121.29003,23.716083],[121.289738,23.715899],[121.289644,23.715537],[121.289842,23.715449],[121.289943,23.715179],[121.290139,23.715181],[121.290338,23.715003],[121.290243,23.714731],[121.289753,23.714725],[121.289752,23.714816],[121.289262,23.71481],[121.289162,23.714899],[121.289259,23.714991],[121.289158,23.715261],[121.289256,23.715262],[121.289252,23.715533],[121.28935,23.715534],[121.289347,23.715805],[121.289445,23.715806],[121.28944,23.716167],[121.288556,23.716247],[121.288561,23.715886],[121.288858,23.715709],[121.288765,23.715256],[121.28847,23.715343],[121.28827,23.715612],[121.288074,23.71561],[121.287975,23.715699],[121.288071,23.715881],[121.287873,23.715969],[121.287871,23.716149],[121.288066,23.716242],[121.288064,23.716422],[121.287966,23.716421],[121.288061,23.716603],[121.28865,23.716609],[121.288939,23.716974],[121.289234,23.716887],[121.289329,23.717159],[121.289623,23.717162],[121.289726,23.716802]]],[[[121.290778,23.71889],[121.290679,23.718889],[121.290585,23.718617],[121.291075,23.718623],[121.291074,23.718713],[121.291369,23.718626],[121.290982,23.718261],[121.290984,23.71808],[121.291082,23.718081],[121.290988,23.717809],[121.290594,23.717895],[121.290395,23.718164],[121.289903,23.718249],[121.290579,23.719069],[121.290778,23.71889]]],[[[121.292023,23.721162],[121.292119,23.721343],[121.291823,23.72143],[121.291821,23.721611],[121.292015,23.721794],[121.292312,23.721526],[121.292509,23.721528],[121.292893,23.722165],[121.29309,23.722076],[121.293092,23.721896],[121.293287,23.721988],[121.293486,23.72181],[121.293393,23.721357],[121.293002,23.721263],[121.293005,23.721082],[121.292907,23.721081],[121.292916,23.720359],[121.292819,23.720268],[121.292521,23.720535],[121.292416,23.721076],[121.292023,23.721162]],[[121.292994,23.721895],[121.2929,23.721623],[121.292802,23.721622],[121.292804,23.721441],[121.293095,23.721715],[121.293092,23.721896],[121.292994,23.721895]],[[121.292706,23.72144],[121.292708,23.72126],[121.292806,23.721261],[121.292804,23.721441],[121.292706,23.72144]],[[121.292416,23.721076],[121.292513,23.721167],[121.292415,23.721166],[121.292416,23.721076]]],[[[121.287308,23.721742],[121.287605,23.721474],[121.287512,23.721112],[121.28761,23.721113],[121.287712,23.720843],[121.287518,23.72066],[121.286733,23.720652],[121.286633,23.720831],[121.286827,23.721014],[121.287122,23.720927],[121.286917,23.721647],[121.287308,23.721742]]],[[[121.294432,23.724439],[121.294928,23.723993],[121.294638,23.723719],[121.294738,23.723539],[121.294543,23.723447],[121.294548,23.723086],[121.294842,23.723089],[121.295041,23.722911],[121.295043,23.72273],[121.294946,23.722639],[121.294847,23.722728],[121.29475,23.722637],[121.294356,23.722723],[121.29456,23.722183],[121.294172,23.721818],[121.293874,23.722085],[121.294068,23.722268],[121.294156,23.723082],[121.293864,23.722898],[121.293762,23.723167],[121.294053,23.723442],[121.29425,23.723353],[121.294248,23.723534],[121.294442,23.723717],[121.293847,23.724162],[121.293845,23.724342],[121.294233,23.724708],[121.29443,23.72462],[121.294432,23.724439]]],[[[121.303168,23.723903],[121.303666,23.723367],[121.303577,23.722643],[121.303775,23.722465],[121.30407,23.722468],[121.304169,23.722379],[121.304073,23.722197],[121.303582,23.722282],[121.303583,23.722192],[121.302897,23.722094],[121.302796,23.722364],[121.302894,23.722365],[121.302985,23.722908],[121.302789,23.722906],[121.302693,23.722724],[121.302497,23.722722],[121.302299,23.7229],[121.302295,23.723171],[121.302098,23.723259],[121.302095,23.72344],[121.302193,23.723441],[121.302091,23.723801],[121.302481,23.723986],[121.302472,23.724618],[121.302174,23.724976],[121.301882,23.724792],[121.301683,23.72497],[121.301778,23.725242],[121.301382,23.725509],[121.30138,23.725689],[121.301767,23.726055],[121.302163,23.725788],[121.302165,23.725608],[121.302262,23.725699],[121.302558,23.725612],[121.302365,23.725339],[121.302762,23.724982],[121.302774,23.724079],[121.302677,23.723988],[121.302775,23.723989],[121.302777,23.723808],[121.303168,23.723903]]],[[[121.30336,23.724266],[121.303363,23.723996],[121.303265,23.723994],[121.303266,23.723904],[121.303168,23.723903],[121.303066,23.724263],[121.303164,23.724264],[121.303258,23.724536],[121.303554,23.724449],[121.30336,23.724266]]],[[[121.303552,23.724539],[121.30394,23.724905],[121.303938,23.725085],[121.304133,23.725178],[121.304234,23.724908],[121.303653,23.72436],[121.303552,23.724539]]],[[[121.296767,23.72591],[121.296577,23.725456],[121.296974,23.725099],[121.297075,23.724829],[121.29737,23.724833],[121.297766,23.724476],[121.297674,23.724023],[121.297477,23.724111],[121.297375,23.724381],[121.296886,23.724286],[121.296792,23.724014],[121.296596,23.724011],[121.296199,23.724368],[121.295904,23.724365],[121.295706,23.724543],[121.295802,23.724725],[121.295504,23.724993],[121.295209,23.72508],[121.295204,23.725441],[121.295007,23.725529],[121.295102,23.725711],[121.295594,23.725626],[121.295786,23.725899],[121.295982,23.725901],[121.295984,23.725811],[121.296278,23.725814],[121.296472,23.725997],[121.296767,23.72591]],[[121.296483,23.725094],[121.296384,23.725183],[121.296385,23.725093],[121.296483,23.725094]],[[121.295997,23.724818],[121.295899,23.724816],[121.295901,23.724636],[121.295999,23.724637],[121.295997,23.724818]]],[[[121.302918,23.728054],[121.303216,23.727786],[121.302729,23.72751],[121.302732,23.72733],[121.30293,23.727151],[121.302542,23.726786],[121.302741,23.726607],[121.302744,23.726337],[121.302648,23.726245],[121.30245,23.726333],[121.302256,23.726151],[121.302155,23.72642],[121.301958,23.726508],[121.301955,23.726689],[121.301559,23.726956],[121.301555,23.727317],[121.301749,23.727499],[121.302044,23.727412],[121.302238,23.727595],[121.302235,23.727776],[121.302137,23.727775],[121.302232,23.728047],[121.302918,23.728054]],[[121.302341,23.727235],[121.30244,23.727146],[121.302439,23.727236],[121.302341,23.727235]],[[121.302342,23.727145],[121.302245,23.727053],[121.302343,23.727054],[121.302342,23.727145]],[[121.302049,23.727051],[121.30205,23.726961],[121.301953,23.72687],[121.302246,23.726963],[121.302245,23.727053],[121.302049,23.727051]]],[[[121.30625,23.728271],[121.30596,23.727997],[121.305963,23.727726],[121.305768,23.727634],[121.305771,23.727453],[121.305382,23.727178],[121.305182,23.727447],[121.30528,23.727448],[121.305277,23.727719],[121.305375,23.72772],[121.305371,23.727991],[121.305469,23.727992],[121.305465,23.728353],[121.305659,23.728536],[121.306149,23.728541],[121.30625,23.728271]]]]}}]}