{"type":"FeatureCollection","features":[{"type":"Feature","properties":{"kind":"bare_slide","month":"2017-08","area_ha":34.32},"geometry":{"type":"MultiPolygon","coordinates":[[[[121.294272,23.706558],[121.294665,23.706562],[121.294965,23.706114],[121.29477,23.706022],[121.294668,23.706292],[121.294276,23.706287],[121.294181,23.706015],[121.293887,23.706012],[121.293694,23.705829],[121.293594,23.705919],[121.293592,23.706099],[121.29369,23.7061],[121.293588,23.70637],[121.293782,23.706553],[121.293881,23.706464],[121.294274,23.706468],[121.294272,23.706558]]],[[[121.294169,23.714503],[121.294168,23.714594],[121.294462,23.714597],[121.294662,23.714328],[121.294957,23.714241],[121.294961,23.71397],[121.295353,23.713975],[121.295354,23.713884],[121.295649,23.713797],[121.295653,23.713526],[121.29605,23.71317],[121.296055,23.712808],[121.296153,23.712809],[121.296057,23.712628],[121.29586,23.712716],[121.295857,23.712897],[121.29556,23.713164],[121.295067,23.713339],[121.295161,23.713611],[121.294368,23.714325],[121.294172,23.714323],[121.293978,23.71414],[121.293779,23.714318],[121.293677,23.714678],[121.293871,23.714771],[121.293973,23.714501],[121.294169,23.714503]]],[[[121.289719,23.717344],[121.289818,23.717255],[121.289721,23.717163],[121.289824,23.716803],[121.290414,23.716719],[121.290516,23.716359],[121.29081,23.716362],[121.290912,23.716093],[121.29101,23.716094],[121.290914,23.715912],[121.290422,23.716087],[121.290327,23.715815],[121.290228,23.715905],[121.290131,23.715813],[121.289738,23.715899],[121.289837,23.71581],[121.289742,23.715538],[121.28994,23.71545],[121.290041,23.71518],[121.290337,23.715093],[121.29034,23.714822],[121.290047,23.714729],[121.290048,23.714638],[121.289063,23.714989],[121.289257,23.715171],[121.289253,23.715442],[121.289448,23.715535],[121.289341,23.716256],[121.288947,23.716342],[121.288948,23.716252],[121.288556,23.716247],[121.288362,23.716065],[121.288065,23.716332],[121.288158,23.716694],[121.288456,23.716427],[121.288652,23.716429],[121.288748,23.716611],[121.289042,23.716614],[121.289236,23.716797],[121.28923,23.717248],[121.289719,23.717344]]],[[[121.290479,23.719248],[121.290874,23.718982],[121.290681,23.718799],[121.290683,23.718619],[121.290879,23.718621],[121.290878,23.718711],[121.291074,23.718713],[121.291075,23.718623],[121.291368,23.718716],[121.291467,23.718627],[121.291372,23.718446],[121.291176,23.718443],[121.290982,23.718261],[121.290984,23.71808],[121.291183,23.717902],[121.291379,23.717904],[121.291475,23.718086],[121.29177,23.717998],[121.291576,23.717816],[121.291578,23.717635],[121.291677,23.717636],[121.291581,23.717455],[121.291385,23.717452],[121.291086,23.71781],[121.290692,23.717896],[121.290493,23.718165],[121.29,23.71834],[121.289998,23.718521],[121.290385,23.718886],[121.290284,23.719156],[121.290479,23.719248]]],[[[121.284498,23.719092],[121.284209,23.718727],[121.284012,23.718725],[121.283819,23.718543],[121.283724,23.718271],[121.283429,23.718358],[121.283422,23.718899],[121.283712,23.719173],[121.28391,23.719085],[121.284103,23.719268],[121.284105,23.719178],[121.284498,23.719092]]],[[[121.290285,23.719066],[121.290189,23.718884],[121.289993,23.718882],[121.289893,23.719061],[121.290186,23.719155],[121.290285,23.719066]]],[[[121.282515,23.720695],[121.282813,23.720428],[121.282819,23.719976],[121.282918,23.719887],[121.283309,23.719982],[121.283607,23.719714],[121.283511,23.719532],[121.283216,23.719619],[121.28322,23.719349],[121.283318,23.71935],[121.283222,23.719168],[121.283025,23.719256],[121.283022,23.719437],[121.282824,23.719615],[121.282628,23.719613],[121.28233,23.71988],[121.281938,23.719876],[121.281739,23.720055],[121.281733,23.720506],[121.281927,23.720689],[121.282515,23.720695]]],[[[121.285746,23.721183],[121.285651,23.720911],[121.285848,23.720823],[121.285852,23.720552],[121.28595,23.720553],[121.285757,23.72028],[121.285856,23.720281],[121.285858,23.7201],[121.286251,23.720014],[121.286254,23.719834],[121.286156,23.719833],[121.286257,23.719563],[121.28616,23.719471],[121.285766,23.719648],[121.285763,23.719828],[121.285566,23.719916],[121.285561,23.720278],[121.285464,23.720186],[121.285267,23.720274],[121.28546,23.720547],[121.285064,23.720814],[121.28506,23.721085],[121.285353,23.721178],[121.285449,23.72136],[121.285746,23.721183]]],[[[121.290251,23.721684],[121.290352,23.721414],[121.290449,23.721506],[121.290646,23.721417],[121.290453,23.721235],[121.29046,23.720693],[121.290265,23.720601],[121.290066,23.720779],[121.290063,23.72105],[121.289674,23.720775],[121.289575,23.720864],[121.289668,23.721226],[121.289471,23.721314],[121.289466,23.721675],[121.289661,23.721768],[121.289662,23.721677],[121.290251,23.721684]],[[121.289864,23.721228],[121.289964,23.721139],[121.289962,23.721229],[121.289864,23.721228]]],[[[121.287505,23.721654],[121.287507,23.721473],[121.287803,23.721386],[121.287609,23.721203],[121.287611,23.721023],[121.287807,23.721025],[121.288105,23.720757],[121.288009,23.720576],[121.287811,23.720754],[121.286439,23.720648],[121.286241,23.720827],[121.286236,23.721188],[121.28643,23.721371],[121.286627,23.721283],[121.286629,23.721102],[121.286922,23.721196],[121.287023,23.721016],[121.287219,23.721018],[121.287116,23.721378],[121.287018,23.721377],[121.287015,23.721648],[121.287208,23.721831],[121.287505,23.721654]]],[[[121.29574,23.721925],[121.296038,23.721658],[121.296332,23.721661],[121.296333,23.72157],[121.296626,23.721664],[121.296728,23.721394],[121.296925,23.721306],[121.296927,23.721126],[121.296638,23.720761],[121.296341,23.720938],[121.296436,23.72121],[121.296242,23.721028],[121.296046,23.721026],[121.295943,23.721386],[121.295547,23.721652],[121.29574,23.721925]]],[[[121.293286,23.722079],[121.293583,23.721901],[121.293586,23.72163],[121.293297,23.721266],[121.2931,23.721264],[121.292907,23.721081],[121.292911,23.72072],[121.292716,23.720628],[121.292518,23.720806],[121.29261,23.721259],[121.292414,23.721256],[121.292016,23.721703],[121.292308,23.721887],[121.292402,23.722159],[121.292894,23.722074],[121.293184,23.722348],[121.293286,23.722079]],[[121.292994,23.721895],[121.293091,23.721986],[121.292993,23.721985],[121.292994,23.721895]],[[121.292994,23.721895],[121.292897,23.721803],[121.292995,23.721805],[121.292994,23.721895]]],[[[121.288384,23.721934],[121.288782,23.721487],[121.288978,23.721489],[121.288878,23.721669],[121.289269,23.721763],[121.289268,23.721854],[121.289466,23.721675],[121.289271,23.721583],[121.289275,23.721312],[121.288983,23.721128],[121.288586,23.721485],[121.288293,23.721391],[121.287993,23.72184],[121.288384,23.721934]]],[[[121.295147,23.72228],[121.294952,23.722187],[121.295056,23.721737],[121.295154,23.721738],[121.295058,23.721556],[121.294568,23.721551],[121.294466,23.721821],[121.293975,23.721906],[121.294061,23.72281],[121.293665,23.723076],[121.293663,23.723257],[121.293858,23.723349],[121.293854,23.72362],[121.294049,23.723712],[121.294045,23.724074],[121.293748,23.724251],[121.293746,23.724432],[121.293844,23.724433],[121.293742,23.724702],[121.29384,23.724703],[121.293834,23.725155],[121.294127,23.725248],[121.294223,23.72543],[121.294521,23.725162],[121.294327,23.72498],[121.294329,23.724799],[121.294528,23.724621],[121.294531,23.72435],[121.295025,23.724084],[121.294638,23.723719],[121.294737,23.72363],[121.29464,23.723538],[121.294646,23.723087],[121.294743,23.723178],[121.29494,23.72309],[121.294942,23.72291],[121.295041,23.722911],[121.294948,23.722458],[121.295147,23.72228]],[[121.29495,23.722368],[121.294651,23.722726],[121.294455,23.722724],[121.294558,23.722273],[121.294853,23.722277],[121.29495,23.722368]]],[[[121.300526,23.708343],[121.300431,23.708071],[121.300627,23.708073],[121.301015,23.708438],[121.301408,23.708352],[121.301411,23.708172],[121.301118,23.708078],[121.300827,23.707804],[121.300628,23.707983],[121.300432,23.70798],[121.300142,23.707706],[121.299946,23.707704],[121.299944,23.707794],[121.299553,23.7077],[121.299361,23.707427],[121.298967,23.707513],[121.298964,23.707784],[121.298866,23.707783],[121.298961,23.707964],[121.299158,23.707966],[121.299351,23.708149],[121.299745,23.708063],[121.300132,23.708429],[121.300426,23.708432],[121.300526,23.708343]]],[[[121.301176,23.711149],[121.300984,23.710786],[121.300597,23.71042],[121.300401,23.710418],[121.300403,23.710238],[121.300111,23.710054],[121.300114,23.709873],[121.299239,23.709231],[121.299138,23.709501],[121.299915,23.710052],[121.299816,23.710141],[121.29991,23.710413],[121.300593,23.710691],[121.30059,23.710962],[121.30088,23.711236],[121.301077,23.711238],[121.301176,23.711149]]],[[[121.298241,23.710575],[121.298344,23.710215],[121.298149,23.710122],[121.298056,23.70976],[121.29747,23.709573],[121.297369,23.709753],[121.297855,23.710119],[121.297852,23.7103],[121.298046,23.710483],[121.298039,23.711024],[121.298136,23.711116],[121.298333,23.711027],[121.298339,23.710576],[121.298241,23.710575]]],[[[121.301631,23.713863],[121.301534,23.713772],[121.301643,23.71296],[121.301839,23.712962],[121.301735,23.713413],[121.30193,23.713505],[121.302031,23.713235],[121.302129,23.713236],[121.302134,23.712875],[121.301646,23.712689],[121.301555,23.712146],[121.30136,23.712054],[121.301161,23.712323],[121.300865,23.71241],[121.300863,23.71259],[121.300961,23.712591],[121.300857,23.713042],[121.300955,23.713043],[121.301046,23.713586],[121.301241,23.713678],[121.301238,23.713949],[121.301433,23.714041],[121.301631,23.713863]]],[[[121.297501,23.714721],[121.297504,23.71445],[121.2977,23.714452],[121.297599,23.714722],[121.297793,23.714904],[121.298284,23.71482],[121.298289,23.714458],[121.297998,23.714184],[121.297802,23.714182],[121.297809,23.71364],[121.297712,23.713549],[121.297515,23.713637],[121.297409,23.714268],[121.296914,23.714624],[121.296911,23.714804],[121.297106,23.714897],[121.297107,23.714807],[121.297501,23.714721]]],[[[121.296907,23.715166],[121.296804,23.715526],[121.297096,23.715709],[121.2972,23.715259],[121.297102,23.715258],[121.297008,23.714896],[121.296811,23.714984],[121.296809,23.715164],[121.296907,23.715166]]],[[[121.299025,23.718169],[121.29942,23.717992],[121.299422,23.717812],[121.299719,23.717635],[121.299821,23.717274],[121.300118,23.717097],[121.300125,23.716555],[121.300223,23.716557],[121.300129,23.716285],[121.300424,23.716198],[121.30033,23.715835],[121.299836,23.716191],[121.29983,23.716642],[121.299732,23.716641],[121.299627,23.717182],[121.299528,23.717181],[121.299325,23.717721],[121.29903,23.717808],[121.29873,23.718256],[121.298925,23.718348],[121.299025,23.718169]]],[[[121.298719,23.719068],[121.298822,23.718708],[121.29892,23.718709],[121.298827,23.718347],[121.298331,23.718793],[121.298036,23.71879],[121.298039,23.718609],[121.298137,23.71861],[121.298041,23.718429],[121.297644,23.718786],[121.297739,23.719058],[121.298425,23.719065],[121.298426,23.718975],[121.298719,23.719068]]],[[[121.29703,23.720765],[121.297233,23.720226],[121.297135,23.720225],[121.297142,23.719683],[121.296947,23.719591],[121.296749,23.719769],[121.296745,23.72004],[121.296647,23.720039],[121.296841,23.720222],[121.296839,23.720402],[121.296541,23.72067],[121.29703,23.720765]]],[[[121.302024,23.721362],[121.30203,23.720911],[121.301933,23.720819],[121.302231,23.720552],[121.302237,23.7201],[121.30214,23.720009],[121.301943,23.720097],[121.301938,23.720458],[121.30184,23.720457],[121.301736,23.720907],[121.301638,23.720906],[121.301632,23.721358],[121.301925,23.721451],[121.301924,23.721542],[121.302121,23.721454],[121.302024,23.721362]]],[[[121.303568,23.723366],[121.303569,23.723275],[121.303864,23.723188],[121.303866,23.723008],[121.303671,23.722915],[121.303675,23.722644],[121.304363,23.722562],[121.304562,23.722293],[121.304465,23.722202],[121.304073,23.722197],[121.304072,23.722288],[121.302896,23.722184],[121.302801,23.722003],[121.302604,23.722001],[121.302314,23.721727],[121.302213,23.721906],[121.302503,23.72227],[121.302499,23.722541],[121.302989,23.722637],[121.302983,23.723088],[121.30308,23.72318],[121.302785,23.723176],[121.302887,23.722907],[121.302693,23.722724],[121.302398,23.722811],[121.302392,23.723262],[121.302293,23.723352],[121.302391,23.723353],[121.302384,23.723894],[121.302579,23.723987],[121.302571,23.724619],[121.302472,23.724618],[121.30237,23.724978],[121.301977,23.724974],[121.301876,23.725243],[121.301579,23.725421],[121.301477,23.725781],[121.301767,23.726055],[121.301963,23.726057],[121.302162,23.725879],[121.302164,23.725698],[121.30236,23.7257],[121.302359,23.72579],[121.302557,23.725702],[121.302463,23.72534],[121.30276,23.725163],[121.302764,23.724802],[121.302862,23.724803],[121.302777,23.723808],[121.303075,23.723541],[121.303568,23.723366]],[[121.303075,23.723541],[121.302978,23.72345],[121.303076,23.723451],[121.303075,23.723541]]],[[[121.296671,23.725728],[121.296676,23.725367],[121.296973,23.725189],[121.296975,23.725009],[121.297173,23.72483],[121.297368,23.724923],[121.297865,23.724477],[121.29787,23.724025],[121.297675,23.723933],[121.297473,23.724382],[121.297179,23.724379],[121.297084,23.724197],[121.29679,23.724104],[121.296892,23.723834],[121.296601,23.72356],[121.296501,23.723739],[121.296599,23.723741],[121.296692,23.724103],[121.295607,23.724633],[121.295701,23.724905],[121.295305,23.725171],[121.295201,23.725621],[121.295298,23.725713],[121.295789,23.725718],[121.295884,23.7259],[121.29618,23.725813],[121.296179,23.725903],[121.296473,23.725906],[121.296472,23.725997],[121.296767,23.72591],[121.296769,23.725729],[121.296671,23.725728]],[[121.2959,23.724726],[121.296096,23.724728],[121.296095,23.724819],[121.295899,23.724816],[121.2959,23.724726]]],[[[121.303018,23.727965],[121.303016,23.728055],[121.303213,23.728057],[121.303313,23.727878],[121.30302,23.727784],[121.302729,23.72751],[121.302928,23.727332],[121.302734,23.727149],[121.302737,23.726878],[121.302542,23.726786],[121.302741,23.726607],[121.302743,23.726427],[121.302646,23.726335],[121.302449,23.726424],[121.302451,23.726243],[121.302256,23.726151],[121.302157,23.72624],[121.302253,23.726421],[121.301757,23.726867],[121.301555,23.727317],[121.301749,23.727499],[121.301745,23.72777],[121.302136,23.727865],[121.302232,23.728047],[121.302721,23.728142],[121.302722,23.728052],[121.303018,23.727965]],[[121.302342,23.727145],[121.302439,23.727236],[121.302341,23.727235],[121.302342,23.727145]],[[121.302342,23.727145],[121.302049,23.727051],[121.302051,23.726871],[121.302343,23.727054],[121.302342,23.727145]]]]}},{"type":"Feature","properties":{"kind":"bare_dam","month":"2017-08","area_ha":14.92},"geometry":{"type":"MultiPolygon","coordinates":[[[[121.299972,23.690548],[121.299874,23.690546],[121.29978,23.690184],[121.299289,23.690269],[121.299675,23.690725],[121.299871,23.690727],[121.299972,23.690548]]],[[[121.299958,23.691631],[121.300156,23.691453],[121.30006,23.691271],[121.299765,23.691358],[121.299767,23.691177],[121.299376,23.691083],[121.299281,23.690901],[121.298791,23.690896],[121.298691,23.690985],[121.298689,23.691166],[121.298787,23.691167],[121.298687,23.691346],[121.29898,23.69144],[121.298978,23.69153],[121.29947,23.691445],[121.299469,23.691535],[121.299958,23.691631]]],[[[121.299058,23.692976],[121.299353,23.692889],[121.299547,23.693071],[121.299646,23.692982],[121.299554,23.69253],[121.299752,23.692351],[121.299558,23.692168],[121.299068,23.692163],[121.299071,23.691982],[121.298877,23.6918],[121.298678,23.691978],[121.298286,23.691974],[121.298085,23.692333],[121.29828,23.692425],[121.298381,23.692246],[121.298577,23.692248],[121.298771,23.692431],[121.298664,23.693062],[121.298957,23.693155],[121.299058,23.692976]],[[121.299257,23.692707],[121.299062,23.692614],[121.299064,23.692524],[121.29926,23.692526],[121.299257,23.692707]],[[121.299064,23.692524],[121.298967,23.692433],[121.299065,23.692434],[121.299064,23.692524]]],[[[121.299829,23.693977],[121.300025,23.69398],[121.300218,23.694253],[121.300513,23.694165],[121.300224,23.693801],[121.29983,23.693887],[121.299346,23.69343],[121.298855,23.693515],[121.298753,23.693785],[121.298655,23.693784],[121.298751,23.693966],[121.299436,23.694063],[121.29963,23.694246],[121.299827,23.694158],[121.299829,23.693977]]],[[[121.298349,23.694684],[121.298555,23.693963],[121.298263,23.69378],[121.29816,23.69414],[121.297865,23.694227],[121.298059,23.694409],[121.297855,23.694949],[121.297462,23.695035],[121.297753,23.695309],[121.297749,23.69558],[121.297553,23.695578],[121.297453,23.695757],[121.297841,23.696032],[121.297839,23.696213],[121.298033,23.696396],[121.298123,23.697029],[121.298316,23.697212],[121.298313,23.697482],[121.298508,23.697575],[121.298309,23.697753],[121.298304,23.698205],[121.298205,23.698204],[121.298103,23.698564],[121.298588,23.69893],[121.298787,23.698752],[121.298692,23.69848],[121.298889,23.698392],[121.298893,23.698121],[121.298991,23.698122],[121.2987,23.697848],[121.298703,23.697667],[121.299189,23.697944],[121.299289,23.697854],[121.299193,23.697673],[121.299488,23.697586],[121.299592,23.697135],[121.299494,23.697134],[121.299498,23.696863],[121.299401,23.696772],[121.299203,23.69686],[121.29911,23.696498],[121.298915,23.696405],[121.299025,23.695504],[121.29883,23.695411],[121.298832,23.695231],[121.298542,23.694957],[121.298249,23.694863],[121.298251,23.694682],[121.298349,23.694684]],[[121.298703,23.697667],[121.298606,23.697576],[121.298704,23.697577],[121.298703,23.697667]],[[121.298346,23.694954],[121.298246,23.695044],[121.298248,23.694953],[121.298346,23.694954]],[[121.298515,23.697033],[121.298418,23.696942],[121.298516,23.696943],[121.298515,23.697033]],[[121.298425,23.6964],[121.298328,23.696309],[121.298426,23.69631],[121.298425,23.6964]]],[[[121.295843,23.6989],[121.295745,23.698899],[121.295649,23.698717],[121.295452,23.698805],[121.295546,23.699077],[121.295743,23.699079],[121.295843,23.6989]]],[[[121.296723,23.69909],[121.296431,23.698906],[121.296337,23.698635],[121.296141,23.698632],[121.296142,23.698542],[121.295748,23.698628],[121.295843,23.6989],[121.296138,23.698813],[121.296525,23.699269],[121.296723,23.69909]]],[[[121.298669,23.700286],[121.298865,23.700288],[121.298864,23.700378],[121.299061,23.70029],[121.298871,23.699836],[121.298773,23.699835],[121.298779,23.699384],[121.299076,23.699116],[121.298982,23.698844],[121.298585,23.699201],[121.298581,23.699472],[121.298484,23.699381],[121.298287,23.699469],[121.298477,23.699922],[121.298379,23.699921],[121.298376,23.700192],[121.298177,23.70037],[121.298568,23.700465],[121.298669,23.700286]]],[[[121.312755,23.687708],[121.312853,23.687709],[121.31276,23.687346],[121.312468,23.687163],[121.312471,23.686982],[121.31218,23.686708],[121.311984,23.686706],[121.311983,23.686796],[121.311396,23.686699],[121.311296,23.686789],[121.311393,23.68688],[121.311389,23.687241],[121.311291,23.68724],[121.311288,23.687421],[121.311386,23.687422],[121.311285,23.687692],[121.311382,23.687783],[121.311579,23.687695],[121.311484,23.687423],[121.311582,23.687424],[121.311684,23.687154],[121.312271,23.687251],[121.312465,23.687433],[121.312363,23.687703],[121.312461,23.687704],[121.312556,23.687976],[121.312753,23.687888],[121.312755,23.687708]]],[[[121.303891,23.690771],[121.303598,23.690678],[121.303405,23.690405],[121.303111,23.690401],[121.303112,23.690311],[121.303701,23.690318],[121.303796,23.690499],[121.303994,23.690411],[121.303801,23.690138],[121.303312,23.690042],[121.303313,23.689952],[121.302921,23.689948],[121.302822,23.690037],[121.302916,23.690309],[121.30282,23.690218],[121.302427,23.690213],[121.302426,23.690304],[121.302133,23.69021],[121.302034,23.690299],[121.30213,23.690481],[121.302229,23.690392],[121.302425,23.690394],[121.302424,23.690484],[121.302915,23.690399],[121.303011,23.690581],[121.303207,23.690583],[121.3034,23.690856],[121.303694,23.690859],[121.303693,23.69095],[121.303891,23.690771]]],[[[121.300854,23.690557],[121.300952,23.690558],[121.300855,23.690467],[121.300956,23.690287],[121.300762,23.690105],[121.300566,23.690103],[121.300565,23.690193],[121.300174,23.690098],[121.299975,23.690277],[121.300069,23.690639],[121.300555,23.690915],[121.300551,23.691276],[121.300453,23.691275],[121.300548,23.691457],[121.300945,23.6911],[121.30124,23.691013],[121.301531,23.691287],[121.301429,23.691557],[121.301818,23.691832],[121.301918,23.691653],[121.30182,23.691651],[121.301727,23.691289],[121.301924,23.691201],[121.301927,23.691021],[121.301634,23.690927],[121.301441,23.690654],[121.301245,23.690652],[121.301047,23.69083],[121.301048,23.69074],[121.300852,23.690738],[121.300854,23.690557]],[[121.301145,23.690831],[121.301242,23.690923],[121.301143,23.690922],[121.301145,23.690831]]],[[[121.305944,23.691245],[121.305651,23.691152],[121.305352,23.69151],[121.305546,23.691692],[121.30584,23.691695],[121.305944,23.691245]]],[[[121.304643,23.693308],[121.304842,23.693039],[121.304651,23.692676],[121.304455,23.692674],[121.304456,23.692583],[121.304161,23.69267],[121.303968,23.692397],[121.303673,23.692484],[121.303666,23.693026],[121.303859,23.693209],[121.304154,23.693212],[121.304249,23.693394],[121.304643,23.693308]]],[[[121.302439,23.696896],[121.302732,23.696989],[121.302733,23.696899],[121.303028,23.696812],[121.302935,23.69645],[121.303032,23.696541],[121.303229,23.696453],[121.303234,23.696092],[121.303431,23.696003],[121.303337,23.695732],[121.303042,23.695728],[121.302844,23.695907],[121.30294,23.696088],[121.302744,23.696086],[121.302446,23.696354],[121.302444,23.696534],[121.302147,23.696712],[121.302046,23.696982],[121.302339,23.697075],[121.302439,23.696896]]],[[[121.30018,23.697142],[121.300082,23.697141],[121.300086,23.69687],[121.299794,23.696686],[121.29969,23.697136],[121.299884,23.697319],[121.30008,23.697321],[121.30018,23.697142]]],[[[121.300562,23.697959],[121.30066,23.69796],[121.300755,23.698232],[121.301049,23.698235],[121.301644,23.6977],[121.301646,23.697519],[121.301453,23.697336],[121.301353,23.697425],[121.300962,23.697331],[121.300665,23.697599],[121.300761,23.69778],[121.300562,23.697959]],[[121.300957,23.697782],[121.300958,23.697692],[121.301154,23.697694],[121.301152,23.697875],[121.300759,23.69787],[121.300761,23.69778],[121.300957,23.697782]]]]}},{"type":"Feature","properties":{"kind":"water","month":"2017-08","area_ha":0.21},"geometry":{"type":"MultiPolygon","coordinates":[[[[121.308912,23.689201],[121.30911,23.689022],[121.309212,23.688752],[121.309016,23.68875],[121.308914,23.68902],[121.308717,23.689108],[121.308716,23.689199],[121.308912,23.689201]]],[[[121.293491,23.698784],[121.293492,23.698693],[121.293687,23.698786],[121.293688,23.698696],[121.293982,23.698699],[121.293984,23.698609],[121.293297,23.698601],[121.293198,23.69869],[121.293197,23.698781],[121.293491,23.698784]]]]}}]}