{"type":"FeatureCollection","features":[{"type":"Feature","properties":{"kind":"bare_slide","month":"2017-11","area_ha":74.22},"geometry":{"type":"MultiPolygon","coordinates":[[[[121.299216,23.703452],[121.299022,23.703269],[121.298937,23.702275],[121.298839,23.702274],[121.298949,23.701372],[121.298753,23.70137],[121.298657,23.701188],[121.298265,23.701184],[121.298162,23.701544],[121.298356,23.701727],[121.298059,23.701904],[121.298057,23.702085],[121.298155,23.702086],[121.298247,23.702538],[121.298345,23.70254],[121.29834,23.702991],[121.298438,23.702992],[121.298531,23.703354],[121.298628,23.703446],[121.298825,23.703357],[121.298823,23.703538],[121.299017,23.703721],[121.299214,23.703633],[121.299216,23.703452]]],[[[121.298885,23.706338],[121.298991,23.705707],[121.299189,23.705529],[121.298997,23.705256],[121.298701,23.705343],[121.2987,23.705433],[121.298406,23.70543],[121.298205,23.705789],[121.298108,23.705697],[121.297715,23.705783],[121.297807,23.706236],[121.298102,23.706149],[121.298198,23.70633],[121.298492,23.706334],[121.298587,23.706606],[121.298885,23.706338]]],[[[121.297977,23.708224],[121.29798,23.708044],[121.298078,23.708045],[121.297983,23.707773],[121.298083,23.707684],[121.297792,23.70741],[121.2973,23.707494],[121.297198,23.707855],[121.297295,23.707946],[121.297394,23.707857],[121.297785,23.707951],[121.297882,23.708043],[121.297879,23.708223],[121.297781,23.708222],[121.297876,23.708494],[121.298073,23.708406],[121.298075,23.708225],[121.297977,23.708224]],[[121.297395,23.707766],[121.297494,23.707677],[121.297493,23.707767],[121.297395,23.707766]]],[[[121.297676,23.708763],[121.297775,23.708674],[121.29768,23.708492],[121.297384,23.708579],[121.29748,23.708761],[121.297676,23.708763]]],[[[121.298144,23.710484],[121.298247,23.710124],[121.297666,23.709575],[121.29747,23.709573],[121.297474,23.709212],[121.297376,23.709211],[121.29748,23.708761],[121.297285,23.708668],[121.297181,23.709119],[121.296887,23.709115],[121.296787,23.709295],[121.297174,23.70966],[121.29737,23.709662],[121.297466,23.709844],[121.297759,23.709938],[121.297754,23.710299],[121.297949,23.710391],[121.298043,23.710753],[121.29824,23.710665],[121.298242,23.710485],[121.298144,23.710484]]],[[[121.29326,23.71657],[121.293558,23.716212],[121.293463,23.716031],[121.293069,23.716117],[121.292374,23.716831],[121.291981,23.716827],[121.291692,23.716463],[121.2912,23.716547],[121.291202,23.716457],[121.290909,23.716364],[121.290911,23.716183],[121.291307,23.715916],[121.29131,23.715646],[121.291017,23.715552],[121.29062,23.715909],[121.290424,23.715907],[121.290525,23.715727],[121.290234,23.715453],[121.290038,23.715451],[121.290139,23.715181],[121.290436,23.715004],[121.290438,23.714823],[121.290148,23.714549],[121.289755,23.714545],[121.289754,23.714635],[121.289363,23.714541],[121.289362,23.714631],[121.288576,23.714712],[121.28858,23.714442],[121.288189,23.714347],[121.28829,23.714077],[121.288,23.713803],[121.287316,23.713615],[121.287323,23.713073],[121.287032,23.712799],[121.286836,23.712797],[121.28674,23.712615],[121.286544,23.712613],[121.286743,23.712435],[121.286745,23.712254],[121.286352,23.71234],[121.286251,23.712519],[121.285957,23.712516],[121.285857,23.712696],[121.285562,23.712692],[121.285462,23.712872],[121.285266,23.71287],[121.28604,23.713691],[121.286237,23.713603],[121.286239,23.713422],[121.286438,23.713244],[121.28683,23.713248],[121.287024,23.713431],[121.286923,23.713611],[121.287312,23.713886],[121.287309,23.714157],[121.287504,23.714249],[121.287501,23.71443],[121.287105,23.714696],[121.287102,23.714967],[121.287004,23.714966],[121.2871,23.715148],[121.287394,23.715151],[121.287587,23.715334],[121.287689,23.715064],[121.288086,23.714707],[121.28838,23.71471],[121.288574,23.714893],[121.288567,23.715435],[121.288368,23.715613],[121.287975,23.715699],[121.288164,23.716243],[121.28885,23.716251],[121.288946,23.716432],[121.289439,23.716257],[121.289534,23.716439],[121.290025,23.716444],[121.290121,23.716626],[121.290415,23.716629],[121.290608,23.716812],[121.290601,23.717353],[121.290403,23.717532],[121.290109,23.717529],[121.290007,23.717798],[121.290492,23.718255],[121.29069,23.718077],[121.291573,23.718087],[121.291862,23.718451],[121.292156,23.718454],[121.29235,23.718637],[121.292345,23.718998],[121.29195,23.719265],[121.291946,23.719535],[121.291848,23.719534],[121.291846,23.719715],[121.292039,23.719898],[121.292335,23.719811],[121.292338,23.71954],[121.292537,23.719361],[121.292733,23.719364],[121.293022,23.719728],[121.293218,23.71973],[121.293516,23.719463],[121.293032,23.719006],[121.292641,23.718911],[121.292745,23.718461],[121.292551,23.718278],[121.292355,23.718276],[121.292553,23.718097],[121.29256,23.717556],[121.292366,23.717373],[121.292759,23.717377],[121.292854,23.717559],[121.293149,23.717562],[121.293446,23.717295],[121.293453,23.716753],[121.293553,23.716664],[121.29326,23.71657]],[[121.293258,23.71666],[121.293062,23.716658],[121.293063,23.716568],[121.29326,23.71657],[121.293258,23.71666]]],[[[121.296184,23.717957],[121.296378,23.71814],[121.296478,23.71796],[121.296283,23.717868],[121.296184,23.717957]]],[[[121.296796,23.716158],[121.296988,23.716431],[121.297282,23.716434],[121.29728,23.716614],[121.297573,23.716708],[121.297571,23.716889],[121.297669,23.71689],[121.297567,23.717159],[121.297665,23.71716],[121.297759,23.717523],[121.297561,23.717611],[121.297558,23.717882],[121.297066,23.717967],[121.29726,23.718149],[121.297257,23.71842],[121.297452,23.718513],[121.297447,23.718874],[121.297248,23.719052],[121.296954,23.719049],[121.296854,23.719228],[121.29656,23.719225],[121.296457,23.719585],[121.296258,23.719764],[121.295964,23.71976],[121.295863,23.72003],[121.296153,23.720304],[121.296349,23.720306],[121.29645,23.720127],[121.29743,23.720138],[121.297624,23.72032],[121.297618,23.720772],[121.297813,23.720864],[121.297811,23.721045],[121.297613,23.721223],[121.297024,23.721217],[121.296735,23.720852],[121.296537,23.720941],[121.296828,23.721215],[121.296825,23.721486],[121.297019,23.721578],[121.297016,23.721849],[121.297211,23.721941],[121.297205,23.722393],[121.297498,23.722486],[121.297598,23.722307],[121.297992,23.722221],[121.297999,23.721679],[121.297804,23.721587],[121.297806,23.721406],[121.298203,23.721049],[121.298596,23.721054],[121.298691,23.721235],[121.298985,23.721238],[121.298984,23.721329],[121.29918,23.721331],[121.299379,23.721152],[121.299382,23.720882],[121.29948,23.720883],[121.299386,23.720611],[121.299583,23.720523],[121.299586,23.720342],[121.299392,23.720159],[121.299789,23.719803],[121.299595,23.71962],[121.299399,23.719618],[121.299499,23.719438],[121.299207,23.719254],[121.299117,23.718621],[121.299413,23.718534],[121.299513,23.718355],[121.299806,23.718448],[121.299807,23.718358],[121.300298,23.718363],[121.300397,23.718274],[121.3004,23.718003],[121.300499,23.718004],[121.300412,23.7171],[121.300511,23.717011],[121.300316,23.716919],[121.30032,23.716648],[121.300222,23.716647],[121.300228,23.716195],[121.300327,23.716106],[121.30023,23.716015],[121.299837,23.716101],[121.299643,23.715918],[121.299544,23.716007],[121.298563,23.715996],[121.298079,23.71554],[121.298082,23.715269],[121.297789,23.715175],[121.297988,23.714997],[121.297991,23.714726],[121.2977,23.714452],[121.297504,23.71445],[121.297313,23.714086],[121.296722,23.714261],[121.296715,23.714802],[121.296617,23.714801],[121.296615,23.714982],[121.296713,23.714983],[121.296611,23.715253],[121.296708,23.715344],[121.296512,23.715342],[121.296416,23.71516],[121.296317,23.715249],[121.295926,23.715155],[121.295927,23.715064],[121.295828,23.715154],[121.295534,23.71515],[121.295535,23.71506],[121.294945,23.715144],[121.294655,23.71487],[121.294459,23.714868],[121.294259,23.715136],[121.293868,23.715042],[121.294066,23.714863],[121.293973,23.714501],[121.294169,23.714503],[121.294368,23.714325],[121.294176,23.713962],[121.293779,23.714318],[121.293677,23.714678],[121.293283,23.714764],[121.293379,23.714946],[121.293183,23.714944],[121.292989,23.714761],[121.292887,23.715031],[121.29279,23.71494],[121.292495,23.715027],[121.292304,23.714663],[121.292108,23.714661],[121.291909,23.71484],[121.291812,23.714748],[121.291517,23.714835],[121.291806,23.7152],[121.292199,23.715204],[121.292197,23.715294],[121.292394,23.715296],[121.292592,23.715118],[121.292785,23.715391],[121.293373,23.715397],[121.29347,23.715489],[121.293768,23.715221],[121.293763,23.715582],[121.293861,23.715583],[121.293662,23.715762],[121.293758,23.715944],[121.293857,23.715854],[121.294348,23.71586],[121.294443,23.716041],[121.294543,23.715952],[121.295033,23.715958],[121.29513,23.716049],[121.295127,23.71623],[121.295322,23.716322],[121.29522,23.716682],[121.295705,23.717049],[121.295703,23.717229],[121.295306,23.717586],[121.29511,23.717584],[121.295009,23.717763],[121.29452,23.717668],[121.29442,23.717847],[121.294125,23.717934],[121.29412,23.718295],[121.294315,23.718388],[121.294211,23.718838],[121.294504,23.718932],[121.294503,23.719022],[121.295097,23.718577],[121.295782,23.718675],[121.296179,23.718318],[121.296181,23.718137],[121.295888,23.718044],[121.295788,23.718223],[121.295098,23.718487],[121.295002,23.718305],[121.2953,23.718037],[121.295988,23.717955],[121.296088,23.717775],[121.296283,23.717868],[121.296484,23.717509],[121.29668,23.717511],[121.296871,23.717874],[121.297069,23.717786],[121.297071,23.717605],[121.296682,23.71733],[121.296685,23.71715],[121.296491,23.716967],[121.296494,23.716696],[121.296792,23.716428],[121.2966,23.716155],[121.296796,23.716158]],[[121.2966,23.716155],[121.296503,23.716064],[121.296601,23.716065],[121.2966,23.716155]],[[121.298403,23.720781],[121.298502,23.720691],[121.298501,23.720782],[121.298403,23.720781]],[[121.298796,23.720695],[121.298992,23.720697],[121.298991,23.720787],[121.298795,23.720785],[121.298796,23.720695]],[[121.298248,23.717618],[121.298446,23.71744],[121.29874,23.717443],[121.298841,23.717264],[121.299233,23.717268],[121.299427,23.717451],[121.29942,23.717992],[121.299221,23.718171],[121.298437,23.718162],[121.298243,23.71798],[121.298248,23.717618]],[[121.297595,23.714993],[121.297695,23.714903],[121.297693,23.714994],[121.297595,23.714993]],[[121.2974,23.7149],[121.2975,23.714811],[121.297498,23.714901],[121.2974,23.7149]]],[[[121.282133,23.719969],[121.28203,23.720329],[121.281836,23.720146],[121.281639,23.720234],[121.281733,23.720506],[121.282024,23.72078],[121.28222,23.720782],[121.282419,23.720604],[121.282614,23.720696],[121.282715,23.720427],[121.282813,23.720428],[121.28272,23.720065],[121.282918,23.719887],[121.28321,23.720071],[121.283608,23.719624],[121.283511,23.719532],[121.283216,23.719619],[121.283218,23.719439],[121.283024,23.719346],[121.282824,23.719615],[121.282628,23.719613],[121.282429,23.719791],[121.282427,23.719972],[121.28233,23.71988],[121.282133,23.719969]],[[121.282525,23.719973],[121.282523,23.720154],[121.282326,23.720151],[121.282328,23.720061],[121.282525,23.719973]]],[[[121.294951,23.722278],[121.29525,23.72192],[121.295641,23.722014],[121.295642,23.721924],[121.295937,23.721837],[121.295647,23.721563],[121.29565,23.721292],[121.295456,23.721109],[121.29526,23.721107],[121.295062,23.721286],[121.294959,23.721646],[121.294665,23.721642],[121.294466,23.721821],[121.294755,23.722275],[121.294951,23.722278]]],[[[121.293959,23.723079],[121.293468,23.723164],[121.293475,23.722623],[121.293769,23.722626],[121.293968,23.722447],[121.293874,23.722085],[121.293676,23.722264],[121.29348,23.722261],[121.293379,23.722441],[121.293183,23.722439],[121.293083,23.722618],[121.292887,23.722616],[121.292694,23.722343],[121.292497,23.722431],[121.292487,23.723153],[121.292585,23.723155],[121.292485,23.723334],[121.292679,23.723517],[121.29307,23.723611],[121.293068,23.723792],[121.292869,23.72397],[121.293064,23.724063],[121.293159,23.724335],[121.293355,23.724337],[121.293839,23.724794],[121.294036,23.724706],[121.29404,23.724435],[121.293846,23.724252],[121.294042,23.724254],[121.294241,23.724076],[121.294145,23.723894],[121.294442,23.723717],[121.294347,23.723445],[121.294743,23.723178],[121.294749,23.722727],[121.294456,23.722633],[121.294458,23.722453],[121.294263,23.72236],[121.294061,23.72281],[121.294354,23.722903],[121.294353,23.722993],[121.294255,23.722992],[121.294253,23.723173],[121.293958,23.72317],[121.293959,23.723079]],[[121.294146,23.723804],[121.294046,23.723983],[121.293752,23.72398],[121.293854,23.72362],[121.294051,23.723622],[121.294048,23.723803],[121.294146,23.723804]],[[121.294354,23.722903],[121.294453,23.722814],[121.294452,23.722904],[121.294354,23.722903]],[[121.293359,23.723976],[121.293457,23.723977],[121.293455,23.724157],[121.293357,23.724156],[121.293359,23.723976]]],[[[121.298227,23.726738],[121.29784,23.726373],[121.297847,23.725831],[121.296869,23.72564],[121.296776,23.725187],[121.297173,23.72483],[121.297468,23.724834],[121.297568,23.724654],[121.297862,23.724657],[121.29816,23.72439],[121.298063,23.724298],[121.298169,23.723668],[121.298565,23.723401],[121.298858,23.723495],[121.299256,23.723047],[121.29916,23.722866],[121.298866,23.722863],[121.298766,23.723042],[121.297981,23.723033],[121.297886,23.722852],[121.297591,23.722849],[121.297496,23.722667],[121.2973,23.722665],[121.297199,23.722844],[121.296905,23.722841],[121.296706,23.723019],[121.296701,23.723471],[121.296603,23.72347],[121.296695,23.723922],[121.296497,23.72401],[121.296494,23.724281],[121.296396,23.72428],[121.29659,23.724463],[121.296585,23.724824],[121.296291,23.724821],[121.296292,23.72473],[121.295702,23.724814],[121.295601,23.725084],[121.295405,23.725082],[121.295205,23.725351],[121.294127,23.725248],[121.29383,23.725516],[121.293437,23.725512],[121.293436,23.725602],[121.293142,23.725599],[121.293141,23.725689],[121.292848,23.725595],[121.292747,23.725775],[121.292551,23.725773],[121.292254,23.72604],[121.292251,23.726221],[121.292445,23.726404],[121.293525,23.726325],[121.293527,23.726145],[121.29392,23.726149],[121.293922,23.725969],[121.29451,23.725975],[121.294513,23.725794],[121.294905,23.725799],[121.295005,23.725619],[121.295301,23.725532],[121.295493,23.725805],[121.295297,23.725803],[121.295197,23.725983],[121.295491,23.725986],[121.295489,23.726166],[121.295881,23.726171],[121.295879,23.726351],[121.296075,23.726353],[121.296072,23.726534],[121.296465,23.726538],[121.296462,23.726719],[121.296658,23.726721],[121.296656,23.726902],[121.297244,23.726908],[121.297247,23.726728],[121.298227,23.726738]]],[[[121.299195,23.705077],[121.299,23.704985],[121.2989,23.705164],[121.299095,23.705257],[121.299195,23.705077]]],[[[121.299458,23.707518],[121.298774,23.70733],[121.29858,23.707147],[121.298583,23.706876],[121.298681,23.706878],[121.298586,23.706696],[121.298191,23.706872],[121.298385,23.707055],[121.298478,23.707417],[121.298869,23.707512],[121.298966,23.707603],[121.298866,23.707783],[121.29935,23.708239],[121.299547,23.708151],[121.299551,23.70788],[121.299649,23.707881],[121.299455,23.707699],[121.299458,23.707518]]],[[[121.29984,23.708245],[121.300232,23.708339],[121.30043,23.708161],[121.300432,23.70798],[121.300139,23.707887],[121.30014,23.707797],[121.299748,23.707792],[121.299647,23.708062],[121.29984,23.708245]]],[[[121.301465,23.711513],[121.301175,23.711239],[121.301177,23.711059],[121.300982,23.710966],[121.300984,23.710786],[121.30011,23.710144],[121.300114,23.709873],[121.299629,23.709416],[121.299238,23.709322],[121.299138,23.709501],[121.299428,23.709775],[121.299721,23.709869],[121.299814,23.710321],[121.300592,23.710781],[121.300587,23.711143],[121.300979,23.711237],[121.301267,23.711692],[121.301465,23.711513]]],[[[121.301737,23.713232],[121.301839,23.712962],[121.301548,23.712688],[121.301456,23.712236],[121.301359,23.712144],[121.300966,23.71223],[121.300763,23.71277],[121.301056,23.712863],[121.301053,23.713044],[121.301248,23.713136],[121.301147,23.713406],[121.301538,23.713501],[121.301639,23.713231],[121.301737,23.713232]]],[[[121.301407,23.716028],[121.301313,23.715666],[121.301117,23.715663],[121.301118,23.715573],[121.300823,23.71566],[121.30082,23.715931],[121.300918,23.715932],[121.301012,23.716204],[121.301208,23.716206],[121.301407,23.716028]]],[[[121.301005,23.716746],[121.300908,23.716654],[121.301006,23.716655],[121.301109,23.716295],[121.300914,23.716203],[121.300813,23.716473],[121.300615,23.716561],[121.300613,23.716741],[121.300807,23.716924],[121.301005,23.716746]]],[[[121.303458,23.724267],[121.303269,23.723724],[121.303465,23.723726],[121.303663,23.723547],[121.303667,23.723276],[121.303765,23.723278],[121.30367,23.723006],[121.304064,23.72292],[121.30387,23.722737],[121.303872,23.722556],[121.304067,23.722649],[121.304367,23.722201],[121.30427,23.722109],[121.30329,23.722098],[121.303291,23.722008],[121.302802,23.721912],[121.302803,23.721822],[121.30251,23.721729],[121.302513,23.721458],[121.302611,23.721459],[121.30252,23.720916],[121.302618,23.720917],[121.302722,23.720467],[121.302527,23.720374],[121.302032,23.72073],[121.302035,23.72055],[121.302232,23.720461],[121.302239,23.71992],[121.302044,23.719827],[121.301943,23.720097],[121.301845,23.720096],[121.30184,23.720457],[121.301643,23.720545],[121.301836,23.720728],[121.301638,23.720906],[121.301636,23.721087],[121.30183,23.721179],[121.30173,23.721359],[121.30212,23.721544],[121.302113,23.722086],[121.302404,23.72236],[121.302796,23.722364],[121.30289,23.722636],[121.302989,23.722637],[121.302985,23.722908],[121.302789,23.722906],[121.302688,23.723085],[121.302492,23.723083],[121.302494,23.722993],[121.302296,23.723081],[121.302392,23.723262],[121.302589,23.723174],[121.30288,23.723448],[121.302878,23.723629],[121.302481,23.723986],[121.302676,23.724078],[121.302875,23.72381],[121.303071,23.723812],[121.303258,23.724536],[121.303554,23.724449],[121.303556,23.724269],[121.303458,23.724267]],[[121.303577,23.722643],[121.303773,23.722646],[121.303772,23.722736],[121.303576,23.722734],[121.303577,23.722643]]],[[[121.301968,23.725696],[121.301973,23.725335],[121.302169,23.725337],[121.302363,23.72552],[121.302465,23.72516],[121.302762,23.724982],[121.302669,23.72462],[121.302471,23.724708],[121.302567,23.72489],[121.302369,23.725068],[121.302175,23.724885],[121.301979,23.724883],[121.301876,23.725243],[121.301581,23.72533],[121.301478,23.725691],[121.301768,23.725965],[121.302064,23.725878],[121.302066,23.725697],[121.301968,23.725696]]],[[[121.302832,23.72715],[121.302542,23.726786],[121.302545,23.726605],[121.302742,23.726517],[121.302648,23.726245],[121.302548,23.726334],[121.302255,23.726241],[121.302057,23.726419],[121.302054,23.7266],[121.301758,23.726777],[121.301851,23.727139],[121.302049,23.727051],[121.301953,23.72687],[121.302247,23.726873],[121.302535,23.727328],[121.302732,23.72733],[121.302832,23.72715]]],[[[121.306154,23.72818],[121.306156,23.727999],[121.305961,23.727907],[121.30587,23.727364],[121.305385,23.726907],[121.305683,23.72664],[121.305685,23.726459],[121.305297,23.726184],[121.305098,23.726362],[121.305292,23.726545],[121.30529,23.726726],[121.305096,23.726543],[121.304799,23.72672],[121.3048,23.72663],[121.304604,23.726628],[121.304607,23.726447],[121.304509,23.726446],[121.304611,23.726086],[121.304416,23.725994],[121.304218,23.726172],[121.304213,23.726533],[121.304505,23.726717],[121.304403,23.726987],[121.304791,23.727352],[121.304987,23.727354],[121.305181,23.727537],[121.305179,23.727718],[121.305374,23.72781],[121.30537,23.728081],[121.305272,23.72808],[121.305367,23.728352],[121.30556,23.728535],[121.306149,23.728541],[121.306248,23.728452],[121.306252,23.728181],[121.306154,23.72818]]],[[[121.3039,23.727975],[121.303513,23.727609],[121.303515,23.727429],[121.303712,23.72734],[121.303717,23.726979],[121.303523,23.726797],[121.30263,23.727599],[121.30214,23.727594],[121.302039,23.727774],[121.301845,23.727591],[121.301648,23.727679],[121.301838,23.728133],[121.302231,23.728137],[121.302228,23.728317],[121.303013,23.728326],[121.303015,23.728145],[121.3038,23.728154],[121.303802,23.727974],[121.3039,23.727975]]]]}},{"type":"Feature","properties":{"kind":"bare_dam","month":"2017-11","area_ha":18.27},"geometry":{"type":"MultiPolygon","coordinates":[[[[121.300414,23.694255],[121.300511,23.694346],[121.30071,23.694077],[121.301201,23.694083],[121.3013,23.693994],[121.301208,23.693541],[121.301406,23.693363],[121.301113,23.693269],[121.301112,23.693359],[121.30072,23.693355],[121.300719,23.693445],[121.300622,23.693354],[121.300228,23.69344],[121.300331,23.69308],[121.300039,23.692896],[121.300141,23.692626],[121.299947,23.692444],[121.299652,23.692531],[121.299654,23.69235],[121.29946,23.692167],[121.29897,23.692162],[121.298875,23.69198],[121.298678,23.691978],[121.298577,23.692248],[121.298771,23.692431],[121.298671,23.69252],[121.298761,23.693153],[121.298955,23.693336],[121.299347,23.69334],[121.299247,23.693519],[121.298856,23.693425],[121.298754,23.693695],[121.299143,23.69397],[121.299632,23.694066],[121.299631,23.694156],[121.299926,23.694069],[121.300119,23.694342],[121.300414,23.694255]],[[121.300416,23.694074],[121.300317,23.694163],[121.300318,23.694073],[121.300416,23.694074]],[[121.299543,23.693342],[121.299444,23.693431],[121.299445,23.693341],[121.299543,23.693342]],[[121.299942,23.692805],[121.299843,23.692894],[121.299844,23.692804],[121.299942,23.692805]],[[121.299062,23.692614],[121.299064,23.692524],[121.29926,23.692526],[121.299258,23.692617],[121.299062,23.692614]],[[121.298867,23.692522],[121.298869,23.692432],[121.299065,23.692434],[121.299064,23.692524],[121.298867,23.692522]]],[[[121.298458,23.693872],[121.298264,23.693689],[121.298164,23.693869],[121.298359,23.693961],[121.298458,23.693872]]],[[[121.29903,23.695142],[121.299124,23.695414],[121.299223,23.695325],[121.299417,23.695508],[121.299614,23.69542],[121.299227,23.695054],[121.299327,23.694875],[121.299623,23.694788],[121.299333,23.694423],[121.29894,23.694509],[121.298746,23.694327],[121.298748,23.694146],[121.298455,23.694053],[121.298457,23.693962],[121.297767,23.694226],[121.297862,23.694407],[121.29806,23.694319],[121.298252,23.694592],[121.298744,23.694507],[121.29874,23.694778],[121.29913,23.694963],[121.299128,23.695144],[121.29903,23.695142]],[[121.299033,23.694872],[121.299132,23.694782],[121.299131,23.694873],[121.299033,23.694872]]],[[[121.298443,23.695046],[121.29874,23.694778],[121.298447,23.694685],[121.298346,23.694954],[121.298443,23.695046]]],[[[121.298511,23.697304],[121.298809,23.697036],[121.298717,23.696584],[121.299013,23.696406],[121.299016,23.696226],[121.298821,23.696133],[121.29892,23.696044],[121.298927,23.695503],[121.298733,23.69532],[121.298342,23.695225],[121.298045,23.695493],[121.298139,23.695765],[121.29765,23.695669],[121.29755,23.695849],[121.297843,23.695942],[121.29784,23.696123],[121.298034,23.696305],[121.298029,23.696667],[121.298127,23.696668],[121.298027,23.696847],[121.298319,23.697031],[121.298316,23.697212],[121.298511,23.697304]],[[121.298724,23.696042],[121.298525,23.696221],[121.298523,23.696401],[121.298327,23.696399],[121.29833,23.696128],[121.298724,23.696042]],[[121.298235,23.695946],[121.298138,23.695855],[121.298236,23.695856],[121.298235,23.695946]],[[121.298433,23.695768],[121.298434,23.695678],[121.29863,23.69568],[121.298629,23.69577],[121.298433,23.695768]]],[[[121.297984,23.700188],[121.29798,23.700459],[121.298863,23.700468],[121.298962,23.700379],[121.298867,23.700107],[121.298769,23.700106],[121.298773,23.699835],[121.298675,23.699834],[121.29868,23.699383],[121.298977,23.699205],[121.298979,23.699025],[121.299178,23.698846],[121.299182,23.698485],[121.29938,23.698397],[121.299285,23.698125],[121.299579,23.698128],[121.299778,23.69795],[121.30007,23.698134],[121.300169,23.698045],[121.300073,23.697863],[121.300466,23.697777],[121.300178,23.697322],[121.299786,23.697318],[121.299785,23.697408],[121.29959,23.697316],[121.29939,23.697585],[121.298704,23.697577],[121.298608,23.697395],[121.298411,23.697483],[121.298305,23.698114],[121.298207,23.698113],[121.298198,23.698745],[121.298001,23.698833],[121.298194,23.699106],[121.297502,23.69955],[121.297597,23.699732],[121.297793,23.699734],[121.297889,23.699916],[121.298182,23.700009],[121.297984,23.700188]],[[121.298183,23.699919],[121.298281,23.69992],[121.298284,23.69974],[121.29848,23.699742],[121.298475,23.700103],[121.298279,23.700101],[121.298183,23.699919]],[[121.300075,23.697682],[121.299979,23.697591],[121.300077,23.697592],[121.300075,23.697682]]],[[[121.312272,23.68716],[121.312277,23.686799],[121.311984,23.686706],[121.311783,23.687065],[121.312076,23.687158],[121.312075,23.687249],[121.312272,23.68716]]],[[[121.304267,23.692039],[121.30417,23.691948],[121.30368,23.691943],[121.303583,23.691851],[121.303684,23.691582],[121.303491,23.691399],[121.301532,23.691197],[121.30144,23.690744],[121.301831,23.690839],[121.302031,23.69057],[121.301934,23.690479],[121.301834,23.690568],[121.301738,23.690477],[121.301344,23.690563],[121.301054,23.690289],[121.301252,23.69011],[121.301059,23.689837],[121.301354,23.68984],[121.301355,23.68975],[121.300472,23.68974],[121.300471,23.689831],[121.300275,23.689829],[121.300276,23.689738],[121.30008,23.689736],[121.300079,23.689826],[121.299883,23.689824],[121.299884,23.689734],[121.298708,23.689721],[121.298607,23.6899],[121.298117,23.689895],[121.297621,23.690341],[121.297615,23.690793],[121.297713,23.690794],[121.297808,23.691066],[121.298004,23.691068],[121.298104,23.690888],[121.298889,23.690897],[121.298786,23.691257],[121.299076,23.691531],[121.299372,23.691444],[121.299373,23.691354],[121.299568,23.691446],[121.299671,23.691086],[121.299769,23.691087],[121.300059,23.691361],[121.300356,23.691184],[121.300451,23.691366],[121.301334,23.691375],[121.301624,23.691649],[121.301724,23.69156],[121.303193,23.691667],[121.303091,23.691936],[121.30348,23.692211],[121.304166,23.692219],[121.304267,23.692039]],[[121.299772,23.690816],[121.299875,23.690456],[121.299777,23.690455],[121.299682,23.690183],[121.30027,23.69019],[121.300366,23.690371],[121.300661,23.690284],[121.300854,23.690557],[121.301148,23.69056],[121.301045,23.690921],[121.300653,23.690916],[121.300561,23.690464],[121.300266,23.690551],[121.299967,23.690909],[121.299772,23.690816]],[[121.300359,23.690913],[121.300362,23.690732],[121.30046,23.690734],[121.300457,23.690914],[121.300359,23.690913]],[[121.299288,23.690359],[121.299481,23.690542],[121.298992,23.690447],[121.298994,23.690356],[121.29919,23.690358],[121.299189,23.690449],[121.299288,23.690359]],[[121.298994,23.690356],[121.298897,23.690265],[121.298995,23.690266],[121.298994,23.690356]]],[[[121.304521,23.695112],[121.305117,23.694577],[121.304924,23.694304],[121.304531,23.69439],[121.304033,23.694926],[121.30403,23.695197],[121.304128,23.695198],[121.304224,23.69538],[121.30442,23.695382],[121.304521,23.695112]]],[[[121.304029,23.695288],[121.303933,23.695106],[121.303736,23.695194],[121.303831,23.695376],[121.304029,23.695288]]],[[[121.303034,23.69636],[121.303132,23.696361],[121.303136,23.696091],[121.303333,23.696002],[121.303237,23.695821],[121.302844,23.695907],[121.302839,23.696268],[121.302741,23.696267],[121.302837,23.696448],[121.302738,23.696538],[121.302933,23.69663],[121.303034,23.69636]]],[[[121.302336,23.697256],[121.302634,23.696988],[121.302539,23.696716],[121.302245,23.696713],[121.301748,23.697249],[121.302041,23.697343],[121.302042,23.697252],[121.302336,23.697256]]]]}},{"type":"Feature","properties":{"kind":"water","month":"2017-11","area_ha":0.32},"geometry":{"type":"MultiPolygon","coordinates":[[[[121.311582,23.687424],[121.311584,23.687334],[121.312075,23.687249],[121.312076,23.687158],[121.311488,23.687152],[121.311386,23.687422],[121.311582,23.687424]]],[[[121.305412,23.69449],[121.305413,23.6944],[121.305708,23.694313],[121.305712,23.694042],[121.30532,23.694038],[121.305317,23.694218],[121.305121,23.694216],[121.305119,23.694397],[121.305412,23.69449]]]]}}]}