{"type":"FeatureCollection","features":[{"type":"Feature","properties":{"kind":"bare_slide","month":"2017-07","area_ha":39.31},"geometry":{"type":"MultiPolygon","coordinates":[[[[121.294272,23.706558],[121.294665,23.706562],[121.294864,23.706294],[121.294767,23.706202],[121.294276,23.706287],[121.294083,23.706014],[121.293887,23.706012],[121.293694,23.705829],[121.293594,23.705919],[121.293592,23.706099],[121.29369,23.7061],[121.293588,23.70637],[121.293782,23.706553],[121.293881,23.706464],[121.294274,23.706468],[121.294272,23.706558]]],[[[121.293871,23.714771],[121.293973,23.714501],[121.294462,23.714597],[121.294662,23.714328],[121.294957,23.714241],[121.294961,23.71397],[121.295353,23.713975],[121.295354,23.713884],[121.295649,23.713797],[121.295653,23.713526],[121.295949,23.713349],[121.295953,23.713078],[121.296051,23.713079],[121.296055,23.712808],[121.296153,23.712809],[121.296058,23.712538],[121.295861,23.712626],[121.295857,23.712897],[121.29556,23.713164],[121.295068,23.713249],[121.295067,23.713339],[121.294774,23.713246],[121.294672,23.713516],[121.294476,23.713513],[121.294375,23.713783],[121.29398,23.713959],[121.293777,23.714499],[121.29338,23.714856],[121.293575,23.714948],[121.293675,23.714769],[121.293871,23.714771]],[[121.294865,23.713789],[121.294964,23.713699],[121.294963,23.71379],[121.294865,23.713789]]],[[[121.289623,23.717162],[121.289622,23.717252],[121.289819,23.717164],[121.289824,23.716803],[121.290414,23.716719],[121.290516,23.716359],[121.29081,23.716362],[121.290912,23.716093],[121.29101,23.716094],[121.290914,23.715912],[121.290422,23.716087],[121.290424,23.715907],[121.29023,23.715724],[121.289738,23.715899],[121.289837,23.71581],[121.289742,23.715538],[121.28994,23.71545],[121.290041,23.71518],[121.290337,23.715093],[121.290243,23.714731],[121.289458,23.714812],[121.289456,23.714903],[121.289161,23.71499],[121.289252,23.715533],[121.289447,23.715625],[121.28944,23.716167],[121.289635,23.716259],[121.289633,23.71644],[121.289336,23.716617],[121.289429,23.716979],[121.289232,23.717067],[121.28923,23.717248],[121.289425,23.71734],[121.289623,23.717162]]],[[[121.288453,23.716607],[121.288846,23.716612],[121.288847,23.716521],[121.289042,23.716614],[121.289142,23.716434],[121.288849,23.716341],[121.28885,23.716251],[121.288653,23.716339],[121.288461,23.716066],[121.288264,23.716063],[121.288263,23.716154],[121.287969,23.71615],[121.28797,23.71606],[121.287676,23.716057],[121.287677,23.715967],[121.287382,23.716054],[121.28738,23.716234],[121.287767,23.7166],[121.288062,23.716513],[121.288157,23.716785],[121.288353,23.716787],[121.288453,23.716607]]],[[[121.290971,23.719073],[121.290682,23.718709],[121.291172,23.718714],[121.291171,23.718805],[121.291368,23.718716],[121.291371,23.718536],[121.291568,23.718448],[121.291573,23.718087],[121.29177,23.717998],[121.291577,23.717725],[121.291677,23.717636],[121.291871,23.717729],[121.29207,23.71755],[121.291974,23.717369],[121.291776,23.717547],[121.291679,23.717456],[121.291285,23.717542],[121.290987,23.7179],[121.29079,23.717897],[121.29069,23.718077],[121.29,23.71834],[121.289997,23.718611],[121.29029,23.718705],[121.290284,23.719156],[121.290381,23.719247],[121.290971,23.719073]]],[[[121.284102,23.719358],[121.284105,23.719178],[121.284301,23.71918],[121.284401,23.719],[121.283819,23.718543],[121.283724,23.718271],[121.283528,23.718268],[121.283425,23.718628],[121.283912,23.718905],[121.28391,23.719085],[121.283812,23.719084],[121.283907,23.719266],[121.283709,23.719444],[121.283904,23.719537],[121.284102,23.719358]]],[[[121.282416,23.720784],[121.282812,23.720518],[121.282819,23.719976],[121.283015,23.719978],[121.283209,23.720161],[121.283705,23.719715],[121.28361,23.719534],[121.283118,23.719618],[121.283218,23.719439],[121.283024,23.719346],[121.282625,23.719793],[121.282036,23.719877],[121.282035,23.719968],[121.281739,23.720055],[121.281835,23.720236],[121.281934,23.720147],[121.282423,23.720243],[121.282518,23.720515],[121.282124,23.720601],[121.28222,23.720782],[121.282319,23.720693],[121.282416,23.720784]]],[[[121.285653,23.72073],[121.285656,23.720549],[121.285853,23.720461],[121.285756,23.72037],[121.285858,23.7201],[121.28625,23.720105],[121.286449,23.719926],[121.286451,23.719746],[121.28616,23.719471],[121.285566,23.719916],[121.285561,23.720278],[121.285464,23.720186],[121.285267,23.720274],[121.285359,23.720727],[121.284966,23.720813],[121.285155,23.721357],[121.284959,23.721354],[121.28496,23.721264],[121.284763,23.721352],[121.284759,23.721623],[121.284563,23.721621],[121.284361,23.72207],[121.284263,23.722069],[121.284359,23.722251],[121.284656,23.721983],[121.284948,23.722167],[121.28505,23.721897],[121.285148,23.721898],[121.285252,23.721448],[121.285448,23.72145],[121.285646,23.721272],[121.286039,23.721276],[121.28604,23.721186],[121.286333,23.721279],[121.286332,23.72137],[121.286528,23.721372],[121.286628,23.721192],[121.286823,23.721285],[121.287022,23.721106],[121.286926,23.720925],[121.287123,23.720837],[121.287028,23.720655],[121.286536,23.72074],[121.28644,23.720558],[121.286144,23.720735],[121.286141,23.720916],[121.285847,23.720913],[121.285653,23.72073]],[[121.284757,23.721804],[121.284855,23.721805],[121.284852,23.721985],[121.284754,23.721984],[121.284757,23.721804]],[[121.286926,23.720925],[121.286829,23.720833],[121.286927,23.720834],[121.286926,23.720925]],[[121.286141,23.720916],[121.286238,23.721007],[121.28614,23.721006],[121.286141,23.720916]],[[121.286534,23.72092],[121.286434,23.72101],[121.286436,23.720919],[121.286534,23.72092]],[[121.286534,23.72092],[121.286633,23.720831],[121.286632,23.720921],[121.286534,23.72092]]],[[[121.290151,23.721773],[121.290252,23.721594],[121.290645,23.721508],[121.290648,23.721327],[121.290453,23.721235],[121.29046,23.720693],[121.290558,23.720694],[121.290462,23.720512],[121.290066,23.720779],[121.290062,23.72114],[121.289867,23.721048],[121.289772,23.720776],[121.289575,23.720864],[121.289668,23.721226],[121.289471,23.721314],[121.289368,23.721674],[121.28927,23.721673],[121.289274,23.721402],[121.289176,23.721401],[121.289081,23.721129],[121.288783,23.721397],[121.288781,23.721577],[121.289267,23.721944],[121.289562,23.721857],[121.289563,23.721767],[121.290151,23.721773]]],[[[121.287208,23.721831],[121.287703,23.721475],[121.28761,23.721113],[121.287907,23.720936],[121.287811,23.720754],[121.287712,23.720843],[121.287517,23.720751],[121.28712,23.721107],[121.287015,23.721648],[121.287208,23.721831]]],[[[121.296039,23.721567],[121.295942,23.721476],[121.295746,23.721474],[121.295645,23.721653],[121.295937,23.721837],[121.296036,23.721748],[121.296039,23.721567]]],[[[121.294948,23.722458],[121.295445,23.722012],[121.295154,23.721738],[121.294762,23.721734],[121.294464,23.722001],[121.29417,23.721998],[121.294069,23.722178],[121.293775,23.722174],[121.293682,23.721812],[121.293487,23.72172],[121.29349,23.721449],[121.293297,23.721266],[121.293099,23.721354],[121.293102,23.721174],[121.292907,23.721081],[121.292814,23.720629],[121.292518,23.720806],[121.29261,23.721259],[121.292315,23.721346],[121.292017,23.721613],[121.292015,23.721794],[121.292499,23.722251],[121.29239,23.723062],[121.292682,23.723246],[121.292483,23.723515],[121.293069,23.723702],[121.292771,23.723969],[121.292867,23.724151],[121.293063,23.724153],[121.29306,23.724334],[121.292862,23.724512],[121.293057,23.724604],[121.293157,23.724425],[121.293353,23.724427],[121.293644,23.724701],[121.29384,23.724703],[121.293834,23.725155],[121.294127,23.725248],[121.294223,23.72543],[121.29442,23.725342],[121.294329,23.724799],[121.294528,23.724621],[121.294531,23.72435],[121.295025,23.724084],[121.294832,23.723902],[121.294933,23.723632],[121.29464,23.723538],[121.294645,23.723177],[121.294841,23.723179],[121.295039,23.723001],[121.295045,23.72255],[121.294948,23.722458]],[[121.29495,23.722368],[121.294651,23.722726],[121.294455,23.722724],[121.294658,23.722184],[121.29495,23.722368]],[[121.294658,23.722184],[121.294561,23.722093],[121.294659,23.722094],[121.294658,23.722184]],[[121.294164,23.72245],[121.293965,23.722628],[121.293968,23.722447],[121.294164,23.72245]]],[[[121.301409,23.708262],[121.300925,23.707805],[121.300432,23.70798],[121.300044,23.707705],[121.299944,23.707794],[121.299553,23.7077],[121.299361,23.707427],[121.299163,23.707515],[121.299357,23.707698],[121.299355,23.707878],[121.299158,23.707966],[121.29935,23.708239],[121.299745,23.708063],[121.29984,23.708245],[121.300328,23.708431],[121.30043,23.708161],[121.300626,23.708163],[121.300625,23.708253],[121.300919,23.708257],[121.301014,23.708529],[121.301308,23.708532],[121.301409,23.708262]]],[[[121.301176,23.711149],[121.300984,23.710786],[121.30011,23.710144],[121.300112,23.709963],[121.299823,23.709599],[121.299432,23.709504],[121.299336,23.709323],[121.29894,23.709589],[121.299036,23.709771],[121.299333,23.709594],[121.299525,23.709867],[121.299721,23.709869],[121.299818,23.70996],[121.299715,23.71032],[121.299909,23.710503],[121.300203,23.710506],[121.300299,23.710688],[121.300495,23.71069],[121.300782,23.711235],[121.301077,23.711238],[121.301176,23.711149]]],[[[121.297927,23.712107],[121.29803,23.711747],[121.298227,23.711658],[121.298135,23.711206],[121.297838,23.711383],[121.297635,23.711923],[121.297439,23.711921],[121.297245,23.711738],[121.296852,23.711824],[121.296948,23.712006],[121.297535,23.712102],[121.297631,23.712284],[121.297927,23.712107]]],[[[121.30193,23.713505],[121.302031,23.713235],[121.302129,23.713236],[121.302134,23.712875],[121.301645,23.71278],[121.301555,23.712146],[121.30136,23.712054],[121.301161,23.712323],[121.300865,23.71241],[121.300862,23.712681],[121.30096,23.712682],[121.300856,23.713132],[121.300954,23.713133],[121.301045,23.713676],[121.30124,23.713768],[121.301233,23.71431],[121.301036,23.714398],[121.301033,23.714579],[121.301227,23.714762],[121.301524,23.714584],[121.301534,23.713772],[121.301632,23.713773],[121.301535,23.713681],[121.301538,23.713501],[121.301636,23.713502],[121.301541,23.71323],[121.301639,23.713231],[121.301642,23.71305],[121.30174,23.713052],[121.301735,23.713413],[121.30193,23.713505]],[[121.30174,23.713052],[121.301839,23.712962],[121.301838,23.713053],[121.30174,23.713052]]],[[[121.297102,23.715258],[121.297107,23.714807],[121.2975,23.714811],[121.297501,23.714721],[121.297697,23.714723],[121.297793,23.714904],[121.298284,23.71482],[121.298192,23.714367],[121.297998,23.714184],[121.297802,23.714182],[121.297807,23.713821],[121.297709,23.71382],[121.297809,23.71364],[121.297712,23.713549],[121.297515,23.713637],[121.297611,23.713819],[121.297413,23.713907],[121.297409,23.714268],[121.296914,23.714624],[121.29691,23.714895],[121.296812,23.714894],[121.296807,23.715255],[121.296905,23.715256],[121.296804,23.715526],[121.296998,23.715708],[121.297195,23.71562],[121.2972,23.715259],[121.297102,23.715258]],[[121.297698,23.714632],[121.297502,23.71463],[121.297503,23.71454],[121.2977,23.714452],[121.297698,23.714632]]],[[[121.298819,23.718979],[121.298926,23.718258],[121.29942,23.717992],[121.299422,23.717812],[121.299619,23.717724],[121.299821,23.717274],[121.300118,23.717097],[121.300026,23.716645],[121.300223,23.716557],[121.300129,23.716285],[121.300424,23.716198],[121.300427,23.715927],[121.300525,23.715928],[121.30043,23.715746],[121.299836,23.716191],[121.299627,23.717182],[121.299329,23.71745],[121.299325,23.717721],[121.29903,23.717808],[121.298732,23.718075],[121.298628,23.718526],[121.298231,23.718882],[121.298035,23.71888],[121.298138,23.71852],[121.297943,23.718428],[121.297644,23.718786],[121.297739,23.719058],[121.298131,23.719062],[121.29813,23.719152],[121.298819,23.718979]]],[[[121.296932,23.720764],[121.297129,23.720676],[121.297136,23.720135],[121.297038,23.720133],[121.297142,23.719683],[121.297045,23.719592],[121.29675,23.719679],[121.296839,23.720402],[121.296542,23.720579],[121.296638,23.720761],[121.296737,23.720672],[121.296933,23.720674],[121.296932,23.720764]]],[[[121.302121,23.721454],[121.301933,23.720819],[121.302232,23.720461],[121.30214,23.720009],[121.301943,23.720097],[121.301938,23.720458],[121.30184,23.720457],[121.301736,23.720907],[121.301638,23.720906],[121.301632,23.721358],[121.301826,23.721541],[121.302022,23.721543],[121.302121,23.721454]]],[[[121.29653,23.721482],[121.296627,23.721574],[121.296729,23.721304],[121.296827,23.721305],[121.29683,23.721034],[121.296732,23.721033],[121.296638,23.720761],[121.296341,23.720938],[121.296436,23.72121],[121.29624,23.721208],[121.296144,23.721027],[121.295947,23.721115],[121.295943,23.721386],[121.296041,23.721387],[121.296136,23.721659],[121.29653,23.721482]]],[[[121.302062,23.726058],[121.302161,23.725969],[121.302164,23.725698],[121.302358,23.725881],[121.302555,23.725793],[121.302463,23.72534],[121.30276,23.725163],[121.302764,23.724802],[121.302862,23.724803],[121.302777,23.723808],[121.302973,23.723811],[121.303074,23.723631],[121.30327,23.723633],[121.30337,23.723454],[121.303566,23.723456],[121.303864,23.723188],[121.303573,23.722914],[121.303674,23.722735],[121.304461,23.722563],[121.304366,23.722291],[121.303091,23.722277],[121.303092,23.722187],[121.302798,23.722183],[121.302508,23.721909],[121.302413,23.721637],[121.302216,23.721725],[121.302308,23.722178],[121.302503,23.72227],[121.302596,23.722633],[121.302892,23.722546],[121.302984,23.722998],[121.302788,23.722996],[121.302595,23.722723],[121.302398,23.722811],[121.302392,23.723262],[121.302294,23.723261],[121.302384,23.723894],[121.302285,23.723984],[121.302578,23.724077],[121.302569,23.724709],[121.302471,23.724708],[121.30237,23.724978],[121.301977,23.724974],[121.301876,23.725243],[121.301479,23.7256],[121.301477,23.725781],[121.301672,23.725873],[121.301766,23.726145],[121.302062,23.726058]],[[121.302983,23.723088],[121.302982,23.723179],[121.303078,23.72327],[121.302785,23.723176],[121.302787,23.723086],[121.302983,23.723088]]],[[[121.296671,23.725728],[121.296676,23.725367],[121.296973,23.725189],[121.296975,23.725009],[121.297074,23.72492],[121.297367,23.725013],[121.297469,23.724743],[121.297865,23.724477],[121.297772,23.724024],[121.297575,23.724113],[121.297573,23.724293],[121.297374,23.724471],[121.296694,23.724013],[121.296494,23.724281],[121.295903,23.724455],[121.295705,23.724634],[121.2958,23.724815],[121.295503,23.725083],[121.295207,23.72517],[121.295203,23.725531],[121.295105,23.72553],[121.2952,23.725712],[121.295691,23.725717],[121.295786,23.725899],[121.296375,23.725905],[121.29647,23.726087],[121.296766,23.726],[121.296769,23.725729],[121.296671,23.725728]],[[121.295997,23.724818],[121.296096,23.724728],[121.296095,23.724819],[121.295997,23.724818]]],[[[121.301842,23.727862],[121.30233,23.728048],[121.302329,23.728138],[121.302819,23.728143],[121.30282,23.728053],[121.303312,23.727968],[121.303216,23.727786],[121.302922,23.727783],[121.302827,23.727511],[121.302729,23.72751],[121.302929,23.727242],[121.302734,23.727149],[121.302834,23.72697],[121.302639,23.726877],[121.302743,23.726427],[121.302646,23.726335],[121.302449,23.726424],[121.302451,23.726243],[121.302649,23.726155],[121.302553,23.725973],[121.302157,23.72624],[121.302252,23.726512],[121.301557,23.727136],[121.301651,23.727498],[121.301845,23.727591],[121.301746,23.72768],[121.301842,23.727862]],[[121.301845,23.727591],[121.301945,23.727502],[121.301944,23.727592],[121.301845,23.727591]],[[121.302437,23.727326],[121.302244,23.727144],[121.30244,23.727146],[121.302437,23.727326]],[[121.302047,23.727142],[121.30205,23.726961],[121.302148,23.726962],[121.302244,23.727144],[121.302047,23.727142]]]]}},{"type":"Feature","properties":{"kind":"bare_dam","month":"2017-07","area_ha":20.06},"geometry":{"type":"MultiPolygon","coordinates":[[[[121.30213,23.690481],[121.302816,23.690488],[121.302916,23.690309],[121.30282,23.690218],[121.302133,23.69021],[121.302034,23.690299],[121.302035,23.690209],[121.301741,23.690206],[121.301742,23.690116],[121.301447,23.690203],[121.301543,23.690384],[121.301837,23.690387],[121.301836,23.690478],[121.302131,23.690391],[121.30213,23.690481]]],[[[121.299876,23.690366],[121.299974,23.690367],[121.299878,23.690185],[121.299388,23.69018],[121.299289,23.690269],[121.299675,23.690725],[121.299872,23.690637],[121.299876,23.690366]]],[[[121.30095,23.690739],[121.300852,23.690738],[121.300951,23.690649],[121.300858,23.690286],[121.300565,23.690193],[121.300566,23.690103],[121.30037,23.6901],[121.299974,23.690367],[121.300071,23.690458],[121.299971,23.690638],[121.300261,23.690912],[121.300849,23.690918],[121.30095,23.690739]]],[[[121.299665,23.691537],[121.299766,23.691268],[121.299572,23.691085],[121.299376,23.691083],[121.299281,23.690901],[121.298987,23.690898],[121.298793,23.690715],[121.298795,23.690535],[121.299093,23.690267],[121.298702,23.690172],[121.298205,23.690709],[121.298498,23.690802],[121.298788,23.691076],[121.298785,23.691347],[121.298978,23.69153],[121.299371,23.691534],[121.299372,23.691444],[121.299665,23.691537]]],[[[121.301296,23.694264],[121.301105,23.693901],[121.301007,23.6939],[121.301106,23.693811],[121.301012,23.693539],[121.300721,23.693265],[121.300525,23.693263],[121.300527,23.693082],[121.300332,23.69299],[121.300335,23.692809],[121.300045,23.692445],[121.299751,23.692441],[121.299551,23.69271],[121.299355,23.692708],[121.299357,23.692618],[121.299061,23.692705],[121.299062,23.692614],[121.298866,23.692612],[121.298869,23.692432],[121.299163,23.692435],[121.299263,23.692255],[121.298876,23.69189],[121.298677,23.692068],[121.29858,23.691977],[121.298187,23.692063],[121.298185,23.692244],[121.298087,23.692243],[121.298182,23.692424],[121.298381,23.692246],[121.298577,23.692248],[121.298771,23.692431],[121.298569,23.69288],[121.298859,23.693154],[121.298857,23.693335],[121.299052,23.693427],[121.298754,23.693695],[121.299044,23.694059],[121.299241,23.693971],[121.299337,23.694153],[121.299729,23.694157],[121.299927,23.693978],[121.300023,23.69416],[121.300316,23.694254],[121.300419,23.693894],[121.300615,23.693896],[121.300708,23.694258],[121.301197,23.694354],[121.301296,23.694264]],[[121.300124,23.69389],[121.300224,23.693801],[121.300223,23.693891],[121.300124,23.69389]],[[121.299834,23.693616],[121.30003,23.693618],[121.300029,23.693709],[121.299833,23.693707],[121.299834,23.693616]],[[121.299249,23.693339],[121.299445,23.693341],[121.299443,23.693522],[121.299247,23.693519],[121.299249,23.693339]]],[[[121.301497,23.693905],[121.301303,23.693723],[121.301106,23.693811],[121.301299,23.694084],[121.301497,23.693905]]],[[[121.302074,23.694815],[121.302174,23.694635],[121.30198,23.694452],[121.301784,23.69445],[121.301592,23.694177],[121.301296,23.694264],[121.301587,23.694538],[121.301682,23.69481],[121.301781,23.694721],[121.302074,23.694815]]],[[[121.299389,23.697675],[121.299388,23.697765],[121.299584,23.697767],[121.299684,23.697588],[121.299198,23.697312],[121.299397,23.697043],[121.299202,23.69695],[121.299109,23.696588],[121.298914,23.696496],[121.299024,23.695594],[121.298539,23.695137],[121.298542,23.694957],[121.298249,23.694863],[121.298354,23.694322],[121.298552,23.694144],[121.298458,23.693872],[121.298263,23.69378],[121.29816,23.69414],[121.297865,23.694227],[121.298059,23.694409],[121.298056,23.69459],[121.297859,23.694678],[121.297855,23.694949],[121.297462,23.695035],[121.297753,23.695309],[121.297749,23.69558],[121.297553,23.695578],[121.297452,23.695848],[121.297841,23.696032],[121.297839,23.696213],[121.298033,23.696396],[121.298123,23.697029],[121.298316,23.697212],[121.298313,23.697482],[121.298508,23.697575],[121.29821,23.697842],[121.298208,23.698023],[121.298403,23.698115],[121.2987,23.697848],[121.298703,23.697667],[121.2988,23.697759],[121.299389,23.697675]],[[121.298605,23.697666],[121.298607,23.697486],[121.298705,23.697487],[121.298703,23.697667],[121.298605,23.697666]],[[121.298417,23.697032],[121.298516,23.696943],[121.298515,23.697033],[121.298417,23.697032]],[[121.298327,23.696399],[121.298426,23.69631],[121.298425,23.6964],[121.298327,23.696399]]],[[[121.299282,23.698396],[121.299871,23.698312],[121.300267,23.698046],[121.30056,23.698139],[121.300655,23.698321],[121.300852,23.698323],[121.301644,23.6977],[121.301646,23.697519],[121.301453,23.697336],[121.301353,23.697425],[121.300864,23.69733],[121.300566,23.697688],[121.300469,23.697596],[121.300075,23.697682],[121.300078,23.697502],[121.300372,23.697505],[121.300472,23.697326],[121.300278,23.697143],[121.300082,23.697141],[121.300086,23.69687],[121.299794,23.696686],[121.299589,23.697406],[121.29988,23.69759],[121.299878,23.69777],[121.29968,23.697949],[121.299286,23.698035],[121.298989,23.698303],[121.299083,23.698574],[121.299282,23.698396]],[[121.300857,23.697872],[121.30086,23.697691],[121.301154,23.697694],[121.301152,23.697875],[121.300857,23.697872]]],[[[121.295348,23.699256],[121.295349,23.699165],[121.295643,23.699169],[121.296041,23.698722],[121.295748,23.698628],[121.295648,23.698808],[121.295452,23.698805],[121.295254,23.698984],[121.295057,23.698982],[121.294864,23.698799],[121.29457,23.698796],[121.294376,23.698613],[121.29408,23.6987],[121.294176,23.698882],[121.294665,23.698977],[121.294858,23.69925],[121.294957,23.699161],[121.295348,23.699256]]],[[[121.298079,23.700369],[121.298575,23.699923],[121.298285,23.699649],[121.298089,23.699647],[121.29789,23.699826],[121.297884,23.700277],[121.298079,23.700369]]],[[[121.31276,23.687346],[121.312468,23.687163],[121.312471,23.686982],[121.31218,23.686708],[121.311591,23.686792],[121.311398,23.686519],[121.311201,23.686607],[121.311294,23.686969],[121.311392,23.68697],[121.311293,23.687059],[121.311289,23.68733],[121.311387,23.687331],[121.311285,23.687692],[121.311382,23.687783],[121.311678,23.687605],[121.311484,23.687423],[121.311586,23.687153],[121.311978,23.687157],[121.311977,23.687248],[121.312271,23.687251],[121.312269,23.687431],[121.312367,23.687432],[121.312266,23.687612],[121.312461,23.687704],[121.312458,23.687975],[121.312653,23.688068],[121.312752,23.687978],[121.31276,23.687346]]],[[[121.310882,23.6885],[121.311177,23.688413],[121.311084,23.688051],[121.310886,23.688229],[121.310492,23.688315],[121.310293,23.688584],[121.310586,23.688677],[121.310587,23.688587],[121.310881,23.68859],[121.310882,23.6885]]],[[[121.30849,23.691544],[121.308885,23.691277],[121.308888,23.691097],[121.308596,23.690913],[121.308296,23.691361],[121.30849,23.691544]]],[[[121.305939,23.691606],[121.305846,23.691244],[121.305552,23.691241],[121.305551,23.691331],[121.305255,23.691418],[121.305253,23.691599],[121.305447,23.691781],[121.305939,23.691606]]],[[[121.304654,23.692405],[121.304559,23.692223],[121.304265,23.69222],[121.303781,23.691673],[121.30339,23.691578],[121.303295,23.691397],[121.303097,23.691485],[121.302995,23.691845],[121.303285,23.692119],[121.304165,23.692309],[121.304261,23.692491],[121.304555,23.692494],[121.304654,23.692405]]],[[[121.305237,23.692863],[121.305434,23.692775],[121.305436,23.692594],[121.305338,23.692593],[121.305341,23.692412],[121.305538,23.692324],[121.305442,23.692143],[121.305246,23.69214],[121.304948,23.692408],[121.304945,23.692679],[121.304847,23.692678],[121.304943,23.69286],[121.305139,23.692862],[121.30514,23.692771],[121.305237,23.692863]]],[[[121.304742,23.693219],[121.304845,23.692858],[121.304651,23.692676],[121.304455,23.692674],[121.304456,23.692583],[121.304161,23.69267],[121.30387,23.692396],[121.303673,23.692484],[121.303665,23.693116],[121.303761,23.693208],[121.304056,23.693211],[121.304151,23.693393],[121.304742,23.693219]]],[[[121.304417,23.695563],[121.304715,23.695295],[121.304719,23.695024],[121.305215,23.694578],[121.30512,23.694306],[121.305316,23.694308],[121.305713,23.693952],[121.305618,23.69368],[121.305323,23.693767],[121.304827,23.694213],[121.304533,23.69421],[121.304431,23.694479],[121.303935,23.694925],[121.303933,23.695106],[121.303836,23.695015],[121.303541,23.695102],[121.303829,23.695556],[121.303928,23.695467],[121.304417,23.695563]]],[[[121.302567,23.694549],[121.302369,23.694728],[121.302465,23.694909],[121.303055,23.694735],[121.30296,23.694554],[121.302567,23.694549]]],[[[121.303348,23.694829],[121.303155,23.694646],[121.303054,23.694825],[121.303249,23.694918],[121.303348,23.694829]]],[[[121.302535,23.697077],[121.302635,23.696898],[121.30283,23.69699],[121.303028,23.696812],[121.302935,23.69645],[121.303431,23.696003],[121.303337,23.695732],[121.303042,23.695728],[121.302844,23.695907],[121.302842,23.696087],[121.302646,23.696085],[121.302447,23.696264],[121.302445,23.696444],[121.302148,23.696622],[121.301846,23.69725],[121.302139,23.697344],[121.302241,23.697074],[121.302535,23.697077]]]]}},{"type":"Feature","properties":{"kind":"water","month":"2017-07","area_ha":0.57},"geometry":{"type":"MultiPolygon","coordinates":[[[[121.30561,23.694312],[121.30571,23.694222],[121.305713,23.693952],[121.305615,23.693951],[121.305613,23.694131],[121.305417,23.694129],[121.30561,23.694312]]],[[[121.30512,23.694306],[121.305119,23.694397],[121.305413,23.6944],[121.305415,23.694219],[121.30512,23.694306]]],[[[121.300764,23.697509],[121.300766,23.697329],[121.300373,23.697415],[121.300468,23.697687],[121.300566,23.697688],[121.300568,23.697507],[121.300764,23.697509]]],[[[121.298607,23.697486],[121.298605,23.697666],[121.298703,23.697667],[121.298705,23.697487],[121.298607,23.697486]]],[[[121.299484,23.697947],[121.299878,23.69777],[121.299784,23.697499],[121.299686,23.697497],[121.299584,23.697767],[121.299193,23.697673],[121.299191,23.697853],[121.299485,23.697856],[121.299484,23.697947]]],[[[121.298796,23.698029],[121.299094,23.697762],[121.298703,23.697667],[121.298699,23.697938],[121.298796,23.698029]]],[[[121.299288,23.697945],[121.299286,23.698035],[121.299482,23.698037],[121.299484,23.697947],[121.299288,23.697945]]],[[[121.299186,23.698214],[121.299191,23.697853],[121.299093,23.697852],[121.29909,23.698033],[121.298892,23.698211],[121.298989,23.698303],[121.299186,23.698214]]]]}}]}