{"type":"FeatureCollection","features":[{"type":"Feature","properties":{"kind":"bare_slide","month":"2017-05","area_ha":0.62},"geometry":{"type":"MultiPolygon","coordinates":[[[[121.304063,23.70784],[121.304167,23.707389],[121.304558,23.707484],[121.304658,23.707304],[121.304267,23.70721],[121.304172,23.706938],[121.303881,23.706754],[121.303781,23.706843],[121.303878,23.706935],[121.303872,23.707386],[121.303577,23.707473],[121.303771,23.707656],[121.303672,23.707745],[121.303766,23.708017],[121.304063,23.70784]]],[[[121.303962,23.708019],[121.304157,23.708112],[121.304258,23.707932],[121.30416,23.707931],[121.304161,23.707841],[121.304063,23.70784],[121.303962,23.708019]]]]}},{"type":"Feature","properties":{"kind":"bare_dam","month":"2017-05","area_ha":2.72},"geometry":{"type":"MultiPolygon","coordinates":[[[[121.308598,23.690732],[121.308895,23.690555],[121.308897,23.690374],[121.308703,23.690192],[121.308707,23.689921],[121.308512,23.689828],[121.308413,23.689918],[121.308501,23.690641],[121.308598,23.690732]]],[[[121.304246,23.693665],[121.304444,23.693486],[121.304737,23.69358],[121.304841,23.693129],[121.305531,23.692866],[121.305634,23.692506],[121.305536,23.692505],[121.305442,23.692143],[121.305246,23.69214],[121.305047,23.692409],[121.304751,23.692496],[121.304846,23.692768],[121.30465,23.692766],[121.304456,23.692583],[121.304162,23.69258],[121.304066,23.692398],[121.303673,23.692484],[121.303667,23.692936],[121.303569,23.692935],[121.303662,23.693297],[121.303759,23.693388],[121.304054,23.693301],[121.304149,23.693573],[121.304246,23.693665]]],[[[121.299507,23.696141],[121.299704,23.696053],[121.299711,23.695511],[121.299809,23.695512],[121.299714,23.695331],[121.299418,23.695418],[121.29941,23.69605],[121.299507,23.696141]]],[[[121.299292,23.697583],[121.299391,23.697494],[121.299296,23.697313],[121.299394,23.697314],[121.299495,23.697044],[121.299107,23.696769],[121.298908,23.696947],[121.298901,23.697489],[121.298998,23.69758],[121.299292,23.697583]]]]}},{"type":"Feature","properties":{"kind":"water","month":"2017-05","area_ha":0.88},"geometry":{"type":"MultiPolygon","coordinates":[[[[121.281234,23.691244],[121.281533,23.690886],[121.281337,23.690884],[121.281137,23.691152],[121.280647,23.691147],[121.280551,23.690965],[121.280257,23.690962],[121.280065,23.690689],[121.279771,23.690686],[121.280255,23.691142],[121.281234,23.691244]]],[[[121.308093,23.691901],[121.308388,23.691814],[121.30849,23.691544],[121.308786,23.691367],[121.308791,23.691005],[121.308889,23.691006],[121.308795,23.690644],[121.308598,23.690732],[121.308596,23.690913],[121.308694,23.690914],[121.308591,23.691274],[121.307998,23.691629],[121.307996,23.691809],[121.308093,23.691901]]],[[[121.305839,23.691786],[121.305938,23.691697],[121.305841,23.691605],[121.305944,23.691245],[121.305748,23.691243],[121.305648,23.691422],[121.305352,23.69151],[121.30535,23.69169],[121.305644,23.691693],[121.305643,23.691784],[121.305839,23.691786]]]]}}]}