{"type":"FeatureCollection","features":[{"type":"Feature","properties":{"kind":"bare_slide","month":"2017-03","area_ha":54.47},"geometry":{"type":"MultiPolygon","coordinates":[[[[121.295451,23.713976],[121.295948,23.713439],[121.295952,23.713168],[121.29605,23.71317],[121.296053,23.712899],[121.296151,23.7129],[121.296057,23.712628],[121.29586,23.712716],[121.295857,23.712897],[121.29556,23.713164],[121.295068,23.713249],[121.294968,23.713429],[121.294773,23.713336],[121.294671,23.713606],[121.294475,23.713604],[121.293979,23.71405],[121.293876,23.71441],[121.29338,23.714856],[121.293575,23.714948],[121.293972,23.714591],[121.294461,23.714687],[121.294957,23.714241],[121.29496,23.714061],[121.295451,23.713976]],[[121.29496,23.714061],[121.294863,23.713969],[121.294961,23.71397],[121.29496,23.714061]],[[121.294962,23.71388],[121.294865,23.713789],[121.294963,23.71379],[121.294962,23.71388]]],[[[121.28396,23.715203],[121.284257,23.715026],[121.284261,23.714755],[121.284067,23.714572],[121.283871,23.71457],[121.283573,23.714838],[121.283567,23.715289],[121.283468,23.715378],[121.283662,23.715561],[121.283858,23.715563],[121.28396,23.715203]]],[[[121.286275,23.718209],[121.286673,23.717761],[121.286968,23.717674],[121.286875,23.717312],[121.287657,23.717501],[121.287759,23.717232],[121.287955,23.717234],[121.288255,23.716786],[121.288451,23.716788],[121.288645,23.716971],[121.28864,23.717332],[121.288443,23.71742],[121.288635,23.717693],[121.288931,23.717606],[121.288836,23.717334],[121.289133,23.717157],[121.289036,23.717065],[121.289136,23.716886],[121.289429,23.716979],[121.289231,23.717158],[121.289327,23.717339],[121.289523,23.717342],[121.289524,23.717251],[121.289719,23.717344],[121.289823,23.716893],[121.290314,23.716809],[121.290513,23.71663],[121.290515,23.71645],[121.291009,23.716184],[121.290914,23.715912],[121.290421,23.716178],[121.290424,23.715907],[121.29023,23.715724],[121.290034,23.715722],[121.289933,23.715992],[121.289737,23.715989],[121.289837,23.71581],[121.289643,23.715627],[121.29004,23.71527],[121.290335,23.715183],[121.290339,23.714912],[121.290145,23.71473],[121.289949,23.714728],[121.289948,23.714818],[121.28926,23.714901],[121.28916,23.71508],[121.288668,23.715165],[121.288763,23.715437],[121.288468,23.715524],[121.28866,23.715797],[121.288858,23.715709],[121.28886,23.715528],[121.289158,23.715261],[121.289256,23.715262],[121.289252,23.715533],[121.289447,23.715625],[121.28944,23.716167],[121.289241,23.716345],[121.288555,23.716338],[121.288556,23.716247],[121.288262,23.716244],[121.288166,23.716062],[121.287773,23.716148],[121.287677,23.715967],[121.287481,23.715964],[121.287283,23.716143],[121.28728,23.716323],[121.287571,23.716598],[121.288062,23.716513],[121.288059,23.716784],[121.287765,23.71678],[121.287764,23.716871],[121.287569,23.716778],[121.287468,23.716958],[121.287076,23.716953],[121.286883,23.71668],[121.286687,23.716678],[121.286587,23.716858],[121.28649,23.716766],[121.286195,23.716853],[121.286094,23.717033],[121.286485,23.717127],[121.286679,23.71731],[121.286677,23.717491],[121.286082,23.717936],[121.28608,23.718116],[121.286275,23.718209]],[[121.290125,23.716265],[121.290321,23.716267],[121.29032,23.716357],[121.290124,23.716355],[121.290125,23.716265]]],[[[121.286745,23.719749],[121.286944,23.71957],[121.287045,23.719301],[121.287341,23.719214],[121.287247,23.718851],[121.287347,23.718762],[121.28764,23.718856],[121.28774,23.718676],[121.287936,23.718678],[121.288035,23.718589],[121.28794,23.718408],[121.287743,23.718405],[121.287742,23.718496],[121.287351,23.718401],[121.287252,23.71849],[121.287253,23.7184],[121.286861,23.718396],[121.286667,23.718213],[121.286468,23.718482],[121.286172,23.718569],[121.286366,23.718751],[121.286265,23.718931],[121.286653,23.719296],[121.286651,23.719477],[121.286452,23.719655],[121.286745,23.719749]]],[[[121.284497,23.719182],[121.283819,23.718543],[121.283821,23.718362],[121.283528,23.718268],[121.283429,23.718358],[121.283423,23.718809],[121.283226,23.718897],[121.283022,23.719437],[121.282824,23.719615],[121.282628,23.719613],[121.282428,23.719882],[121.281938,23.719876],[121.28164,23.720144],[121.281636,23.720415],[121.282024,23.72078],[121.282514,23.720786],[121.282812,23.720518],[121.282915,23.720158],[121.28311,23.72025],[121.283309,23.719982],[121.283506,23.719984],[121.283607,23.719714],[121.283803,23.719716],[121.284002,23.719538],[121.284004,23.719357],[121.284199,23.71945],[121.284497,23.719182]],[[121.282915,23.720158],[121.282818,23.720067],[121.282916,23.720068],[121.282915,23.720158]],[[121.282916,23.720068],[121.283015,23.719978],[121.283014,23.720069],[121.282916,23.720068]],[[121.2843,23.71927],[121.284203,23.719179],[121.284301,23.71918],[121.2843,23.71927]],[[121.28361,23.719534],[121.283315,23.71953],[121.283319,23.719259],[121.283515,23.719262],[121.28361,23.719534]],[[121.283809,23.719265],[121.283908,23.719176],[121.283907,23.719266],[121.283809,23.719265]]],[[[121.289869,23.720867],[121.289576,23.720773],[121.289577,23.720683],[121.28938,23.720771],[121.289574,23.720954],[121.289467,23.721585],[121.289271,23.721583],[121.289081,23.721129],[121.288884,23.721217],[121.288881,23.721398],[121.288686,23.721305],[121.288585,23.721575],[121.288389,23.721573],[121.288489,23.721394],[121.288294,23.721301],[121.288195,23.72139],[121.288291,23.721572],[121.288193,23.721571],[121.28809,23.721931],[121.288481,23.722026],[121.288679,23.721847],[121.288682,23.721667],[121.288879,23.721578],[121.288877,23.721759],[121.289267,23.721944],[121.289165,23.722214],[121.28936,23.722306],[121.289464,23.721856],[121.289758,23.721859],[121.289759,23.721769],[121.29015,23.721863],[121.290251,23.721684],[121.290447,23.721686],[121.290645,23.721508],[121.290648,23.721327],[121.290356,23.721143],[121.290457,23.720874],[121.290555,23.720875],[121.290559,23.720604],[121.290461,23.720603],[121.290568,23.719881],[121.290373,23.719789],[121.290376,23.719608],[121.290182,23.719426],[121.290378,23.719428],[121.290578,23.719159],[121.290873,23.719072],[121.290679,23.718889],[121.290682,23.718709],[121.291172,23.718714],[121.291269,23.718806],[121.291469,23.718537],[121.291566,23.718628],[121.291763,23.71854],[121.291472,23.718266],[121.291671,23.718088],[121.291673,23.717907],[121.291478,23.717815],[121.291479,23.717724],[121.291775,23.717637],[121.291679,23.717456],[121.291483,23.717454],[121.291185,23.717721],[121.291183,23.717902],[121.290988,23.717809],[121.29069,23.718077],[121.290494,23.718075],[121.290393,23.718254],[121.290099,23.718251],[121.289901,23.718429],[121.290288,23.718795],[121.290285,23.719066],[121.290188,23.718974],[121.289795,23.71906],[121.289988,23.719243],[121.289886,23.719603],[121.29037,23.72006],[121.290368,23.72024],[121.289972,23.720507],[121.290166,23.72069],[121.290063,23.72105],[121.289867,23.721048],[121.289869,23.720867]],[[121.291281,23.717903],[121.291278,23.718083],[121.29118,23.718082],[121.291183,23.717902],[121.291281,23.717903]],[[121.290169,23.720419],[121.290266,23.72051],[121.290168,23.720509],[121.290169,23.720419]],[[121.290166,23.72069],[121.290265,23.720601],[121.290264,23.720691],[121.290166,23.72069]]],[[[121.29703,23.720765],[121.297129,23.720676],[121.297135,23.720225],[121.297037,23.720224],[121.297142,23.719683],[121.296849,23.71959],[121.29675,23.719679],[121.296839,23.720402],[121.296542,23.720579],[121.29654,23.72076],[121.296735,23.720852],[121.296736,23.720762],[121.29703,23.720765]]],[[[121.287207,23.721921],[121.287703,23.721475],[121.287609,23.721203],[121.287805,23.721205],[121.288203,23.720758],[121.28791,23.720665],[121.287909,23.720755],[121.287516,23.720841],[121.287517,23.720751],[121.286341,23.720647],[121.286149,23.720374],[121.285853,23.720461],[121.285757,23.72028],[121.286151,23.720194],[121.286449,23.719926],[121.286451,23.719746],[121.286062,23.71947],[121.285962,23.71965],[121.285666,23.719737],[121.285664,23.719917],[121.285466,23.720096],[121.285561,23.720278],[121.285266,23.720365],[121.285459,23.720638],[121.284966,23.720813],[121.284964,23.720993],[121.285254,23.721267],[121.284861,23.721353],[121.284759,23.721623],[121.284363,23.72189],[121.284361,23.72207],[121.284458,23.722162],[121.284655,23.722073],[121.284653,23.722254],[121.284848,23.722346],[121.285046,23.722168],[121.284952,23.721896],[121.285149,23.721808],[121.285153,23.721537],[121.285546,23.721451],[121.285744,23.721273],[121.286039,23.721276],[121.28604,23.721186],[121.286333,23.721279],[121.286332,23.72137],[121.286528,23.721372],[121.286628,23.721192],[121.286725,23.721284],[121.28702,23.721197],[121.287013,23.721738],[121.287207,23.721921]],[[121.284952,23.721896],[121.284855,23.721805],[121.284953,23.721806],[121.284952,23.721896]],[[121.284854,23.721895],[121.284754,23.721984],[121.284756,23.721894],[121.284854,23.721895]],[[121.28702,23.721197],[121.28712,23.721107],[121.287119,23.721198],[121.28702,23.721197]]],[[[121.296816,23.722118],[121.296728,23.721394],[121.296926,23.721216],[121.296539,23.72085],[121.29634,23.721029],[121.296436,23.72121],[121.296238,23.721299],[121.296045,23.721116],[121.295943,23.721386],[121.296234,23.72166],[121.296529,23.721573],[121.296521,23.722205],[121.296423,23.722204],[121.296519,23.722385],[121.296816,23.722118]]],[[[121.295147,23.72228],[121.295442,23.722193],[121.295543,23.722013],[121.295739,23.722015],[121.295937,23.721837],[121.29594,23.721656],[121.295647,23.721563],[121.295546,23.721742],[121.294859,23.721825],[121.29466,23.722004],[121.294951,23.722278],[121.294851,23.722367],[121.294947,23.722548],[121.295145,23.72246],[121.295147,23.72228]]],[[[121.294932,23.723722],[121.294836,23.723541],[121.29464,23.723538],[121.294645,23.723177],[121.29484,23.72327],[121.295038,23.723091],[121.295044,23.72264],[121.294849,23.722547],[121.294649,23.722816],[121.294453,23.722814],[121.294457,23.722543],[121.294555,23.722544],[121.29446,23.722272],[121.294263,23.72236],[121.29416,23.72272],[121.293767,23.722806],[121.293666,23.722986],[121.29347,23.722984],[121.293277,23.722801],[121.293281,23.72244],[121.293677,23.722173],[121.293681,23.721902],[121.293486,23.72181],[121.293489,23.721539],[121.292905,23.721171],[121.292911,23.72072],[121.292716,23.720628],[121.292615,23.720897],[121.292517,23.720896],[121.29251,23.721438],[121.292607,23.721529],[121.292507,23.721619],[121.29241,23.721527],[121.292017,23.721613],[121.292013,23.721884],[121.292498,23.722341],[121.292486,23.723244],[121.292681,23.723336],[121.292581,23.723516],[121.292774,23.723698],[121.293069,23.723702],[121.293066,23.723882],[121.292869,23.72397],[121.29296,23.724513],[121.292764,23.724511],[121.292663,23.72469],[121.292858,23.724783],[121.293156,23.724515],[121.293547,23.72461],[121.293838,23.724884],[121.293833,23.725245],[121.29432,23.725521],[121.294422,23.725252],[121.29452,23.725253],[121.294326,23.72507],[121.294328,23.724889],[121.294527,23.724711],[121.294531,23.72435],[121.295122,23.724176],[121.295026,23.723994],[121.294733,23.723901],[121.294932,23.723722]],[[121.294735,23.72381],[121.294638,23.723719],[121.294736,23.72372],[121.294735,23.72381]],[[121.293563,23.723436],[121.293662,23.723347],[121.293661,23.723437],[121.293563,23.723436]]],[[[121.290214,23.724483],[121.290414,23.724214],[121.290709,23.724127],[121.290713,23.723856],[121.290518,23.723764],[121.29052,23.723583],[121.290716,23.723585],[121.290811,23.723857],[121.291107,23.72368],[121.290819,23.723225],[121.290623,23.723223],[121.290226,23.72358],[121.29032,23.723852],[121.290222,23.723851],[121.290218,23.724212],[121.290019,23.72439],[121.290214,23.724483]]],[[[121.296769,23.725729],[121.296671,23.725728],[121.296675,23.725457],[121.297071,23.725191],[121.297073,23.72501],[121.297366,23.725103],[121.297468,23.724834],[121.297664,23.724836],[121.297961,23.724568],[121.297964,23.724388],[121.297866,23.724387],[121.297772,23.724024],[121.297575,23.724113],[121.297573,23.724293],[121.297374,23.724471],[121.297276,23.72447],[121.297182,23.724198],[121.296789,23.724194],[121.296989,23.723925],[121.296794,23.723833],[121.296798,23.723562],[121.296603,23.72347],[121.296503,23.723559],[121.2965,23.72383],[121.296598,23.723831],[121.296494,23.724281],[121.296101,23.724367],[121.295803,23.724635],[121.2958,23.724815],[121.295503,23.725083],[121.295207,23.72517],[121.295201,23.725621],[121.295494,23.725715],[121.295493,23.725805],[121.295788,23.725809],[121.295883,23.72599],[121.296179,23.725903],[121.296177,23.725993],[121.296472,23.725997],[121.29647,23.726087],[121.296766,23.726],[121.296769,23.725729]],[[121.296095,23.724819],[121.295998,23.724727],[121.296096,23.724728],[121.296095,23.724819]]],[[[121.298823,23.703538],[121.299113,23.703812],[121.29911,23.704083],[121.299208,23.704084],[121.299203,23.704445],[121.299105,23.704444],[121.299102,23.704715],[121.299004,23.704714],[121.299,23.704985],[121.298902,23.704984],[121.298897,23.705345],[121.298406,23.70543],[121.298206,23.705698],[121.297814,23.705694],[121.297616,23.705873],[121.297709,23.706235],[121.298002,23.706328],[121.298001,23.706419],[121.29849,23.706514],[121.298584,23.706786],[121.298782,23.706698],[121.298785,23.706427],[121.299084,23.706069],[121.299089,23.705708],[121.299187,23.705709],[121.299095,23.705257],[121.299193,23.705258],[121.299197,23.704897],[121.299395,23.704809],[121.299506,23.703816],[121.299214,23.703633],[121.299123,23.70309],[121.299025,23.703089],[121.299125,23.702909],[121.29893,23.702817],[121.298944,23.701733],[121.299042,23.701734],[121.299145,23.701374],[121.298753,23.70137],[121.298657,23.701188],[121.298069,23.701182],[121.298161,23.701634],[121.298356,23.701727],[121.298058,23.701995],[121.29815,23.702447],[121.298344,23.70263],[121.29834,23.702991],[121.298533,23.703174],[121.29853,23.703445],[121.298823,23.703538]],[[121.298823,23.703538],[121.298922,23.703449],[121.298921,23.703539],[121.298823,23.703538]]],[[[121.298092,23.706961],[121.298188,23.707143],[121.298481,23.707237],[121.298574,23.707599],[121.29887,23.707421],[121.29858,23.707147],[121.298582,23.706967],[121.29868,23.706968],[121.298584,23.706786],[121.298092,23.706961]]],[[[121.301308,23.708532],[121.301407,23.708443],[121.301409,23.708262],[121.301116,23.708169],[121.300925,23.707805],[121.300431,23.708071],[121.300239,23.707798],[121.299455,23.707699],[121.299263,23.707426],[121.298869,23.707512],[121.298966,23.707603],[121.298865,23.707873],[121.299058,23.708056],[121.299254,23.708058],[121.29935,23.708239],[121.299842,23.708155],[121.300034,23.708428],[121.300328,23.708431],[121.30043,23.708161],[121.300626,23.708163],[121.300722,23.708345],[121.300919,23.708257],[121.301012,23.708619],[121.301308,23.708532]]],[[[121.298242,23.710485],[121.298151,23.709942],[121.29747,23.709573],[121.297577,23.708852],[121.29817,23.708497],[121.298174,23.708226],[121.297979,23.708134],[121.297877,23.708404],[121.297383,23.708669],[121.297381,23.70885],[121.297184,23.708938],[121.29718,23.709209],[121.296789,23.709114],[121.296689,23.709294],[121.296982,23.709387],[121.297173,23.709751],[121.297467,23.709754],[121.297465,23.709934],[121.297659,23.710117],[121.297855,23.710119],[121.298136,23.711116],[121.298333,23.711027],[121.29834,23.710486],[121.298242,23.710485]]],[[[121.301464,23.711604],[121.301177,23.711059],[121.30011,23.710144],[121.300112,23.709963],[121.299628,23.709507],[121.299432,23.709504],[121.299238,23.709322],[121.299137,23.709592],[121.29943,23.709685],[121.299622,23.709958],[121.299818,23.70996],[121.299715,23.71032],[121.299909,23.710503],[121.3003,23.710598],[121.300396,23.710779],[121.300592,23.710781],[121.300684,23.711234],[121.301075,23.711329],[121.301267,23.711692],[121.301464,23.711604]]],[[[121.297631,23.712284],[121.298226,23.711749],[121.298134,23.711296],[121.297837,23.711474],[121.297635,23.711923],[121.297341,23.71192],[121.297147,23.711737],[121.296949,23.711915],[121.296852,23.711824],[121.296655,23.711912],[121.29675,23.712094],[121.296948,23.712006],[121.296946,23.712096],[121.297632,23.712194],[121.297631,23.712284]]],[[[121.301522,23.714675],[121.301625,23.714314],[121.301527,23.714313],[121.301433,23.714041],[121.30163,23.713953],[121.301642,23.71305],[121.301839,23.712962],[121.301836,23.713143],[121.301738,23.713142],[121.301735,23.713413],[121.301833,23.713414],[121.301733,23.713593],[121.301829,23.713685],[121.302027,23.713596],[121.301931,23.713415],[121.302228,23.713237],[121.30223,23.713057],[121.301939,23.712783],[121.30184,23.712872],[121.301645,23.71278],[121.301555,23.712146],[121.30136,23.712054],[121.300864,23.7125],[121.300856,23.713132],[121.300954,23.713133],[121.301045,23.713676],[121.30124,23.713768],[121.301236,23.714039],[121.301334,23.71404],[121.301233,23.71431],[121.301036,23.714398],[121.301032,23.714669],[121.301226,23.714852],[121.301522,23.714675]]],[[[121.298185,23.714909],[121.298284,23.71482],[121.298288,23.714549],[121.298093,23.714456],[121.297998,23.714184],[121.297802,23.714182],[121.297809,23.71364],[121.297614,23.713548],[121.297511,23.713908],[121.297413,23.713907],[121.297409,23.714268],[121.296914,23.714624],[121.29691,23.714895],[121.296812,23.714894],[121.296903,23.715436],[121.296608,23.715523],[121.29661,23.715343],[121.296415,23.71525],[121.296312,23.715611],[121.296409,23.715702],[121.296803,23.715616],[121.296802,23.715706],[121.297095,23.7158],[121.297197,23.71544],[121.297295,23.715441],[121.297102,23.715258],[121.297107,23.714807],[121.297204,23.714898],[121.2975,23.714811],[121.297501,23.714721],[121.297695,23.714903],[121.298185,23.714909]],[[121.297697,23.714723],[121.297502,23.71463],[121.297503,23.71454],[121.297699,23.714542],[121.297697,23.714723]]],[[[121.298628,23.718526],[121.298231,23.718882],[121.298035,23.71888],[121.298138,23.71852],[121.297943,23.718428],[121.297544,23.718965],[121.297738,23.719148],[121.298424,23.719155],[121.298425,23.719065],[121.298718,23.719159],[121.298817,23.719069],[121.299025,23.718169],[121.299124,23.71808],[121.299319,23.718172],[121.299518,23.717994],[121.299621,23.717633],[121.299818,23.717545],[121.29982,23.717365],[121.300117,23.717187],[121.300125,23.716555],[121.300223,23.716557],[121.300127,23.716375],[121.300423,23.716288],[121.300427,23.715927],[121.300525,23.715928],[121.30043,23.715746],[121.300232,23.715834],[121.30023,23.716015],[121.300034,23.716013],[121.299836,23.716191],[121.299627,23.717182],[121.299528,23.717181],[121.299325,23.717721],[121.298831,23.717986],[121.298628,23.718526]]],[[[121.298738,23.717624],[121.298143,23.718159],[121.298238,23.718341],[121.298534,23.718254],[121.298831,23.717986],[121.298835,23.717715],[121.298738,23.717624]]],[[[121.302161,23.725969],[121.302163,23.725788],[121.302359,23.72579],[121.302358,23.725881],[121.302555,23.725793],[121.302463,23.72534],[121.302759,23.725253],[121.302763,23.724892],[121.302861,23.724893],[121.302873,23.72399],[121.302776,23.723899],[121.302972,23.723901],[121.303074,23.723631],[121.30327,23.723633],[121.303568,23.723366],[121.303862,23.723369],[121.30406,23.72319],[121.303966,23.722919],[121.303671,23.722915],[121.303673,23.722825],[121.303279,23.722911],[121.303284,23.72255],[121.304361,23.722652],[121.304463,23.722382],[121.304269,23.722199],[121.30417,23.722289],[121.303189,23.722278],[121.303191,23.722188],[121.302798,23.722183],[121.302508,23.721909],[121.302418,23.721276],[121.302321,23.721185],[121.302025,23.721272],[121.302032,23.72073],[121.30223,23.720642],[121.302237,23.7201],[121.302042,23.720008],[121.301836,23.720728],[121.301638,23.720906],[121.301631,23.721448],[121.301924,23.721542],[121.302311,23.721907],[121.302308,23.722178],[121.302503,23.72227],[121.302595,23.722723],[121.302398,23.722811],[121.302392,23.723262],[121.302294,23.723261],[121.302384,23.723894],[121.302285,23.723984],[121.302578,23.724077],[121.302571,23.724619],[121.302472,23.724618],[121.30237,23.724978],[121.301879,23.724973],[121.30178,23.725062],[121.301876,23.725243],[121.301579,23.725421],[121.301577,23.725601],[121.301379,23.72578],[121.301668,23.726144],[121.301962,23.726147],[121.302161,23.725969]],[[121.302982,23.723179],[121.303078,23.72327],[121.30298,23.723269],[121.302982,23.723179]],[[121.302785,23.723176],[121.302787,23.723086],[121.302983,23.723088],[121.302982,23.723179],[121.302785,23.723176]],[[121.302888,23.722816],[121.302986,23.722818],[121.302984,23.722998],[121.302788,23.722996],[121.302694,23.722634],[121.30289,23.722636],[121.302888,23.722816]],[[121.302122,23.721363],[121.30222,23.721364],[121.302218,23.721545],[121.30212,23.721544],[121.302122,23.721363]]],[[[121.303213,23.728057],[121.303313,23.727878],[121.302826,23.727602],[121.302829,23.727421],[121.303027,23.727243],[121.302832,23.72715],[121.302743,23.726427],[121.302646,23.726335],[121.302449,23.726424],[121.302451,23.726243],[121.302649,23.726155],[121.302455,23.725972],[121.302157,23.72624],[121.302153,23.726601],[121.301955,23.726689],[121.301953,23.72687],[121.301757,23.726867],[121.301655,23.727137],[121.301557,23.727136],[121.301648,23.727679],[121.301746,23.72768],[121.301841,23.727952],[121.302135,23.727955],[121.302231,23.728137],[121.302525,23.72814],[121.302524,23.72823],[121.303213,23.728057]],[[121.302049,23.727051],[121.302148,23.726962],[121.302147,23.727052],[121.302049,23.727051]]]]}},{"type":"Feature","properties":{"kind":"bare_dam","month":"2017-03","area_ha":26.78},"geometry":{"type":"MultiPolygon","coordinates":[[[[121.302034,23.690299],[121.301741,23.690206],[121.301742,23.690116],[121.301643,23.690205],[121.301546,23.690113],[121.301153,23.690199],[121.301249,23.690381],[121.301642,23.690295],[121.301836,23.690478],[121.302034,23.690299]]],[[[121.298003,23.691158],[121.298201,23.69098],[121.298203,23.690799],[121.298009,23.690707],[121.298016,23.690165],[121.297819,23.690163],[121.297522,23.69043],[121.297519,23.690611],[121.297618,23.690612],[121.297614,23.690883],[121.297712,23.690884],[121.297807,23.691156],[121.298003,23.691158]]],[[[121.304656,23.692315],[121.304366,23.69195],[121.303974,23.691946],[121.303197,23.691396],[121.302803,23.691482],[121.302804,23.691391],[121.302315,23.691296],[121.30222,23.691114],[121.301633,23.691017],[121.301439,23.690835],[121.30134,23.690924],[121.300851,23.690828],[121.300856,23.690377],[121.300956,23.690287],[121.300761,23.690195],[121.30086,23.690106],[121.300765,23.689834],[121.300274,23.689919],[121.300369,23.690191],[121.300072,23.690368],[121.300066,23.69082],[121.300357,23.691094],[121.299764,23.691448],[121.299767,23.691177],[121.299477,23.690903],[121.299872,23.690637],[121.299878,23.690185],[121.29978,23.690184],[121.299883,23.689824],[121.299786,23.689733],[121.298708,23.689721],[121.298608,23.68981],[121.298802,23.689993],[121.2988,23.690173],[121.298702,23.690172],[121.298793,23.690715],[121.298596,23.690803],[121.298593,23.690984],[121.298788,23.691076],[121.298785,23.691347],[121.299075,23.691621],[121.299174,23.691532],[121.299567,23.691536],[121.299565,23.691627],[121.299861,23.69154],[121.299958,23.691631],[121.299959,23.691541],[121.30094,23.691461],[121.300939,23.691551],[121.301429,23.691557],[121.301622,23.69183],[121.301916,23.691833],[121.302115,23.691655],[121.302311,23.691657],[121.302504,23.69184],[121.3028,23.691752],[121.302799,23.691843],[121.303093,23.691846],[121.30309,23.692027],[121.303284,23.692209],[121.304262,23.692401],[121.304261,23.692491],[121.304555,23.692494],[121.304656,23.692315]]],[[[121.301001,23.694351],[121.301198,23.694263],[121.301105,23.693901],[121.301007,23.6939],[121.301107,23.693721],[121.300912,23.693628],[121.300818,23.693356],[121.300525,23.693263],[121.300527,23.693082],[121.300235,23.692898],[121.300336,23.692719],[121.300142,23.692536],[121.299946,23.692534],[121.299947,23.692444],[121.29975,23.692532],[121.299752,23.692351],[121.299558,23.692168],[121.299067,23.692253],[121.299069,23.692073],[121.298876,23.69189],[121.298677,23.692068],[121.298383,23.692065],[121.298287,23.691884],[121.29809,23.691972],[121.29828,23.692425],[121.29838,23.692336],[121.298771,23.692431],[121.298569,23.69288],[121.298859,23.693154],[121.298857,23.693335],[121.299052,23.693427],[121.298655,23.693784],[121.298751,23.693966],[121.299045,23.693969],[121.299044,23.694059],[121.299241,23.693971],[121.299532,23.694245],[121.29973,23.694067],[121.300024,23.69407],[121.30012,23.694251],[121.300316,23.694254],[121.300614,23.693986],[121.300611,23.694167],[121.300805,23.694349],[121.300904,23.69426],[121.301001,23.694351]],[[121.300223,23.693891],[121.300126,23.6938],[121.300224,23.693801],[121.300223,23.693891]],[[121.300028,23.693799],[121.299931,23.693708],[121.300029,23.693709],[121.300028,23.693799]],[[121.299444,23.693431],[121.299442,23.693612],[121.299148,23.693609],[121.299248,23.693429],[121.299444,23.693431]],[[121.299257,23.692707],[121.29916,23.692616],[121.299258,23.692617],[121.299257,23.692707]],[[121.298866,23.692612],[121.298867,23.692522],[121.299064,23.692524],[121.299062,23.692614],[121.298866,23.692612]]],[[[121.301778,23.694902],[121.301977,23.694723],[121.301979,23.694543],[121.301492,23.694267],[121.301392,23.694446],[121.30149,23.694447],[121.301583,23.694809],[121.301778,23.694902]]],[[[121.298965,23.700108],[121.298772,23.699926],[121.298779,23.699384],[121.298976,23.699296],[121.299081,23.698755],[121.299377,23.698578],[121.29938,23.698397],[121.300067,23.698314],[121.300168,23.698135],[121.300462,23.698138],[121.300557,23.69832],[121.300852,23.698323],[121.300853,23.698233],[121.301246,23.698147],[121.301743,23.69761],[121.30155,23.697428],[121.300765,23.697419],[121.300566,23.697688],[121.300074,23.697773],[121.300176,23.697503],[121.300371,23.697595],[121.300471,23.697416],[121.300374,23.697324],[121.300177,23.697413],[121.300081,23.697231],[121.299982,23.69732],[121.299787,23.697228],[121.299687,23.697407],[121.299976,23.697772],[121.299679,23.698039],[121.298989,23.698303],[121.298991,23.698122],[121.299386,23.697946],[121.299289,23.697854],[121.29939,23.697585],[121.299195,23.697492],[121.299299,23.697042],[121.299201,23.697041],[121.299108,23.696678],[121.298913,23.696586],[121.299024,23.695594],[121.298635,23.695319],[121.298541,23.695047],[121.298147,23.695133],[121.298353,23.694413],[121.298451,23.694414],[121.298455,23.694053],[121.29826,23.69396],[121.298159,23.69423],[121.297962,23.694318],[121.298056,23.69459],[121.297858,23.694768],[121.297854,23.695039],[121.297658,23.695037],[121.297659,23.694947],[121.297462,23.695035],[121.29746,23.695216],[121.297752,23.695399],[121.297748,23.69567],[121.297552,23.695668],[121.297452,23.695848],[121.298035,23.696215],[121.297936,23.696304],[121.298028,23.696757],[121.298126,23.696758],[121.298025,23.697028],[121.298315,23.697302],[121.298215,23.697481],[121.29841,23.697574],[121.298406,23.697845],[121.298209,23.697933],[121.298305,23.698114],[121.298207,23.698113],[121.298202,23.698474],[121.297903,23.698832],[121.297897,23.699284],[121.297499,23.699731],[121.297693,23.699914],[121.297889,23.699916],[121.297883,23.700367],[121.29798,23.700459],[121.299059,23.70047],[121.298965,23.700108]],[[121.298289,23.699288],[121.298386,23.699379],[121.298288,23.699378],[121.298289,23.699288]],[[121.298388,23.699289],[121.298487,23.6992],[121.298486,23.69929],[121.298388,23.699289]],[[121.298599,23.698118],[121.298502,23.698026],[121.2986,23.698027],[121.298599,23.698118]],[[121.301153,23.697784],[121.301052,23.697964],[121.300759,23.69787],[121.300761,23.69778],[121.301153,23.697784]],[[121.299095,23.697672],[121.298998,23.69758],[121.299096,23.697581],[121.299095,23.697672]]],[[[121.294666,23.698887],[121.294473,23.698704],[121.294179,23.698701],[121.29418,23.698611],[121.29408,23.6987],[121.293884,23.698698],[121.293886,23.698608],[121.293786,23.698697],[121.29359,23.698695],[121.293591,23.698604],[121.2931,23.698689],[121.293196,23.698871],[121.294079,23.69879],[121.294175,23.698972],[121.294566,23.699067],[121.294666,23.698887]]],[[[121.294664,23.699068],[121.294858,23.69925],[121.295249,23.699345],[121.295349,23.699165],[121.295544,23.699258],[121.295744,23.698989],[121.296038,23.698992],[121.296039,23.698902],[121.296427,23.699268],[121.296625,23.699089],[121.29643,23.698997],[121.296432,23.698816],[121.296239,23.698633],[121.295748,23.698628],[121.295648,23.698808],[121.295452,23.698805],[121.295154,23.699073],[121.294764,23.698888],[121.294664,23.699068]],[[121.295352,23.698985],[121.295448,23.699076],[121.29535,23.699075],[121.295352,23.698985]]],[[[121.312364,23.687613],[121.312459,23.687885],[121.312654,23.687977],[121.312753,23.687888],[121.312759,23.687437],[121.312273,23.68707],[121.312179,23.686798],[121.311885,23.686795],[121.311883,23.686885],[121.311394,23.68679],[121.311295,23.686879],[121.311392,23.68697],[121.311389,23.687241],[121.311291,23.68724],[121.311284,23.687782],[121.31138,23.687873],[121.311777,23.687516],[121.311585,23.687243],[121.311977,23.687248],[121.311976,23.687338],[121.312364,23.687613]],[[121.312171,23.68743],[121.31227,23.687341],[121.312269,23.687431],[121.312171,23.68743]]],[[[121.310685,23.688588],[121.310881,23.68859],[121.311081,23.688321],[121.310984,23.68823],[121.31059,23.688316],[121.310292,23.688674],[121.310487,23.688766],[121.310685,23.688588]]],[[[121.303112,23.690311],[121.303307,23.690404],[121.303605,23.690136],[121.303214,23.690041],[121.303215,23.689951],[121.302529,23.689944],[121.302429,23.690123],[121.302622,23.690306],[121.302231,23.690211],[121.302131,23.690391],[121.302228,23.690482],[121.302424,23.690484],[121.302425,23.690394],[121.302718,23.690487],[121.302817,23.690398],[121.303011,23.690581],[121.303112,23.690311]],[[121.30272,23.690307],[121.302721,23.690217],[121.302918,23.690219],[121.302916,23.690309],[121.30272,23.690307]]],[[[121.308588,23.691545],[121.308884,23.691368],[121.308889,23.691006],[121.308694,23.690914],[121.308793,23.690825],[121.308696,23.690733],[121.3088,23.690283],[121.308605,23.690191],[121.308506,23.69028],[121.308603,23.690371],[121.3086,23.690552],[121.308502,23.690551],[121.308596,23.690913],[121.308498,23.690912],[121.308393,23.691453],[121.308588,23.691545]]],[[[121.306034,23.691878],[121.305838,23.691876],[121.305841,23.691605],[121.305939,23.691606],[121.305844,23.691425],[121.305943,23.691335],[121.30565,23.691242],[121.305253,23.691599],[121.305251,23.691779],[121.304756,23.692135],[121.304754,23.692316],[121.304948,23.692408],[121.305248,23.69196],[121.305543,23.691963],[121.305541,23.692053],[121.305737,23.692056],[121.305827,23.692689],[121.306022,23.692781],[121.306717,23.692157],[121.306621,23.691975],[121.306033,23.691969],[121.306034,23.691878]]],[[[121.307011,23.69216],[121.30711,23.692071],[121.307014,23.691889],[121.306719,23.691976],[121.306815,23.692158],[121.307011,23.69216]]],[[[121.303827,23.695737],[121.303925,23.695738],[121.304026,23.695468],[121.30422,23.695651],[121.304416,23.695653],[121.304714,23.695385],[121.304717,23.695115],[121.304915,23.695026],[121.304917,23.694846],[121.305411,23.69458],[121.305316,23.694308],[121.305512,23.694311],[121.30581,23.694043],[121.305816,23.693592],[121.306114,23.693234],[121.30602,23.692962],[121.305823,23.69305],[121.305819,23.693321],[121.305721,23.69332],[121.305518,23.693859],[121.305026,23.694034],[121.304727,23.694392],[121.304531,23.69439],[121.304134,23.694747],[121.304031,23.695107],[121.303638,23.695193],[121.303735,23.695284],[121.30373,23.695646],[121.303532,23.695824],[121.303626,23.696096],[121.303823,23.696008],[121.303827,23.695737]]],[[[121.302239,23.697164],[121.302434,23.697257],[121.302634,23.696988],[121.303027,23.696902],[121.302934,23.69654],[121.30323,23.696362],[121.303234,23.696092],[121.303431,23.696003],[121.303335,23.695822],[121.303041,23.695819],[121.302841,23.696178],[121.302744,23.696086],[121.302546,23.696174],[121.302543,23.696445],[121.302246,23.696623],[121.302244,23.696803],[121.301948,23.696981],[121.301846,23.69725],[121.302139,23.697344],[121.302239,23.697164]]]]}},{"type":"Feature","properties":{"kind":"water","month":"2017-03","area_ha":0.24},"geometry":{"type":"Polygon","coordinates":[[[121.298989,23.698303],[121.29909,23.698033],[121.299484,23.697947],[121.299486,23.697766],[121.29988,23.69759],[121.299877,23.697861],[121.299679,23.698039],[121.298989,23.698303]]]}}]}