{"type":"FeatureCollection","features":[{"type":"Feature","properties":{"kind":"bare_slide","month":"2017-09","area_ha":5.5},"geometry":{"type":"MultiPolygon","coordinates":[[[[121.297029,23.713271],[121.297328,23.712913],[121.298113,23.712921],[121.298402,23.713286],[121.298599,23.713198],[121.298602,23.713017],[121.298407,23.712925],[121.298218,23.712381],[121.298022,23.712379],[121.297921,23.712558],[121.297529,23.712554],[121.297335,23.712371],[121.297339,23.7121],[121.297144,23.712008],[121.297042,23.712277],[121.296846,23.712275],[121.296744,23.712545],[121.296646,23.712544],[121.296644,23.712725],[121.296937,23.712818],[121.296834,23.713178],[121.297029,23.713271]]],[[[121.294156,23.715496],[121.294157,23.715406],[121.294648,23.715412],[121.294748,23.715232],[121.295435,23.71524],[121.295534,23.71515],[121.295438,23.714969],[121.295735,23.714791],[121.295648,23.713888],[121.295746,23.713889],[121.295849,23.713529],[121.296144,23.713441],[121.296154,23.712719],[121.296057,23.712628],[121.295759,23.712895],[121.295563,23.712893],[121.295463,23.713073],[121.295268,23.71298],[121.295167,23.71316],[121.294774,23.713246],[121.294672,23.713516],[121.294176,23.713962],[121.293881,23.714049],[121.293777,23.714499],[121.293581,23.714497],[121.293382,23.714675],[121.29377,23.715041],[121.293768,23.715221],[121.293569,23.7154],[121.293666,23.715491],[121.294156,23.715496]],[[121.294062,23.715224],[121.294161,23.715135],[121.29416,23.715226],[121.294062,23.715224]],[[121.294261,23.714956],[121.294164,23.714864],[121.294069,23.714683],[121.294461,23.714687],[121.294457,23.714958],[121.294261,23.714956]],[[121.295154,23.714153],[121.295348,23.714336],[121.295346,23.714516],[121.295147,23.714695],[121.294951,23.714693],[121.294758,23.71451],[121.29476,23.714329],[121.294958,23.714151],[121.295154,23.714153]],[[121.295154,23.714153],[121.295254,23.714064],[121.295253,23.714154],[121.295154,23.714153]]]]}},{"type":"Feature","properties":{"kind":"bare_dam","month":"2017-09","area_ha":8.42},"geometry":{"type":"MultiPolygon","coordinates":[[[[121.297905,23.691157],[121.298401,23.690711],[121.298696,23.690624],[121.298405,23.69035],[121.298313,23.689897],[121.298018,23.689984],[121.297819,23.690163],[121.297817,23.690343],[121.29762,23.690431],[121.297614,23.690883],[121.297905,23.691157]]],[[[121.298771,23.692431],[121.298773,23.69225],[121.298287,23.691884],[121.298185,23.692244],[121.298478,23.692337],[121.298573,23.692519],[121.298771,23.692431]]],[[[121.299729,23.694157],[121.299341,23.693791],[121.299345,23.693521],[121.29915,23.693428],[121.299153,23.693157],[121.298959,23.693065],[121.298964,23.692613],[121.298769,23.692521],[121.29857,23.69279],[121.298668,23.692791],[121.298664,23.693062],[121.298859,23.693154],[121.298953,23.693516],[121.298654,23.693874],[121.298947,23.693968],[121.298946,23.694058],[121.299533,23.694155],[121.299532,23.694245],[121.299729,23.694157]]],[[[121.298343,23.695135],[121.298245,23.695134],[121.298251,23.694682],[121.298349,23.694684],[121.298353,23.694413],[121.298451,23.694414],[121.298553,23.694054],[121.298262,23.69387],[121.29816,23.69414],[121.297865,23.694227],[121.298059,23.694409],[121.298056,23.69459],[121.297858,23.694768],[121.297854,23.695039],[121.298145,23.695313],[121.298343,23.695135]]],[[[121.298625,23.696131],[121.29843,23.696039],[121.298329,23.696218],[121.298524,23.696311],[121.298625,23.696131]]],[[[121.2989,23.697579],[121.299493,23.697224],[121.299496,23.696954],[121.2994,23.696862],[121.299202,23.69695],[121.298918,23.696225],[121.298723,23.696132],[121.298621,23.696402],[121.298523,23.696401],[121.298518,23.696762],[121.298713,23.696855],[121.298609,23.697305],[121.2989,23.697579]]],[[[121.301043,23.691101],[121.300751,23.690917],[121.300757,23.690466],[121.300563,23.690283],[121.300366,23.690371],[121.300364,23.690552],[121.300165,23.69073],[121.299969,23.690728],[121.299776,23.690545],[121.29978,23.690184],[121.299878,23.690185],[121.299783,23.690004],[121.299584,23.690182],[121.299291,23.690089],[121.29919,23.690358],[121.298893,23.690536],[121.298989,23.690717],[121.299773,23.690726],[121.299967,23.690909],[121.30006,23.691271],[121.300943,23.691281],[121.301043,23.691101]]],[[[121.30691,23.692339],[121.307697,23.692167],[121.307798,23.691988],[121.308092,23.691991],[121.30839,23.691633],[121.308097,23.69154],[121.308096,23.69163],[121.307507,23.691714],[121.307405,23.691984],[121.307112,23.69189],[121.307114,23.6918],[121.306818,23.691887],[121.306719,23.691976],[121.306814,23.692248],[121.306615,23.692426],[121.30681,23.692519],[121.30691,23.692339]]],[[[121.303285,23.692119],[121.303578,23.692213],[121.303577,23.692303],[121.303774,23.692215],[121.303568,23.693025],[121.303858,23.693299],[121.304056,23.693211],[121.304248,23.693484],[121.304741,23.693309],[121.304845,23.692858],[121.304456,23.692583],[121.304161,23.69267],[121.304066,23.692398],[121.304262,23.692401],[121.304363,23.692221],[121.303684,23.691582],[121.30339,23.691578],[121.3031,23.691304],[121.302803,23.691482],[121.302707,23.6913],[121.302413,23.691297],[121.302319,23.691025],[121.301336,23.691195],[121.301431,23.691467],[121.301725,23.69147],[121.301918,23.691653],[121.302409,23.691658],[121.302408,23.691748],[121.3028,23.691752],[121.302799,23.691843],[121.303093,23.691846],[121.303091,23.691936],[121.303387,23.691849],[121.303285,23.692119]],[[121.303195,23.691486],[121.303096,23.691575],[121.303097,23.691485],[121.303195,23.691486]],[[121.303387,23.691849],[121.303486,23.69176],[121.303485,23.69185],[121.303387,23.691849]]],[[[121.305613,23.694131],[121.305811,23.693953],[121.305816,23.693592],[121.305914,23.693593],[121.305818,23.693411],[121.305621,23.693499],[121.305618,23.69368],[121.305222,23.694037],[121.305613,23.694131]]],[[[121.304428,23.69475],[121.304821,23.694664],[121.304825,23.694393],[121.305121,23.694216],[121.305026,23.694034],[121.304133,23.694837],[121.304328,23.69493],[121.304428,23.69475]]]]}},{"type":"Feature","properties":{"kind":"water","month":"2017-09","area_ha":0.29},"geometry":{"type":"MultiPolygon","coordinates":[[[[121.305021,23.694396],[121.305118,23.694487],[121.305412,23.69449],[121.30571,23.694222],[121.305613,23.694131],[121.305122,23.694126],[121.305023,23.694215],[121.305021,23.694396]]],[[[121.304918,23.694756],[121.305016,23.694757],[121.305021,23.694396],[121.304825,23.694393],[121.304918,23.694756]]],[[[121.304723,23.694663],[121.30482,23.694755],[121.304821,23.694664],[121.304723,23.694663]]]]}}]}