{"type":"FeatureCollection","features":[{"type":"Feature","properties":{"kind":"bare_slide","month":"2017-02","area_ha":61.12},"geometry":{"type":"MultiPolygon","coordinates":[[[[121.29428,23.706016],[121.294184,23.705835],[121.294482,23.705567],[121.294191,23.705293],[121.294092,23.705382],[121.293897,23.70529],[121.293599,23.705557],[121.293592,23.706099],[121.29369,23.7061],[121.293587,23.70646],[121.293684,23.706552],[121.294176,23.706467],[121.294275,23.706378],[121.294181,23.706015],[121.29428,23.706016]]],[[[121.294666,23.706472],[121.29457,23.706291],[121.294374,23.706288],[121.294274,23.706468],[121.294567,23.706561],[121.294666,23.706472]]],[[[121.293575,23.714948],[121.293973,23.714501],[121.294363,23.714686],[121.294662,23.714328],[121.294957,23.714241],[121.29486,23.71415],[121.294961,23.71397],[121.295353,23.713975],[121.295354,23.713884],[121.295747,23.713798],[121.295653,23.713526],[121.295949,23.713349],[121.296055,23.712808],[121.296153,23.712809],[121.296059,23.712447],[121.295862,23.712535],[121.295857,23.712897],[121.295659,23.713075],[121.295463,23.713073],[121.295362,23.713252],[121.294773,23.713336],[121.29388,23.714139],[121.293777,23.714499],[121.29338,23.714856],[121.293575,23.714948]]],[[[121.284018,23.718274],[121.284412,23.718188],[121.284512,23.718008],[121.285002,23.718014],[121.2855,23.717478],[121.285794,23.717481],[121.285894,23.717301],[121.286287,23.717306],[121.28648,23.717488],[121.286478,23.717669],[121.286082,23.717936],[121.286178,23.718117],[121.286968,23.717674],[121.286875,23.717312],[121.287169,23.717315],[121.287168,23.717406],[121.287365,23.717318],[121.287461,23.717499],[121.287657,23.717501],[121.28776,23.717141],[121.288152,23.717146],[121.28815,23.717326],[121.288443,23.71742],[121.288539,23.717602],[121.289126,23.717698],[121.289127,23.717608],[121.289422,23.717521],[121.289524,23.717251],[121.289621,23.717343],[121.289818,23.717255],[121.289725,23.716892],[121.290118,23.716806],[121.290119,23.716716],[121.290414,23.716719],[121.290516,23.716359],[121.29081,23.716362],[121.291011,23.716004],[121.290816,23.715911],[121.290815,23.716001],[121.290619,23.715999],[121.290519,23.716179],[121.290323,23.716177],[121.290124,23.716355],[121.289635,23.716259],[121.289539,23.716078],[121.289241,23.716345],[121.288555,23.716338],[121.28856,23.715976],[121.288856,23.715799],[121.28886,23.715528],[121.289057,23.71544],[121.28906,23.71526],[121.289256,23.715262],[121.289253,23.715442],[121.289545,23.715626],[121.289444,23.715896],[121.28954,23.715987],[121.289738,23.715899],[121.289643,23.715627],[121.290039,23.715361],[121.290041,23.71518],[121.290337,23.715093],[121.290243,23.714731],[121.289851,23.714727],[121.289653,23.714905],[121.289162,23.714899],[121.289062,23.715079],[121.288866,23.715077],[121.288764,23.715347],[121.288567,23.715435],[121.288565,23.715615],[121.288468,23.715524],[121.288269,23.715702],[121.288074,23.71561],[121.287974,23.715789],[121.288168,23.715972],[121.287971,23.71597],[121.28797,23.71606],[121.287481,23.715964],[121.287283,23.716143],[121.28728,23.716323],[121.287183,23.716232],[121.286986,23.71632],[121.286885,23.71659],[121.286592,23.716496],[121.286491,23.716676],[121.286295,23.716674],[121.286096,23.716852],[121.285803,23.716759],[121.285703,23.716938],[121.284919,23.716929],[121.284629,23.716565],[121.284433,23.716563],[121.284235,23.716741],[121.284232,23.716922],[121.283937,23.717009],[121.284036,23.71692],[121.28394,23.716738],[121.283549,23.716643],[121.283548,23.716734],[121.283155,23.716819],[121.283255,23.71664],[121.28306,23.716548],[121.282563,23.717084],[121.28266,23.717175],[121.282955,23.717088],[121.283051,23.71727],[121.283345,23.717273],[121.283539,23.717456],[121.283536,23.717636],[121.282942,23.718081],[121.28294,23.718262],[121.283233,23.718355],[121.283333,23.718176],[121.283529,23.718178],[121.283722,23.718451],[121.283918,23.718453],[121.284018,23.718274]],[[121.283631,23.717908],[121.283534,23.717817],[121.283632,23.717818],[121.283631,23.717908]],[[121.287569,23.716778],[121.287966,23.716421],[121.288059,23.716784],[121.287569,23.716778]],[[121.28955,23.715265],[121.289453,23.715174],[121.289551,23.715175],[121.28955,23.715265]]],[[[121.286737,23.720381],[121.287035,23.720113],[121.287132,23.720205],[121.287525,23.720119],[121.287527,23.719938],[121.287041,23.719662],[121.287046,23.71921],[121.287341,23.719214],[121.287441,23.719034],[121.287247,23.718851],[121.287347,23.718762],[121.28764,23.718856],[121.287839,23.718587],[121.287742,23.718496],[121.28686,23.718486],[121.286763,23.718395],[121.286863,23.718215],[121.286668,23.718123],[121.28647,23.718301],[121.286468,23.718482],[121.285977,23.718476],[121.285878,23.718565],[121.286072,23.718748],[121.286067,23.719109],[121.28577,23.719287],[121.285768,23.719467],[121.285866,23.719468],[121.285863,23.719739],[121.286058,23.719832],[121.286151,23.720194],[121.286641,23.720199],[121.286737,23.720381]]],[[[121.297128,23.720767],[121.297227,23.720677],[121.29713,23.720586],[121.297232,23.720316],[121.297037,23.720224],[121.297142,23.719683],[121.296849,23.71959],[121.296745,23.72004],[121.296647,23.720039],[121.29684,23.720312],[121.296541,23.72067],[121.296638,23.720761],[121.296737,23.720672],[121.297128,23.720767]]],[[[121.287885,23.722561],[121.287686,23.722829],[121.28749,23.722827],[121.287389,23.723007],[121.287486,23.723098],[121.287978,23.723013],[121.287779,23.723192],[121.287777,23.723372],[121.28807,23.723466],[121.289163,23.722394],[121.289653,23.7224],[121.289753,23.72222],[121.289949,23.722222],[121.290143,23.722405],[121.290135,23.723037],[121.290717,23.723495],[121.290713,23.723856],[121.290515,23.723944],[121.29061,23.724216],[121.290806,23.724218],[121.291302,23.723772],[121.291595,23.723866],[121.291894,23.723508],[121.29219,23.723421],[121.292096,23.723059],[121.2919,23.723057],[121.291899,23.723147],[121.291606,23.723053],[121.291506,23.723233],[121.291604,23.723234],[121.291698,23.723506],[121.2915,23.723684],[121.291207,23.723591],[121.291112,23.723319],[121.291409,23.723142],[121.291411,23.722961],[121.291709,23.722693],[121.291902,23.722876],[121.292101,23.722698],[121.29181,23.722424],[121.291516,23.72242],[121.291415,23.72269],[121.291118,23.722867],[121.29112,23.722687],[121.290634,23.722411],[121.29103,23.722054],[121.291324,23.722147],[121.291424,23.721968],[121.291327,23.721876],[121.29113,23.721965],[121.291035,23.721693],[121.290453,23.721235],[121.29046,23.720693],[121.290558,23.720694],[121.290462,23.720512],[121.290066,23.720779],[121.290062,23.72114],[121.28977,23.720956],[121.289871,23.720686],[121.290068,23.720689],[121.290564,23.720243],[121.290467,23.720151],[121.290568,23.719881],[121.290373,23.719789],[121.290381,23.719247],[121.290775,23.719071],[121.290682,23.718709],[121.291075,23.718623],[121.291269,23.718806],[121.291372,23.718446],[121.291569,23.718357],[121.291475,23.718086],[121.29177,23.717998],[121.291674,23.717817],[121.291477,23.717905],[121.291479,23.717724],[121.291677,23.717636],[121.291581,23.717455],[121.291284,23.717632],[121.291381,23.717723],[121.291278,23.718083],[121.291082,23.718081],[121.291085,23.717901],[121.29089,23.717808],[121.290493,23.718165],[121.289902,23.718339],[121.290288,23.718795],[121.290284,23.719156],[121.29009,23.718973],[121.289893,23.719061],[121.289987,23.719333],[121.289789,23.719512],[121.289984,23.719604],[121.290077,23.719966],[121.289581,23.720412],[121.289288,23.720319],[121.289089,23.720497],[121.288697,23.720493],[121.288696,23.720583],[121.288501,23.720491],[121.2885,23.720581],[121.288204,23.720668],[121.288205,23.720578],[121.287813,23.720573],[121.287816,23.720393],[121.287524,23.720209],[121.287423,23.720388],[121.287228,23.720296],[121.287128,23.720475],[121.286833,23.720563],[121.286826,23.721104],[121.286628,23.721192],[121.286624,23.721553],[121.286818,23.721646],[121.286813,23.722097],[121.287008,23.72219],[121.287005,23.72237],[121.286609,23.722637],[121.286606,23.722908],[121.286408,23.722996],[121.286503,23.723268],[121.286797,23.723271],[121.286896,23.723182],[121.286801,23.723],[121.286998,23.722912],[121.287,23.722732],[121.287097,23.722823],[121.287295,23.722735],[121.287402,23.722014],[121.287599,23.721925],[121.287603,23.721655],[121.287801,23.721476],[121.287998,23.721478],[121.288191,23.721661],[121.288189,23.721842],[121.288091,23.721841],[121.288187,23.722022],[121.288482,23.721935],[121.28868,23.721757],[121.288683,23.721576],[121.288879,23.721578],[121.289072,23.721851],[121.289268,23.721854],[121.289066,23.722303],[121.288673,23.722299],[121.288573,23.722478],[121.288378,23.722386],[121.288276,23.722655],[121.28808,23.722653],[121.288081,23.722563],[121.287885,23.722561]],[[121.290267,23.72042],[121.29017,23.720329],[121.290268,23.72033],[121.290267,23.72042]],[[121.287423,23.720388],[121.28752,23.72048],[121.287422,23.720479],[121.287423,23.720388]],[[121.288276,23.722655],[121.288373,23.722747],[121.288275,23.722746],[121.288276,23.722655]],[[121.289179,23.72113],[121.289082,23.721039],[121.288884,23.721217],[121.288689,23.721125],[121.288792,23.720765],[121.288988,23.720767],[121.288986,23.720857],[121.28938,23.720771],[121.289671,23.721045],[121.289368,23.721674],[121.28927,23.721673],[121.289274,23.721402],[121.289176,23.721401],[121.289179,23.72113]],[[121.28839,23.721483],[121.288487,23.721574],[121.288389,23.721573],[121.28839,23.721483]],[[121.288488,23.721484],[121.288587,23.721395],[121.288586,23.721485],[121.288488,23.721484]],[[121.28839,23.721483],[121.288293,23.721391],[121.288391,23.721392],[121.28839,23.721483]]],[[[121.296721,23.721936],[121.296723,23.721755],[121.296821,23.721756],[121.296728,23.721394],[121.296926,23.721216],[121.296731,23.721123],[121.296735,23.720852],[121.29654,23.72076],[121.296341,23.720938],[121.296436,23.72121],[121.296238,23.721299],[121.296045,23.721116],[121.295944,23.721295],[121.296235,23.721569],[121.296334,23.72148],[121.296529,23.721573],[121.296527,23.721753],[121.296625,23.721754],[121.296522,23.722114],[121.296619,23.722206],[121.296816,23.722118],[121.296819,23.721937],[121.296721,23.721936]]],[[[121.295123,23.724086],[121.29503,23.723723],[121.294835,23.723631],[121.295043,23.72273],[121.294849,23.722547],[121.294553,23.722725],[121.294459,23.722362],[121.294263,23.72236],[121.294162,23.72263],[121.293866,23.722717],[121.293868,23.722537],[121.29377,23.722535],[121.293871,23.722356],[121.293773,23.722355],[121.293776,23.722084],[121.293678,23.722083],[121.293585,23.721721],[121.293391,23.721538],[121.293195,23.721536],[121.293197,23.721355],[121.292905,23.721171],[121.292911,23.72072],[121.292716,23.720628],[121.292615,23.720897],[121.292517,23.720896],[121.292511,23.721348],[121.292315,23.721346],[121.292116,23.721524],[121.291822,23.721521],[121.29162,23.72197],[121.291912,23.722154],[121.292012,23.721974],[121.292403,23.722069],[121.292504,23.721889],[121.2927,23.721892],[121.293087,23.722257],[121.293084,23.722528],[121.29386,23.723169],[121.293857,23.723439],[121.294052,23.723532],[121.293949,23.723892],[121.294143,23.724075],[121.294437,23.724078],[121.294533,23.72426],[121.294827,23.724263],[121.294828,23.724173],[121.295123,23.724086]]],[[[121.292264,23.725228],[121.292463,23.725049],[121.292465,23.724869],[121.29227,23.724776],[121.292072,23.724955],[121.292069,23.725135],[121.292264,23.725228]]],[[[121.2959,23.724726],[121.295602,23.724994],[121.295308,23.724991],[121.295107,23.72535],[121.294911,23.725347],[121.294718,23.725074],[121.294521,23.725162],[121.294231,23.724798],[121.29384,23.724703],[121.293642,23.724882],[121.293638,23.725153],[121.293442,23.725151],[121.293342,23.72533],[121.29305,23.725146],[121.292949,23.725326],[121.293337,23.725691],[121.293533,23.725693],[121.293634,23.725514],[121.294026,23.725518],[121.29422,23.725701],[121.294216,23.725972],[121.29451,23.725975],[121.294513,23.725794],[121.294611,23.725796],[121.294517,23.725433],[121.294615,23.725434],[121.294614,23.725525],[121.29481,23.725527],[121.29471,23.725706],[121.294904,23.725889],[121.2951,23.725891],[121.295298,23.725713],[121.295691,23.725717],[121.295786,23.725899],[121.296375,23.725905],[121.29647,23.726087],[121.296765,23.72609],[121.296865,23.725911],[121.296767,23.72591],[121.296676,23.725367],[121.296974,23.725099],[121.29717,23.725101],[121.297266,23.725283],[121.297464,23.725105],[121.297659,23.725197],[121.298056,23.72484],[121.298159,23.72448],[121.297769,23.724295],[121.297868,23.724206],[121.297772,23.724024],[121.297281,23.724109],[121.29728,23.7242],[121.296594,23.724102],[121.296395,23.72437],[121.296298,23.724279],[121.296002,23.724366],[121.295804,23.724544],[121.2959,23.724726]],[[121.296096,23.724728],[121.296095,23.724819],[121.295899,23.724816],[121.2959,23.724726],[121.296096,23.724728]],[[121.29491,23.725438],[121.295008,23.725439],[121.295005,23.725619],[121.294907,23.725618],[121.29491,23.725438]],[[121.296487,23.724823],[121.296586,23.724734],[121.296585,23.724824],[121.296487,23.724823]],[[121.296782,23.724736],[121.296882,23.724647],[121.29688,23.724737],[121.296782,23.724736]]],[[[121.292646,23.726045],[121.292749,23.725685],[121.292456,23.725591],[121.292257,23.72577],[121.292447,23.726223],[121.292251,23.726221],[121.29225,23.726311],[121.291663,23.726214],[121.291665,23.726034],[121.291861,23.726036],[121.29206,23.725858],[121.292062,23.725677],[121.292259,23.725589],[121.292166,23.725227],[121.29167,23.725673],[121.291376,23.72567],[121.291177,23.725848],[121.291271,23.72621],[121.291565,23.726213],[121.291562,23.726394],[121.292837,23.726408],[121.292841,23.726137],[121.292646,23.726045]]],[[[121.299115,23.703722],[121.299111,23.703993],[121.299209,23.703994],[121.299108,23.704264],[121.299204,23.704355],[121.299106,23.704354],[121.299103,23.704625],[121.299005,23.704624],[121.299001,23.704894],[121.298903,23.704893],[121.298897,23.705345],[121.298505,23.705341],[121.298306,23.705609],[121.297617,23.705782],[121.297709,23.706235],[121.297903,23.706418],[121.298393,23.706423],[121.298586,23.706696],[121.298783,23.706608],[121.298887,23.706157],[121.299085,23.705979],[121.299091,23.705528],[121.299189,23.705529],[121.299095,23.705257],[121.299193,23.705258],[121.299197,23.704897],[121.299295,23.704898],[121.299401,23.704357],[121.299499,23.704358],[121.299507,23.703726],[121.299214,23.703633],[121.299217,23.703362],[121.299119,23.703361],[121.299123,23.70309],[121.299025,23.703089],[121.299125,23.702909],[121.298834,23.702635],[121.298934,23.702546],[121.299047,23.701373],[121.298753,23.70137],[121.298657,23.701188],[121.298069,23.701182],[121.298162,23.701544],[121.29826,23.701545],[121.298257,23.701816],[121.298059,23.701904],[121.298057,23.702085],[121.298155,23.702086],[121.29815,23.702447],[121.298344,23.70263],[121.29834,23.702991],[121.298438,23.702992],[121.298531,23.703354],[121.298918,23.70372],[121.299115,23.703722]],[[121.298823,23.703538],[121.298922,23.703449],[121.298921,23.703539],[121.298823,23.703538]],[[121.298736,23.702634],[121.29864,23.702543],[121.298738,23.702544],[121.298736,23.702634]]],[[[121.301407,23.708443],[121.301409,23.708262],[121.301116,23.708169],[121.301021,23.707987],[121.30063,23.707892],[121.300431,23.708071],[121.300239,23.707798],[121.299748,23.707792],[121.299361,23.707427],[121.298969,23.707423],[121.298869,23.707512],[121.298965,23.707693],[121.298768,23.707782],[121.298863,23.707963],[121.299158,23.707966],[121.29935,23.708239],[121.299549,23.708061],[121.299745,23.708063],[121.300034,23.708428],[121.300328,23.708431],[121.30043,23.708161],[121.300626,23.708163],[121.300722,23.708345],[121.300919,23.708257],[121.300917,23.708437],[121.300819,23.708436],[121.300914,23.708618],[121.301407,23.708443]]],[[[121.298241,23.710575],[121.298247,23.710124],[121.297763,23.709667],[121.29747,23.709573],[121.297477,23.709031],[121.297575,23.709033],[121.297578,23.708762],[121.297775,23.708674],[121.297582,23.708491],[121.297185,23.708848],[121.297181,23.709119],[121.296887,23.709115],[121.296787,23.709295],[121.297079,23.709479],[121.297173,23.709751],[121.297467,23.709754],[121.297661,23.709937],[121.297754,23.710299],[121.297949,23.710391],[121.297945,23.710752],[121.298043,23.710753],[121.298137,23.711025],[121.298335,23.710937],[121.298339,23.710576],[121.298241,23.710575]]],[[[121.301465,23.711513],[121.301367,23.711512],[121.301274,23.71115],[121.300788,23.710784],[121.300791,23.710603],[121.300304,23.710327],[121.300306,23.710146],[121.300014,23.709962],[121.300017,23.709782],[121.299823,23.709599],[121.299627,23.709597],[121.299238,23.709322],[121.298841,23.709679],[121.299035,23.709861],[121.299333,23.709594],[121.299525,23.709867],[121.299818,23.70996],[121.299815,23.710231],[121.299619,23.710229],[121.29942,23.710407],[121.299516,23.710589],[121.299714,23.710411],[121.300203,23.710506],[121.300299,23.710688],[121.300592,23.710781],[121.300589,23.711052],[121.300687,23.711053],[121.300781,23.711325],[121.301075,23.711329],[121.301267,23.711692],[121.301465,23.711513]]],[[[121.297631,23.712284],[121.298026,23.712017],[121.298029,23.711837],[121.298227,23.711658],[121.298135,23.711206],[121.297739,23.711472],[121.297736,23.711743],[121.297438,23.712011],[121.297631,23.712284]]],[[[121.297147,23.711737],[121.296951,23.711735],[121.296851,23.711914],[121.297045,23.712097],[121.297339,23.7121],[121.297439,23.711921],[121.297146,23.711827],[121.297147,23.711737]]],[[[121.301526,23.714404],[121.301624,23.714405],[121.301532,23.713952],[121.30163,23.713953],[121.301633,23.713682],[121.301731,23.713684],[121.301639,23.713231],[121.30193,23.713505],[121.30223,23.713057],[121.302132,23.713056],[121.302037,23.712784],[121.301841,23.712782],[121.30184,23.712872],[121.301645,23.71278],[121.301555,23.712146],[121.30136,23.712054],[121.30126,23.712234],[121.301064,23.712231],[121.300865,23.71241],[121.300856,23.713132],[121.300954,23.713133],[121.301045,23.713676],[121.30124,23.713768],[121.301233,23.71431],[121.301036,23.714398],[121.301033,23.714579],[121.301227,23.714762],[121.301423,23.714764],[121.301526,23.714404]],[[121.301839,23.712962],[121.301738,23.713142],[121.30164,23.713141],[121.301643,23.71296],[121.301839,23.712962]]],[[[121.297102,23.715258],[121.297107,23.714807],[121.297204,23.714898],[121.2975,23.714811],[121.297501,23.714721],[121.297697,23.714723],[121.297793,23.714904],[121.298284,23.71482],[121.298289,23.714458],[121.297998,23.714184],[121.297802,23.714182],[121.297807,23.713821],[121.297709,23.71382],[121.29781,23.71355],[121.297713,23.713459],[121.297516,23.713547],[121.297611,23.713819],[121.297413,23.713907],[121.297409,23.714268],[121.297113,23.714355],[121.297111,23.714536],[121.296914,23.714624],[121.29691,23.714895],[121.296712,23.715073],[121.296905,23.715256],[121.296903,23.715436],[121.296805,23.715435],[121.2969,23.715707],[121.297195,23.71562],[121.2972,23.715259],[121.297102,23.715258]],[[121.297503,23.71454],[121.297699,23.714542],[121.297698,23.714632],[121.297502,23.71463],[121.297503,23.71454]]],[[[121.298718,23.719159],[121.298917,23.71898],[121.298919,23.7188],[121.298821,23.718799],[121.29892,23.718709],[121.298926,23.718258],[121.299124,23.71808],[121.299321,23.718082],[121.299519,23.717903],[121.299622,23.717543],[121.299819,23.717455],[121.299821,23.717274],[121.300117,23.717187],[121.300123,23.716736],[121.300026,23.716645],[121.300223,23.716557],[121.300129,23.716285],[121.300424,23.716198],[121.300427,23.715927],[121.300525,23.715928],[121.30043,23.715746],[121.299836,23.716191],[121.299627,23.717182],[121.299429,23.71727],[121.299226,23.71781],[121.29903,23.717808],[121.298732,23.718075],[121.298628,23.718526],[121.298331,23.718793],[121.298035,23.71888],[121.298039,23.718609],[121.298237,23.718431],[121.298043,23.718248],[121.297942,23.718518],[121.297644,23.718786],[121.297739,23.719058],[121.298131,23.719062],[121.29813,23.719152],[121.298621,23.719067],[121.298718,23.719159]]],[[[121.302393,23.723172],[121.302295,23.723171],[121.302292,23.723442],[121.30239,23.723443],[121.302286,23.723893],[121.302576,23.724167],[121.30247,23.724798],[121.302272,23.724977],[121.301977,23.724974],[121.301876,23.725243],[121.301381,23.725599],[121.301672,23.725873],[121.301766,23.726145],[121.302162,23.725879],[121.302164,23.725698],[121.30236,23.7257],[121.302359,23.72579],[121.302557,23.725702],[121.302464,23.72525],[121.30266,23.725252],[121.302763,23.724892],[121.302861,23.724893],[121.302873,23.72399],[121.302776,23.723899],[121.303173,23.723542],[121.303467,23.723545],[121.303667,23.723276],[121.303863,23.723279],[121.304061,23.7231],[121.303966,23.722919],[121.303671,23.722915],[121.303674,23.722735],[121.30407,23.722468],[121.303974,23.722287],[121.303778,23.722284],[121.303676,23.722554],[121.303284,23.72255],[121.303286,23.722369],[121.303384,23.72237],[121.303289,23.722189],[121.302798,23.722183],[121.302508,23.721909],[121.302515,23.721368],[121.302321,23.721185],[121.302025,23.721272],[121.302034,23.72064],[121.302231,23.720552],[121.302238,23.72001],[121.302043,23.719918],[121.30194,23.720278],[121.301842,23.720277],[121.301736,23.720907],[121.301539,23.720996],[121.301636,23.721087],[121.301532,23.721537],[121.301628,23.721629],[121.301924,23.721542],[121.302215,23.721816],[121.302308,23.722178],[121.302503,23.72227],[121.302596,23.722633],[121.302399,23.722721],[121.302393,23.723172]],[[121.302595,23.722723],[121.302696,23.722543],[121.30289,23.722636],[121.302984,23.722998],[121.302595,23.722723]],[[121.302982,23.723179],[121.302885,23.723087],[121.302983,23.723088],[121.302982,23.723179]],[[121.30212,23.721544],[121.302122,23.721363],[121.30222,23.721364],[121.302218,23.721545],[121.30212,23.721544]]],[[[121.303216,23.727786],[121.303712,23.72734],[121.303719,23.726799],[121.303817,23.7268],[121.30382,23.726619],[121.303722,23.726618],[121.303824,23.726258],[121.303631,23.726075],[121.303235,23.726342],[121.303526,23.726616],[121.303522,23.726887],[121.303325,23.726975],[121.303318,23.727517],[121.303119,23.727695],[121.303216,23.727786]]],[[[121.30107,23.72686],[121.30097,23.727039],[121.301164,23.727222],[121.301458,23.727225],[121.302524,23.72823],[121.30272,23.728233],[121.302821,23.727963],[121.303118,23.727785],[121.303022,23.727604],[121.302729,23.72751],[121.302929,23.727242],[121.302444,23.726785],[121.302446,23.726694],[121.302741,23.726607],[121.302645,23.726426],[121.302253,23.726421],[121.301955,23.726689],[121.301953,23.72687],[121.301757,23.726867],[121.301756,23.726958],[121.30107,23.72686]],[[121.301953,23.72687],[121.30205,23.726961],[121.301952,23.72696],[121.301953,23.72687]]]]}},{"type":"Feature","properties":{"kind":"bare_dam","month":"2017-02","area_ha":17.99},"geometry":{"type":"MultiPolygon","coordinates":[[[[121.299669,23.691176],[121.299282,23.690811],[121.29948,23.690632],[121.299577,23.690724],[121.299872,23.690637],[121.299779,23.690275],[121.299978,23.690096],[121.299783,23.690004],[121.299882,23.689914],[121.299786,23.689733],[121.298708,23.689721],[121.298607,23.6899],[121.298018,23.689984],[121.297522,23.69043],[121.297614,23.690883],[121.297712,23.690884],[121.297807,23.691156],[121.298202,23.690889],[121.298496,23.690893],[121.298495,23.690983],[121.298692,23.690895],[121.298785,23.691347],[121.298978,23.69153],[121.299273,23.691533],[121.299274,23.691443],[121.299665,23.691537],[121.299764,23.691448],[121.299669,23.691176]],[[121.298792,23.690806],[121.298599,23.690532],[121.298798,23.690354],[121.299092,23.690357],[121.299285,23.69054],[121.299086,23.690809],[121.298792,23.690806]]],[[[121.302996,23.691755],[121.303382,23.69221],[121.303774,23.692215],[121.303773,23.692305],[121.30397,23.692217],[121.303873,23.692125],[121.303975,23.691856],[121.303684,23.691582],[121.303487,23.69167],[121.303197,23.691396],[121.302803,23.691482],[121.302804,23.691391],[121.302315,23.691296],[121.30222,23.691114],[121.301925,23.691111],[121.30183,23.690929],[121.301438,23.690925],[121.301439,23.690835],[121.301044,23.691011],[121.300949,23.690829],[121.300752,23.690827],[121.300756,23.690556],[121.300658,23.690555],[121.30066,23.690375],[121.300858,23.690286],[121.300762,23.690105],[121.300566,23.690103],[121.300565,23.690193],[121.300174,23.690098],[121.300074,23.690187],[121.300171,23.690279],[121.300072,23.690368],[121.300066,23.69082],[121.300359,23.690913],[121.300357,23.691094],[121.299764,23.691448],[121.29986,23.69163],[121.300253,23.691544],[121.300254,23.691454],[121.300646,23.691458],[121.300647,23.691368],[121.300744,23.691459],[121.301138,23.691373],[121.301428,23.691647],[121.301624,23.691649],[121.30172,23.691831],[121.301918,23.691653],[121.302996,23.691755]],[[121.300359,23.690913],[121.300458,23.690824],[121.300457,23.690914],[121.300359,23.690913]],[[121.301918,23.691653],[121.301822,23.691561],[121.30192,23.691562],[121.301918,23.691653]],[[121.303583,23.691851],[121.303486,23.69176],[121.303584,23.691761],[121.303583,23.691851]],[[121.301139,23.691283],[121.301042,23.691191],[121.30114,23.691192],[121.301139,23.691283]]],[[[121.301105,23.693901],[121.301007,23.6939],[121.30101,23.693629],[121.300428,23.693171],[121.300142,23.692536],[121.299751,23.692441],[121.29946,23.692167],[121.29897,23.692162],[121.298875,23.69198],[121.298579,23.692067],[121.298578,23.692158],[121.298384,23.691975],[121.298187,23.692063],[121.298185,23.692244],[121.298087,23.692243],[121.298182,23.692424],[121.298381,23.692246],[121.298577,23.692248],[121.298771,23.692431],[121.298569,23.69288],[121.298859,23.693154],[121.298857,23.693335],[121.298954,23.693426],[121.299444,23.693431],[121.299344,23.693611],[121.299051,23.693517],[121.29905,23.693608],[121.298754,23.693695],[121.298947,23.693968],[121.299241,23.693971],[121.29924,23.694061],[121.299631,23.694156],[121.299928,23.693888],[121.299833,23.693707],[121.300029,23.693709],[121.300319,23.693983],[121.300712,23.693987],[121.300709,23.694168],[121.301002,23.694261],[121.301105,23.693901]],[[121.300328,23.693351],[121.300231,23.693259],[121.300329,23.69326],[121.300328,23.693351]],[[121.299449,23.69307],[121.29945,23.69298],[121.299744,23.692983],[121.299743,23.693073],[121.299449,23.69307]],[[121.299257,23.692707],[121.29916,23.692616],[121.299258,23.692617],[121.299257,23.692707]],[[121.298867,23.692522],[121.298869,23.692432],[121.299065,23.692434],[121.299064,23.692524],[121.298867,23.692522]]],[[[121.300416,23.694074],[121.300221,23.693982],[121.300121,23.694161],[121.300316,23.694254],[121.300416,23.694074]]],[[[121.301878,23.694813],[121.302076,23.694634],[121.301396,23.694175],[121.301295,23.694355],[121.301587,23.694538],[121.301682,23.69481],[121.301781,23.694721],[121.301878,23.694813]]],[[[121.298604,23.697756],[121.298798,23.697849],[121.298997,23.697671],[121.299203,23.69686],[121.299105,23.696859],[121.299011,23.696587],[121.298815,23.696585],[121.298921,23.695954],[121.298824,23.695863],[121.298529,23.69595],[121.298433,23.695768],[121.298237,23.695766],[121.297939,23.696033],[121.297937,23.696214],[121.298035,23.696215],[121.297934,23.696485],[121.298032,23.696486],[121.298028,23.696757],[121.298126,23.696758],[121.298025,23.697028],[121.29822,23.69712],[121.298314,23.697392],[121.29851,23.697394],[121.298411,23.697483],[121.298507,23.697665],[121.298308,23.697844],[121.298503,23.697936],[121.298604,23.697756]],[[121.298703,23.697667],[121.298606,23.697576],[121.298704,23.697577],[121.298703,23.697667]],[[121.298524,23.696311],[121.298425,23.6964],[121.298521,23.696582],[121.298325,23.69658],[121.298329,23.696218],[121.298524,23.696311]]],[[[121.300168,23.698135],[121.300462,23.698138],[121.300461,23.698228],[121.300754,23.698322],[121.300755,23.698232],[121.301148,23.698146],[121.301645,23.697609],[121.301452,23.697427],[121.300863,23.69742],[121.300763,23.6976],[121.301154,23.697694],[121.301152,23.697875],[121.30027,23.697775],[121.30017,23.697954],[121.299877,23.697861],[121.299578,23.698219],[121.299969,23.698313],[121.300168,23.698135]]],[[[121.298965,23.700108],[121.298772,23.699926],[121.298779,23.699384],[121.298976,23.699296],[121.298978,23.699115],[121.299076,23.699116],[121.298982,23.698844],[121.299279,23.698577],[121.299182,23.698485],[121.298887,23.698572],[121.298988,23.698393],[121.298794,23.69821],[121.298595,23.698388],[121.298304,23.698205],[121.297903,23.698832],[121.298,23.698924],[121.298197,23.698836],[121.298293,23.699017],[121.298786,23.698842],[121.298783,23.699023],[121.298587,23.69902],[121.298386,23.699379],[121.2979,23.699103],[121.297798,23.699373],[121.297401,23.69973],[121.297889,23.699916],[121.297883,23.700367],[121.29798,23.700459],[121.299059,23.70047],[121.298965,23.700108]],[[121.298285,23.699649],[121.298188,23.699558],[121.298286,23.699559],[121.298285,23.699649]]],[[[121.31148,23.687784],[121.311778,23.687426],[121.311391,23.687061],[121.311292,23.68715],[121.311285,23.687692],[121.31148,23.687784]]],[[[121.312757,23.687617],[121.312658,23.687616],[121.312564,23.687344],[121.312269,23.687431],[121.312266,23.687612],[121.312461,23.687704],[121.312556,23.687976],[121.312753,23.687888],[121.312757,23.687617]]],[[[121.303209,23.690402],[121.303112,23.690311],[121.303505,23.690315],[121.303605,23.690136],[121.303411,23.689953],[121.302921,23.689948],[121.302922,23.689858],[121.302432,23.689852],[121.302332,23.690032],[121.302625,23.690125],[121.302623,23.690215],[121.302133,23.69021],[121.302034,23.690299],[121.30213,23.690481],[121.302816,23.690488],[121.302915,23.690399],[121.303011,23.690581],[121.303209,23.690402]],[[121.302818,23.690308],[121.302918,23.690219],[121.302916,23.690309],[121.302818,23.690308]],[[121.30282,23.690218],[121.302723,23.690126],[121.302821,23.690127],[121.30282,23.690218]]],[[[121.30593,23.692329],[121.306228,23.692061],[121.305935,23.691967],[121.305744,23.691514],[121.305153,23.691778],[121.305248,23.69196],[121.305641,23.691964],[121.30593,23.692329]]],[[[121.304817,23.695025],[121.305015,23.694847],[121.305118,23.694487],[121.304924,23.694304],[121.30463,23.694301],[121.304529,23.69448],[121.30482,23.694755],[121.304624,23.694752],[121.304524,23.694932],[121.304817,23.695025]]],[[[121.304028,23.695378],[121.304221,23.695561],[121.304417,23.695563],[121.304715,23.695295],[121.304717,23.695115],[121.304621,23.695023],[121.304423,23.695111],[121.304133,23.694837],[121.303933,23.695106],[121.303638,23.695193],[121.303829,23.695556],[121.304028,23.695378]]],[[[121.302241,23.697074],[121.302437,23.697076],[121.302438,23.696986],[121.302633,23.697078],[121.303028,23.696812],[121.302835,23.696629],[121.302837,23.696448],[121.303033,23.696451],[121.303332,23.696093],[121.303334,23.695912],[121.303141,23.695729],[121.302844,23.695907],[121.302842,23.696087],[121.302546,23.696174],[121.302444,23.696534],[121.302147,23.696712],[121.302145,23.696892],[121.301848,23.69707],[121.301846,23.69725],[121.302139,23.697344],[121.302241,23.697074]]]]}},{"type":"Feature","properties":{"kind":"water","month":"2017-02","area_ha":0.1},"geometry":{"type":"MultiPolygon","coordinates":[[[[121.298488,23.69911],[121.298587,23.69902],[121.298783,23.699023],[121.298786,23.698842],[121.29849,23.698929],[121.298488,23.69911]]],[[[121.298488,23.69911],[121.298291,23.699198],[121.298288,23.699378],[121.298486,23.69929],[121.298488,23.69911]]]]}}]}