{"type":"FeatureCollection","features":[{"type":"Feature","properties":{"kind":"bare_slide","month":"2018-08","area_ha":7.82},"geometry":{"type":"MultiPolygon","coordinates":[[[[121.298545,23.702271],[121.298645,23.702091],[121.298941,23.702004],[121.299047,23.701373],[121.298753,23.70137],[121.298657,23.701188],[121.298265,23.701184],[121.298355,23.701817],[121.298157,23.701905],[121.298153,23.702266],[121.29825,23.702358],[121.298545,23.702271]]],[[[121.299504,23.703907],[121.299507,23.703726],[121.299119,23.703361],[121.299123,23.70309],[121.298928,23.702997],[121.299029,23.702728],[121.298736,23.702634],[121.298439,23.702902],[121.298532,23.703264],[121.298726,23.703447],[121.298923,23.703359],[121.298921,23.703539],[121.299213,23.703723],[121.299307,23.703995],[121.299504,23.703907]]],[[[121.2982,23.70615],[121.298198,23.70633],[121.298489,23.706605],[121.298882,23.706519],[121.298985,23.706159],[121.299083,23.70616],[121.299192,23.705348],[121.298997,23.705256],[121.298798,23.705434],[121.298504,23.705431],[121.298306,23.705609],[121.298302,23.70588],[121.298496,23.706063],[121.2982,23.70615]],[[121.298496,23.706063],[121.298593,23.706154],[121.298495,23.706153],[121.298496,23.706063]]],[[[121.299747,23.707883],[121.299458,23.707518],[121.299067,23.707424],[121.298865,23.707873],[121.299546,23.708242],[121.299646,23.708152],[121.29955,23.707971],[121.299747,23.707883]]],[[[121.299842,23.708155],[121.30023,23.70843],[121.300428,23.708342],[121.30043,23.708161],[121.301017,23.708258],[121.301113,23.708439],[121.30131,23.708351],[121.301216,23.708079],[121.300921,23.708076],[121.300923,23.707986],[121.300628,23.707983],[121.30063,23.707892],[121.300334,23.707979],[121.30014,23.707797],[121.299747,23.707883],[121.299842,23.708155]]],[[[121.301445,23.713048],[121.301447,23.712958],[121.301741,23.712961],[121.301841,23.712782],[121.301743,23.712781],[121.301747,23.71251],[121.301552,23.712417],[121.301554,23.712237],[121.301359,23.712144],[121.301259,23.712324],[121.301063,23.712322],[121.300864,23.7125],[121.301058,23.712683],[121.300859,23.712861],[121.300857,23.713042],[121.300954,23.713133],[121.301445,23.713048]]],[[[121.29318,23.715124],[121.293183,23.714944],[121.293476,23.715037],[121.293674,23.714859],[121.293677,23.714678],[121.293873,23.714681],[121.293973,23.714501],[121.294266,23.714595],[121.294265,23.714685],[121.294559,23.714688],[121.294758,23.71451],[121.29476,23.714329],[121.294957,23.714241],[121.29496,23.714061],[121.295651,23.713707],[121.295653,23.713526],[121.29585,23.713438],[121.295854,23.713167],[121.296153,23.712809],[121.295958,23.712717],[121.29556,23.713164],[121.294773,23.713336],[121.294275,23.713872],[121.294079,23.71387],[121.293877,23.714319],[121.29358,23.714587],[121.293384,23.714585],[121.292988,23.714851],[121.292886,23.715121],[121.292983,23.715213],[121.29318,23.715124]],[[121.294963,23.71379],[121.294864,23.713879],[121.294865,23.713789],[121.294963,23.71379]]],[[[121.294066,23.714863],[121.293971,23.714682],[121.293773,23.71477],[121.293869,23.714951],[121.294066,23.714863]]],[[[121.290712,23.716361],[121.291307,23.715916],[121.291309,23.715736],[121.291114,23.715643],[121.290618,23.716089],[121.290422,23.716087],[121.290425,23.715816],[121.290232,23.715634],[121.289741,23.715628],[121.290039,23.715361],[121.289946,23.714998],[121.289749,23.714996],[121.289253,23.715442],[121.289447,23.715625],[121.28954,23.715987],[121.289836,23.7159],[121.289931,23.716082],[121.290226,23.716085],[121.290418,23.716358],[121.290712,23.716361]]],[[[121.298719,23.719068],[121.298819,23.718979],[121.298821,23.718799],[121.298627,23.718616],[121.298431,23.718614],[121.298331,23.718793],[121.298036,23.71879],[121.298039,23.718609],[121.298237,23.718431],[121.298142,23.718249],[121.297546,23.718785],[121.297836,23.719149],[121.298719,23.719068]]]]}},{"type":"Feature","properties":{"kind":"bare_dam","month":"2018-08","area_ha":16.4},"geometry":{"type":"MultiPolygon","coordinates":[[[[121.299665,23.691537],[121.299767,23.691177],[121.300155,23.691543],[121.300548,23.691457],[121.300549,23.691367],[121.301431,23.691467],[121.301829,23.691019],[121.301538,23.690745],[121.301342,23.690743],[121.301242,23.690923],[121.300949,23.690829],[121.300856,23.690377],[121.300956,23.690287],[121.301446,23.690293],[121.301546,23.690113],[121.301155,23.690019],[121.301059,23.689837],[121.300765,23.689834],[121.300767,23.689744],[121.300472,23.68974],[121.300471,23.689831],[121.300374,23.689739],[121.299884,23.689734],[121.299584,23.690182],[121.299192,23.690178],[121.299193,23.690088],[121.2988,23.690173],[121.298607,23.6899],[121.298215,23.689896],[121.298214,23.689986],[121.297919,23.690074],[121.298013,23.690345],[121.297618,23.690612],[121.297808,23.691066],[121.298004,23.691068],[121.298104,23.690888],[121.2984,23.690801],[121.298209,23.690348],[121.298408,23.690169],[121.298604,23.690171],[121.298798,23.690354],[121.298795,23.690535],[121.298499,23.690712],[121.298496,23.690893],[121.298789,23.690986],[121.298785,23.691347],[121.299173,23.691622],[121.299665,23.691537]],[[121.300069,23.690639],[121.299969,23.690728],[121.299971,23.690638],[121.300069,23.690639]]],[[[121.298155,23.694501],[121.298452,23.694323],[121.298457,23.693962],[121.298262,23.69387],[121.297964,23.694137],[121.297962,23.694318],[121.298155,23.694501]]],[[[121.297957,23.694679],[121.298152,23.694772],[121.298252,23.694592],[121.298057,23.6945],[121.297957,23.694679]]],[[[121.298136,23.696036],[121.298141,23.695584],[121.298339,23.695496],[121.298441,23.695136],[121.298151,23.694862],[121.297955,23.69486],[121.297657,23.695127],[121.297754,23.695219],[121.297745,23.695941],[121.297938,23.696124],[121.298136,23.696036]]],[[[121.299,23.6974],[121.299198,23.697312],[121.299004,23.697129],[121.299006,23.696948],[121.299205,23.69677],[121.298914,23.696496],[121.298716,23.696674],[121.29852,23.696672],[121.298419,23.696851],[121.298321,23.69685],[121.298227,23.696578],[121.298029,23.696667],[121.298123,23.697029],[121.298413,23.697303],[121.298805,23.697307],[121.298804,23.697397],[121.299002,23.697309],[121.299,23.6974]]],[[[121.298202,23.698474],[121.298104,23.698473],[121.298102,23.698654],[121.2982,23.698655],[121.298293,23.699017],[121.298097,23.699015],[121.297995,23.699285],[121.2977,23.699372],[121.297597,23.699732],[121.297987,23.699917],[121.297888,23.700006],[121.29798,23.700459],[121.299157,23.700472],[121.299062,23.7002],[121.298867,23.700107],[121.298871,23.699836],[121.298773,23.699835],[121.29878,23.699294],[121.298977,23.699205],[121.299082,23.698665],[121.299279,23.698577],[121.299282,23.698396],[121.299577,23.698309],[121.299578,23.698219],[121.300068,23.698224],[121.300268,23.697955],[121.300171,23.697864],[121.299876,23.697951],[121.29978,23.697769],[121.299681,23.697859],[121.299584,23.697767],[121.298896,23.69785],[121.298802,23.697578],[121.298607,23.697486],[121.298409,23.697664],[121.298503,23.697936],[121.298205,23.698204],[121.298202,23.698474]],[[121.298403,23.698115],[121.2985,23.698207],[121.298402,23.698206],[121.298403,23.698115]]],[[[121.31148,23.687784],[121.311776,23.687607],[121.31178,23.687336],[121.311682,23.687335],[121.311783,23.687065],[121.312076,23.687158],[121.312075,23.687249],[121.312468,23.687163],[121.312277,23.686799],[121.311983,23.686796],[121.311882,23.686976],[121.311589,23.686882],[121.311591,23.686792],[121.311393,23.68688],[121.31149,23.686971],[121.311391,23.687061],[121.311383,23.687693],[121.31148,23.687784]]],[[[121.308812,23.68938],[121.309309,23.688844],[121.309213,23.688662],[121.308722,23.688747],[121.308523,23.688926],[121.308812,23.68938]]],[[[121.305942,23.691426],[121.305844,23.691425],[121.305944,23.691245],[121.305749,23.691153],[121.305352,23.69151],[121.305546,23.691692],[121.30584,23.691695],[121.305942,23.691426]]],[[[121.304656,23.692315],[121.304658,23.692134],[121.304464,23.691951],[121.303778,23.691944],[121.303779,23.691854],[121.303583,23.691851],[121.303683,23.691672],[121.303295,23.691397],[121.302901,23.691483],[121.302898,23.691754],[121.303285,23.692119],[121.303481,23.692121],[121.303577,23.692303],[121.303676,23.692214],[121.304263,23.69231],[121.304262,23.692401],[121.304656,23.692315]],[[121.303486,23.69176],[121.303387,23.691849],[121.303388,23.691759],[121.303486,23.69176]]],[[[121.301212,23.69318],[121.301603,23.693274],[121.301704,23.693095],[121.301413,23.692821],[121.300923,23.692815],[121.300535,23.69245],[121.299948,23.692353],[121.299849,23.692443],[121.299944,23.692714],[121.299647,23.692892],[121.299743,23.693073],[121.299939,23.693076],[121.299934,23.693437],[121.299736,23.693615],[121.299344,23.693611],[121.298956,23.693245],[121.298857,23.693335],[121.298851,23.693786],[121.29924,23.694061],[121.300025,23.69398],[121.300316,23.694254],[121.300417,23.693984],[121.300516,23.693985],[121.300322,23.693802],[121.300324,23.693622],[121.300622,23.693354],[121.300719,23.693445],[121.30052,23.693624],[121.300714,23.693806],[121.300612,23.694076],[121.300806,23.694259],[121.3011,23.694262],[121.301099,23.694353],[121.30149,23.694447],[121.301488,23.694628],[121.301682,23.69481],[121.301781,23.694721],[121.302074,23.694815],[121.302173,23.694725],[121.302078,23.694454],[121.301785,23.69436],[121.301788,23.694179],[121.301593,23.694087],[121.301596,23.693816],[121.301401,23.693724],[121.301404,23.693543],[121.30121,23.69336],[121.301014,23.693358],[121.301016,23.693178],[121.301113,23.693269],[121.301212,23.69318]],[[121.301016,23.693178],[121.300919,23.693086],[121.301017,23.693087],[121.301016,23.693178]],[[121.30081,23.693988],[121.300811,23.693898],[121.301007,23.6939],[121.301006,23.69399],[121.30081,23.693988]],[[121.301107,23.693721],[121.30101,23.693629],[121.301108,23.69363],[121.301107,23.693721]],[[121.300128,23.693619],[121.300031,23.693528],[121.300129,23.693529],[121.300128,23.693619]]],[[[121.302559,23.695181],[121.302656,23.695273],[121.303049,23.695187],[121.303145,23.695368],[121.30344,23.695281],[121.303345,23.6951],[121.303149,23.695097],[121.302961,23.694463],[121.302469,23.694548],[121.302271,23.694727],[121.302367,23.694908],[121.302661,23.694911],[121.302562,23.695001],[121.302559,23.695181]],[[121.302661,23.694911],[121.30276,23.694822],[121.302759,23.694913],[121.302661,23.694911]]]]}},{"type":"Feature","properties":{"kind":"water","month":"2018-08","area_ha":0.14},"geometry":{"type":"Polygon","coordinates":[[[121.298896,23.69785],[121.299095,23.697672],[121.299782,23.697589],[121.299681,23.697859],[121.299584,23.697767],[121.298896,23.69785]]]}}]}