{"type":"FeatureCollection","features":[{"type":"Feature","properties":{"kind":"bare_slide","month":"2018-10","area_ha":36.73},"geometry":{"type":"MultiPolygon","coordinates":[[[[121.29753,23.712463],[121.297927,23.712107],[121.297833,23.711835],[121.298029,23.711837],[121.298326,23.711569],[121.29833,23.711298],[121.298136,23.711116],[121.29784,23.711293],[121.297837,23.711474],[121.29764,23.711562],[121.297538,23.711831],[121.297342,23.711829],[121.297343,23.711739],[121.297049,23.711736],[121.297048,23.711826],[121.296853,23.711734],[121.296754,23.711823],[121.29685,23.712004],[121.297047,23.711916],[121.297046,23.712007],[121.297633,23.712103],[121.297434,23.712282],[121.29753,23.712463]]],[[[121.294963,23.71379],[121.294961,23.71397],[121.295156,23.714063],[121.295354,23.713884],[121.295356,23.713704],[121.295653,23.713526],[121.295755,23.713257],[121.295462,23.713163],[121.295066,23.71343],[121.294674,23.713425],[121.293979,23.71405],[121.293777,23.714499],[121.293874,23.71459],[121.294071,23.714502],[121.294264,23.714775],[121.294559,23.714688],[121.294753,23.714871],[121.294852,23.714782],[121.29476,23.714329],[121.294957,23.714241],[121.294765,23.713968],[121.294963,23.71379]],[[121.294762,23.714149],[121.294664,23.714148],[121.294466,23.714326],[121.294568,23.713966],[121.294762,23.714149]]],[[[121.289323,23.71761],[121.289422,23.717521],[121.289425,23.71734],[121.289718,23.717434],[121.290115,23.717077],[121.290217,23.716717],[121.290022,23.716625],[121.290025,23.716444],[121.290223,23.716266],[121.290712,23.716361],[121.29101,23.716094],[121.290914,23.715912],[121.290522,23.715908],[121.290523,23.715818],[121.290327,23.715815],[121.290129,23.715994],[121.290131,23.715813],[121.290229,23.715814],[121.290133,23.715633],[121.289936,23.715721],[121.289934,23.715901],[121.289642,23.715717],[121.28994,23.71545],[121.289942,23.715269],[121.290138,23.715271],[121.290337,23.715093],[121.290243,23.714731],[121.289949,23.714728],[121.289649,23.715176],[121.289453,23.715174],[121.28936,23.714811],[121.289161,23.71499],[121.288867,23.714987],[121.288764,23.715347],[121.28847,23.715343],[121.28797,23.71606],[121.287579,23.715966],[121.287281,23.716233],[121.287571,23.716598],[121.287964,23.716512],[121.28806,23.716693],[121.287766,23.71669],[121.287466,23.717138],[121.286977,23.717042],[121.286875,23.717312],[121.286678,23.7174],[121.286773,23.717582],[121.287068,23.717585],[121.287266,23.717407],[121.287658,23.717411],[121.28776,23.717141],[121.288153,23.717055],[121.288248,23.717327],[121.288442,23.71751],[121.288638,23.717512],[121.288734,23.717694],[121.289028,23.717697],[121.289029,23.717607],[121.289323,23.71761]],[[121.288853,23.71607],[121.288752,23.716249],[121.288557,23.716157],[121.288659,23.715887],[121.288952,23.715981],[121.289151,23.715802],[121.288957,23.71562],[121.288959,23.715439],[121.289257,23.715171],[121.289254,23.715352],[121.289353,23.715353],[121.289252,23.715533],[121.289447,23.715625],[121.289445,23.715806],[121.289543,23.715807],[121.289442,23.715986],[121.289637,23.716079],[121.289634,23.716349],[121.289829,23.716442],[121.289826,23.716623],[121.289628,23.716801],[121.289039,23.716794],[121.289048,23.716162],[121.288853,23.71607]]],[[[121.292853,23.717649],[121.292955,23.717379],[121.293349,23.717203],[121.293255,23.716931],[121.29306,23.716839],[121.293059,23.716929],[121.292567,23.717014],[121.292472,23.716832],[121.292275,23.71683],[121.292174,23.7171],[121.291977,23.717188],[121.292072,23.71737],[121.292268,23.717372],[121.292264,23.717733],[121.292557,23.717827],[121.292657,23.717647],[121.292853,23.717649]],[[121.292564,23.717285],[121.292663,23.717196],[121.292662,23.717286],[121.292564,23.717285]]],[[[121.291479,23.717724],[121.291285,23.717542],[121.291185,23.717721],[121.29138,23.717814],[121.291479,23.717724]]],[[[121.290682,23.718709],[121.290585,23.718617],[121.291173,23.718624],[121.291269,23.718806],[121.291465,23.718808],[121.291567,23.718538],[121.291373,23.718355],[121.29157,23.718267],[121.291475,23.718086],[121.291673,23.717907],[121.291576,23.717816],[121.29138,23.717814],[121.29128,23.717993],[121.290987,23.7179],[121.290885,23.718169],[121.290593,23.717985],[121.290393,23.718254],[121.290098,23.718341],[121.290291,23.718614],[121.290487,23.718616],[121.290388,23.718706],[121.290483,23.718887],[121.290682,23.718709]]],[[[121.284005,23.719267],[121.284204,23.719089],[121.284399,23.719181],[121.284499,23.719002],[121.284305,23.718819],[121.284109,23.718817],[121.283528,23.718268],[121.283429,23.718358],[121.283422,23.718899],[121.283615,23.719082],[121.28391,23.719085],[121.283711,23.719264],[121.283806,23.719536],[121.284003,23.719448],[121.284005,23.719267]]],[[[121.296445,23.720488],[121.296543,23.720489],[121.296638,23.720761],[121.29713,23.720586],[121.297135,23.720225],[121.297037,23.720224],[121.297039,23.720043],[121.297237,23.719955],[121.297145,23.719503],[121.296848,23.71968],[121.296744,23.72013],[121.296448,23.720308],[121.296445,23.720488]],[[121.296645,23.720219],[121.296742,23.720311],[121.296644,23.72031],[121.296645,23.720219]]],[[[121.282811,23.720608],[121.283406,23.720073],[121.283409,23.719892],[121.283606,23.719804],[121.283511,23.719532],[121.283118,23.719618],[121.282924,23.719436],[121.282527,23.719792],[121.281938,23.719876],[121.28164,23.720144],[121.281733,23.720506],[121.281927,23.720689],[121.282416,23.720784],[121.282417,23.720694],[121.282811,23.720608]],[[121.28282,23.719886],[121.283016,23.719888],[121.282914,23.720248],[121.282816,23.720247],[121.28282,23.719886]],[[121.283016,23.719888],[121.283116,23.719799],[121.283114,23.719889],[121.283016,23.719888]]],[[[121.290369,23.72015],[121.290381,23.719247],[121.29048,23.719158],[121.290286,23.718975],[121.29009,23.718973],[121.289987,23.719333],[121.289889,23.719332],[121.289887,23.719513],[121.289985,23.719514],[121.289884,23.719693],[121.290079,23.719786],[121.290173,23.720148],[121.289681,23.720233],[121.289775,23.720595],[121.289477,23.720863],[121.289672,23.720955],[121.289772,23.720776],[121.290066,23.720779],[121.29016,23.721141],[121.289962,23.721229],[121.290058,23.721411],[121.289862,23.721409],[121.289668,23.721226],[121.289569,23.721315],[121.289663,23.721587],[121.289959,23.7215],[121.290153,23.721683],[121.290154,23.721593],[121.290448,23.721596],[121.290646,23.721417],[121.290453,23.721235],[121.29046,23.720693],[121.290167,23.720599],[121.290464,23.720332],[121.290467,23.720151],[121.290369,23.72015]],[[121.290267,23.72042],[121.29017,23.720329],[121.290268,23.72033],[121.290267,23.72042]]],[[[121.296376,23.725815],[121.296567,23.726178],[121.296863,23.726091],[121.296676,23.725367],[121.296973,23.725189],[121.297075,23.724829],[121.297468,23.724834],[121.297666,23.724655],[121.297868,23.724206],[121.297673,23.724114],[121.297078,23.724649],[121.296788,23.724284],[121.296985,23.724196],[121.296989,23.723925],[121.297187,23.723747],[121.296894,23.723654],[121.296604,23.723379],[121.296505,23.723469],[121.296598,23.723831],[121.296201,23.724188],[121.295809,23.724183],[121.295707,23.724453],[121.294921,23.724535],[121.294728,23.724352],[121.29473,23.724171],[121.294926,23.724174],[121.295026,23.723994],[121.294833,23.723811],[121.294637,23.723809],[121.294548,23.723086],[121.294842,23.723089],[121.295044,23.72264],[121.294849,23.722547],[121.294749,23.722727],[121.294355,23.722813],[121.294256,23.722902],[121.294351,23.723174],[121.294154,23.723172],[121.293864,23.722898],[121.293963,23.722809],[121.293866,23.722717],[121.293872,23.722266],[121.293774,23.722265],[121.293585,23.721721],[121.293002,23.721263],[121.292909,23.720901],[121.292616,23.720807],[121.292514,23.721077],[121.292903,23.721352],[121.292996,23.721714],[121.292802,23.721622],[121.292707,23.72135],[121.29251,23.721438],[121.292414,23.721256],[121.291822,23.721521],[121.292016,23.721703],[121.292109,23.722066],[121.292403,23.722069],[121.292596,23.722342],[121.292891,23.722255],[121.293085,23.722438],[121.293076,23.72316],[121.292877,23.723338],[121.292584,23.723245],[121.292484,23.723424],[121.292873,23.723699],[121.292972,23.72361],[121.293167,23.723703],[121.293267,23.723523],[121.293659,23.723528],[121.293853,23.72371],[121.294052,23.723532],[121.294049,23.723712],[121.293652,23.724069],[121.29326,23.724065],[121.293068,23.723792],[121.29287,23.72388],[121.292868,23.724061],[121.293161,23.724154],[121.293159,23.724335],[121.293646,23.724521],[121.293742,23.724702],[121.294038,23.724615],[121.29423,23.724888],[121.294428,23.7248],[121.294529,23.72453],[121.294725,23.724533],[121.29482,23.724805],[121.29511,23.725079],[121.295403,23.725172],[121.295304,23.725261],[121.295398,23.725624],[121.295595,23.725535],[121.296079,23.725992],[121.296376,23.725815]],[[121.29251,23.721438],[121.29241,23.721527],[121.292412,23.721437],[121.29251,23.721438]],[[121.29618,23.725813],[121.296182,23.725632],[121.29628,23.725633],[121.296278,23.725814],[121.29618,23.725813]],[[121.296383,23.725273],[121.296385,23.725093],[121.296581,23.725095],[121.296579,23.725275],[121.296383,23.725273]],[[121.296878,23.724918],[121.296781,23.724826],[121.296879,23.724827],[121.296878,23.724918]],[[121.295604,23.724813],[121.295507,23.724722],[121.295605,23.724723],[121.295604,23.724813]],[[121.2958,23.724815],[121.295704,23.724724],[121.295802,23.724725],[121.2958,23.724815]],[[121.29688,23.724737],[121.296783,23.724646],[121.296882,23.724647],[121.29688,23.724737]],[[121.292992,23.722075],[121.292895,23.721984],[121.292993,23.721985],[121.292992,23.722075]],[[121.292505,23.721799],[121.292603,23.7218],[121.292601,23.721981],[121.292503,23.72198],[121.292505,23.721799]],[[121.292505,23.721799],[121.292408,23.721708],[121.292506,23.721709],[121.292505,23.721799]]],[[[121.299401,23.704357],[121.299499,23.704358],[121.299507,23.703726],[121.299215,23.703542],[121.299126,23.702819],[121.298931,23.702727],[121.299047,23.701373],[121.298753,23.70137],[121.298657,23.701188],[121.298069,23.701182],[121.298162,23.701544],[121.298356,23.701727],[121.298058,23.701995],[121.298155,23.702086],[121.298352,23.701998],[121.298247,23.702538],[121.298442,23.702631],[121.298341,23.702901],[121.298534,23.703083],[121.298531,23.703354],[121.298628,23.703446],[121.298923,23.703359],[121.29892,23.703629],[121.299213,23.703723],[121.299203,23.704445],[121.299105,23.704444],[121.2992,23.704716],[121.299397,23.704628],[121.299401,23.704357]],[[121.298637,23.702723],[121.29854,23.702632],[121.298638,23.702633],[121.298637,23.702723]]],[[[121.298786,23.706337],[121.298985,23.706159],[121.298791,23.705976],[121.298793,23.705795],[121.29899,23.705797],[121.299091,23.705528],[121.299189,23.705529],[121.299192,23.705348],[121.299093,23.705347],[121.299197,23.704897],[121.299101,23.704805],[121.298903,23.704893],[121.2989,23.705164],[121.298998,23.705165],[121.298897,23.705345],[121.297715,23.705783],[121.297807,23.706236],[121.2982,23.70615],[121.298296,23.706332],[121.298492,23.706334],[121.298587,23.706606],[121.298784,23.706517],[121.298786,23.706337]]],[[[121.301728,23.713954],[121.301731,23.713684],[121.301929,23.713595],[121.301932,23.713325],[121.302129,23.713236],[121.302134,23.712875],[121.301843,23.712601],[121.301647,23.712599],[121.301555,23.712146],[121.30136,23.712054],[121.301161,23.712323],[121.300865,23.71241],[121.300959,23.712772],[121.30076,23.71295],[121.300955,23.713043],[121.300854,23.713313],[121.300952,23.713314],[121.301236,23.714039],[121.301431,23.714132],[121.301433,23.714041],[121.301728,23.713954]]],[[[121.298285,23.714729],[121.298188,23.714638],[121.298292,23.714188],[121.297999,23.714094],[121.297709,23.71382],[121.297412,23.713997],[121.297409,23.714268],[121.296914,23.714624],[121.297009,23.714805],[121.297501,23.714721],[121.297791,23.714995],[121.298086,23.714998],[121.298187,23.714728],[121.298285,23.714729]]],[[[121.298131,23.719062],[121.298721,23.718978],[121.298824,23.718528],[121.29863,23.718435],[121.298331,23.718793],[121.298035,23.71888],[121.298039,23.718609],[121.298237,23.718431],[121.298043,23.718248],[121.297942,23.718518],[121.297645,23.718695],[121.297642,23.718966],[121.297739,23.719058],[121.298132,23.718972],[121.298131,23.719062]]],[[[121.302315,23.721636],[121.302125,23.721183],[121.302027,23.721182],[121.30203,23.720911],[121.301932,23.72091],[121.301934,23.720729],[121.302233,23.720371],[121.302239,23.71992],[121.302337,23.719921],[121.302143,23.719738],[121.302042,23.720008],[121.301845,23.720096],[121.301839,23.720547],[121.30164,23.720726],[121.301633,23.721268],[121.302118,23.721724],[121.302315,23.721636]]],[[[121.304523,23.725363],[121.304331,23.724999],[121.304136,23.724907],[121.30414,23.724636],[121.303361,23.724176],[121.30346,23.724087],[121.303367,23.723725],[121.303664,23.723457],[121.303568,23.723366],[121.303573,23.722914],[121.30338,23.722732],[121.303183,23.722729],[121.302886,23.722997],[121.302693,23.722724],[121.302497,23.722722],[121.302393,23.723172],[121.302196,23.72326],[121.302192,23.723531],[121.30229,23.723532],[121.302189,23.723802],[121.302578,23.724077],[121.30307,23.723902],[121.303264,23.724085],[121.303161,23.724445],[121.30365,23.72454],[121.303648,23.724721],[121.30394,23.724905],[121.304033,23.725267],[121.30423,23.725269],[121.304325,23.725451],[121.304523,23.725363]]],[[[121.302065,23.725787],[121.301967,23.725786],[121.301972,23.725425],[121.302169,23.725337],[121.302167,23.725517],[121.302362,23.72561],[121.302464,23.72525],[121.302762,23.724982],[121.302766,23.724711],[121.302864,23.724712],[121.302771,23.72426],[121.302574,23.724348],[121.302571,23.724619],[121.302472,23.724618],[121.30237,23.724978],[121.301881,23.724882],[121.301781,23.724971],[121.301875,23.725334],[121.301679,23.725332],[121.301381,23.725599],[121.301477,23.725781],[121.301674,23.725693],[121.301768,23.725965],[121.301965,23.725967],[121.302065,23.725787]]],[[[121.306152,23.72827],[121.306058,23.727998],[121.30596,23.727997],[121.305867,23.727545],[121.305092,23.726814],[121.304798,23.726811],[121.304604,23.726628],[121.304713,23.725816],[121.304615,23.725815],[121.30452,23.725543],[121.304324,23.725541],[121.304225,23.72563],[121.304212,23.726624],[121.30431,23.726625],[121.304203,23.727346],[121.304594,23.72744],[121.304694,23.727261],[121.30489,23.727263],[121.305181,23.727537],[121.305179,23.727718],[121.305374,23.72781],[121.305368,23.728262],[121.305466,23.728263],[121.30556,23.728535],[121.306148,23.728631],[121.306247,23.728542],[121.30625,23.728271],[121.306152,23.72827]]],[[[121.303115,23.728056],[121.303214,23.727967],[121.303118,23.727785],[121.302922,23.727783],[121.302923,23.727693],[121.302432,23.727778],[121.302335,23.727687],[121.30273,23.72742],[121.302638,23.726967],[121.302441,23.727056],[121.302535,23.727328],[121.302047,23.727142],[121.301953,23.72687],[121.301656,23.727047],[121.301752,23.727229],[121.301948,23.727231],[121.301944,23.727592],[121.301746,23.72768],[121.301842,23.727862],[121.302235,23.727776],[121.30233,23.728048],[121.30282,23.728053],[121.302821,23.727963],[121.303115,23.728056]]]]}},{"type":"Feature","properties":{"kind":"bare_dam","month":"2018-10","area_ha":9.51},"geometry":{"type":"MultiPolygon","coordinates":[[[[121.30037,23.6901],[121.300668,23.689743],[121.299688,23.689732],[121.299878,23.690185],[121.30037,23.6901]]],[[[121.298203,23.690799],[121.2984,23.690801],[121.298401,23.690711],[121.298792,23.690806],[121.298891,23.690716],[121.298795,23.690535],[121.298599,23.690532],[121.298604,23.690171],[121.298899,23.690084],[121.298706,23.689811],[121.298215,23.689896],[121.298115,23.690076],[121.297919,23.690074],[121.297621,23.690341],[121.297619,23.690522],[121.297717,23.690523],[121.297616,23.690702],[121.29781,23.690885],[121.298103,23.690979],[121.298203,23.690799]],[[121.29801,23.690616],[121.297913,23.690525],[121.298011,23.690526],[121.29801,23.690616]]],[[[121.30036,23.690823],[121.300658,23.690555],[121.30066,23.690375],[121.300467,23.690192],[121.299973,23.690457],[121.299971,23.690638],[121.300164,23.690821],[121.300263,23.690731],[121.30036,23.690823]]],[[[121.299665,23.691537],[121.299764,23.691448],[121.299669,23.691176],[121.299571,23.691175],[121.299673,23.690905],[121.299479,23.690723],[121.299283,23.690721],[121.299184,23.69081],[121.299278,23.691082],[121.298981,23.691349],[121.299174,23.691532],[121.299371,23.691534],[121.299372,23.691444],[121.299665,23.691537]]],[[[121.300647,23.691368],[121.300747,23.691278],[121.300653,23.690916],[121.300261,23.690912],[121.299963,23.69118],[121.300059,23.691361],[121.300158,23.691272],[121.300647,23.691368]]],[[[121.299249,23.693339],[121.299548,23.692981],[121.299257,23.692707],[121.298768,23.692611],[121.29857,23.69279],[121.298568,23.69297],[121.298956,23.693245],[121.298954,23.693426],[121.299148,23.693609],[121.299345,23.693521],[121.299347,23.69334],[121.299249,23.693339]]],[[[121.299732,23.693886],[121.299829,23.693977],[121.29993,23.693798],[121.299833,23.693707],[121.299635,23.693795],[121.299542,23.693432],[121.299244,23.6937],[121.299148,23.693609],[121.29895,23.693697],[121.299143,23.69397],[121.299437,23.693973],[121.299436,23.694063],[121.299732,23.693886]]],[[[121.298451,23.694414],[121.298553,23.694054],[121.29826,23.69396],[121.297962,23.694318],[121.29806,23.694319],[121.298154,23.694591],[121.298451,23.694414]]],[[[121.298242,23.695405],[121.298539,23.695137],[121.298052,23.694951],[121.297951,23.695131],[121.298049,23.695132],[121.298242,23.695405]]],[[[121.298334,23.695857],[121.298242,23.695405],[121.297756,23.695038],[121.297656,23.695218],[121.297754,23.695219],[121.297944,23.695672],[121.297748,23.69567],[121.297648,23.69585],[121.297841,23.696032],[121.298136,23.696036],[121.298334,23.695857]]],[[[121.298866,23.700197],[121.298671,23.700105],[121.29887,23.699927],[121.298773,23.699835],[121.298779,23.699384],[121.299076,23.699116],[121.299082,23.698665],[121.299479,23.698308],[121.299286,23.698035],[121.298893,23.698121],[121.298594,23.698479],[121.298299,23.698566],[121.298391,23.699018],[121.298293,23.699017],[121.298291,23.699198],[121.297995,23.699285],[121.29809,23.699557],[121.297894,23.699555],[121.297893,23.699645],[121.2976,23.699551],[121.2975,23.699641],[121.297596,23.699822],[121.297695,23.699733],[121.29789,23.699826],[121.297883,23.700367],[121.29798,23.700459],[121.298961,23.700469],[121.298866,23.700197]]],[[[121.303119,23.689769],[121.303118,23.68986],[121.30253,23.689853],[121.302431,23.689942],[121.302525,23.690214],[121.302429,23.690123],[121.301937,23.690208],[121.301743,23.690025],[121.301351,23.690021],[121.301251,23.6902],[121.301348,23.690292],[121.301838,23.690297],[121.301837,23.690387],[121.302132,23.6903],[121.302326,23.690483],[121.302425,23.690394],[121.302914,23.69049],[121.303013,23.6904],[121.302918,23.690219],[121.303114,23.690221],[121.303115,23.690131],[121.303312,23.690042],[121.303314,23.689862],[121.303119,23.689769]]],[[[121.303407,23.690314],[121.303507,23.690135],[121.303312,23.690042],[121.303212,23.690222],[121.303407,23.690314]]],[[[121.303795,23.69059],[121.303502,23.690496],[121.303503,23.690406],[121.303208,23.690493],[121.303206,23.690673],[121.3034,23.690856],[121.303694,23.690859],[121.303795,23.69059]]],[[[121.308991,23.690646],[121.308895,23.690555],[121.308501,23.690641],[121.308787,23.691276],[121.308985,23.691188],[121.308991,23.690646]]],[[[121.301434,23.691196],[121.301534,23.691016],[121.30134,23.690924],[121.30114,23.691192],[121.301334,23.691375],[121.301531,23.691287],[121.301434,23.691196]]],[[[121.301918,23.691653],[121.302213,23.691656],[121.302411,23.691477],[121.302413,23.691297],[121.301925,23.691111],[121.301927,23.691021],[121.301827,23.69111],[121.301633,23.691017],[121.301533,23.691107],[121.301727,23.691289],[121.301626,23.691559],[121.301722,23.69165],[121.30192,23.691562],[121.301918,23.691653]]],[[[121.305545,23.691783],[121.305449,23.691601],[121.305253,23.691599],[121.305153,23.691778],[121.305446,23.691872],[121.305545,23.691783]]],[[[121.303871,23.692306],[121.303872,23.692216],[121.304263,23.69231],[121.304463,23.692042],[121.304659,23.692044],[121.304853,23.692226],[121.304953,23.692047],[121.304663,23.691773],[121.304563,23.691862],[121.303583,23.691851],[121.303683,23.691672],[121.303488,23.691579],[121.303191,23.691847],[121.303188,23.692028],[121.303577,23.692303],[121.303676,23.692214],[121.303871,23.692306]]],[[[121.306131,23.69197],[121.30584,23.691695],[121.305545,23.691783],[121.305931,23.692238],[121.306128,23.69215],[121.306131,23.69197]]],[[[121.306223,23.692422],[121.306029,23.692239],[121.305929,23.692419],[121.306124,23.692511],[121.306223,23.692422]]],[[[121.302634,23.696988],[121.302635,23.696898],[121.303028,23.696812],[121.302835,23.696629],[121.302837,23.696448],[121.302935,23.69645],[121.302842,23.696087],[121.302646,23.696085],[121.302543,23.696445],[121.302246,23.696623],[121.302243,23.696893],[121.302634,23.696988]]]]}},{"type":"Feature","properties":{"kind":"water","month":"2018-10","area_ha":1.86},"geometry":{"type":"MultiPolygon","coordinates":[[[[121.302535,23.697077],[121.302537,23.696897],[121.302046,23.696982],[121.302043,23.697162],[121.302535,23.697077]]],[[[121.298298,23.698656],[121.298201,23.698565],[121.298005,23.698563],[121.298002,23.698743],[121.298294,23.698927],[121.298298,23.698656]]],[[[121.295649,23.698717],[121.295451,23.698896],[121.295941,23.698901],[121.295943,23.698721],[121.295649,23.698717]]],[[[121.298294,23.698927],[121.298391,23.699018],[121.298392,23.698928],[121.298294,23.698927]]],[[[121.295451,23.698896],[121.295353,23.698895],[121.295153,23.699163],[121.295349,23.699165],[121.295451,23.698896]]],[[[121.298195,23.699016],[121.298193,23.699197],[121.298291,23.699198],[121.298293,23.699017],[121.298195,23.699016]]],[[[121.311481,23.687694],[121.311878,23.687337],[121.312074,23.687339],[121.312076,23.687158],[121.311881,23.687066],[121.311883,23.686885],[121.311589,23.686882],[121.311396,23.686699],[121.311296,23.686789],[121.31139,23.687151],[121.311586,23.687153],[121.311584,23.687334],[121.311387,23.687331],[121.311385,23.687512],[121.311483,23.687513],[121.311481,23.687694]]],[[[121.31148,23.687784],[121.311383,23.687693],[121.311382,23.687783],[121.31148,23.687784]]],[[[121.308193,23.691721],[121.308689,23.691275],[121.308693,23.691004],[121.308197,23.69145],[121.308193,23.691721]]],[[[121.30492,23.694575],[121.305412,23.69449],[121.305413,23.6944],[121.305708,23.694313],[121.305817,23.693501],[121.30562,23.693589],[121.305516,23.69404],[121.30532,23.694038],[121.305219,23.694217],[121.304925,23.694214],[121.304822,23.694574],[121.304528,23.694571],[121.304527,23.694661],[121.30482,23.694755],[121.30492,23.694575]]],[[[121.303824,23.695918],[121.304321,23.695471],[121.304423,23.695111],[121.304621,23.695023],[121.304526,23.694751],[121.30433,23.694749],[121.304328,23.69493],[121.303931,23.695287],[121.304026,23.695468],[121.30383,23.695466],[121.30363,23.695825],[121.303824,23.695918]],[[121.304324,23.695201],[121.304227,23.695109],[121.304325,23.69511],[121.304324,23.695201]]]]}}]}