{"type":"FeatureCollection","features":[{"type":"Feature","properties":{"kind":"bare_slide","month":"2018-02","area_ha":53.1},"geometry":{"type":"MultiPolygon","coordinates":[[[[121.294179,23.706196],[121.294385,23.705476],[121.294191,23.705293],[121.293799,23.705289],[121.2936,23.705467],[121.293598,23.705648],[121.293696,23.705649],[121.293692,23.70592],[121.293594,23.705919],[121.293688,23.706281],[121.293588,23.70637],[121.293685,23.706461],[121.29398,23.706465],[121.293981,23.706374],[121.294176,23.706467],[121.294275,23.706378],[121.294277,23.706197],[121.294179,23.706196]]],[[[121.294371,23.706559],[121.294569,23.706381],[121.294374,23.706288],[121.294274,23.706468],[121.294371,23.706559]]],[[[121.291507,23.715558],[121.291805,23.71529],[121.291513,23.715106],[121.291314,23.715375],[121.291412,23.715376],[121.291507,23.715558]]],[[[121.289338,23.716437],[121.289534,23.716439],[121.289434,23.716618],[121.289629,23.716711],[121.289828,23.716532],[121.289831,23.716261],[121.29003,23.716083],[121.290423,23.715997],[121.290425,23.715816],[121.290135,23.715542],[121.289741,23.715628],[121.290139,23.715181],[121.290435,23.715094],[121.290437,23.714914],[121.290146,23.714639],[121.28995,23.714637],[121.289752,23.714816],[121.289262,23.71481],[121.289063,23.714989],[121.289257,23.715171],[121.289252,23.715533],[121.289447,23.715625],[121.289441,23.716076],[121.289343,23.716075],[121.289341,23.716256],[121.289047,23.716253],[121.288853,23.71607],[121.288654,23.716248],[121.288651,23.716519],[121.288845,23.716702],[121.289041,23.716704],[121.289338,23.716437]]],[[[121.29101,23.716094],[121.291107,23.716185],[121.291304,23.716097],[121.291309,23.715736],[121.291506,23.715648],[121.291411,23.715466],[121.291214,23.715464],[121.29052,23.716088],[121.290517,23.716269],[121.29081,23.716362],[121.29101,23.716094]]],[[[121.286976,23.717133],[121.286082,23.717936],[121.286178,23.718117],[121.286569,23.718212],[121.286668,23.718123],[121.286574,23.717851],[121.286872,23.717583],[121.287166,23.717586],[121.287364,23.717408],[121.287657,23.717501],[121.28776,23.717141],[121.287663,23.71705],[121.286976,23.717133]],[[121.286875,23.717312],[121.286972,23.717404],[121.286874,23.717403],[121.286875,23.717312]]],[[[121.291071,23.718984],[121.290976,23.718712],[121.291269,23.718806],[121.291467,23.718627],[121.29147,23.718447],[121.291567,23.718538],[121.291764,23.71845],[121.291475,23.718086],[121.29177,23.717998],[121.291772,23.717818],[121.291578,23.717635],[121.291871,23.717729],[121.29207,23.71755],[121.291974,23.717369],[121.291484,23.717363],[121.291185,23.717721],[121.290792,23.717807],[121.290691,23.717987],[121.290495,23.717984],[121.290395,23.718164],[121.2901,23.718161],[121.289902,23.718339],[121.290193,23.718613],[121.29019,23.718794],[121.29048,23.719158],[121.290774,23.719161],[121.290775,23.719071],[121.291071,23.718984]],[[121.291182,23.717992],[121.291281,23.717903],[121.29128,23.717993],[121.291182,23.717992]]],[[[121.28656,23.718934],[121.286366,23.718751],[121.286265,23.718931],[121.28646,23.719023],[121.28656,23.718934]]],[[[121.285576,23.719194],[121.285964,23.719469],[121.286065,23.71929],[121.286359,23.719293],[121.286459,23.719114],[121.285677,23.718924],[121.285576,23.719194]]],[[[121.285585,23.718472],[121.285203,23.717655],[121.28481,23.717741],[121.284997,23.718465],[121.2848,23.718463],[121.2847,23.718643],[121.284992,23.718826],[121.284891,23.719006],[121.284401,23.719],[121.28411,23.718726],[121.284113,23.718546],[121.28382,23.718452],[121.283725,23.71818],[121.283529,23.718178],[121.283328,23.718537],[121.283815,23.718813],[121.28381,23.719175],[121.283613,23.719263],[121.283611,23.719443],[121.283415,23.719441],[121.283124,23.719167],[121.282925,23.719345],[121.283116,23.719799],[121.282123,23.720691],[121.28222,23.720782],[121.282712,23.720697],[121.282914,23.720248],[121.28311,23.72025],[121.283706,23.719625],[121.284001,23.719628],[121.284398,23.719271],[121.284789,23.719366],[121.284889,23.719187],[121.285085,23.719189],[121.285284,23.71901],[121.285578,23.719014],[121.285679,23.718744],[121.285778,23.718745],[121.28578,23.718564],[121.285585,23.718472]]],[[[121.28645,23.719836],[121.286645,23.719928],[121.286739,23.7202],[121.286935,23.720202],[121.286937,23.720112],[121.287328,23.720207],[121.287329,23.720117],[121.287624,23.720029],[121.287528,23.719848],[121.287332,23.719846],[121.287238,23.719574],[121.286842,23.71984],[121.286944,23.71957],[121.286749,23.719478],[121.286549,23.719747],[121.286354,23.719654],[121.286254,23.719834],[121.285958,23.719921],[121.285861,23.719829],[121.285962,23.71965],[121.285768,23.719467],[121.285572,23.719465],[121.285373,23.719643],[121.285464,23.720186],[121.285268,23.720184],[121.28507,23.720362],[121.285173,23.720002],[121.284683,23.719907],[121.284287,23.720263],[121.284481,23.720356],[121.284576,23.720628],[121.28487,23.720631],[121.284871,23.720541],[121.285262,23.720635],[121.285462,23.720367],[121.285658,23.720369],[121.285851,23.720642],[121.286047,23.720644],[121.286444,23.720287],[121.28625,23.720105],[121.28645,23.719836]],[[121.28625,23.720105],[121.286151,23.720194],[121.286152,23.720103],[121.28625,23.720105]]],[[[121.284668,23.72108],[121.284863,23.721173],[121.284965,23.720903],[121.285161,23.720905],[121.285261,23.720726],[121.28487,23.720631],[121.284672,23.720809],[121.284668,23.72108]]],[[[121.286042,23.721005],[121.285945,23.720914],[121.285749,23.720912],[121.285648,23.721181],[121.285941,23.721275],[121.28604,23.721186],[121.286042,23.721005]]],[[[121.290745,23.721418],[121.290454,23.721144],[121.290457,23.720874],[121.290555,23.720875],[121.290463,23.720422],[121.290267,23.72042],[121.290069,23.720598],[121.290064,23.720959],[121.289868,23.720957],[121.289471,23.721314],[121.289467,23.721585],[121.289271,23.721583],[121.289275,23.721312],[121.289177,23.721311],[121.289082,23.721039],[121.288884,23.721217],[121.288589,23.721214],[121.28839,23.721483],[121.288194,23.721481],[121.288,23.721298],[121.288007,23.720756],[121.28791,23.720665],[121.287714,23.720663],[121.287713,23.720753],[121.287126,23.720656],[121.287024,23.720926],[121.286827,23.721014],[121.28702,23.721197],[121.287016,23.721558],[121.286918,23.721557],[121.287012,23.721829],[121.287305,23.721922],[121.287702,23.721565],[121.288187,23.722022],[121.288188,23.721932],[121.288482,23.721935],[121.28868,23.721757],[121.288683,23.721576],[121.28888,23.721488],[121.288878,23.721669],[121.289365,23.721945],[121.289265,23.722034],[121.289361,23.722216],[121.289558,23.722128],[121.289464,23.721856],[121.28966,23.721858],[121.289858,23.72168],[121.29025,23.721774],[121.29035,23.721595],[121.290546,23.721597],[121.290745,23.721418]],[[121.28761,23.721113],[121.287707,23.721204],[121.287609,23.721203],[121.28761,23.721113]]],[[[121.290641,23.721869],[121.290741,23.721689],[121.290546,23.721597],[121.290446,23.721776],[121.290641,23.721869]]],[[[121.285538,23.722083],[121.285736,23.721905],[121.28603,23.721908],[121.286329,23.72155],[121.286524,23.721643],[121.286625,23.721463],[121.286528,23.721372],[121.286232,23.721459],[121.286137,23.721277],[121.285941,23.721275],[121.285742,23.721453],[121.28574,23.721634],[121.285246,23.721899],[121.285143,23.722259],[121.285436,23.722353],[121.285538,23.722083]]],[[[121.287296,23.722645],[121.287395,23.722555],[121.287401,23.722104],[121.287499,23.722105],[121.287403,23.721923],[121.287206,23.722011],[121.287104,23.722281],[121.286909,23.722189],[121.286808,23.722459],[121.28671,23.722457],[121.286805,23.722639],[121.286905,23.72255],[121.287296,23.722645]]],[[[121.291302,23.723772],[121.291107,23.72368],[121.291207,23.723591],[121.29111,23.723499],[121.291113,23.723229],[121.291211,23.72323],[121.291117,23.722958],[121.290918,23.723136],[121.290624,23.723133],[121.290424,23.723402],[121.290031,23.723487],[121.290225,23.72367],[121.29022,23.724031],[121.290122,23.72403],[121.290217,23.724302],[121.29071,23.724037],[121.290714,23.723766],[121.290519,23.723673],[121.29052,23.723583],[121.290716,23.723585],[121.290811,23.723857],[121.290909,23.723858],[121.290805,23.724309],[121.291196,23.724403],[121.291295,23.724314],[121.291302,23.723772]]],[[[121.289238,23.724111],[121.289336,23.724112],[121.28934,23.723841],[121.289636,23.723664],[121.289541,23.723482],[121.289343,23.72357],[121.289347,23.723299],[121.289445,23.7233],[121.28935,23.723028],[121.288955,23.723295],[121.288952,23.723476],[121.289147,23.723568],[121.289144,23.723839],[121.288946,23.723927],[121.289042,23.724109],[121.288743,23.724467],[121.28884,23.724558],[121.289135,23.724471],[121.289238,23.724111]]],[[[121.293239,23.72569],[121.293729,23.725696],[121.293928,23.725517],[121.29393,23.725337],[121.293736,23.725154],[121.293344,23.725149],[121.293343,23.72524],[121.292853,23.725234],[121.292851,23.725325],[121.29236,23.725409],[121.292454,23.725681],[121.292847,23.725686],[121.292846,23.725776],[121.293141,23.725689],[121.293142,23.725599],[121.293239,23.72569]]],[[[121.298824,23.703448],[121.299211,23.703813],[121.299204,23.704355],[121.299106,23.704354],[121.299103,23.704625],[121.299005,23.704624],[121.299001,23.704894],[121.298903,23.704893],[121.298899,23.705255],[121.298505,23.705341],[121.298208,23.705608],[121.297716,23.705693],[121.29771,23.706144],[121.298003,23.706238],[121.298002,23.706328],[121.298491,23.706424],[121.298587,23.706606],[121.298883,23.706428],[121.298887,23.706157],[121.298985,23.706159],[121.298892,23.705796],[121.299188,23.705619],[121.299095,23.705257],[121.299193,23.705258],[121.2993,23.704537],[121.299499,23.704358],[121.299506,23.703816],[121.299605,23.703727],[121.299215,23.703542],[121.299126,23.702819],[121.299028,23.702818],[121.299032,23.702547],[121.298934,23.702546],[121.299047,23.701373],[121.298753,23.70137],[121.298657,23.701188],[121.298167,23.701183],[121.298163,23.701454],[121.298261,23.701455],[121.298356,23.701727],[121.298058,23.701995],[121.298156,23.701996],[121.298531,23.703354],[121.298824,23.703448]],[[121.298824,23.703448],[121.298923,23.703359],[121.298922,23.703449],[121.298824,23.703448]],[[121.298734,23.702815],[121.298833,23.702725],[121.298832,23.702816],[121.298734,23.702815]]],[[[121.298087,23.707323],[121.297892,23.70723],[121.297792,23.70741],[121.297597,23.707317],[121.297596,23.707407],[121.297202,23.707493],[121.297101,23.707763],[121.297295,23.707946],[121.297883,23.707952],[121.29798,23.708044],[121.298079,23.707955],[121.298087,23.707323]]],[[[121.300914,23.708618],[121.30131,23.708351],[121.301217,23.707989],[121.300923,23.707986],[121.300924,23.707895],[121.300628,23.707983],[121.300533,23.707801],[121.300237,23.707888],[121.300044,23.707705],[121.299748,23.707792],[121.299166,23.707334],[121.29887,23.707421],[121.298967,23.707513],[121.298866,23.707783],[121.299351,23.708149],[121.299547,23.708151],[121.299746,23.707973],[121.299842,23.708155],[121.30033,23.70834],[121.300431,23.708071],[121.300529,23.708072],[121.300528,23.708162],[121.300919,23.708257],[121.300917,23.708437],[121.300819,23.708436],[121.300914,23.708618]]],[[[121.298248,23.710033],[121.298053,23.709941],[121.297959,23.709669],[121.297665,23.709666],[121.297471,23.709483],[121.297578,23.708762],[121.298171,23.708407],[121.298174,23.708226],[121.297979,23.708134],[121.297581,23.708581],[121.297384,23.708579],[121.297186,23.708757],[121.297083,23.709117],[121.29679,23.709024],[121.29669,23.709203],[121.296983,23.709297],[121.297174,23.70966],[121.297468,23.709663],[121.297466,23.709844],[121.29766,23.710027],[121.297856,23.710029],[121.297754,23.710299],[121.297949,23.710391],[121.298137,23.711025],[121.298335,23.710937],[121.298248,23.710033]]],[[[121.301371,23.711241],[121.300886,23.710785],[121.300889,23.710604],[121.300111,23.710054],[121.300115,23.709783],[121.299824,23.709509],[121.299433,23.709414],[121.299337,23.709233],[121.29914,23.709321],[121.299138,23.709501],[121.299624,23.709778],[121.299619,23.710229],[121.300107,23.710415],[121.300202,23.710597],[121.300593,23.710691],[121.300589,23.711052],[121.300782,23.711235],[121.301077,23.711238],[121.301074,23.711419],[121.301268,23.711602],[121.301465,23.711513],[121.301371,23.711241]]],[[[121.298026,23.712017],[121.29803,23.711747],[121.298326,23.711569],[121.298232,23.711297],[121.298036,23.711295],[121.297638,23.711742],[121.296755,23.711733],[121.296656,23.711822],[121.296752,23.712003],[121.297242,23.712009],[121.297241,23.712099],[121.297633,23.712103],[121.297632,23.712194],[121.297828,23.712196],[121.298026,23.712017]]],[[[121.301622,23.714585],[121.301525,23.714494],[121.301527,23.714313],[121.301625,23.714314],[121.301531,23.714043],[121.301629,23.714044],[121.301731,23.713684],[121.302028,23.713506],[121.302033,23.713145],[121.302231,23.712967],[121.301743,23.712781],[121.301747,23.71251],[121.301552,23.712417],[121.301556,23.712056],[121.301361,23.711964],[121.300865,23.71241],[121.30076,23.71295],[121.300858,23.712952],[121.300855,23.713222],[121.300953,23.713223],[121.300948,23.713585],[121.301239,23.713859],[121.301234,23.71422],[121.301037,23.714308],[121.301033,23.714579],[121.301227,23.714762],[121.301622,23.714585]]],[[[121.294261,23.714956],[121.293971,23.714682],[121.293973,23.714501],[121.294169,23.714503],[121.294265,23.714685],[121.294559,23.714688],[121.295059,23.713971],[121.295749,23.713708],[121.295653,23.713526],[121.29585,23.713438],[121.295953,23.713078],[121.296251,23.712811],[121.296157,23.712448],[121.295861,23.712626],[121.295857,23.712897],[121.295661,23.712894],[121.295362,23.713252],[121.295068,23.713249],[121.295067,23.713339],[121.294774,23.713246],[121.294672,23.713516],[121.29398,23.713959],[121.293877,23.714319],[121.29358,23.714587],[121.293384,23.714585],[121.293283,23.714764],[121.293186,23.714673],[121.292989,23.714761],[121.293085,23.714943],[121.293282,23.714855],[121.293476,23.715037],[121.293775,23.71468],[121.293771,23.71495],[121.293965,23.715133],[121.294261,23.714956]]],[[[121.297895,23.714544],[121.298193,23.714277],[121.297803,23.714092],[121.297811,23.71346],[121.297616,23.713367],[121.29741,23.714178],[121.297213,23.714266],[121.29721,23.714446],[121.297012,23.714625],[121.297205,23.714808],[121.297599,23.714722],[121.297598,23.714812],[121.297891,23.714905],[121.29799,23.714816],[121.297895,23.714544]],[[121.297507,23.714269],[121.297604,23.714361],[121.297506,23.714359],[121.297507,23.714269]]],[[[121.298817,23.719069],[121.298917,23.71898],[121.298823,23.718618],[121.298921,23.718619],[121.299026,23.718078],[121.299321,23.718082],[121.299422,23.717812],[121.299719,23.717635],[121.299821,23.717274],[121.300118,23.717097],[121.300126,23.716465],[121.300224,23.716466],[121.300129,23.716285],[121.300424,23.716198],[121.30033,23.715835],[121.299836,23.716191],[121.29983,23.716642],[121.299732,23.716641],[121.299526,23.717362],[121.299329,23.71745],[121.299226,23.71781],[121.29903,23.717808],[121.298732,23.718075],[121.298729,23.718346],[121.298333,23.718613],[121.298331,23.718793],[121.298036,23.71879],[121.298139,23.71843],[121.298237,23.718431],[121.298142,23.718249],[121.297546,23.718785],[121.297641,23.719056],[121.298425,23.719065],[121.298426,23.718975],[121.298817,23.719069]]],[[[121.298732,23.718075],[121.298836,23.717625],[121.298934,23.717626],[121.298839,23.717444],[121.298443,23.717711],[121.29844,23.717891],[121.298143,23.718159],[121.298338,23.718251],[121.298339,23.718161],[121.298732,23.718075]]],[[[121.302339,23.71974],[121.302146,23.719558],[121.302045,23.719737],[121.30224,23.719829],[121.302339,23.71974]]],[[[121.297128,23.720767],[121.297227,23.720677],[121.29713,23.720586],[121.29723,23.720497],[121.297143,23.719593],[121.296948,23.7195],[121.29675,23.719679],[121.296645,23.720219],[121.296448,23.720308],[121.296444,23.720578],[121.296638,23.720761],[121.296737,23.720672],[121.297128,23.720767]]],[[[121.296432,23.721481],[121.296724,23.721665],[121.297022,23.721397],[121.297024,23.721217],[121.296829,23.721124],[121.296832,23.720944],[121.296638,23.720761],[121.295947,23.721115],[121.295943,23.721386],[121.296041,23.721387],[121.296136,23.721659],[121.296431,23.721572],[121.296432,23.721481]]],[[[121.295845,23.721384],[121.295549,23.721562],[121.295546,23.721742],[121.295838,23.721926],[121.296039,23.721567],[121.295845,23.721384]]],[[[121.298382,23.722406],[121.298385,23.722135],[121.298288,23.722043],[121.297993,23.722131],[121.297998,23.721769],[121.297705,23.721676],[121.297606,23.721765],[121.297702,23.721856],[121.297697,23.722308],[121.297891,23.7224],[121.29809,23.722222],[121.298086,23.722493],[121.298185,23.722494],[121.298279,23.722766],[121.298476,23.722678],[121.29848,23.722407],[121.298382,23.722406]]],[[[121.294449,23.723175],[121.294544,23.723357],[121.294742,23.723269],[121.294451,23.722994],[121.294457,23.722543],[121.294555,23.722544],[121.294658,23.722184],[121.294367,23.72191],[121.294073,23.721907],[121.29397,23.722267],[121.294165,23.722359],[121.294162,23.72263],[121.293765,23.722987],[121.293762,23.723167],[121.293956,23.72335],[121.294449,23.723175]]],[[[121.302394,23.723082],[121.302098,23.723259],[121.302095,23.72344],[121.302193,23.723441],[121.302188,23.723892],[121.302578,23.724077],[121.302572,23.724529],[121.302474,23.724528],[121.302272,23.724977],[121.302078,23.724794],[121.301781,23.724971],[121.301876,23.725243],[121.30168,23.725241],[121.301578,23.725511],[121.301381,23.725599],[121.301475,23.725871],[121.301669,23.726054],[121.301963,23.726057],[121.302162,23.725879],[121.302164,23.725698],[121.30236,23.7257],[121.302359,23.72579],[121.302557,23.725702],[121.302464,23.72525],[121.30276,23.725163],[121.302873,23.72399],[121.30307,23.723902],[121.30316,23.724535],[121.303257,23.724626],[121.30365,23.72454],[121.303647,23.724811],[121.303939,23.724995],[121.303936,23.725176],[121.304423,23.725452],[121.304421,23.725633],[121.304224,23.725721],[121.304213,23.726533],[121.304505,23.726717],[121.3045,23.727078],[121.304793,23.727172],[121.305278,23.727628],[121.305365,23.728442],[121.305855,23.728538],[121.305853,23.728628],[121.306246,23.728632],[121.306348,23.728272],[121.305961,23.727907],[121.305675,23.727272],[121.30519,23.726815],[121.304604,23.726628],[121.304608,23.726357],[121.304706,23.726358],[121.304713,23.725816],[121.304519,23.725634],[121.304622,23.725274],[121.30433,23.72509],[121.304238,23.724637],[121.303847,23.724543],[121.303751,23.724361],[121.303458,23.724267],[121.303463,23.723906],[121.303561,23.723907],[121.303466,23.723635],[121.303663,23.723547],[121.303767,23.723097],[121.304063,23.72301],[121.303773,23.722646],[121.304166,23.72256],[121.304367,23.722201],[121.30427,23.722109],[121.304074,23.722107],[121.304073,23.722197],[121.303191,23.722188],[121.303192,23.722097],[121.302799,23.722093],[121.302704,23.721911],[121.302508,23.721909],[121.302516,23.721277],[121.302419,23.721186],[121.302123,23.721273],[121.302126,23.721092],[121.302028,23.721091],[121.302032,23.72073],[121.302229,23.720732],[121.302227,23.720823],[121.302425,23.720734],[121.302332,23.720282],[121.302234,23.720281],[121.302239,23.71992],[121.302044,23.719827],[121.301943,23.720097],[121.301845,23.720096],[121.30184,23.720457],[121.301643,23.720545],[121.301632,23.721358],[121.301925,23.721451],[121.302216,23.721725],[121.302213,23.721906],[121.302503,23.72227],[121.302596,23.722633],[121.302399,23.722721],[121.302394,23.723082]],[[121.302595,23.722723],[121.302696,23.722543],[121.302892,23.722546],[121.302985,23.722908],[121.302789,23.722906],[121.302595,23.722723]]],[[[121.297151,23.726546],[121.297449,23.726278],[121.297451,23.726098],[121.297257,23.725915],[121.296864,23.726001],[121.296674,23.725547],[121.296772,23.725548],[121.296775,23.725278],[121.296873,23.725279],[121.296781,23.724826],[121.296977,23.724828],[121.296878,23.724918],[121.296974,23.725099],[121.297073,23.72501],[121.297366,23.725103],[121.297468,23.724834],[121.297963,23.724478],[121.297966,23.724207],[121.297868,23.724206],[121.297873,23.723845],[121.297971,23.723846],[121.297973,23.723665],[121.297875,23.723664],[121.297888,23.722671],[121.29779,23.72267],[121.29789,23.722491],[121.297793,23.722399],[121.297596,23.722487],[121.297692,23.722669],[121.297495,23.722757],[121.297583,23.723481],[121.297385,23.723659],[121.297678,23.723752],[121.297675,23.723933],[121.297378,23.724201],[121.297375,23.724381],[121.297277,23.72438],[121.297183,23.724108],[121.296889,23.724105],[121.296893,23.723744],[121.296603,23.72347],[121.296503,23.723559],[121.296594,23.724102],[121.295509,23.724632],[121.295603,23.724903],[121.295992,23.725179],[121.29599,23.725359],[121.295791,23.725538],[121.295595,23.725535],[121.295401,23.725353],[121.295503,23.725083],[121.295308,23.724991],[121.295209,23.72508],[121.295303,23.725352],[121.295007,23.725529],[121.295102,23.725711],[121.295691,23.725717],[121.296078,23.726083],[121.296472,23.725997],[121.296469,23.726177],[121.29686,23.726272],[121.296955,23.726544],[121.297151,23.726546]],[[121.296183,23.725542],[121.296086,23.725451],[121.296184,23.725452],[121.296183,23.725542]],[[121.296184,23.725452],[121.296284,23.725362],[121.296283,23.725453],[121.296184,23.725452]]],[[[121.303313,23.727878],[121.303119,23.727695],[121.302923,23.727693],[121.302925,23.727512],[121.302827,23.727511],[121.30293,23.727151],[121.302832,23.72715],[121.302839,23.726608],[121.302741,23.726607],[121.302744,23.726337],[121.302646,23.726335],[121.302748,23.726066],[121.302456,23.725882],[121.302158,23.726149],[121.302154,23.726511],[121.301956,23.726599],[121.301954,23.726779],[121.301558,23.727046],[121.301649,23.727589],[121.301939,23.727953],[121.302233,23.727956],[121.302232,23.728047],[121.302526,23.72805],[121.302525,23.72814],[121.303213,23.728057],[121.303313,23.727878]],[[121.302342,23.727145],[121.302439,23.727236],[121.302341,23.727235],[121.302342,23.727145]],[[121.30205,23.726961],[121.302147,23.727052],[121.302049,23.727051],[121.30205,23.726961]],[[121.302551,23.726154],[121.302548,23.726334],[121.30245,23.726333],[121.302453,23.726153],[121.302551,23.726154]]]]}},{"type":"Feature","properties":{"kind":"bare_dam","month":"2018-02","area_ha":22.02},"geometry":{"type":"MultiPolygon","coordinates":[[[[121.303877,23.691855],[121.303393,23.691398],[121.303,23.691393],[121.302999,23.691484],[121.302803,23.691482],[121.302707,23.6913],[121.302412,23.691387],[121.30222,23.691114],[121.302024,23.691112],[121.30183,23.690929],[121.301534,23.691016],[121.30144,23.690744],[121.301242,23.690923],[121.301045,23.690921],[121.30095,23.690739],[121.300754,23.690737],[121.300853,23.690648],[121.300855,23.690467],[121.300757,23.690466],[121.30076,23.690285],[121.300858,23.690286],[121.300763,23.690014],[121.300862,23.689925],[121.300668,23.689743],[121.298708,23.689721],[121.298607,23.6899],[121.298117,23.689895],[121.297522,23.69043],[121.297808,23.691066],[121.298203,23.690799],[121.298596,23.690803],[121.298689,23.691166],[121.299076,23.691531],[121.299273,23.691533],[121.299274,23.691443],[121.299763,23.691539],[121.299863,23.691359],[121.299765,23.691358],[121.299671,23.691086],[121.299968,23.690818],[121.299875,23.690456],[121.299777,23.690455],[121.299876,23.690366],[121.29978,23.690184],[121.299976,23.690186],[121.30017,23.690369],[121.300066,23.69082],[121.300261,23.690912],[121.299963,23.69118],[121.300058,23.691452],[121.300942,23.691371],[121.30094,23.691461],[121.301431,23.691467],[121.301526,23.691648],[121.301725,23.69147],[121.301921,23.691472],[121.30192,23.691562],[121.303094,23.691756],[121.30348,23.692211],[121.30397,23.692217],[121.303969,23.692307],[121.304263,23.69231],[121.304262,23.692401],[121.304557,23.692314],[121.304461,23.692222],[121.304659,23.692044],[121.304563,23.691862],[121.304464,23.691951],[121.304367,23.69186],[121.303877,23.691855]],[[121.303682,23.691762],[121.303583,23.691851],[121.303584,23.691761],[121.303682,23.691762]]],[[[121.299828,23.694068],[121.299731,23.693976],[121.300025,23.69398],[121.300126,23.6938],[121.300322,23.693802],[121.300321,23.693892],[121.300615,23.693896],[121.301002,23.694261],[121.301199,23.694173],[121.301105,23.693901],[121.301007,23.6939],[121.301012,23.693539],[121.300332,23.69299],[121.300337,23.692628],[121.300143,23.692446],[121.299947,23.692444],[121.299851,23.692262],[121.299655,23.69226],[121.299462,23.692077],[121.299362,23.692166],[121.298971,23.692072],[121.298877,23.6918],[121.298678,23.691978],[121.298384,23.691975],[121.298191,23.691792],[121.298091,23.691881],[121.298185,23.692244],[121.298282,23.692335],[121.298577,23.692248],[121.298573,23.692519],[121.298671,23.69252],[121.298569,23.69288],[121.298955,23.693336],[121.298753,23.693785],[121.298947,23.693968],[121.299534,23.694064],[121.29963,23.694246],[121.299828,23.694068]],[[121.300029,23.693709],[121.299932,23.693617],[121.30003,23.693618],[121.300029,23.693709]],[[121.299444,23.693431],[121.299347,23.69334],[121.299445,23.693341],[121.299444,23.693431]],[[121.299258,23.692617],[121.299162,23.692525],[121.29926,23.692526],[121.299258,23.692617]]],[[[121.298042,23.695673],[121.298238,23.695676],[121.298341,23.695316],[121.298537,23.695318],[121.298637,23.695138],[121.298444,23.694955],[121.297953,23.69495],[121.297952,23.69504],[121.297561,23.694946],[121.297461,23.695125],[121.297753,23.695309],[121.297749,23.69558],[121.297846,23.695671],[121.298043,23.695583],[121.298042,23.695673]],[[121.298046,23.695403],[121.297949,23.695311],[121.298047,23.695312],[121.298046,23.695403]]],[[[121.297943,23.695763],[121.297748,23.69567],[121.297648,23.69585],[121.297843,23.695942],[121.297943,23.695763]]],[[[121.298127,23.696668],[121.298026,23.696937],[121.298318,23.697121],[121.298315,23.697302],[121.298509,23.697485],[121.298705,23.697487],[121.298801,23.697668],[121.299292,23.697583],[121.299196,23.697402],[121.299395,23.697223],[121.299004,23.697129],[121.299006,23.696948],[121.299205,23.69677],[121.298817,23.696404],[121.298921,23.695954],[121.299019,23.695955],[121.299025,23.695504],[121.298732,23.69541],[121.298733,23.69532],[121.298438,23.695407],[121.298534,23.695589],[121.29873,23.695591],[121.298725,23.695952],[121.298529,23.69595],[121.298336,23.695677],[121.297941,23.695943],[121.297938,23.696124],[121.298036,23.696125],[121.297935,23.696395],[121.29813,23.696487],[121.29803,23.696576],[121.298127,23.696668]],[[121.298131,23.696397],[121.298524,23.696311],[121.29862,23.696492],[121.298323,23.69667],[121.298131,23.696397]]],[[[121.300658,23.69814],[121.300657,23.698231],[121.301148,23.698146],[121.301844,23.697431],[121.301747,23.69734],[121.300863,23.69742],[121.300864,23.69733],[121.30057,23.697327],[121.300571,23.697236],[121.299982,23.69732],[121.300086,23.69687],[121.299891,23.696777],[121.299788,23.697137],[121.299591,23.697226],[121.299688,23.697317],[121.299586,23.697587],[121.29978,23.697769],[121.300172,23.697774],[121.300171,23.697864],[121.300072,23.697953],[121.299779,23.69786],[121.299382,23.698217],[121.299479,23.698308],[121.299578,23.698219],[121.300068,23.698224],[121.300268,23.697955],[121.300462,23.698138],[121.300658,23.69814]],[[121.300464,23.697958],[121.30027,23.697775],[121.300564,23.697778],[121.300464,23.697958]],[[121.300759,23.69787],[121.300762,23.69769],[121.301154,23.697694],[121.301152,23.697875],[121.300759,23.69787]]],[[[121.296529,23.698908],[121.29624,23.698543],[121.295748,23.698628],[121.295941,23.698901],[121.296235,23.698904],[121.296331,23.699086],[121.296529,23.698908]]],[[[121.298292,23.699108],[121.297896,23.699374],[121.297991,23.699646],[121.297797,23.699463],[121.297502,23.69955],[121.297597,23.699732],[121.29789,23.699826],[121.29798,23.700459],[121.299157,23.700472],[121.298871,23.699836],[121.298773,23.699835],[121.29878,23.699294],[121.298977,23.699205],[121.299082,23.698665],[121.29938,23.698397],[121.299087,23.698304],[121.298991,23.698122],[121.2985,23.698207],[121.298306,23.698024],[121.298204,23.698294],[121.298496,23.698478],[121.298494,23.698658],[121.2983,23.698476],[121.298005,23.698563],[121.298002,23.698743],[121.298294,23.698927],[121.298292,23.699108]],[[121.298494,23.698658],[121.298591,23.69875],[121.298493,23.698749],[121.298494,23.698658]],[[121.298197,23.698836],[121.298296,23.698746],[121.298295,23.698837],[121.298197,23.698836]]],[[[121.312469,23.687072],[121.312274,23.68698],[121.31218,23.686708],[121.311984,23.686706],[121.311785,23.686884],[121.312075,23.687249],[121.312369,23.687252],[121.312469,23.687072]]],[[[121.31139,23.687151],[121.311291,23.68724],[121.311386,23.687422],[121.311288,23.687421],[121.311285,23.687692],[121.311187,23.68769],[121.311282,23.687872],[121.311777,23.687516],[121.311778,23.687426],[121.31139,23.687151]],[[121.311584,23.687334],[121.311484,23.687423],[121.311486,23.687332],[121.311584,23.687334]]],[[[121.303605,23.690136],[121.303216,23.689861],[121.302922,23.689858],[121.302921,23.689948],[121.302628,23.689854],[121.302629,23.689764],[121.302334,23.689851],[121.30243,23.690033],[121.302626,23.690035],[121.302625,23.690125],[121.30292,23.690038],[121.303016,23.69022],[121.30331,23.690223],[121.303309,23.690313],[121.303505,23.690315],[121.303605,23.690136]]],[[[121.303112,23.690311],[121.302918,23.690219],[121.302817,23.690398],[121.303012,23.690491],[121.303112,23.690311]]],[[[121.306222,23.692512],[121.306519,23.692245],[121.306621,23.691975],[121.306524,23.691884],[121.306131,23.69197],[121.306035,23.691788],[121.305839,23.691786],[121.305747,23.691333],[121.305452,23.69142],[121.304757,23.692045],[121.304755,23.692225],[121.30495,23.692318],[121.30525,23.69187],[121.305544,23.691873],[121.305543,23.691963],[121.305836,23.692057],[121.306026,23.69251],[121.306222,23.692512]]],[[[121.305016,23.694757],[121.305215,23.694578],[121.30512,23.694306],[121.305414,23.69431],[121.305413,23.6944],[121.30561,23.694312],[121.305614,23.694041],[121.305712,23.694042],[121.305618,23.69368],[121.305122,23.694126],[121.304729,23.694212],[121.304431,23.694479],[121.304329,23.694839],[121.304133,23.694837],[121.303933,23.695106],[121.303836,23.695015],[121.303639,23.695103],[121.303732,23.695465],[121.303927,23.695557],[121.304028,23.695378],[121.304224,23.69538],[121.304417,23.695563],[121.304616,23.695384],[121.304719,23.695024],[121.304817,23.695025],[121.30482,23.694755],[121.305016,23.694757]],[[121.30482,23.694755],[121.304723,23.694663],[121.304821,23.694664],[121.30482,23.694755]]],[[[121.302042,23.697252],[121.302238,23.697255],[121.302635,23.696898],[121.303028,23.696812],[121.302935,23.69645],[121.303131,23.696452],[121.303234,23.696092],[121.303431,23.696003],[121.303239,23.69573],[121.302943,23.695818],[121.30294,23.696088],[121.302744,23.696086],[121.302745,23.695996],[121.302548,23.696084],[121.302444,23.696534],[121.301749,23.697159],[121.301844,23.697431],[121.302042,23.697252]]]]}},{"type":"Feature","properties":{"kind":"water","month":"2018-02","area_ha":0.12},"geometry":{"type":"MultiPolygon","coordinates":[[[[121.311584,23.687334],[121.311683,23.687244],[121.312075,23.687249],[121.312076,23.687158],[121.31188,23.687156],[121.311882,23.686976],[121.311686,23.686973],[121.311587,23.687063],[121.311584,23.687334]]],[[[121.311584,23.687334],[121.311484,23.687423],[121.311582,23.687424],[121.311584,23.687334]]]]}}]}