{"type":"FeatureCollection","features":[{"type":"Feature","properties":{"kind":"bare_slide","month":"2018-11","area_ha":9.86},"geometry":{"type":"MultiPolygon","coordinates":[[[[121.298282,23.715],[121.298185,23.714909],[121.298288,23.714549],[121.298191,23.714457],[121.297895,23.714544],[121.297606,23.71418],[121.29741,23.714178],[121.296813,23.714803],[121.297007,23.714986],[121.297107,23.714807],[121.297501,23.714721],[121.297986,23.715087],[121.298282,23.715]]],[[[121.289822,23.716984],[121.289922,23.716804],[121.290217,23.716717],[121.290027,23.716264],[121.290424,23.715907],[121.290232,23.715634],[121.289544,23.715716],[121.289441,23.716076],[121.289243,23.716255],[121.288948,23.716252],[121.288846,23.716612],[121.288748,23.716611],[121.289135,23.716976],[121.289822,23.716984]]],[[[121.292457,23.717916],[121.293448,23.717204],[121.293351,23.717113],[121.293451,23.716933],[121.293354,23.716842],[121.29306,23.716839],[121.293059,23.716929],[121.292864,23.716837],[121.292763,23.717016],[121.292567,23.717014],[121.292571,23.716743],[121.292376,23.716651],[121.291776,23.717547],[121.291971,23.717639],[121.292268,23.717372],[121.292264,23.717733],[121.292457,23.717916]]],[[[121.298132,23.718972],[121.298425,23.719065],[121.298426,23.718975],[121.298817,23.719069],[121.298917,23.71898],[121.29882,23.718889],[121.298823,23.718618],[121.298921,23.718619],[121.298827,23.718347],[121.298133,23.718881],[121.298238,23.718341],[121.298437,23.718162],[121.298633,23.718164],[121.298835,23.717715],[121.298933,23.717716],[121.298837,23.717535],[121.298442,23.717801],[121.298439,23.717982],[121.298043,23.718248],[121.298041,23.718429],[121.297644,23.718786],[121.297739,23.719058],[121.298131,23.719062],[121.298132,23.718972]]],[[[121.284888,23.719277],[121.284988,23.719097],[121.284795,23.718915],[121.284401,23.719],[121.284308,23.718638],[121.284112,23.718636],[121.283814,23.718904],[121.283812,23.719084],[121.284005,23.719267],[121.2843,23.71927],[121.284298,23.719361],[121.284888,23.719277]]],[[[121.296736,23.720762],[121.297228,23.720587],[121.297132,23.720496],[121.297142,23.719683],[121.297241,23.719594],[121.296948,23.7195],[121.296846,23.71986],[121.296748,23.719859],[121.296744,23.72013],[121.296448,23.720308],[121.296445,23.720488],[121.296736,23.720762]]],[[[121.301113,23.708439],[121.301411,23.708172],[121.300925,23.707805],[121.300631,23.707802],[121.30053,23.707981],[121.300237,23.707888],[121.300239,23.707798],[121.299845,23.707884],[121.299842,23.708155],[121.300135,23.708248],[121.300133,23.708338],[121.30033,23.70834],[121.300431,23.708071],[121.30092,23.708166],[121.301113,23.708439]]],[[[121.302134,23.712875],[121.301649,23.712509],[121.301451,23.712597],[121.301454,23.712416],[121.301552,23.712417],[121.301459,23.711965],[121.300864,23.7125],[121.300961,23.712591],[121.300959,23.712772],[121.300861,23.712771],[121.300949,23.713494],[121.30124,23.713768],[121.301238,23.713949],[121.301336,23.71395],[121.301235,23.71413],[121.301429,23.714312],[121.301626,23.714224],[121.30173,23.713774],[121.302028,23.713506],[121.302031,23.713235],[121.302229,23.713147],[121.302134,23.712875]],[[121.301841,23.712782],[121.301742,23.712871],[121.301743,23.712781],[121.301841,23.712782]]],[[[121.299024,23.718259],[121.299126,23.717989],[121.298931,23.717897],[121.29873,23.718256],[121.298827,23.718347],[121.299024,23.718259]]],[[[121.302064,23.725878],[121.302558,23.725612],[121.302463,23.72534],[121.30276,23.725163],[121.302763,23.724892],[121.302861,23.724893],[121.302769,23.724441],[121.302472,23.724618],[121.302469,23.724889],[121.302272,23.724977],[121.302266,23.725428],[121.302067,23.725607],[121.301674,23.725693],[121.301767,23.726055],[121.301963,23.726057],[121.302064,23.725878]]],[[[121.304792,23.727262],[121.305084,23.727446],[121.305183,23.727357],[121.305189,23.726905],[121.304896,23.726812],[121.304605,23.726538],[121.304708,23.726177],[121.30461,23.726176],[121.304614,23.725906],[121.304322,23.725722],[121.304223,23.725811],[121.304213,23.726533],[121.304311,23.726534],[121.304204,23.727256],[121.304398,23.727438],[121.304692,23.727441],[121.304792,23.727262]]]]}},{"type":"Feature","properties":{"kind":"bare_dam","month":"2018-11","area_ha":10.39},"geometry":{"type":"MultiPolygon","coordinates":[[[[121.298978,23.69153],[121.299667,23.691357],[121.299671,23.691086],[121.299572,23.691085],[121.299675,23.690725],[121.299385,23.690451],[121.299679,23.690454],[121.299778,23.690365],[121.299682,23.690183],[121.300269,23.69028],[121.300169,23.690459],[121.300364,23.690552],[121.300458,23.690824],[121.300754,23.690737],[121.300661,23.690284],[121.300369,23.690191],[121.30008,23.689736],[121.298708,23.689721],[121.298608,23.68981],[121.298802,23.689993],[121.298699,23.690353],[121.298991,23.690537],[121.29889,23.690807],[121.298304,23.69062],[121.298306,23.690439],[121.298404,23.69044],[121.298407,23.690259],[121.298212,23.690167],[121.298313,23.689897],[121.298117,23.689895],[121.297522,23.69043],[121.297808,23.691066],[121.298397,23.690982],[121.298396,23.691072],[121.29869,23.691075],[121.298978,23.69153]]],[[[121.298189,23.691882],[121.298287,23.691884],[121.298284,23.692154],[121.298186,23.692153],[121.298282,23.692335],[121.298478,23.692337],[121.298776,23.691979],[121.298973,23.691981],[121.298971,23.692072],[121.299167,23.692074],[121.299169,23.691984],[121.299462,23.692077],[121.299561,23.691988],[121.299368,23.691715],[121.299171,23.691803],[121.298783,23.691438],[121.298489,23.691434],[121.298189,23.691882]],[[121.298388,23.691704],[121.298485,23.691795],[121.298387,23.691794],[121.298388,23.691704]]],[[[121.30043,23.692991],[121.300728,23.692723],[121.30024,23.692537],[121.300241,23.692447],[121.299946,23.692534],[121.30043,23.692991]]],[[[121.298957,23.693155],[121.299156,23.692977],[121.29906,23.692795],[121.299257,23.692707],[121.299162,23.692525],[121.298667,23.692881],[121.298664,23.693062],[121.298957,23.693155]]],[[[121.300028,23.693799],[121.299835,23.693526],[121.300033,23.693348],[121.300325,23.693531],[121.300623,23.693264],[121.300527,23.693082],[121.300232,23.693169],[121.30004,23.692806],[121.299941,23.692895],[121.299451,23.69289],[121.299347,23.69334],[121.299149,23.693518],[121.298953,23.693516],[121.298753,23.693785],[121.29885,23.693876],[121.299047,23.693788],[121.299435,23.694154],[121.299631,23.694156],[121.299731,23.693976],[121.300025,23.69398],[121.300024,23.69407],[121.300317,23.694163],[121.300615,23.693896],[121.300806,23.694259],[121.3011,23.694262],[121.301099,23.694353],[121.301296,23.694264],[121.300813,23.693717],[121.300518,23.693804],[121.300324,23.693622],[121.300224,23.693801],[121.300028,23.693799]],[[121.300224,23.693801],[121.300321,23.693892],[121.300223,23.693891],[121.300224,23.693801]]],[[[121.301785,23.69436],[121.301687,23.694359],[121.301594,23.693997],[121.301399,23.693904],[121.301295,23.694355],[121.301489,23.694537],[121.301685,23.69454],[121.301785,23.69436]]],[[[121.298719,23.696403],[121.299014,23.696316],[121.299019,23.695955],[121.298921,23.695954],[121.299025,23.695504],[121.298928,23.695412],[121.298829,23.695501],[121.298635,23.695319],[121.29834,23.695406],[121.298336,23.695677],[121.298824,23.695863],[121.298625,23.696131],[121.298431,23.695949],[121.298136,23.696036],[121.297748,23.69567],[121.297551,23.695758],[121.297646,23.69594],[121.297843,23.695942],[121.297839,23.696213],[121.297937,23.696214],[121.298032,23.696486],[121.298327,23.696399],[121.298423,23.696581],[121.298619,23.696583],[121.298719,23.696403]]],[[[121.298998,23.69758],[121.299196,23.697402],[121.2992,23.697131],[121.299495,23.697044],[121.299402,23.696682],[121.299011,23.696587],[121.298811,23.696856],[121.298714,23.696764],[121.298518,23.696762],[121.298517,23.696853],[121.298224,23.696759],[121.298125,23.696848],[121.298319,23.697031],[121.298316,23.697212],[121.298609,23.697305],[121.298802,23.697578],[121.298998,23.69758]]],[[[121.312754,23.687798],[121.312852,23.687799],[121.312955,23.687439],[121.312761,23.687256],[121.312565,23.687254],[121.312567,23.687073],[121.312277,23.686799],[121.311983,23.686796],[121.311881,23.687066],[121.312075,23.687249],[121.312369,23.687252],[121.312267,23.687522],[121.312366,23.687523],[121.312555,23.688067],[121.312752,23.687978],[121.312754,23.687798]]],[[[121.302608,23.691389],[121.302509,23.691478],[121.302511,23.691298],[121.302218,23.691204],[121.30222,23.691114],[121.302022,23.691202],[121.302115,23.691655],[121.302507,23.691659],[121.302508,23.691569],[121.302703,23.691661],[121.302803,23.691482],[121.302608,23.691389]]],[[[121.303094,23.691756],[121.303194,23.691576],[121.302901,23.691483],[121.302801,23.691662],[121.303094,23.691756]]],[[[121.306034,23.691878],[121.305741,23.691785],[121.305641,23.691964],[121.305934,23.692058],[121.306034,23.691878]]],[[[121.304166,23.692219],[121.304266,23.69213],[121.30417,23.691948],[121.303582,23.691942],[121.303583,23.691851],[121.303288,23.691938],[121.303577,23.692303],[121.303676,23.692214],[121.304166,23.692219]]],[[[121.306515,23.692606],[121.306912,23.692249],[121.307403,23.692164],[121.307212,23.691801],[121.306917,23.691798],[121.306817,23.691977],[121.306425,23.691973],[121.306424,23.692063],[121.306327,23.691972],[121.305934,23.692058],[121.306027,23.69242],[121.306419,23.692424],[121.306515,23.692606]]],[[[121.302932,23.69672],[121.302737,23.696628],[121.302739,23.696447],[121.303037,23.69618],[121.302646,23.696085],[121.302543,23.696445],[121.302245,23.696713],[121.302636,23.696807],[121.302635,23.696898],[121.302831,23.6969],[121.302932,23.69672]]]]}},{"type":"Feature","properties":{"kind":"water","month":"2018-11","area_ha":0.89},"geometry":{"type":"MultiPolygon","coordinates":[[[[121.301747,23.69734],[121.301648,23.697429],[121.301746,23.69743],[121.301747,23.69734]]],[[[121.30155,23.697428],[121.301646,23.697519],[121.301648,23.697429],[121.30155,23.697428]]],[[[121.301548,23.697518],[121.301352,23.697516],[121.301351,23.697606],[121.301547,23.697608],[121.301548,23.697518]]],[[[121.291831,23.698224],[121.291832,23.698133],[121.29144,23.698129],[121.291536,23.698311],[121.29183,23.698314],[121.292024,23.698497],[121.292027,23.698226],[121.291831,23.698224]]],[[[121.298092,23.699376],[121.29819,23.699377],[121.298193,23.699197],[121.298095,23.699196],[121.298092,23.699376]]],[[[121.297698,23.699553],[121.297893,23.699645],[121.298092,23.699376],[121.297798,23.699373],[121.297698,23.699553]]],[[[121.297795,23.699644],[121.297695,23.699733],[121.297793,23.699734],[121.297795,23.699644]]],[[[121.30889,23.690916],[121.308694,23.690914],[121.30869,23.691185],[121.308788,23.691186],[121.30889,23.690916]]],[[[121.30869,23.691185],[121.308592,23.691184],[121.30859,23.691364],[121.308688,23.691365],[121.30869,23.691185]]],[[[121.308191,23.691902],[121.308389,23.691723],[121.308392,23.691543],[121.30859,23.691364],[121.308394,23.691362],[121.308196,23.691541],[121.308193,23.691721],[121.307997,23.691719],[121.307897,23.691899],[121.308191,23.691902]]],[[[121.303134,23.696271],[121.303232,23.696272],[121.303234,23.696092],[121.303039,23.695999],[121.302935,23.69645],[121.302739,23.696447],[121.302737,23.696628],[121.302934,23.69654],[121.30293,23.696811],[121.303128,23.696723],[121.303134,23.696271]]],[[[121.302336,23.697256],[121.302634,23.696988],[121.302636,23.696807],[121.302342,23.696804],[121.302242,23.696984],[121.302046,23.696982],[121.30214,23.697254],[121.302336,23.697256]]],[[[121.301748,23.697249],[121.301845,23.697341],[121.301844,23.697431],[121.30204,23.697433],[121.302043,23.697162],[121.301748,23.697249]]]]}}]}