{"type":"FeatureCollection","features":[{"type":"Feature","properties":{"kind":"bare_slide","month":"2018-04","area_ha":46.23},"geometry":{"type":"MultiPolygon","coordinates":[[[[121.292,23.715382],[121.291904,23.715201],[121.29161,23.715197],[121.291613,23.715017],[121.29181,23.714929],[121.291714,23.714747],[121.291223,23.714832],[121.291318,23.715014],[121.291515,23.715016],[121.291512,23.715196],[121.291414,23.715195],[121.291507,23.715558],[121.292,23.715382]]],[[[121.289534,23.716439],[121.289728,23.716621],[121.289831,23.716261],[121.29003,23.716083],[121.290423,23.715997],[121.290425,23.715816],[121.290232,23.715634],[121.289838,23.71572],[121.289941,23.71536],[121.290435,23.715094],[121.290438,23.714823],[121.290145,23.71473],[121.290146,23.714639],[121.289851,23.714727],[121.28985,23.714817],[121.28936,23.714811],[121.289358,23.714902],[121.289063,23.714989],[121.289257,23.715171],[121.289252,23.715533],[121.289447,23.715625],[121.289441,23.716076],[121.289343,23.716075],[121.289341,23.716256],[121.289047,23.716253],[121.288853,23.71607],[121.288653,23.716339],[121.288944,23.716613],[121.28914,23.716615],[121.28924,23.716435],[121.289534,23.716439]]],[[[121.289249,23.715803],[121.289055,23.715621],[121.288757,23.715888],[121.289049,23.716072],[121.289151,23.715802],[121.289249,23.715803]]],[[[121.291107,23.716185],[121.291204,23.716277],[121.291308,23.715826],[121.291603,23.715739],[121.291411,23.715466],[121.290918,23.715641],[121.290816,23.715911],[121.29052,23.716088],[121.290614,23.71636],[121.290909,23.716364],[121.291107,23.716185]]],[[[121.285388,23.71856],[121.285785,23.718203],[121.286569,23.718212],[121.28667,23.718032],[121.286965,23.717945],[121.286869,23.717764],[121.287068,23.717585],[121.287657,23.717501],[121.287758,23.717322],[121.287564,23.717139],[121.287172,23.717135],[121.28707,23.717405],[121.286777,23.717311],[121.28628,23.717847],[121.285887,23.717843],[121.285292,23.718378],[121.285096,23.718376],[121.285097,23.718286],[121.2849,23.718374],[121.284995,23.718556],[121.285095,23.718466],[121.285388,23.71856]]],[[[121.290873,23.719072],[121.290876,23.718892],[121.290682,23.718709],[121.291367,23.718807],[121.29147,23.718447],[121.291567,23.718538],[121.291764,23.71845],[121.29157,23.718267],[121.291573,23.718087],[121.292069,23.717641],[121.292071,23.71746],[121.292368,23.717283],[121.292371,23.717012],[121.292469,23.717013],[121.292374,23.716831],[121.292176,23.716919],[121.292174,23.7171],[121.291977,23.717188],[121.291974,23.717369],[121.291777,23.717457],[121.291775,23.717637],[121.291477,23.717905],[121.291283,23.717722],[121.291087,23.71772],[121.290789,23.717988],[121.290593,23.717985],[121.290493,23.718165],[121.289902,23.718339],[121.29029,23.718705],[121.290187,23.719065],[121.290381,23.719247],[121.290873,23.719072]]],[[[121.28281,23.720699],[121.282812,23.720518],[121.283704,23.719805],[121.283706,23.719625],[121.284001,23.719628],[121.284199,23.71945],[121.284394,23.719542],[121.284496,23.719272],[121.284984,23.719458],[121.285284,23.71901],[121.285187,23.718919],[121.284499,23.719002],[121.28411,23.718726],[121.284113,23.718546],[121.283725,23.71818],[121.283529,23.718178],[121.28343,23.718267],[121.283423,23.718809],[121.283716,23.718903],[121.28361,23.719534],[121.283413,23.719531],[121.283416,23.719351],[121.283318,23.71935],[121.283418,23.71917],[121.283223,23.719078],[121.283025,23.719256],[121.283022,23.719437],[121.282726,23.719614],[121.28292,23.719797],[121.282818,23.720067],[121.282622,23.720064],[121.282526,23.719883],[121.282134,23.719878],[121.282133,23.719969],[121.281938,23.719876],[121.28164,23.720144],[121.281635,23.720505],[121.281926,23.720779],[121.282415,23.720875],[121.282416,23.720784],[121.28281,23.720699]],[[121.282228,23.72015],[121.282423,23.720243],[121.282322,23.720512],[121.282029,23.720419],[121.282031,23.720238],[121.282227,23.720241],[121.282228,23.72015]]],[[[121.28625,23.720105],[121.286449,23.719926],[121.286645,23.719928],[121.286739,23.7202],[121.287033,23.720204],[121.287035,23.720113],[121.287328,23.720207],[121.287527,23.719938],[121.287043,23.719481],[121.286846,23.719569],[121.287039,23.719752],[121.286939,23.719932],[121.286841,23.719931],[121.286746,23.719659],[121.286256,23.719653],[121.28616,23.719471],[121.285964,23.719469],[121.285963,23.71956],[121.285572,23.719465],[121.285273,23.719823],[121.285369,23.720005],[121.285861,23.719829],[121.286055,23.720012],[121.286053,23.720193],[121.285955,23.720192],[121.28605,23.720373],[121.286346,23.720286],[121.28625,23.720105]],[[121.285668,23.719647],[121.285765,23.719738],[121.285666,23.719737],[121.285668,23.719647]]],[[[121.292822,23.720087],[121.292624,23.720175],[121.29272,23.720357],[121.292917,23.720269],[121.292822,23.720087]]],[[[121.284863,23.721173],[121.285063,23.720904],[121.285456,23.720818],[121.285363,23.720456],[121.28556,23.720368],[121.285563,23.720187],[121.285368,23.720095],[121.285169,23.720273],[121.285171,23.720093],[121.28527,23.720094],[121.285174,23.719912],[121.284289,23.720083],[121.283989,23.720531],[121.284478,23.720627],[121.284477,23.720717],[121.285067,23.720543],[121.285065,23.720724],[121.284869,23.720721],[121.284671,23.7209],[121.284668,23.72108],[121.284863,23.721173]],[[121.284971,23.720452],[121.28507,23.720362],[121.285069,23.720453],[121.284971,23.720452]]],[[[121.290459,23.720783],[121.29056,23.720513],[121.290267,23.72042],[121.290164,23.72078],[121.290358,23.720963],[121.290555,23.720875],[121.290459,23.720783]]],[[[121.293013,23.72045],[121.292818,23.720358],[121.29252,23.720625],[121.292616,23.720807],[121.292419,23.720895],[121.292516,23.720987],[121.292415,23.721166],[121.292609,23.721349],[121.292806,23.721261],[121.292803,23.721532],[121.292605,23.72162],[121.292699,23.721982],[121.292989,23.722256],[121.293186,23.722258],[121.293288,23.721898],[121.293486,23.72181],[121.293489,23.721539],[121.29281,23.72099],[121.292911,23.72072],[121.293009,23.720721],[121.293013,23.72045]],[[121.29281,23.72099],[121.292711,23.721079],[121.292712,23.720989],[121.29281,23.72099]]],[[[121.288787,23.721126],[121.288891,23.720676],[121.288598,23.720582],[121.288102,23.721028],[121.288003,23.721027],[121.287909,23.720755],[121.287713,23.720753],[121.287712,23.720843],[121.287321,23.720749],[121.287122,23.720927],[121.287019,23.721287],[121.286921,23.721286],[121.286913,23.721918],[121.287304,23.722013],[121.287406,23.721743],[121.287603,23.721655],[121.287605,23.721474],[121.287998,23.721478],[121.288191,23.721661],[121.288189,23.721842],[121.288091,23.721841],[121.288187,23.722022],[121.28858,23.721936],[121.288781,23.721577],[121.289072,23.721851],[121.289365,23.721945],[121.289466,23.721675],[121.289271,23.721583],[121.289275,23.721312],[121.289081,23.721129],[121.288587,23.721395],[121.288589,23.721214],[121.288787,23.721126]],[[121.288587,23.721395],[121.288488,23.721484],[121.288489,23.721394],[121.288587,23.721395]]],[[[121.290151,23.721773],[121.290153,23.721683],[121.290447,23.721686],[121.290745,23.721418],[121.290358,23.720963],[121.290161,23.721051],[121.290159,23.721231],[121.289965,23.721049],[121.289769,23.721047],[121.289667,23.721316],[121.28947,23.721404],[121.289563,23.721767],[121.289857,23.72177],[121.289858,23.72168],[121.290151,23.721773]]],[[[121.284552,23.722434],[121.284458,23.722162],[121.284654,23.722164],[121.284848,23.722346],[121.285145,23.722079],[121.285244,23.72208],[121.28524,23.722351],[121.285435,23.722443],[121.285637,23.721994],[121.286228,23.72182],[121.286328,23.721641],[121.286523,23.721733],[121.286922,23.721196],[121.286727,23.721103],[121.286627,23.721283],[121.286431,23.72128],[121.286335,23.721099],[121.286139,23.721097],[121.285841,23.721364],[121.285838,23.721635],[121.285639,23.721813],[121.285443,23.721811],[121.285343,23.721991],[121.284854,23.721895],[121.284855,23.721805],[121.284659,23.721803],[121.284558,23.721982],[121.284264,23.721979],[121.284165,23.722068],[121.284162,23.722249],[121.284261,23.72225],[121.284159,23.722519],[121.284354,23.722612],[121.284552,23.722434]]],[[[121.287199,23.722553],[121.287098,23.722733],[121.287293,23.722825],[121.287393,23.722736],[121.287297,23.722554],[121.287494,23.722466],[121.287402,23.722014],[121.286906,23.72246],[121.286712,23.722277],[121.286515,23.722365],[121.286804,23.722729],[121.287003,23.722551],[121.287199,23.722553]]],[[[121.286901,23.722821],[121.286706,23.722728],[121.286508,23.722907],[121.286601,23.723269],[121.286798,23.723181],[121.286901,23.722821]]],[[[121.293729,23.725696],[121.293928,23.725517],[121.29432,23.725521],[121.294422,23.725252],[121.294619,23.725164],[121.294425,23.724981],[121.294527,23.724711],[121.294136,23.724616],[121.293943,23.724343],[121.294433,23.724349],[121.29453,23.72444],[121.294631,23.724261],[121.294827,23.724263],[121.295025,23.724084],[121.294833,23.723811],[121.294637,23.723809],[121.294646,23.723087],[121.294451,23.722994],[121.294558,23.722273],[121.294657,23.722274],[121.294561,23.722093],[121.294859,23.721825],[121.294764,23.721553],[121.294467,23.72173],[121.294464,23.722001],[121.294171,23.721908],[121.294069,23.722178],[121.293971,23.722177],[121.294165,23.722359],[121.294162,23.72263],[121.294063,23.722629],[121.294059,23.72299],[121.293861,23.723078],[121.293858,23.723349],[121.293369,23.723253],[121.293078,23.722979],[121.292685,23.723065],[121.292682,23.723246],[121.29278,23.723247],[121.292679,23.723517],[121.292873,23.723699],[121.293069,23.723702],[121.293066,23.723882],[121.292868,23.724061],[121.293352,23.724517],[121.29384,23.724703],[121.293836,23.725065],[121.29354,23.725152],[121.293539,23.725242],[121.293147,23.725238],[121.293146,23.725328],[121.292557,23.725321],[121.292359,23.7255],[121.292165,23.725317],[121.291966,23.725495],[121.29187,23.725404],[121.291672,23.725492],[121.291768,23.725674],[121.291867,23.725585],[121.291964,23.725676],[121.292358,23.72559],[121.292356,23.72568],[121.292847,23.725686],[121.292846,23.725776],[121.293631,23.725694],[121.293632,23.725604],[121.293729,23.725696]],[[121.294248,23.723534],[121.294245,23.723715],[121.294147,23.723714],[121.29415,23.723533],[121.294248,23.723534]]],[[[121.290905,23.724129],[121.290998,23.724582],[121.290501,23.725028],[121.290892,23.725122],[121.290987,23.725394],[121.291281,23.725398],[121.291678,23.725041],[121.291096,23.724583],[121.291098,23.724402],[121.291295,23.724314],[121.291302,23.723772],[121.291204,23.723771],[121.291208,23.7235],[121.29111,23.723499],[121.291113,23.723229],[121.291211,23.72323],[121.291116,23.723048],[121.290917,23.723226],[121.290623,23.723223],[121.290423,23.723492],[121.290326,23.7234],[121.290129,23.723489],[121.290317,23.724123],[121.290121,23.724121],[121.289921,23.724389],[121.290116,23.724482],[121.290217,23.724302],[121.29061,23.724216],[121.290811,23.723857],[121.291006,23.72395],[121.291003,23.72413],[121.290905,23.724129]],[[121.290811,23.723857],[121.290616,23.723765],[121.290618,23.723584],[121.290813,23.723677],[121.290811,23.723857]]],[[[121.294275,23.706378],[121.294086,23.705834],[121.294282,23.705836],[121.294482,23.705567],[121.294191,23.705293],[121.293897,23.70529],[121.293896,23.70538],[121.2936,23.705467],[121.293685,23.706461],[121.29388,23.706554],[121.293881,23.706464],[121.294275,23.706378]]],[[[121.294666,23.706472],[121.29457,23.706291],[121.294374,23.706288],[121.294373,23.706379],[121.294275,23.706378],[121.294274,23.706468],[121.294567,23.706561],[121.294666,23.706472]]],[[[121.30121,23.708531],[121.301314,23.70808],[121.301021,23.707987],[121.300926,23.707715],[121.300632,23.707712],[121.300433,23.70789],[121.300431,23.708071],[121.300722,23.708345],[121.300919,23.708257],[121.300917,23.708437],[121.300819,23.708436],[121.300913,23.708708],[121.30121,23.708531]]],[[[121.301525,23.714494],[121.301731,23.713684],[121.301929,23.713595],[121.302031,23.713235],[121.302228,23.713237],[121.302328,23.713058],[121.302037,23.712784],[121.301743,23.712781],[121.301747,23.71251],[121.301552,23.712417],[121.301653,23.712148],[121.301361,23.711964],[121.30126,23.712234],[121.300865,23.71241],[121.30076,23.71295],[121.300858,23.712952],[121.300854,23.713313],[121.301047,23.713495],[121.301044,23.713766],[121.301239,23.713859],[121.301233,23.71431],[121.301036,23.714398],[121.301033,23.714579],[121.301227,23.714762],[121.301521,23.714765],[121.30162,23.714676],[121.301623,23.714495],[121.301525,23.714494]]],[[[121.294957,23.714241],[121.295157,23.713972],[121.295747,23.713798],[121.295652,23.713617],[121.295849,23.713529],[121.295952,23.713168],[121.29625,23.712901],[121.296157,23.712448],[121.29596,23.712536],[121.295957,23.712807],[121.29556,23.713164],[121.295067,23.713339],[121.295161,23.713611],[121.294766,23.713878],[121.294762,23.714149],[121.294957,23.714241]]],[[[121.298383,23.71473],[121.298291,23.714278],[121.297998,23.714184],[121.297999,23.714094],[121.29741,23.714178],[121.297013,23.714535],[121.297107,23.714807],[121.297696,23.714813],[121.297695,23.714903],[121.298185,23.714909],[121.298383,23.71473]],[[121.2976,23.714631],[121.297699,23.714542],[121.297698,23.714632],[121.2976,23.714631]]],[[[121.294063,23.715134],[121.29426,23.715046],[121.294263,23.714866],[121.294164,23.714864],[121.294172,23.714323],[121.294369,23.714235],[121.294275,23.713872],[121.29368,23.714408],[121.293678,23.714588],[121.293482,23.714586],[121.293184,23.714854],[121.293378,23.715036],[121.293374,23.715307],[121.293667,23.715401],[121.293666,23.715491],[121.293961,23.715404],[121.294063,23.715134]],[[121.293868,23.715042],[121.293866,23.715222],[121.293669,23.71522],[121.293672,23.71504],[121.293868,23.715042]]],[[[121.298739,23.717533],[121.298738,23.717624],[121.298443,23.717711],[121.298241,23.71816],[121.297645,23.718695],[121.297643,23.718876],[121.297545,23.718875],[121.297641,23.719056],[121.297837,23.719059],[121.297836,23.719149],[121.298032,23.719151],[121.298033,23.719061],[121.29813,23.719152],[121.298326,23.719154],[121.298327,23.719064],[121.298816,23.71916],[121.298915,23.719071],[121.298925,23.718348],[121.299023,23.718349],[121.299124,23.71808],[121.299321,23.718082],[121.299519,23.717903],[121.299521,23.717723],[121.300117,23.717187],[121.300119,23.717007],[121.300217,23.717008],[121.300125,23.716555],[121.300223,23.716557],[121.300227,23.716286],[121.300424,23.716198],[121.300427,23.715927],[121.300625,23.715839],[121.300529,23.715657],[121.299935,23.716102],[121.299828,23.716733],[121.29973,23.716732],[121.299727,23.717003],[121.299629,23.717001],[121.299325,23.717721],[121.298831,23.717986],[121.298934,23.717626],[121.298739,23.717533]],[[121.298831,23.717986],[121.298732,23.718075],[121.298733,23.717985],[121.298831,23.717986]],[[121.298728,23.718436],[121.298331,23.718793],[121.298135,23.718791],[121.298138,23.71852],[121.298437,23.718162],[121.298732,23.718075],[121.298728,23.718436]]],[[[121.296835,23.720673],[121.296642,23.7204],[121.296445,23.720488],[121.296638,23.720761],[121.296835,23.720673]]],[[[121.296341,23.720938],[121.296529,23.721573],[121.296728,23.721394],[121.296825,23.721486],[121.297022,23.721397],[121.297024,23.721217],[121.296829,23.721124],[121.296832,23.720944],[121.296638,23.720761],[121.296341,23.720938]]],[[[121.296722,23.721846],[121.296822,23.721666],[121.296627,23.721574],[121.296524,23.721934],[121.296719,23.722026],[121.296819,23.721937],[121.296722,23.721846]]],[[[121.303266,23.723904],[121.303662,23.723638],[121.303767,23.723097],[121.303965,23.723009],[121.303771,23.722826],[121.303773,23.722646],[121.304165,23.72265],[121.304366,23.722291],[121.304269,23.722199],[121.303877,23.722195],[121.303876,23.722285],[121.302896,23.722184],[121.302508,23.721909],[121.302512,23.721548],[121.302415,23.721457],[121.302218,23.721545],[121.302126,23.721092],[121.302028,23.721091],[121.302032,23.72073],[121.30223,23.720642],[121.302238,23.72001],[121.302043,23.719918],[121.301941,23.720187],[121.301843,23.720186],[121.301839,23.720547],[121.301641,23.720636],[121.301632,23.721358],[121.301925,23.721451],[121.302216,23.721725],[121.302213,23.721906],[121.302503,23.72227],[121.302498,23.722632],[121.302596,23.722633],[121.302398,23.722811],[121.302393,23.723172],[121.302196,23.72326],[121.302193,23.723441],[121.302292,23.723442],[121.302188,23.723892],[121.302579,23.723987],[121.302578,23.724077],[121.30307,23.723902],[121.303164,23.724264],[121.303359,23.724357],[121.303461,23.723997],[121.303266,23.723904]],[[121.303376,23.723002],[121.303473,23.723094],[121.303375,23.723093],[121.303376,23.723002]],[[121.302694,23.722634],[121.302892,23.722546],[121.302984,23.722998],[121.302692,23.722814],[121.302694,23.722634]]],[[[121.303453,23.724629],[121.303554,23.724449],[121.303359,23.724357],[121.303258,23.724536],[121.303453,23.724629]]],[[[121.302161,23.725969],[121.302262,23.725699],[121.302359,23.72579],[121.302557,23.725702],[121.302463,23.72534],[121.30276,23.725163],[121.302763,23.724892],[121.302861,23.724893],[121.302868,23.724351],[121.302771,23.72426],[121.302574,23.724348],[121.302469,23.724889],[121.30237,23.724978],[121.301881,23.724882],[121.301781,23.724971],[121.301875,23.725334],[121.301479,23.7256],[121.301477,23.725781],[121.301672,23.725873],[121.301766,23.726145],[121.302161,23.725969]]],[[[121.296955,23.726544],[121.297547,23.726279],[121.297451,23.726098],[121.297255,23.726096],[121.297256,23.726005],[121.296961,23.726092],[121.296671,23.725728],[121.296769,23.725729],[121.296774,23.725368],[121.296971,23.72528],[121.297074,23.72492],[121.297173,23.72483],[121.297368,23.724923],[121.297667,23.724565],[121.297963,23.724478],[121.297869,23.724116],[121.297674,23.724023],[121.297374,23.724471],[121.296396,23.72428],[121.296395,23.72437],[121.295903,23.724455],[121.295803,23.724635],[121.295608,23.724542],[121.295507,23.724722],[121.295701,23.724905],[121.295305,23.725171],[121.295201,23.725621],[121.295886,23.72581],[121.296078,23.726083],[121.296274,23.726085],[121.296473,23.725906],[121.29647,23.726087],[121.296664,23.72627],[121.29686,23.726272],[121.296955,23.726544]],[[121.296474,23.725816],[121.296573,23.725727],[121.296572,23.725817],[121.296474,23.725816]],[[121.295998,23.724727],[121.296096,23.724728],[121.296093,23.724909],[121.295995,23.724908],[121.295998,23.724727]]],[[[121.294314,23.725973],[121.29422,23.725701],[121.293827,23.725697],[121.29343,23.726053],[121.293329,23.726323],[121.293525,23.726325],[121.293527,23.726145],[121.29392,23.726149],[121.293922,23.725969],[121.294314,23.725973]]],[[[121.306252,23.728181],[121.306057,23.728089],[121.305867,23.727545],[121.305092,23.726814],[121.304604,23.726628],[121.304712,23.725907],[121.30442,23.725723],[121.304318,23.725993],[121.30422,23.725992],[121.304213,23.726533],[121.304602,23.726808],[121.304598,23.727079],[121.305471,23.727902],[121.305365,23.728442],[121.305659,23.728536],[121.305657,23.728626],[121.306245,23.728723],[121.306344,23.728633],[121.306252,23.728181]]],[[[121.303313,23.727878],[121.302826,23.727602],[121.302829,23.727421],[121.303027,23.727243],[121.302639,23.726877],[121.302743,23.726427],[121.302352,23.726332],[121.302054,23.7266],[121.302052,23.72678],[121.301557,23.727136],[121.301555,23.727317],[121.301749,23.727499],[121.301848,23.72741],[121.302043,23.727503],[121.301745,23.72777],[121.301939,23.727953],[121.302233,23.727956],[121.302232,23.728047],[121.302526,23.72805],[121.302525,23.72814],[121.303213,23.728057],[121.303313,23.727878]],[[121.302437,23.727326],[121.30205,23.726961],[121.302246,23.726963],[121.30244,23.727146],[121.302437,23.727326]]]]}},{"type":"Feature","properties":{"kind":"bare_dam","month":"2018-04","area_ha":7.37},"geometry":{"type":"MultiPolygon","coordinates":[[[[121.311578,23.687785],[121.31178,23.687336],[121.311585,23.687243],[121.311687,23.686883],[121.311492,23.686791],[121.311393,23.68688],[121.311488,23.687152],[121.311291,23.68724],[121.311284,23.687782],[121.31138,23.687873],[121.311578,23.687785]]],[[[121.301977,23.694723],[121.302074,23.694815],[121.302174,23.694635],[121.301397,23.694085],[121.301497,23.693905],[121.301303,23.693723],[121.301106,23.693811],[121.3013,23.693994],[121.301298,23.694174],[121.301007,23.6939],[121.30071,23.694077],[121.300806,23.694259],[121.3011,23.694262],[121.301099,23.694353],[121.30149,23.694447],[121.301682,23.69481],[121.301977,23.694723]]],[[[121.304716,23.695205],[121.304818,23.694935],[121.305114,23.694758],[121.305117,23.694577],[121.304826,23.694303],[121.30463,23.694301],[121.304134,23.694747],[121.304131,23.694928],[121.304519,23.695293],[121.304716,23.695205]]],[[[121.30323,23.696362],[121.303234,23.696092],[121.303432,23.695913],[121.303141,23.695729],[121.302942,23.695908],[121.302839,23.696268],[121.303033,23.696451],[121.30323,23.696362]]],[[[121.301943,23.697342],[121.30234,23.696985],[121.302633,23.697078],[121.30303,23.696721],[121.302933,23.69663],[121.302637,23.696717],[121.302542,23.696536],[121.302346,23.696533],[121.302147,23.696712],[121.302145,23.696892],[121.301848,23.69707],[121.301943,23.697342]]],[[[121.29988,23.69759],[121.300277,23.697233],[121.300179,23.697232],[121.300086,23.69687],[121.299794,23.696686],[121.299589,23.697406],[121.299882,23.6975],[121.29988,23.69759]]],[[[121.298895,23.69794],[121.2985,23.698207],[121.298502,23.698026],[121.298797,23.697939],[121.299095,23.697672],[121.298999,23.69749],[121.299195,23.697492],[121.299291,23.697674],[121.299488,23.697586],[121.299491,23.697405],[121.299393,23.697404],[121.299496,23.696954],[121.299303,23.696771],[121.299107,23.696769],[121.299011,23.696587],[121.298713,23.696855],[121.298419,23.696851],[121.298221,23.69703],[121.298315,23.697302],[121.29851,23.697394],[121.298508,23.697575],[121.29841,23.697574],[121.298406,23.697845],[121.298308,23.697844],[121.298305,23.698114],[121.298207,23.698113],[121.298202,23.698474],[121.298004,23.698653],[121.298001,23.698833],[121.298679,23.699473],[121.298976,23.699296],[121.299081,23.698755],[121.299278,23.698667],[121.29938,23.698397],[121.299969,23.698313],[121.300168,23.698135],[121.301049,23.698235],[121.301149,23.698055],[121.301445,23.697968],[121.301447,23.697788],[121.301742,23.697701],[121.301745,23.69752],[121.301648,23.697429],[121.300863,23.69742],[121.300466,23.697777],[121.300173,23.697683],[121.300172,23.697774],[121.29978,23.697769],[121.29968,23.697949],[121.299583,23.697858],[121.299387,23.697855],[121.299386,23.697946],[121.299191,23.697853],[121.29909,23.698033],[121.298895,23.69794]],[[121.29909,23.698033],[121.299187,23.698124],[121.299089,23.698123],[121.29909,23.698033]],[[121.300759,23.69787],[121.30086,23.697691],[121.301154,23.697694],[121.301052,23.697964],[121.300759,23.69787]]],[[[121.295843,23.6989],[121.296332,23.698996],[121.296432,23.698816],[121.296239,23.698633],[121.295748,23.698628],[121.29545,23.698986],[121.295743,23.699079],[121.295843,23.6989]]],[[[121.299062,23.7002],[121.298964,23.700199],[121.298775,23.699655],[121.29858,23.699562],[121.298382,23.699741],[121.298379,23.699921],[121.298477,23.699922],[121.298474,23.700193],[121.298669,23.700286],[121.298666,23.700466],[121.299157,23.700472],[121.299062,23.7002]]]]}},{"type":"Feature","properties":{"kind":"water","month":"2018-04","area_ha":0.19},"geometry":{"type":"MultiPolygon","coordinates":[[[[121.299878,23.69777],[121.300172,23.697774],[121.300175,23.697593],[121.299879,23.69768],[121.299878,23.69777]]],[[[121.299882,23.6975],[121.299584,23.697767],[121.299193,23.697673],[121.299288,23.697945],[121.299387,23.697855],[121.29968,23.697949],[121.299882,23.6975]]]]}}]}