{"type":"FeatureCollection","features":[{"type":"Feature","properties":{"kind":"bare_slide","month":"2018-05","area_ha":64.22},"geometry":{"type":"MultiPolygon","coordinates":[[[[121.294275,23.706378],[121.294085,23.705924],[121.294282,23.705836],[121.294385,23.705476],[121.294093,23.705292],[121.294092,23.705382],[121.293798,23.705379],[121.293599,23.705557],[121.293696,23.705649],[121.293592,23.706099],[121.29369,23.7061],[121.293782,23.706553],[121.294275,23.706378]]],[[[121.293673,23.714949],[121.293675,23.714769],[121.293773,23.71477],[121.29377,23.715041],[121.294063,23.715134],[121.294263,23.714866],[121.29397,23.714772],[121.293972,23.714591],[121.294265,23.714685],[121.294264,23.714775],[121.294657,23.714689],[121.29496,23.714061],[121.295649,23.713797],[121.295653,23.713526],[121.29585,23.713438],[121.295953,23.713078],[121.296251,23.712811],[121.296253,23.71263],[121.296059,23.712447],[121.295862,23.712535],[121.295857,23.712897],[121.29556,23.713164],[121.294773,23.713336],[121.294376,23.713693],[121.294374,23.713873],[121.294472,23.713875],[121.294368,23.714325],[121.294173,23.714232],[121.294372,23.713964],[121.294079,23.71387],[121.293678,23.714588],[121.293284,23.714674],[121.293184,23.714854],[121.293087,23.714762],[121.29289,23.71485],[121.292985,23.715032],[121.293281,23.714945],[121.293376,23.715127],[121.293673,23.714949]]],[[[121.288375,23.715071],[121.288182,23.714889],[121.288081,23.715068],[121.288276,23.715161],[121.288375,23.715071]]],[[[121.283958,23.715384],[121.283963,23.715022],[121.284159,23.715025],[121.284158,23.715115],[121.284355,23.715027],[121.284357,23.714846],[121.28397,23.714481],[121.283774,23.714479],[121.283574,23.714747],[121.283378,23.714745],[121.283282,23.714563],[121.282987,23.71465],[121.283079,23.715103],[121.283572,23.714928],[121.283565,23.71547],[121.283662,23.715561],[121.283958,23.715384]]],[[[121.293081,23.715214],[121.292887,23.715031],[121.292787,23.71521],[121.292982,23.715303],[121.293081,23.715214]]],[[[121.288961,23.715258],[121.288769,23.714985],[121.288375,23.715071],[121.288471,23.715253],[121.288668,23.715165],[121.288764,23.715347],[121.288961,23.715258]]],[[[121.289445,23.715806],[121.290337,23.715093],[121.290339,23.714912],[121.290145,23.71473],[121.28936,23.714811],[121.288964,23.715078],[121.289061,23.715169],[121.28906,23.71526],[121.288961,23.715258],[121.288862,23.715348],[121.288958,23.715529],[121.289254,23.715352],[121.289251,23.715623],[121.289445,23.715806]]],[[[121.287488,23.715423],[121.287686,23.715335],[121.287877,23.715698],[121.288073,23.7157],[121.288272,23.715522],[121.288176,23.71534],[121.287979,23.715428],[121.287982,23.715157],[121.28808,23.715158],[121.287984,23.714977],[121.287786,23.715155],[121.287689,23.715064],[121.287493,23.715062],[121.287492,23.715152],[121.287199,23.715058],[121.287198,23.715149],[121.286902,23.715236],[121.286997,23.715508],[121.287193,23.71551],[121.287391,23.715331],[121.287488,23.715423]]],[[[121.286799,23.715596],[121.28709,23.71587],[121.28719,23.71569],[121.286899,23.715507],[121.286799,23.715596]]],[[[121.287574,23.716327],[121.287381,23.716144],[121.287183,23.716232],[121.287181,23.716413],[121.287473,23.716596],[121.287471,23.716777],[121.287074,23.717134],[121.286877,23.717132],[121.286685,23.716859],[121.286391,23.716855],[121.286392,23.716765],[121.286096,23.716852],[121.286095,23.716942],[121.285604,23.717027],[121.285701,23.717119],[121.285596,23.717659],[121.285887,23.717843],[121.285982,23.718115],[121.286471,23.718211],[121.286468,23.718482],[121.286173,23.718478],[121.286073,23.718658],[121.28646,23.719023],[121.286458,23.719204],[121.28675,23.719388],[121.286649,23.719567],[121.286453,23.719565],[121.286255,23.719743],[121.286061,23.719561],[121.286262,23.719202],[121.285969,23.719108],[121.28597,23.719018],[121.285676,23.719015],[121.285576,23.719194],[121.285963,23.71956],[121.285472,23.719644],[121.285469,23.719825],[121.285371,23.719824],[121.285464,23.720186],[121.285069,23.720453],[121.285163,23.720725],[121.284868,23.720812],[121.285062,23.720994],[121.28496,23.721264],[121.285251,23.721538],[121.285841,23.721364],[121.285839,23.721545],[121.285641,23.721723],[121.285736,23.721905],[121.28603,23.721908],[121.28623,23.721639],[121.286426,23.721642],[121.286628,23.721192],[121.286725,23.721284],[121.28702,23.721197],[121.287018,23.721377],[121.28692,23.721376],[121.286914,23.721828],[121.287011,23.721919],[121.287304,23.722013],[121.287406,23.721743],[121.287701,23.721656],[121.287894,23.721929],[121.288187,23.722022],[121.288188,23.721932],[121.288482,23.721935],[121.28868,23.721757],[121.28839,23.721483],[121.288587,23.721395],[121.288491,23.721213],[121.288689,23.721125],[121.288792,23.720765],[121.288988,23.720767],[121.288985,23.720948],[121.28918,23.72104],[121.289379,23.720862],[121.289381,23.720681],[121.289675,23.720684],[121.289674,23.720775],[121.289969,23.720688],[121.289582,23.720322],[121.28919,23.720318],[121.289089,23.720497],[121.288697,23.720493],[121.288499,23.720671],[121.288207,23.720487],[121.288106,23.720667],[121.287812,23.720664],[121.287712,23.720843],[121.287615,23.720752],[121.287026,23.720745],[121.287028,23.720655],[121.286341,23.720647],[121.286147,23.720465],[121.286247,23.720375],[121.286152,23.720103],[121.28645,23.719836],[121.286646,23.719838],[121.286944,23.71957],[121.286946,23.71939],[121.287341,23.719214],[121.287343,23.719033],[121.287538,23.719126],[121.287736,23.718947],[121.287543,23.718764],[121.287546,23.718494],[121.287842,23.718407],[121.288139,23.718139],[121.288044,23.717957],[121.287847,23.717955],[121.287846,23.718045],[121.28667,23.718032],[121.286672,23.717852],[121.28687,23.717673],[121.287264,23.717587],[121.287265,23.717497],[121.287657,23.717501],[121.287759,23.717232],[121.287955,23.717234],[121.287956,23.717144],[121.288152,23.717146],[121.28815,23.717326],[121.288052,23.717325],[121.288148,23.717507],[121.288443,23.71742],[121.288635,23.717693],[121.289224,23.717699],[121.289422,23.717521],[121.289425,23.71734],[121.289721,23.717163],[121.289725,23.716892],[121.290314,23.716809],[121.290614,23.71636],[121.29081,23.716362],[121.290911,23.716183],[121.291205,23.716186],[121.291308,23.715826],[121.291504,23.715828],[121.291606,23.715559],[121.291901,23.715472],[121.292001,23.715292],[121.29161,23.715197],[121.291613,23.715017],[121.291811,23.714838],[121.291323,23.714652],[121.291222,23.714922],[121.29132,23.714923],[121.291413,23.715286],[121.290618,23.716089],[121.290422,23.716087],[121.290424,23.715907],[121.290133,23.715633],[121.289444,23.715896],[121.289342,23.716166],[121.289536,23.716348],[121.289732,23.716351],[121.28993,23.716172],[121.289928,23.716353],[121.28963,23.71662],[121.289434,23.716618],[121.289435,23.716528],[121.289238,23.716616],[121.289241,23.716345],[121.288948,23.716252],[121.28895,23.716161],[121.288556,23.716247],[121.288561,23.715886],[121.288855,23.715889],[121.288854,23.71598],[121.289051,23.715892],[121.288958,23.715529],[121.288664,23.715526],[121.288663,23.715616],[121.28837,23.715523],[121.288267,23.715883],[121.287971,23.71597],[121.288065,23.716332],[121.287966,23.716421],[121.287772,23.716239],[121.287576,23.716236],[121.287574,23.716327]],[[121.287769,23.716419],[121.287964,23.716512],[121.287962,23.716692],[121.287766,23.71669],[121.287769,23.716419]],[[121.285262,23.720635],[121.285362,23.720546],[121.28536,23.720637],[121.285262,23.720635]],[[121.285951,23.720462],[121.28605,23.720373],[121.286049,23.720464],[121.285951,23.720462]],[[121.285857,23.720191],[121.286053,23.720193],[121.286052,23.720283],[121.285856,23.720281],[121.285857,23.720191]],[[121.285989,23.717573],[121.286287,23.717306],[121.286284,23.717486],[121.285989,23.717573]],[[121.286875,23.717312],[121.287071,23.717314],[121.28707,23.717405],[121.286874,23.717403],[121.286875,23.717312]],[[121.288941,23.716793],[121.289135,23.716976],[121.289429,23.716979],[121.289428,23.71707],[121.289133,23.717157],[121.288939,23.716974],[121.288941,23.716793]]],[[[121.289874,23.720506],[121.29027,23.720239],[121.290273,23.719969],[121.29047,23.71988],[121.290373,23.719789],[121.290379,23.719338],[121.290578,23.719159],[121.290971,23.719073],[121.290682,23.718709],[121.291172,23.718714],[121.291269,23.718806],[121.291467,23.718627],[121.291372,23.718446],[121.291569,23.718357],[121.291573,23.718087],[121.29177,23.717998],[121.291576,23.717816],[121.291578,23.717635],[121.291871,23.717729],[121.29207,23.71755],[121.291974,23.717369],[121.291776,23.717547],[121.29158,23.717545],[121.291581,23.717455],[121.291285,23.717542],[121.290987,23.7179],[121.290593,23.717985],[121.290393,23.718254],[121.289902,23.718339],[121.290287,23.718885],[121.289795,23.71906],[121.289987,23.719333],[121.28979,23.719421],[121.289688,23.719691],[121.289981,23.719785],[121.290077,23.719966],[121.28968,23.720323],[121.289874,23.720506]]],[[[121.284497,23.719182],[121.283819,23.718543],[121.283821,23.718362],[121.283528,23.718268],[121.283429,23.718358],[121.283423,23.718809],[121.283226,23.718897],[121.283022,23.719437],[121.282428,23.719882],[121.282523,23.720154],[121.282325,23.720242],[121.282322,23.720512],[121.282123,23.720691],[121.28222,23.720782],[121.282614,23.720696],[121.282911,23.720429],[121.282914,23.720248],[121.28311,23.72025],[121.283606,23.719804],[121.28351,23.719623],[121.283216,23.719619],[121.283319,23.719259],[121.283908,23.719176],[121.283611,23.719443],[121.283706,23.719625],[121.283903,23.719627],[121.284497,23.719182]],[[121.2843,23.71927],[121.284203,23.719179],[121.284301,23.71918],[121.2843,23.71927]]],[[[121.29653,23.721482],[121.296627,23.721574],[121.296925,23.721306],[121.296927,23.721126],[121.296732,23.721033],[121.296638,23.720761],[121.296341,23.720938],[121.296436,23.72121],[121.29624,23.721208],[121.296144,23.721027],[121.295947,23.721115],[121.295943,23.721386],[121.296234,23.72166],[121.29653,23.721482]]],[[[121.28947,23.721404],[121.289467,23.721585],[121.289661,23.721768],[121.289857,23.72177],[121.289858,23.72168],[121.290151,23.721773],[121.290153,23.721683],[121.290546,23.721597],[121.290649,23.721237],[121.290454,23.721144],[121.29046,23.720693],[121.290265,23.720601],[121.290066,23.720779],[121.290063,23.72105],[121.289867,23.721048],[121.289576,23.720773],[121.289476,23.720953],[121.289766,23.721227],[121.28947,23.721404]],[[121.289962,23.721229],[121.289961,23.72132],[121.289765,23.721317],[121.289766,23.721227],[121.289962,23.721229]]],[[[121.289177,23.721311],[121.289179,23.72113],[121.288984,23.721038],[121.288881,23.721398],[121.288783,23.721397],[121.288781,23.721577],[121.288975,23.72176],[121.28927,23.721673],[121.289275,23.721312],[121.289177,23.721311]]],[[[121.295145,23.72246],[121.295147,23.72228],[121.295345,23.722101],[121.295739,23.722015],[121.296036,23.721748],[121.295942,23.721476],[121.295746,23.721474],[121.295645,23.721653],[121.295351,23.72165],[121.29535,23.72174],[121.295154,23.721738],[121.295155,23.721648],[121.294664,23.721733],[121.294465,23.721911],[121.294755,23.722275],[121.294951,23.722278],[121.294849,23.722547],[121.294751,23.722546],[121.294846,23.722818],[121.295043,23.72273],[121.295046,23.722459],[121.295145,23.72246]]],[[[121.29298,23.722978],[121.29356,23.723617],[121.293759,23.723438],[121.293955,23.723441],[121.293954,23.723531],[121.293856,23.72353],[121.293853,23.72371],[121.293559,23.723707],[121.293359,23.723976],[121.293166,23.723793],[121.292969,23.723791],[121.292867,23.724151],[121.293062,23.724243],[121.293156,23.724515],[121.29345,23.724519],[121.293837,23.724974],[121.293739,23.724973],[121.293637,23.725243],[121.293245,23.725239],[121.293244,23.725329],[121.292949,23.725326],[121.292948,23.725416],[121.292458,23.725411],[121.292358,23.72559],[121.292454,23.725681],[121.29373,23.725605],[121.293528,23.726054],[121.29392,23.726149],[121.293922,23.725969],[121.294314,23.725973],[121.294422,23.725252],[121.29452,23.725253],[121.294429,23.72471],[121.294527,23.724711],[121.294631,23.724261],[121.294926,23.724174],[121.294928,23.723993],[121.29483,23.723992],[121.294933,23.723632],[121.29464,23.723538],[121.294744,23.723088],[121.294453,23.722814],[121.29456,23.722183],[121.294366,23.722],[121.294072,23.721997],[121.29397,23.722267],[121.294165,23.722359],[121.294162,23.72263],[121.293964,23.722718],[121.293867,23.722627],[121.293969,23.722357],[121.293774,23.722265],[121.293489,23.721539],[121.293002,23.721263],[121.292914,23.720539],[121.292719,23.720447],[121.29252,23.720625],[121.292415,23.721166],[121.292022,23.721252],[121.292117,23.721434],[121.29251,23.721438],[121.292509,23.721528],[121.292212,23.721706],[121.291921,23.721431],[121.29182,23.721701],[121.292015,23.721794],[121.292109,23.722066],[121.292407,23.721798],[121.292303,23.722248],[121.292498,23.722341],[121.292489,23.723063],[121.292585,23.723155],[121.292783,23.723066],[121.292786,23.722796],[121.293082,23.722708],[121.293379,23.722441],[121.293376,23.722712],[121.29308,23.722799],[121.29298,23.722978]],[[121.293866,23.722717],[121.293669,23.722805],[121.293672,23.722534],[121.29377,23.722535],[121.293866,23.722717]],[[121.293183,23.722439],[121.293188,23.722078],[121.293286,23.722079],[121.293281,23.72244],[121.293183,23.722439]],[[121.293175,23.723071],[121.293274,23.722982],[121.293273,23.723072],[121.293175,23.723071]],[[121.293553,23.724158],[121.29365,23.72425],[121.293552,23.724249],[121.293553,23.724158]],[[121.293849,23.724071],[121.293945,23.724163],[121.293847,23.724162],[121.293849,23.724071]],[[121.294443,23.723627],[121.29444,23.723807],[121.294342,23.723806],[121.294345,23.723625],[121.294443,23.723627]],[[121.294348,23.723355],[121.294346,23.723535],[121.294248,23.723534],[121.294153,23.723262],[121.294348,23.723355]],[[121.293666,23.722986],[121.293763,23.723077],[121.293665,23.723076],[121.293666,23.722986]],[[121.29289,23.722345],[121.292888,23.722526],[121.29279,23.722525],[121.292792,23.722344],[121.29289,23.722345]],[[121.292894,23.722074],[121.292991,23.722166],[121.292893,23.722165],[121.292894,23.722074]],[[121.293093,23.721806],[121.29319,23.721897],[121.293092,23.721896],[121.293093,23.721806]],[[121.2929,23.721623],[121.292996,23.721714],[121.292898,23.721713],[121.2929,23.721623]],[[121.292605,23.72162],[121.292608,23.721439],[121.292804,23.721441],[121.292803,23.721532],[121.292605,23.72162]]],[[[121.290713,23.723856],[121.290518,23.723764],[121.29052,23.723583],[121.290716,23.723585],[121.290909,23.723858],[121.291106,23.72377],[121.29111,23.723499],[121.291012,23.723498],[121.291113,23.723229],[121.291016,23.723137],[121.290525,23.723222],[121.290423,23.723492],[121.290128,23.723579],[121.29022,23.724031],[121.290414,23.724214],[121.29071,23.724037],[121.290713,23.723856]],[[121.290817,23.723406],[121.290914,23.723497],[121.290816,23.723496],[121.290817,23.723406]]],[[[121.296473,23.725906],[121.296475,23.725726],[121.296672,23.725638],[121.296676,23.725367],[121.297072,23.7251],[121.297074,23.72492],[121.297367,23.725013],[121.297665,23.724746],[121.297667,23.724565],[121.297963,23.724478],[121.297773,23.723934],[121.297576,23.724022],[121.297573,23.724293],[121.297374,23.724471],[121.296787,23.724375],[121.296886,23.724286],[121.29679,23.724104],[121.296395,23.72437],[121.295903,23.724455],[121.295705,23.724634],[121.2958,23.724815],[121.295305,23.725171],[121.295303,23.725352],[121.295105,23.72553],[121.2952,23.725712],[121.295593,23.725716],[121.296078,23.726083],[121.296473,23.725906]],[[121.295997,23.724818],[121.296096,23.724728],[121.296095,23.724819],[121.295997,23.724818]]],[[[121.298827,23.703177],[121.298927,23.703088],[121.298843,23.702003],[121.298941,23.702004],[121.298945,23.701643],[121.299143,23.701555],[121.299145,23.701374],[121.298753,23.70137],[121.298657,23.701188],[121.298167,23.701183],[121.298259,23.701636],[121.29855,23.70191],[121.298547,23.70209],[121.298354,23.701907],[121.298157,23.701905],[121.298054,23.702356],[121.298345,23.70254],[121.29834,23.702991],[121.298533,23.703174],[121.298632,23.703084],[121.298827,23.703177]]],[[[121.298883,23.706428],[121.298886,23.706248],[121.299084,23.706069],[121.29909,23.705618],[121.299188,23.705619],[121.299192,23.705348],[121.299093,23.705347],[121.299197,23.704897],[121.299295,23.704898],[121.299299,23.704627],[121.299397,23.704628],[121.299401,23.704357],[121.299499,23.704358],[121.299506,23.703816],[121.299409,23.703725],[121.299211,23.703813],[121.299203,23.704445],[121.299105,23.704444],[121.299001,23.704894],[121.298903,23.704893],[121.298897,23.705345],[121.298208,23.705608],[121.298108,23.705697],[121.298202,23.70606],[121.298004,23.706148],[121.298002,23.706328],[121.298393,23.706423],[121.298586,23.706696],[121.298883,23.706428]]],[[[121.300828,23.707714],[121.300632,23.707712],[121.300432,23.70798],[121.300236,23.707978],[121.30014,23.707797],[121.29965,23.707791],[121.299361,23.707427],[121.298774,23.70733],[121.298485,23.706875],[121.29819,23.706962],[121.298481,23.707237],[121.298477,23.707507],[121.298574,23.707599],[121.298869,23.707512],[121.298966,23.707603],[121.298865,23.707873],[121.299058,23.708056],[121.299254,23.708058],[121.29935,23.708239],[121.299546,23.708242],[121.299745,23.708063],[121.29984,23.708245],[121.300328,23.708431],[121.30043,23.708161],[121.300626,23.708163],[121.300625,23.708253],[121.300919,23.708257],[121.301014,23.708529],[121.30121,23.708531],[121.301312,23.708171],[121.300828,23.707714]],[[121.301021,23.707987],[121.300921,23.708076],[121.300923,23.707986],[121.301021,23.707987]]],[[[121.298149,23.710122],[121.298151,23.709942],[121.297861,23.709668],[121.29747,23.709573],[121.297577,23.708852],[121.297875,23.708584],[121.29817,23.708497],[121.298084,23.707593],[121.297987,23.707502],[121.297791,23.7075],[121.29779,23.70759],[121.2973,23.707494],[121.297299,23.707585],[121.297004,23.707672],[121.297098,23.707944],[121.297195,23.708035],[121.297784,23.708042],[121.297878,23.708314],[121.29778,23.708312],[121.297778,23.708493],[121.297384,23.708579],[121.297382,23.70876],[121.297185,23.708848],[121.297181,23.709119],[121.296789,23.709114],[121.296689,23.709294],[121.296982,23.709387],[121.297076,23.709659],[121.297369,23.709753],[121.297757,23.710118],[121.297754,23.710299],[121.297949,23.710391],[121.298042,23.710844],[121.298239,23.710756],[121.298247,23.710124],[121.298149,23.710122]]],[[[121.301466,23.711423],[121.301175,23.711239],[121.301177,23.711059],[121.300982,23.710966],[121.300984,23.710786],[121.300207,23.710235],[121.300114,23.709873],[121.299726,23.709508],[121.299335,23.709413],[121.299337,23.709233],[121.299142,23.70914],[121.299042,23.70932],[121.299623,23.709868],[121.299619,23.710229],[121.299812,23.710412],[121.300203,23.710506],[121.300299,23.710688],[121.300495,23.71069],[121.300587,23.711143],[121.300979,23.711237],[121.301267,23.711692],[121.301464,23.711604],[121.301466,23.711423]]],[[[121.297927,23.712107],[121.298029,23.711837],[121.298326,23.711569],[121.298329,23.711389],[121.298135,23.711206],[121.297739,23.711472],[121.297737,23.711653],[121.297538,23.711831],[121.297244,23.711828],[121.297245,23.711738],[121.296754,23.711823],[121.29685,23.712004],[121.297632,23.712194],[121.297631,23.712284],[121.297927,23.712107]]],[[[121.301622,23.714585],[121.301524,23.714584],[121.301531,23.714043],[121.301728,23.713954],[121.301731,23.713684],[121.301929,23.713595],[121.302035,23.712964],[121.301742,23.712871],[121.301744,23.71269],[121.30155,23.712508],[121.301555,23.712146],[121.30136,23.712054],[121.301161,23.712323],[121.300865,23.71241],[121.300759,23.713041],[121.300857,23.713042],[121.300852,23.713403],[121.30095,23.713404],[121.301044,23.713766],[121.301239,23.713859],[121.301233,23.71431],[121.301036,23.714398],[121.301129,23.71476],[121.301324,23.714853],[121.301622,23.714585]]],[[[121.297713,23.713459],[121.297516,23.713547],[121.297611,23.713819],[121.297808,23.713731],[121.297713,23.713459]]],[[[121.297096,23.715709],[121.297195,23.71562],[121.297107,23.714807],[121.297598,23.714812],[121.297791,23.714995],[121.298284,23.71482],[121.298291,23.714278],[121.298194,23.714186],[121.297997,23.714275],[121.297611,23.713819],[121.297413,23.713907],[121.297409,23.714268],[121.296914,23.714624],[121.29691,23.714895],[121.296812,23.714894],[121.296903,23.715436],[121.296706,23.715525],[121.296513,23.715252],[121.296316,23.71534],[121.296409,23.715702],[121.296703,23.715705],[121.296705,23.715615],[121.297096,23.715709]],[[121.297503,23.71454],[121.297699,23.714542],[121.297698,23.714632],[121.297502,23.71463],[121.297503,23.71454]]],[[[121.298326,23.719154],[121.298327,23.719064],[121.298819,23.718979],[121.298926,23.718258],[121.29942,23.717992],[121.299422,23.717812],[121.299619,23.717724],[121.299821,23.717274],[121.300118,23.717097],[121.300125,23.716555],[121.300223,23.716557],[121.300129,23.716285],[121.300426,23.716017],[121.30033,23.715835],[121.299836,23.716191],[121.299828,23.716733],[121.29963,23.716911],[121.299627,23.717182],[121.299528,23.717181],[121.299325,23.717721],[121.298732,23.718075],[121.298628,23.718526],[121.298231,23.718882],[121.298035,23.71888],[121.298039,23.718609],[121.298237,23.718431],[121.298043,23.718248],[121.297942,23.718518],[121.297545,23.718875],[121.297836,23.719149],[121.297935,23.71906],[121.298326,23.719154]]],[[[121.298732,23.718075],[121.298835,23.717715],[121.29864,23.717623],[121.298243,23.71798],[121.298241,23.71816],[121.298436,23.718253],[121.298437,23.718162],[121.298732,23.718075]]],[[[121.29703,23.720765],[121.297129,23.720676],[121.297135,23.720225],[121.297037,23.720224],[121.297142,23.719683],[121.296849,23.71959],[121.296746,23.71995],[121.296648,23.719949],[121.296644,23.72031],[121.296446,23.720398],[121.296444,23.720578],[121.296638,23.720761],[121.296737,23.720672],[121.29703,23.720765]]],[[[121.304329,23.72518],[121.304141,23.724546],[121.303943,23.724634],[121.303362,23.724086],[121.30346,23.724087],[121.303465,23.723726],[121.303763,23.723458],[121.303669,23.723096],[121.303866,23.723008],[121.303576,23.722734],[121.303772,23.722736],[121.303872,23.722556],[121.304067,23.722649],[121.304366,23.722291],[121.304269,23.722199],[121.303189,23.722278],[121.303191,23.722188],[121.302798,23.722183],[121.302703,23.722002],[121.302506,23.722],[121.302509,23.721819],[121.302411,23.721818],[121.302512,23.721548],[121.302318,23.721365],[121.302121,23.721454],[121.302029,23.721001],[121.301931,23.721],[121.301933,23.720819],[121.30223,23.720642],[121.302133,23.720551],[121.302232,23.720461],[121.302238,23.72001],[121.302043,23.719918],[121.301941,23.720187],[121.301744,23.720275],[121.301839,23.720547],[121.301542,23.720725],[121.301537,23.721086],[121.301636,23.721087],[121.301632,23.721358],[121.302215,23.721816],[121.302499,23.722541],[121.302596,23.722633],[121.302892,23.722546],[121.302889,23.722726],[121.302987,23.722727],[121.302984,23.722998],[121.302788,23.722996],[121.302693,23.722724],[121.302398,23.722811],[121.302393,23.723172],[121.302097,23.72335],[121.302188,23.723892],[121.302481,23.723986],[121.302576,23.724167],[121.30307,23.723902],[121.30316,23.724535],[121.303257,23.724626],[121.30365,23.72454],[121.303647,23.724811],[121.303939,23.724995],[121.304033,23.725267],[121.304329,23.72518]]],[[[121.302161,23.725969],[121.302164,23.725698],[121.302358,23.725881],[121.302555,23.725793],[121.302463,23.72534],[121.30276,23.725163],[121.302764,23.724802],[121.302862,23.724803],[121.302868,23.724351],[121.302771,23.72426],[121.302574,23.724348],[121.302571,23.724619],[121.302472,23.724618],[121.30237,23.724978],[121.301881,23.724882],[121.301781,23.724971],[121.301876,23.725243],[121.301381,23.725599],[121.301475,23.725871],[121.301766,23.726145],[121.302161,23.725969]]],[[[121.296864,23.726001],[121.29667,23.725818],[121.296473,23.725906],[121.29647,23.726087],[121.296664,23.72627],[121.296862,23.726182],[121.296864,23.726001]]],[[[121.29735,23.726368],[121.297352,23.726187],[121.297158,23.726004],[121.296862,23.726182],[121.296955,23.726544],[121.297151,23.726546],[121.29735,23.726368]]],[[[121.302233,23.727956],[121.302232,23.728047],[121.302526,23.72805],[121.302525,23.72814],[121.302819,23.728143],[121.30282,23.728053],[121.303214,23.727967],[121.303118,23.727785],[121.302825,23.727692],[121.302929,23.727242],[121.302831,23.72724],[121.302837,23.726789],[121.302642,23.726697],[121.302741,23.726607],[121.302743,23.726427],[121.302645,23.726426],[121.302747,23.726156],[121.302553,23.725973],[121.302157,23.72624],[121.302154,23.726511],[121.302056,23.72651],[121.301953,23.72687],[121.301757,23.726867],[121.301655,23.727137],[121.301557,23.727136],[121.301554,23.727407],[121.301845,23.727591],[121.301744,23.727861],[121.302233,23.727956]],[[121.302825,23.727692],[121.302726,23.727781],[121.302727,23.727691],[121.302825,23.727692]],[[121.302642,23.726697],[121.302542,23.726786],[121.302544,23.726696],[121.302642,23.726697]],[[121.301845,23.727591],[121.301945,23.727502],[121.301944,23.727592],[121.301845,23.727591]],[[121.302244,23.727144],[121.30244,23.727146],[121.302437,23.727326],[121.302339,23.727325],[121.302244,23.727144]],[[121.302047,23.727142],[121.30205,23.726961],[121.302148,23.726962],[121.302244,23.727144],[121.302047,23.727142]],[[121.30255,23.726244],[121.302547,23.726425],[121.302449,23.726424],[121.302451,23.726243],[121.30255,23.726244]]],[[[121.306252,23.728181],[121.30596,23.727997],[121.305867,23.727545],[121.305286,23.726996],[121.304895,23.726902],[121.304604,23.726628],[121.304709,23.726087],[121.304611,23.726086],[121.304616,23.725725],[121.304421,23.725633],[121.304319,23.725902],[121.304221,23.725901],[121.304212,23.726624],[121.304505,23.726717],[121.304598,23.727079],[121.304793,23.727172],[121.30479,23.727443],[121.305083,23.727536],[121.305374,23.72781],[121.305365,23.728442],[121.305659,23.728536],[121.305657,23.728626],[121.306246,23.728632],[121.306345,23.728543],[121.306252,23.728181]]]]}},{"type":"Feature","properties":{"kind":"bare_dam","month":"2018-05","area_ha":31.64},"geometry":{"type":"MultiPolygon","coordinates":[[[[121.312752,23.687978],[121.31276,23.687346],[121.312467,23.687253],[121.312469,23.687072],[121.312179,23.686798],[121.311885,23.686795],[121.311883,23.686885],[121.311589,23.686882],[121.311494,23.6867],[121.311296,23.686789],[121.311294,23.686969],[121.311392,23.68697],[121.311285,23.687692],[121.311187,23.68769],[121.311282,23.687872],[121.311578,23.687785],[121.31158,23.687604],[121.311876,23.687427],[121.31178,23.687336],[121.311782,23.687155],[121.31188,23.687156],[121.311976,23.687338],[121.312271,23.687251],[121.312368,23.687342],[121.312266,23.687612],[121.312364,23.687613],[121.312458,23.687975],[121.312555,23.688067],[121.312752,23.687978]]],[[[121.310388,23.688765],[121.311179,23.688322],[121.311084,23.688051],[121.310293,23.688584],[121.310388,23.688765]]],[[[121.299674,23.690815],[121.299574,23.690995],[121.300062,23.691181],[121.30006,23.691271],[121.299668,23.691267],[121.299572,23.691085],[121.299376,23.691083],[121.299086,23.690809],[121.298596,23.690803],[121.298496,23.690893],[121.298589,23.691345],[121.298782,23.691528],[121.298978,23.69153],[121.299171,23.691803],[121.299368,23.691715],[121.299273,23.691533],[121.299567,23.691536],[121.299565,23.691627],[121.29986,23.69163],[121.299858,23.69172],[121.300252,23.691634],[121.300249,23.691815],[121.300151,23.691814],[121.300246,23.692086],[121.300443,23.691998],[121.300349,23.691726],[121.300646,23.691458],[121.301233,23.691555],[121.301533,23.691107],[121.30163,23.691198],[121.301827,23.69111],[121.301732,23.690928],[121.301536,23.690926],[121.301441,23.690654],[121.301342,23.690743],[121.301146,23.690741],[121.301147,23.690651],[121.300852,23.690738],[121.300954,23.690378],[121.301151,23.69038],[121.301152,23.69029],[121.301837,23.690387],[121.301836,23.690478],[121.302032,23.69048],[121.302033,23.69039],[121.30213,23.690481],[121.302914,23.69049],[121.303496,23.690947],[121.303791,23.690951],[121.303789,23.691041],[121.303987,23.690953],[121.303502,23.690496],[121.303505,23.690315],[121.303602,23.690407],[121.303799,23.690319],[121.303705,23.689956],[121.303512,23.689774],[121.303215,23.689951],[121.303112,23.690311],[121.302818,23.690308],[121.302821,23.690127],[121.30253,23.689853],[121.302333,23.689941],[121.302525,23.690214],[121.302034,23.690299],[121.302035,23.690209],[121.301742,23.690116],[121.301843,23.689936],[121.301549,23.689933],[121.30135,23.690111],[121.301059,23.689837],[121.300765,23.689834],[121.300468,23.690102],[121.300178,23.689737],[121.300079,23.689826],[121.29959,23.689731],[121.299291,23.690089],[121.298997,23.690085],[121.298897,23.690265],[121.29919,23.690358],[121.299285,23.69054],[121.299581,23.690453],[121.299675,23.690725],[121.300067,23.690729],[121.300163,23.690911],[121.299674,23.690815]],[[121.303112,23.690311],[121.303209,23.690402],[121.303111,23.690401],[121.303112,23.690311]],[[121.301547,23.690023],[121.301644,23.690114],[121.301546,23.690113],[121.301547,23.690023]],[[121.299581,23.690453],[121.29968,23.690364],[121.299679,23.690454],[121.299581,23.690453]],[[121.29968,23.690364],[121.299878,23.690185],[121.299974,23.690367],[121.29968,23.690364]],[[121.300163,23.690911],[121.30026,23.691002],[121.300162,23.691001],[121.300163,23.690911]],[[121.300653,23.690916],[121.300554,23.691005],[121.300555,23.690915],[121.300653,23.690916]],[[121.301243,23.690832],[121.301143,23.690922],[121.301145,23.690831],[121.301243,23.690832]]],[[[121.307599,23.692166],[121.307798,23.691988],[121.308092,23.691991],[121.308291,23.691722],[121.308587,23.691635],[121.308589,23.691455],[121.308785,23.691457],[121.308983,23.691278],[121.30899,23.690737],[121.308892,23.690736],[121.308896,23.690465],[121.308798,23.690464],[121.308801,23.690193],[121.308703,23.690192],[121.30861,23.689829],[121.308413,23.689918],[121.308502,23.690551],[121.3086,23.690552],[121.308493,23.691273],[121.308297,23.691271],[121.3078,23.691807],[121.307505,23.691894],[121.307599,23.692166]]],[[[121.306416,23.692695],[121.306711,23.692608],[121.306713,23.692427],[121.306615,23.692426],[121.306717,23.692157],[121.30701,23.69225],[121.307308,23.691892],[121.306917,23.691798],[121.306916,23.691888],[121.306131,23.69197],[121.306132,23.691879],[121.305839,23.691786],[121.305941,23.691516],[121.305843,23.691515],[121.305748,23.691243],[121.305453,23.69133],[121.304954,23.691957],[121.304758,23.691955],[121.304664,23.691683],[121.304366,23.69195],[121.303974,23.691946],[121.303489,23.691489],[121.303098,23.691395],[121.302809,23.69103],[121.302613,23.691028],[121.302511,23.691298],[121.302318,23.691115],[121.302022,23.691202],[121.302115,23.691655],[121.302311,23.691657],[121.302406,23.691838],[121.3028,23.691752],[121.303284,23.692209],[121.30348,23.692211],[121.303674,23.692394],[121.303665,23.693116],[121.303858,23.693299],[121.304152,23.693302],[121.304248,23.693484],[121.304347,23.693395],[121.30464,23.693488],[121.304839,23.69331],[121.304742,23.693219],[121.304842,23.693039],[121.305334,23.692954],[121.305532,23.692776],[121.305338,23.692593],[121.305341,23.692412],[121.305539,23.692234],[121.305148,23.692139],[121.305248,23.69196],[121.305543,23.691963],[121.305833,23.692237],[121.30583,23.692508],[121.305928,23.692509],[121.305829,23.692598],[121.305922,23.692961],[121.305824,23.69296],[121.305819,23.693321],[121.305721,23.69332],[121.305817,23.693501],[121.306014,23.693413],[121.306217,23.692874],[121.306315,23.692875],[121.306416,23.692695]],[[121.305148,23.692139],[121.305049,23.692229],[121.30505,23.692138],[121.305148,23.692139]],[[121.306316,23.692784],[121.30622,23.692693],[121.306318,23.692694],[121.306316,23.692784]],[[121.304358,23.692582],[121.304162,23.69258],[121.304163,23.69249],[121.304653,23.692495],[121.304654,23.692405],[121.304947,23.692498],[121.304846,23.692768],[121.304357,23.692673],[121.304358,23.692582]],[[121.304066,23.692398],[121.303967,23.692488],[121.303968,23.692397],[121.304066,23.692398]],[[121.304754,23.692316],[121.304657,23.692224],[121.304755,23.692225],[121.304754,23.692316]],[[121.304461,23.692222],[121.304462,23.692132],[121.304658,23.692134],[121.304657,23.692224],[121.304461,23.692222]],[[121.303583,23.691851],[121.303484,23.691941],[121.303485,23.69185],[121.303583,23.691851]]],[[[121.302464,23.695],[121.30276,23.694822],[121.302664,23.694641],[121.302173,23.694725],[121.301883,23.694361],[121.301687,23.694359],[121.301397,23.694085],[121.301496,23.693996],[121.3014,23.693814],[121.301203,23.693902],[121.3013,23.693994],[121.301298,23.694174],[121.301199,23.694173],[121.301105,23.693901],[121.301007,23.6939],[121.301106,23.693811],[121.301012,23.693539],[121.300721,23.693265],[121.300525,23.693263],[121.300527,23.693082],[121.300235,23.692898],[121.300336,23.692719],[121.300045,23.692445],[121.299654,23.69235],[121.299462,23.692077],[121.299067,23.692253],[121.29897,23.692162],[121.299071,23.691982],[121.29878,23.691708],[121.298583,23.691796],[121.29858,23.691977],[121.298678,23.691978],[121.298578,23.692158],[121.298384,23.691975],[121.298187,23.692063],[121.298282,23.692335],[121.298381,23.692246],[121.298674,23.692339],[121.298575,23.692429],[121.298572,23.692609],[121.29867,23.69261],[121.298566,23.693061],[121.298955,23.693336],[121.298953,23.693516],[121.298655,23.693784],[121.298751,23.693966],[121.299338,23.694062],[121.299434,23.694244],[121.29963,23.694246],[121.29973,23.694067],[121.300024,23.69407],[121.299924,23.694249],[121.300117,23.694432],[121.300314,23.694434],[121.300415,23.694164],[121.300611,23.694167],[121.300805,23.694349],[121.301197,23.694354],[121.301196,23.694444],[121.301587,23.694538],[121.301682,23.69481],[121.301977,23.694723],[121.302073,23.694905],[121.302172,23.694816],[121.302368,23.694818],[121.302464,23.695]]],[[[121.302237,23.697345],[121.303128,23.696723],[121.303132,23.696361],[121.30323,23.696362],[121.303234,23.696092],[121.303432,23.695913],[121.303724,23.696097],[121.303923,23.695919],[121.303925,23.695738],[121.303827,23.695737],[121.303927,23.695557],[121.304024,23.695649],[121.304417,23.695563],[121.304715,23.695295],[121.304818,23.694935],[121.305215,23.694578],[121.30541,23.694671],[121.305608,23.694492],[121.305512,23.694311],[121.305314,23.694489],[121.305118,23.694487],[121.305023,23.694215],[121.305316,23.694308],[121.305417,23.694129],[121.305711,23.694132],[121.30581,23.694043],[121.305718,23.69359],[121.305122,23.694126],[121.304927,23.694033],[121.304728,23.694302],[121.304532,23.6943],[121.30443,23.69457],[121.304135,23.694657],[121.303933,23.695106],[121.303836,23.695015],[121.303541,23.695102],[121.303735,23.695284],[121.303631,23.695735],[121.303532,23.695824],[121.303141,23.695729],[121.302942,23.695908],[121.30294,23.696088],[121.302545,23.696265],[121.302343,23.696714],[121.301847,23.69716],[121.301942,23.697432],[121.302237,23.697345]]],[[[121.300373,23.697415],[121.300082,23.697141],[121.300086,23.69687],[121.299892,23.696687],[121.299695,23.696775],[121.299589,23.697406],[121.299393,23.697404],[121.299498,23.696863],[121.299205,23.69677],[121.298914,23.696496],[121.299024,23.695594],[121.298829,23.695501],[121.298639,23.695048],[121.298445,23.694865],[121.298249,23.694863],[121.298253,23.694502],[121.298452,23.694323],[121.298457,23.693962],[121.298262,23.69387],[121.297865,23.694227],[121.298059,23.694409],[121.298056,23.69459],[121.297859,23.694678],[121.297855,23.694949],[121.297559,23.695126],[121.297749,23.69558],[121.297453,23.695757],[121.297548,23.695939],[121.297841,23.696032],[121.297839,23.696213],[121.297937,23.696214],[121.297837,23.696394],[121.298032,23.696486],[121.298028,23.696757],[121.298126,23.696758],[121.298025,23.697028],[121.29822,23.69712],[121.298217,23.697301],[121.298411,23.697483],[121.298407,23.697754],[121.29821,23.697842],[121.298208,23.698023],[121.298306,23.698024],[121.298202,23.698474],[121.298004,23.698653],[121.297798,23.699373],[121.2975,23.699641],[121.297693,23.699914],[121.297889,23.699916],[121.297883,23.700367],[121.29798,23.700459],[121.299059,23.70047],[121.299061,23.70029],[121.298772,23.699926],[121.298779,23.699384],[121.298976,23.699296],[121.299081,23.698755],[121.299278,23.698667],[121.29938,23.698397],[121.300067,23.698314],[121.300168,23.698135],[121.300462,23.698138],[121.300461,23.698228],[121.300852,23.698323],[121.301149,23.698055],[121.301345,23.698057],[121.301447,23.697788],[121.301644,23.6977],[121.301452,23.697427],[121.300863,23.69742],[121.300763,23.6976],[121.300271,23.697685],[121.300176,23.697503],[121.300373,23.697415]],[[121.300175,23.697593],[121.300075,23.697682],[121.300077,23.697592],[121.300175,23.697593]],[[121.297793,23.699734],[121.297795,23.699644],[121.297991,23.699646],[121.297989,23.699736],[121.297793,23.699734]],[[121.300761,23.69778],[121.301056,23.697693],[121.301152,23.697875],[121.300856,23.697962],[121.300761,23.69778]]],[[[121.295446,23.699257],[121.295843,23.6989],[121.296332,23.698996],[121.296432,23.698816],[121.296239,23.698633],[121.295748,23.698628],[121.295352,23.698985],[121.294959,23.698981],[121.294766,23.698798],[121.294568,23.698886],[121.294858,23.69925],[121.295446,23.699257]]]]}},{"type":"Feature","properties":{"kind":"water","month":"2018-05","area_ha":0.16},"geometry":{"type":"MultiPolygon","coordinates":[[[[121.300176,23.697503],[121.300271,23.697685],[121.300566,23.697688],[121.300863,23.69742],[121.300275,23.697414],[121.300176,23.697503]]],[[[121.300175,23.697593],[121.300075,23.697682],[121.300173,23.697683],[121.300175,23.697593]]]]}}]}