{"type":"FeatureCollection","features":[{"type":"Feature","properties":{"kind":"bare_slide","month":"2018-09","area_ha":61.35},"geometry":{"type":"MultiPolygon","coordinates":[[[[121.297958,23.709759],[121.29747,23.709573],[121.297477,23.709031],[121.297575,23.709033],[121.297677,23.708672],[121.297974,23.708495],[121.29778,23.708312],[121.29768,23.708492],[121.297384,23.708579],[121.297382,23.70876],[121.297185,23.708848],[121.297181,23.709119],[121.296887,23.709115],[121.296787,23.709295],[121.297271,23.709752],[121.297467,23.709754],[121.297563,23.709935],[121.297857,23.709939],[121.297958,23.709759]]],[[[121.293378,23.715036],[121.293973,23.714501],[121.294266,23.714595],[121.294362,23.714776],[121.294558,23.714778],[121.294856,23.714511],[121.29496,23.714061],[121.295255,23.713973],[121.295652,23.713617],[121.295654,23.713436],[121.295951,23.713259],[121.295953,23.713078],[121.296252,23.71272],[121.296157,23.712448],[121.29596,23.712536],[121.295957,23.712807],[121.29556,23.713164],[121.295363,23.713162],[121.295165,23.71334],[121.294871,23.713337],[121.294474,23.713694],[121.294568,23.713966],[121.29437,23.714144],[121.294077,23.714051],[121.293879,23.714229],[121.293876,23.71441],[121.293283,23.714764],[121.293378,23.715036]]],[[[121.297304,23.714809],[121.297305,23.714718],[121.297794,23.714814],[121.297793,23.714904],[121.298284,23.71482],[121.298291,23.714278],[121.297804,23.714002],[121.297712,23.713549],[121.297515,23.713637],[121.297409,23.714268],[121.297013,23.714535],[121.297011,23.714715],[121.296812,23.714894],[121.297007,23.714986],[121.297107,23.714807],[121.297304,23.714809]],[[121.297601,23.714541],[121.2977,23.714452],[121.297699,23.714542],[121.297601,23.714541]]],[[[121.28376,23.715562],[121.284056,23.715385],[121.284062,23.714933],[121.284159,23.715025],[121.284356,23.714937],[121.284165,23.714573],[121.284264,23.714484],[121.284557,23.714578],[121.284959,23.71386],[121.285155,23.713862],[121.285153,23.714042],[121.28554,23.714408],[121.285736,23.71441],[121.285637,23.714499],[121.285733,23.714681],[121.285929,23.714683],[121.28603,23.714413],[121.286128,23.714414],[121.285842,23.713779],[121.285066,23.713138],[121.284575,23.713223],[121.283979,23.713758],[121.283976,23.714029],[121.283682,23.714026],[121.282788,23.714829],[121.282786,23.715009],[121.283077,23.715284],[121.283572,23.714928],[121.283569,23.715108],[121.283667,23.71511],[121.283565,23.71547],[121.28376,23.715562]]],[[[121.29081,23.716362],[121.29101,23.716094],[121.291305,23.716007],[121.291308,23.715826],[121.291406,23.715827],[121.29131,23.715646],[121.290917,23.715732],[121.290419,23.716268],[121.29081,23.716362]]],[[[121.290479,23.719248],[121.290579,23.719069],[121.290874,23.718982],[121.290683,23.718619],[121.290879,23.718621],[121.290878,23.718711],[121.290977,23.718622],[121.291173,23.718624],[121.291172,23.718714],[121.291467,23.718627],[121.291573,23.718087],[121.29177,23.717998],[121.291576,23.717816],[121.291578,23.717635],[121.291677,23.717636],[121.291581,23.717455],[121.291186,23.717631],[121.291184,23.717811],[121.291282,23.717812],[121.291182,23.717992],[121.29089,23.717808],[121.290889,23.717898],[121.290102,23.71807],[121.289903,23.718249],[121.289901,23.718429],[121.290386,23.718796],[121.290384,23.718976],[121.290091,23.718883],[121.289989,23.719153],[121.290479,23.719248]]],[[[121.285076,23.719911],[121.284682,23.719997],[121.284583,23.720086],[121.284679,23.720268],[121.284288,23.720173],[121.284186,23.720443],[121.284479,23.720536],[121.28458,23.720357],[121.284676,23.720448],[121.284874,23.72036],[121.28487,23.720631],[121.284968,23.720632],[121.284867,23.720902],[121.284964,23.720993],[121.285261,23.720726],[121.285457,23.720728],[121.285651,23.720911],[121.285649,23.721091],[121.28545,23.72127],[121.285841,23.721364],[121.28584,23.721455],[121.285742,23.721453],[121.285638,23.721904],[121.28534,23.722171],[121.285534,23.722354],[121.285529,23.722715],[121.285724,23.722808],[121.286022,23.72254],[121.286218,23.722542],[121.286319,23.722363],[121.286512,23.722546],[121.28651,23.722726],[121.286412,23.722725],[121.286508,23.722907],[121.286705,23.722819],[121.286611,23.722547],[121.286807,23.722549],[121.286805,23.722639],[121.287199,23.722553],[121.287393,23.722736],[121.287494,23.722466],[121.287592,23.722467],[121.287498,23.722195],[121.287696,23.722017],[121.287503,23.721834],[121.28711,23.72183],[121.287309,23.721651],[121.287311,23.721471],[121.287117,23.721288],[121.286625,23.721463],[121.286043,23.720915],[121.286047,23.720644],[121.285755,23.72046],[121.285757,23.72028],[121.285955,23.720192],[121.285957,23.720011],[121.286152,23.720103],[121.286153,23.720013],[121.286938,23.720022],[121.287037,23.719933],[121.287036,23.720023],[121.287427,23.720118],[121.287527,23.719938],[121.287235,23.719754],[121.287337,23.719485],[121.287729,23.719489],[121.287731,23.719399],[121.288026,23.719312],[121.28793,23.71913],[121.287636,23.719127],[121.287248,23.718761],[121.287253,23.7184],[121.28745,23.718312],[121.287553,23.717952],[121.287456,23.71786],[121.286868,23.717854],[121.28697,23.717584],[121.287264,23.717587],[121.287364,23.717408],[121.287755,23.717503],[121.287857,23.717233],[121.288053,23.717235],[121.287954,23.717324],[121.288046,23.717777],[121.288435,23.718052],[121.288431,23.718323],[121.288723,23.718507],[121.288822,23.718417],[121.288725,23.718326],[121.288829,23.717876],[121.289025,23.717878],[121.289126,23.717698],[121.289322,23.717701],[121.28952,23.717522],[121.289524,23.717251],[121.28992,23.716985],[121.289922,23.716804],[121.290216,23.716807],[121.290217,23.716717],[121.290513,23.71663],[121.290515,23.71645],[121.29032,23.716357],[121.290425,23.715816],[121.290232,23.715634],[121.290035,23.715632],[121.289936,23.715721],[121.290032,23.715902],[121.289836,23.7159],[121.289838,23.71572],[121.28974,23.715719],[121.289942,23.715269],[121.290337,23.715093],[121.290243,23.714731],[121.289065,23.714808],[121.288867,23.714987],[121.288863,23.715257],[121.288666,23.715345],[121.28886,23.715528],[121.288858,23.715709],[121.288759,23.715708],[121.288853,23.71607],[121.288754,23.716159],[121.288557,23.716157],[121.288464,23.715795],[121.288268,23.715793],[121.288168,23.715972],[121.287974,23.715789],[121.287778,23.715787],[121.2871,23.715148],[121.287007,23.714695],[121.286517,23.71469],[121.286418,23.714779],[121.286511,23.715141],[121.286313,23.715319],[121.286117,23.715317],[121.286016,23.715497],[121.28582,23.715495],[121.285819,23.715585],[121.285427,23.715581],[121.285428,23.71549],[121.28523,23.715578],[121.285134,23.715487],[121.285034,23.715576],[121.28513,23.715758],[121.284435,23.716382],[121.284433,23.716563],[121.284335,23.716562],[121.284431,23.716743],[121.284627,23.716746],[121.284727,23.716566],[121.284923,23.716568],[121.28532,23.716211],[121.285613,23.716305],[121.285714,23.716125],[121.28591,23.716128],[121.286108,23.715949],[121.286212,23.715499],[121.2869,23.715416],[121.286503,23.715773],[121.286991,23.715959],[121.286988,23.71614],[121.286594,23.716316],[121.286592,23.716496],[121.286394,23.716585],[121.286293,23.716854],[121.285703,23.716938],[121.285702,23.717028],[121.285506,23.717026],[121.28511,23.717293],[121.28462,23.717287],[121.284523,23.717196],[121.284522,23.717286],[121.284226,23.717373],[121.284321,23.717645],[121.284713,23.717649],[121.284708,23.718011],[121.284413,23.718098],[121.284607,23.71828],[121.284601,23.718732],[121.284109,23.718817],[121.2843,23.71927],[121.284396,23.719362],[121.28479,23.719276],[121.28489,23.719096],[121.284696,23.718913],[121.284991,23.718917],[121.285086,23.719098],[121.285282,23.719101],[121.285481,23.718922],[121.285676,23.719015],[121.285574,23.719284],[121.285179,23.719551],[121.285173,23.720002],[121.285076,23.719911]],[[121.287337,23.719485],[121.28724,23.719393],[121.287338,23.719394],[121.287337,23.719485]],[[121.288053,23.717235],[121.288152,23.717146],[121.288151,23.717236],[121.288053,23.717235]],[[121.288829,23.717876],[121.288732,23.717784],[121.28883,23.717785],[121.288829,23.717876]],[[121.286511,23.715141],[121.286608,23.715232],[121.28651,23.715231],[121.286511,23.715141]],[[121.28532,23.716211],[121.285223,23.71612],[121.285321,23.716121],[121.28532,23.716211]],[[121.285676,23.719015],[121.285775,23.718925],[121.285774,23.719016],[121.285676,23.719015]],[[121.285271,23.720003],[121.285268,23.720184],[121.28517,23.720183],[121.285173,23.720002],[121.285271,23.720003]],[[121.286914,23.721828],[121.286911,23.722098],[121.286714,23.722096],[121.286816,23.721827],[121.286914,23.721828]],[[121.285874,23.718836],[121.285971,23.718928],[121.285873,23.718927],[121.285874,23.718836]],[[121.285974,23.718747],[121.286171,23.718659],[121.286167,23.71893],[121.286069,23.718929],[121.285974,23.718747]],[[121.285586,23.718382],[121.285588,23.718201],[121.28608,23.718116],[121.286081,23.718026],[121.286373,23.71821],[121.286371,23.71839],[121.285879,23.718475],[121.285878,23.718565],[121.285586,23.718382]],[[121.286874,23.717403],[121.286875,23.717312],[121.287071,23.717314],[121.28707,23.717405],[121.286874,23.717403]],[[121.289544,23.715716],[121.289542,23.715897],[121.289146,23.716163],[121.289153,23.715622],[121.289544,23.715716]],[[121.285326,23.71576],[121.285229,23.715669],[121.285327,23.71567],[121.285326,23.71576]]],[[[121.289779,23.720234],[121.28978,23.720144],[121.289975,23.720236],[121.290076,23.720057],[121.289979,23.719965],[121.289782,23.720053],[121.289886,23.719603],[121.289787,23.719602],[121.289695,23.719149],[121.289009,23.719142],[121.288719,23.718777],[121.288523,23.718775],[121.288126,23.719132],[121.288222,23.719314],[121.288614,23.719318],[121.288808,23.719501],[121.288801,23.720043],[121.288702,23.720132],[121.288992,23.720406],[121.289483,23.720411],[121.289583,23.720232],[121.289779,23.720234]]],[[[121.283008,23.72052],[121.282233,23.719789],[121.281739,23.720055],[121.281735,23.720416],[121.282028,23.720509],[121.282026,23.7206],[121.282515,23.720695],[121.282517,23.720605],[121.283008,23.72052]]],[[[121.287612,23.720932],[121.287611,23.721023],[121.287809,23.720935],[121.287811,23.720754],[121.287909,23.720755],[121.287813,23.720573],[121.286538,23.720559],[121.28634,23.720738],[121.286434,23.72101],[121.286828,23.720924],[121.286924,23.721105],[121.28712,23.721107],[121.28722,23.720928],[121.287612,23.720932]]],[[[121.295343,23.722282],[121.295937,23.721837],[121.295843,23.721565],[121.295547,23.721652],[121.295546,23.721742],[121.294958,23.721736],[121.294862,23.721554],[121.294567,23.721641],[121.294664,23.721733],[121.294563,23.721912],[121.294757,23.722095],[121.294955,23.721916],[121.295053,23.721918],[121.295343,23.722282]]],[[[121.294051,23.723622],[121.29425,23.723353],[121.294544,23.723357],[121.294646,23.723087],[121.294842,23.723089],[121.295041,23.722911],[121.295045,23.72255],[121.29485,23.722457],[121.294749,23.722727],[121.294355,23.722813],[121.294358,23.722632],[121.294555,23.722544],[121.294361,23.722361],[121.294062,23.722719],[121.294352,23.723084],[121.294154,23.723172],[121.29406,23.7229],[121.293666,23.722986],[121.293473,23.722803],[121.29348,23.722261],[121.293777,23.721994],[121.293487,23.72172],[121.293489,23.721539],[121.293002,23.721263],[121.293007,23.720902],[121.292909,23.720901],[121.293012,23.720541],[121.292719,23.720447],[121.292616,23.720807],[121.292518,23.720806],[121.292611,23.721168],[121.292414,23.721256],[121.29222,23.721074],[121.292121,23.721163],[121.292215,23.721435],[121.291921,23.721431],[121.291821,23.721611],[121.292113,23.721795],[121.292013,23.721884],[121.292109,23.722066],[121.2925,23.72216],[121.292594,23.722523],[121.292889,23.722435],[121.293083,23.722618],[121.292981,23.722888],[121.293274,23.722982],[121.293854,23.72362],[121.294051,23.723622]]],[[[121.295245,23.722281],[121.295051,23.722098],[121.294951,23.722278],[121.295146,23.72237],[121.295245,23.722281]]],[[[121.29717,23.725101],[121.297567,23.724745],[121.297861,23.724748],[121.298059,23.724569],[121.297964,23.724388],[121.297768,23.724386],[121.297867,23.724296],[121.297771,23.724115],[121.297573,23.724293],[121.297085,23.724107],[121.297088,23.723836],[121.297384,23.723749],[121.297288,23.723568],[121.296992,23.723655],[121.296897,23.723473],[121.296604,23.723379],[121.296501,23.723739],[121.296203,23.724007],[121.296007,23.724005],[121.296008,23.723915],[121.295615,23.724001],[121.29561,23.724362],[121.295708,23.724363],[121.29551,23.724541],[121.295604,23.724813],[121.295308,23.724991],[121.295405,23.725082],[121.295402,23.725262],[121.295304,23.725261],[121.295398,23.725624],[121.295692,23.725627],[121.295982,23.725901],[121.296668,23.725999],[121.296771,23.725639],[121.296672,23.725638],[121.296676,23.725367],[121.296385,23.725093],[121.296485,23.725003],[121.29668,23.725096],[121.296977,23.724828],[121.297075,23.724829],[121.29717,23.725101]],[[121.296879,23.724827],[121.296785,23.724555],[121.297079,23.724559],[121.297076,23.724739],[121.296879,23.724827]]],[[[121.299021,23.70336],[121.298731,23.703086],[121.298733,23.702905],[121.298635,23.702904],[121.298735,23.702724],[121.298541,23.702542],[121.298836,23.702545],[121.298834,23.702635],[121.299032,23.702547],[121.298945,23.701643],[121.299043,23.701644],[121.299145,23.701374],[121.298753,23.70137],[121.298657,23.701188],[121.298167,23.701183],[121.298162,23.701544],[121.29826,23.701545],[121.298154,23.702176],[121.298252,23.702177],[121.298248,23.702448],[121.298443,23.702541],[121.298342,23.70281],[121.29844,23.702811],[121.298436,23.703082],[121.298534,23.703083],[121.298725,23.703537],[121.299021,23.70336]],[[121.298553,23.701639],[121.298652,23.70155],[121.298651,23.70164],[121.298553,23.701639]]],[[[121.299018,23.70363],[121.299211,23.703813],[121.299409,23.703725],[121.299216,23.703452],[121.298823,23.703538],[121.298918,23.70372],[121.299018,23.70363]]],[[[121.298984,23.706249],[121.298792,23.705885],[121.299288,23.705439],[121.299196,23.704987],[121.298999,23.705075],[121.299096,23.705166],[121.298995,23.705346],[121.298504,23.705431],[121.298304,23.7057],[121.297814,23.705694],[121.297715,23.705783],[121.297713,23.705964],[121.297811,23.705965],[121.29771,23.706144],[121.297807,23.706236],[121.2982,23.70615],[121.298198,23.70633],[121.298491,23.706424],[121.298587,23.706606],[121.298984,23.706249]],[[121.298786,23.706337],[121.29869,23.706246],[121.298788,23.706247],[121.298786,23.706337]]],[[[121.300432,23.70798],[121.30014,23.707797],[121.29965,23.707791],[121.299651,23.707701],[121.299258,23.707787],[121.299163,23.707515],[121.298866,23.707783],[121.298961,23.707964],[121.299256,23.707967],[121.299351,23.708149],[121.299547,23.708151],[121.299746,23.707973],[121.300035,23.708337],[121.300429,23.708251],[121.300432,23.70798]]],[[[121.300914,23.708618],[121.30131,23.708351],[121.301216,23.708079],[121.301019,23.708077],[121.300729,23.707803],[121.300433,23.70789],[121.300723,23.708254],[121.301017,23.708258],[121.300819,23.708436],[121.300914,23.708618]]],[[[121.301465,23.711513],[121.301178,23.710968],[121.300984,23.710786],[121.300788,23.710784],[121.300791,23.710603],[121.300111,23.710054],[121.300115,23.709783],[121.299822,23.709689],[121.299629,23.709416],[121.299433,23.709414],[121.299239,23.709231],[121.299139,23.709411],[121.299721,23.709869],[121.299912,23.710322],[121.300105,23.710505],[121.300301,23.710507],[121.300397,23.710689],[121.300593,23.710691],[121.300686,23.711144],[121.301077,23.711238],[121.301268,23.711602],[121.301465,23.711513]]],[[[121.301623,23.714495],[121.301525,23.714494],[121.30163,23.713953],[121.301728,23.713954],[121.301731,23.713684],[121.302028,23.713506],[121.302133,23.712966],[121.301744,23.71269],[121.301555,23.712146],[121.30136,23.712054],[121.300963,23.712411],[121.301058,23.712683],[121.300861,23.712771],[121.300857,23.713042],[121.300955,23.713043],[121.301045,23.713676],[121.301337,23.71386],[121.301131,23.71458],[121.301522,23.714675],[121.301623,23.714495]]],[[[121.298425,23.719065],[121.298426,23.718975],[121.298719,23.719068],[121.298918,23.71889],[121.298924,23.718439],[121.298827,23.718347],[121.298231,23.718882],[121.298036,23.71879],[121.298138,23.71852],[121.298236,23.718521],[121.29814,23.71834],[121.297644,23.718786],[121.297739,23.719058],[121.298131,23.719062],[121.298132,23.718972],[121.298425,23.719065]]],[[[121.302219,23.721455],[121.302034,23.72064],[121.302231,23.720552],[121.302237,23.7201],[121.302042,23.720008],[121.301843,23.720186],[121.301837,23.720638],[121.301639,23.720816],[121.301634,23.721177],[121.302022,23.721543],[121.302219,23.721455]]],[[[121.297973,23.723665],[121.297881,23.723213],[121.297783,23.723212],[121.297887,23.722761],[121.297692,23.722669],[121.297593,23.722758],[121.297685,23.723211],[121.297587,23.72321],[121.297583,23.723481],[121.297385,23.723659],[121.297678,23.723752],[121.297677,23.723843],[121.297973,23.723665]]],[[[121.303214,23.727967],[121.30302,23.727784],[121.303025,23.727423],[121.302927,23.727422],[121.303026,23.727333],[121.30303,23.726972],[121.302932,23.726971],[121.303039,23.72634],[121.302941,23.726339],[121.302847,23.725976],[121.302458,23.725701],[121.302558,23.725612],[121.302464,23.72525],[121.302959,23.724894],[121.303062,23.724534],[121.303256,23.724717],[121.303453,23.724629],[121.303647,23.724811],[121.303645,23.724992],[121.303547,23.724991],[121.303642,23.725172],[121.303938,23.725085],[121.304131,23.725268],[121.304528,23.724911],[121.304338,23.724458],[121.304044,23.724454],[121.303948,23.724273],[121.303654,23.72427],[121.303656,23.724089],[121.303558,23.724088],[121.303657,23.723999],[121.303563,23.723727],[121.303761,23.723548],[121.303573,23.722914],[121.303866,23.723008],[121.303966,23.722919],[121.303872,23.722556],[121.304168,23.722469],[121.304268,23.72229],[121.304171,23.722198],[121.304072,23.722288],[121.303092,23.722187],[121.302992,23.722366],[121.302796,23.722364],[121.302703,23.722002],[121.302508,23.721909],[121.302512,23.721548],[121.302317,23.721456],[121.302215,23.721816],[121.302313,23.721817],[121.302502,23.722361],[121.302696,23.722543],[121.302893,23.722455],[121.302985,23.722908],[121.302596,23.722633],[121.302398,23.722811],[121.302393,23.723172],[121.302196,23.72326],[121.302286,23.723893],[121.302383,23.723985],[121.30258,23.723897],[121.302571,23.724619],[121.302472,23.724618],[121.30237,23.724978],[121.302174,23.724976],[121.302175,23.724885],[121.301879,23.724973],[121.301974,23.725244],[121.301577,23.725601],[121.301772,23.725694],[121.301767,23.726055],[121.301962,23.726147],[121.302065,23.725787],[121.302163,23.725788],[121.302066,23.725697],[121.30207,23.725426],[121.302168,23.725427],[121.302362,23.72561],[121.302359,23.72579],[121.302261,23.725789],[121.302357,23.725971],[121.30216,23.726059],[121.302253,23.726421],[121.302056,23.72651],[121.302053,23.72669],[121.301758,23.726777],[121.301757,23.726867],[121.301463,23.726864],[121.301362,23.727044],[121.301557,23.727136],[121.301652,23.727408],[121.301848,23.72741],[121.301849,23.72732],[121.302044,23.727412],[121.302042,23.727593],[121.301843,23.727771],[121.302136,23.727865],[121.302232,23.728047],[121.303015,23.728145],[121.303214,23.727967]],[[121.302147,23.727052],[121.302246,23.726963],[121.302245,23.727053],[121.302147,23.727052]],[[121.302972,23.723901],[121.30307,23.723902],[121.303067,23.724173],[121.302969,23.724172],[121.302972,23.723901]]],[[[121.3048,23.72663],[121.304703,23.726539],[121.304706,23.726358],[121.304804,23.726359],[121.304714,23.725726],[121.304616,23.725725],[121.304619,23.725454],[121.304424,23.725362],[121.304323,23.725631],[121.304225,23.72563],[121.304219,23.726082],[121.304317,23.726083],[121.304214,23.726443],[121.304504,23.726807],[121.3048,23.72663]]],[[[121.305376,23.72763],[121.305464,23.728443],[121.305855,23.728538],[121.305853,23.728628],[121.306246,23.728632],[121.30635,23.728182],[121.306058,23.727998],[121.306061,23.727727],[121.305866,23.727635],[121.305869,23.727454],[121.305579,23.72709],[121.305382,23.727178],[121.305479,23.727269],[121.30528,23.727448],[121.305278,23.727628],[121.305376,23.72763]],[[121.305478,23.72736],[121.305574,23.727451],[121.305476,23.72745],[121.305478,23.72736]]]]}},{"type":"Feature","properties":{"kind":"bare_dam","month":"2018-09","area_ha":18.82},"geometry":{"type":"MultiPolygon","coordinates":[[[[121.301136,23.691463],[121.301432,23.691376],[121.301527,23.691558],[121.302605,23.69166],[121.302604,23.69175],[121.302801,23.691662],[121.3028,23.691752],[121.303094,23.691756],[121.30348,23.692211],[121.304068,23.692218],[121.30407,23.692128],[121.304363,23.692221],[121.304462,23.692132],[121.304367,23.69186],[121.30368,23.691943],[121.303681,23.691852],[121.303485,23.69185],[121.303585,23.691671],[121.303391,23.691488],[121.303195,23.691486],[121.303197,23.691396],[121.302705,23.691481],[121.302706,23.69139],[121.30251,23.691388],[121.302122,23.691113],[121.301827,23.69111],[121.301829,23.691019],[121.301631,23.691108],[121.301439,23.690835],[121.30124,23.691013],[121.300555,23.690915],[121.300754,23.690737],[121.300758,23.690376],[121.300468,23.690102],[121.301153,23.690199],[121.301253,23.69002],[121.301059,23.689837],[121.300862,23.689925],[121.300668,23.689743],[121.300569,23.689832],[121.300373,23.68983],[121.300374,23.689739],[121.299884,23.689734],[121.299883,23.689824],[121.299786,23.689733],[121.298708,23.689721],[121.298607,23.6899],[121.298018,23.689984],[121.297621,23.690341],[121.297616,23.690702],[121.297906,23.691067],[121.298201,23.69098],[121.298301,23.6908],[121.298596,23.690803],[121.298594,23.690894],[121.29889,23.690807],[121.298785,23.691347],[121.299078,23.691441],[121.299076,23.691531],[121.299273,23.691533],[121.299274,23.691443],[121.299665,23.691537],[121.299767,23.691177],[121.299572,23.691085],[121.299575,23.690904],[121.299871,23.690727],[121.299779,23.690275],[121.30027,23.69019],[121.299962,23.69127],[121.300059,23.691361],[121.300255,23.691363],[121.300256,23.691273],[121.300942,23.691371],[121.301041,23.691282],[121.301136,23.691463]],[[121.301041,23.691282],[121.30114,23.691192],[121.301139,23.691283],[121.301041,23.691282]],[[121.300458,23.690824],[121.300359,23.690913],[121.30036,23.690823],[121.300458,23.690824]],[[121.299678,23.690544],[121.299578,23.690634],[121.29958,23.690543],[121.299678,23.690544]],[[121.299092,23.690357],[121.298994,23.690356],[121.298996,23.690176],[121.299094,23.690177],[121.299092,23.690357]]],[[[121.299166,23.692164],[121.298973,23.691981],[121.298677,23.692068],[121.298484,23.691886],[121.298185,23.692244],[121.298282,23.692335],[121.298577,23.692248],[121.298576,23.692338],[121.299065,23.692434],[121.299166,23.692164]]],[[[121.303341,23.69537],[121.303543,23.694921],[121.303445,23.69492],[121.303352,23.694558],[121.302567,23.694549],[121.302566,23.69464],[121.302271,23.694727],[121.301883,23.694361],[121.301687,23.694359],[121.301498,23.693815],[121.301302,23.693813],[121.301104,23.693991],[121.30091,23.693809],[121.301108,23.69363],[121.301111,23.69345],[121.30082,23.693176],[121.300822,23.692995],[121.30102,23.692907],[121.300827,23.692634],[121.30024,23.692537],[121.300144,23.692355],[121.300045,23.692445],[121.299752,23.692351],[121.299453,23.692709],[121.29926,23.692526],[121.299064,23.692524],[121.298667,23.692881],[121.298664,23.693062],[121.299052,23.693427],[121.298853,23.693605],[121.298851,23.693786],[121.299142,23.69406],[121.299241,23.693971],[121.299338,23.694062],[121.300025,23.69398],[121.300023,23.69416],[121.300316,23.694254],[121.300419,23.693894],[121.300517,23.693895],[121.300806,23.694259],[121.3011,23.694262],[121.301099,23.694353],[121.30149,23.694447],[121.30178,23.694811],[121.301879,23.694722],[121.302073,23.694905],[121.302368,23.694818],[121.302657,23.695182],[121.302951,23.695186],[121.30295,23.695276],[121.303341,23.69537]],[[121.300226,23.693621],[121.300129,23.693529],[121.300227,23.69353],[121.300226,23.693621]],[[121.300621,23.693444],[121.300719,23.693445],[121.300716,23.693626],[121.300618,23.693625],[121.300621,23.693444]],[[121.300621,23.693444],[121.300524,23.693353],[121.300622,23.693354],[121.300621,23.693444]],[[121.299443,23.693522],[121.299346,23.69343],[121.299444,23.693431],[121.299443,23.693522]],[[121.300331,23.69308],[121.30004,23.692806],[121.300237,23.692808],[121.300331,23.69308]]],[[[121.298353,23.694413],[121.298455,23.694053],[121.29826,23.69396],[121.298259,23.69405],[121.297964,23.694137],[121.297962,23.694318],[121.298155,23.694501],[121.298353,23.694413]]],[[[121.2988,23.697759],[121.299097,23.697491],[121.299101,23.69722],[121.299396,23.697133],[121.299202,23.69695],[121.299109,23.696588],[121.298914,23.696496],[121.298921,23.695954],[121.299019,23.695955],[121.298925,23.695683],[121.299024,23.695594],[121.298732,23.69541],[121.298734,23.69523],[121.298541,23.695047],[121.298441,23.695136],[121.298246,23.695044],[121.298249,23.694863],[121.298151,23.694862],[121.298252,23.694592],[121.298057,23.6945],[121.297958,23.694589],[121.298054,23.694771],[121.297658,23.695037],[121.297656,23.695218],[121.297754,23.695219],[121.297648,23.69585],[121.298035,23.696215],[121.29803,23.696576],[121.298129,23.696577],[121.298125,23.696848],[121.298319,23.697031],[121.298315,23.697302],[121.298413,23.697303],[121.2988,23.697759]],[[121.298425,23.6964],[121.298328,23.696309],[121.298426,23.69631],[121.298425,23.6964]],[[121.298724,23.696042],[121.298627,23.695951],[121.298725,23.695952],[121.298724,23.696042]],[[121.298629,23.69577],[121.298726,23.695862],[121.298628,23.69586],[121.298629,23.69577]],[[121.298727,23.695771],[121.298827,23.695682],[121.298825,23.695772],[121.298727,23.695771]],[[121.298728,23.695681],[121.298632,23.69559],[121.29873,23.695591],[121.298728,23.695681]],[[121.298436,23.695587],[121.298437,23.695497],[121.298633,23.695499],[121.298632,23.69559],[121.298436,23.695587]]],[[[121.298407,23.697754],[121.298602,23.697847],[121.298703,23.697667],[121.298508,23.697575],[121.298407,23.697754]]],[[[121.298865,23.700288],[121.29867,23.700195],[121.298779,23.699384],[121.299076,23.699116],[121.299181,23.698576],[121.299479,23.698308],[121.299969,23.698313],[121.300267,23.698046],[121.300463,23.698048],[121.300657,23.698231],[121.300853,23.698233],[121.300953,23.698053],[121.301148,23.698146],[121.301545,23.697789],[121.301548,23.697518],[121.301355,23.697335],[121.301058,23.697513],[121.301155,23.697604],[121.301052,23.697964],[121.300566,23.697688],[121.300367,23.697866],[121.299976,23.697772],[121.299778,23.69795],[121.298894,23.698031],[121.298893,23.698121],[121.298598,23.698208],[121.298695,23.698299],[121.298595,23.698388],[121.298586,23.699111],[121.298683,23.699202],[121.298389,23.699199],[121.298091,23.699467],[121.298089,23.699647],[121.297891,23.699735],[121.297887,23.700096],[121.297985,23.700097],[121.297884,23.700277],[121.297982,23.700278],[121.29798,23.700459],[121.298863,23.700468],[121.298865,23.700288]]],[[[121.30253,23.689853],[121.30243,23.690033],[121.302723,23.690126],[121.302823,23.689947],[121.30253,23.689853]]],[[[121.30331,23.690223],[121.303309,23.690313],[121.303506,23.690225],[121.303313,23.689952],[121.302822,23.690037],[121.302918,23.690219],[121.30331,23.690223]]],[[[121.30622,23.692693],[121.306517,23.692425],[121.30662,23.692065],[121.306425,23.691973],[121.306325,23.692152],[121.30603,23.692149],[121.306131,23.69197],[121.305839,23.691786],[121.305942,23.691426],[121.305748,23.691243],[121.305453,23.69133],[121.305254,23.691508],[121.305252,23.691689],[121.305543,23.691963],[121.305836,23.692057],[121.305832,23.692328],[121.30593,23.692329],[121.306023,23.692691],[121.30622,23.692693]]],[[[121.301509,23.693003],[121.301315,23.69282],[121.30102,23.692907],[121.30131,23.693181],[121.301509,23.693003]]],[[[121.304228,23.695019],[121.304626,23.694572],[121.304822,23.694574],[121.304923,23.694394],[121.30463,23.694301],[121.304033,23.694926],[121.304228,23.695019]]],[[[121.302737,23.696628],[121.302639,23.696627],[121.302641,23.696446],[121.302837,23.696448],[121.303037,23.69618],[121.302647,23.695995],[121.302544,23.696355],[121.302245,23.696713],[121.302636,23.696807],[121.302737,23.696628]]]]}},{"type":"Feature","properties":{"kind":"water","month":"2018-09","area_ha":6.08},"geometry":{"type":"MultiPolygon","coordinates":[[[[121.282615,23.690627],[121.282419,23.690625],[121.282418,23.690715],[121.282614,23.690717],[121.282615,23.690627]]],[[[121.283103,23.690813],[121.283008,23.690541],[121.282909,23.69063],[121.282616,23.690537],[121.282906,23.690901],[121.283103,23.690813]]],[[[121.278295,23.69103],[121.278301,23.690579],[121.278105,23.690577],[121.278099,23.691028],[121.278295,23.69103]]],[[[121.284161,23.69236],[121.284166,23.691999],[121.283778,23.691633],[121.283582,23.691631],[121.283585,23.69145],[121.283389,23.691448],[121.283386,23.691629],[121.283775,23.691904],[121.283773,23.692084],[121.284065,23.692178],[121.284158,23.692631],[121.284549,23.692725],[121.284552,23.692454],[121.284161,23.69236]]],[[[121.284738,23.693269],[121.284735,23.69345],[121.284833,23.693451],[121.284934,23.693271],[121.284738,23.693269]]],[[[121.284833,23.693451],[121.284924,23.693994],[121.28512,23.693996],[121.285029,23.693453],[121.284833,23.693451]]],[[[121.287446,23.696098],[121.287443,23.696369],[121.287835,23.696374],[121.287837,23.696193],[121.287446,23.696098]]],[[[121.2896,23.696393],[121.289502,23.696392],[121.289504,23.696211],[121.289211,23.696118],[121.289401,23.696571],[121.2896,23.696393]]],[[[121.292026,23.698316],[121.291832,23.698133],[121.291245,23.698037],[121.291243,23.698217],[121.291732,23.698313],[121.291828,23.698495],[121.292024,23.698497],[121.292026,23.698316]]],[[[121.292611,23.698593],[121.29271,23.698504],[121.292612,23.698503],[121.292611,23.698593]]],[[[121.29261,23.698684],[121.292514,23.698502],[121.292318,23.6985],[121.292317,23.69859],[121.292024,23.698497],[121.292118,23.698769],[121.29261,23.698684]]],[[[121.293493,23.698603],[121.293495,23.698513],[121.293199,23.6986],[121.293197,23.698781],[121.293294,23.698872],[121.293981,23.698789],[121.293984,23.698609],[121.293493,23.698603]]],[[[121.29604,23.698812],[121.296043,23.698631],[121.295649,23.698717],[121.295744,23.698989],[121.29604,23.698812]]],[[[121.295254,23.698984],[121.295252,23.699074],[121.294959,23.698981],[121.294957,23.699161],[121.295545,23.699168],[121.295549,23.698897],[121.295254,23.698984]]],[[[121.31178,23.687336],[121.312172,23.68734],[121.312267,23.687522],[121.312563,23.687435],[121.31237,23.687162],[121.312174,23.687159],[121.31198,23.686977],[121.311686,23.686973],[121.311687,23.686883],[121.311393,23.68688],[121.31149,23.686971],[121.311391,23.687061],[121.311488,23.687152],[121.311384,23.687602],[121.311678,23.687605],[121.31178,23.687336]]],[[[121.310981,23.688411],[121.310983,23.68832],[121.311179,23.688322],[121.311182,23.688052],[121.310986,23.688049],[121.310391,23.688585],[121.310685,23.688588],[121.310785,23.688408],[121.310981,23.688411]]],[[[121.308913,23.68911],[121.30931,23.688754],[121.309016,23.68875],[121.308718,23.689018],[121.308715,23.689289],[121.308911,23.689291],[121.308913,23.68911]]],[[[121.308488,23.691634],[121.30859,23.691364],[121.308786,23.691367],[121.30879,23.691096],[121.308888,23.691097],[121.308893,23.690645],[121.308797,23.690554],[121.3086,23.690552],[121.308591,23.691274],[121.308296,23.691361],[121.308196,23.691541],[121.307999,23.691539],[121.308192,23.691812],[121.308488,23.691634]]],[[[121.306712,23.692518],[121.306812,23.692338],[121.307009,23.69234],[121.307112,23.69189],[121.306817,23.691977],[121.306519,23.692245],[121.306318,23.692694],[121.306516,23.692516],[121.306712,23.692518]]],[[[121.306119,23.692872],[121.306318,23.692694],[121.305924,23.69278],[121.306018,23.693142],[121.306116,23.693143],[121.306119,23.692872]]],[[[121.30422,23.695651],[121.304423,23.695111],[121.304621,23.695023],[121.304722,23.694753],[121.305017,23.694666],[121.30502,23.694486],[121.305313,23.694579],[121.305314,23.694489],[121.305806,23.694314],[121.305714,23.693861],[121.305812,23.693862],[121.305916,23.693412],[121.30562,23.693589],[121.305515,23.69413],[121.30522,23.694127],[121.30512,23.694306],[121.304924,23.694304],[121.304922,23.694485],[121.304626,23.694572],[121.304525,23.694842],[121.30423,23.694929],[121.304227,23.695109],[121.304129,23.695108],[121.304225,23.69529],[121.304026,23.695468],[121.30383,23.695466],[121.303828,23.695647],[121.30363,23.695825],[121.303923,23.695919],[121.30422,23.695651]]],[[[121.303132,23.696361],[121.30323,23.696362],[121.303333,23.696002],[121.303039,23.695999],[121.302935,23.69645],[121.302641,23.696446],[121.302639,23.696627],[121.302835,23.696629],[121.302832,23.69681],[121.303028,23.696812],[121.303132,23.696361]]],[[[121.302139,23.697344],[121.302339,23.697075],[121.302732,23.696989],[121.302832,23.69681],[121.302342,23.696804],[121.302242,23.696984],[121.301946,23.697071],[121.302043,23.697162],[121.301943,23.697342],[121.302139,23.697344]]],[[[121.300471,23.697416],[121.300472,23.697326],[121.300178,23.697322],[121.300177,23.697413],[121.300471,23.697416]]],[[[121.299975,23.697862],[121.300177,23.697413],[121.299883,23.697409],[121.299684,23.697588],[121.299194,23.697582],[121.299192,23.697763],[121.29929,23.697764],[121.299188,23.698034],[121.299975,23.697862]]],[[[121.300074,23.697773],[121.300171,23.697864],[121.300172,23.697774],[121.300074,23.697773]]],[[[121.298091,23.699467],[121.298389,23.699199],[121.298683,23.699202],[121.298586,23.699111],[121.298595,23.698388],[121.298695,23.698299],[121.298501,23.698117],[121.298305,23.698114],[121.298301,23.698385],[121.298004,23.698653],[121.298,23.698924],[121.298195,23.699016],[121.298193,23.699197],[121.297699,23.699462],[121.297695,23.699733],[121.297989,23.699736],[121.298091,23.699467]]],[[[121.299052,23.701012],[121.299054,23.700832],[121.298859,23.700739],[121.298656,23.701279],[121.298852,23.701281],[121.298854,23.7011],[121.299052,23.701012]]]]}}]}