{"type":"FeatureCollection","features":[{"type":"Feature","properties":{"kind":"bare_slide","month":"2018-07","area_ha":40.56},"geometry":{"type":"MultiPolygon","coordinates":[[[[121.294276,23.706287],[121.294082,23.706105],[121.293886,23.706102],[121.293889,23.705922],[121.294282,23.705836],[121.294287,23.705475],[121.293896,23.70538],[121.293598,23.705648],[121.293695,23.705739],[121.293594,23.705919],[121.293789,23.706011],[121.293689,23.70619],[121.293787,23.706192],[121.293881,23.706464],[121.294176,23.706467],[121.294276,23.706287]]],[[[121.295058,23.714062],[121.295256,23.713883],[121.295649,23.713797],[121.295653,23.713526],[121.296149,23.71308],[121.296151,23.7129],[121.29625,23.712901],[121.296157,23.712448],[121.29596,23.712536],[121.295957,23.712807],[121.295658,23.713165],[121.295462,23.713163],[121.295361,23.713343],[121.295264,23.713251],[121.295067,23.713339],[121.295161,23.713611],[121.294766,23.713878],[121.294761,23.714239],[121.294956,23.714331],[121.295058,23.714062]]],[[[121.289819,23.717164],[121.289922,23.716804],[121.290314,23.716809],[121.290614,23.71636],[121.290909,23.716364],[121.291009,23.716184],[121.291205,23.716186],[121.291308,23.715826],[121.291504,23.715828],[121.291606,23.715559],[121.292,23.715382],[121.291904,23.715201],[121.29161,23.715197],[121.291613,23.715017],[121.291908,23.71493],[121.291812,23.714748],[121.291616,23.714746],[121.291617,23.714656],[121.291322,23.714743],[121.291512,23.715196],[121.291414,23.715195],[121.291311,23.715555],[121.291113,23.715734],[121.290917,23.715732],[121.290815,23.716001],[121.290619,23.715999],[121.290618,23.716089],[121.290422,23.716087],[121.290424,23.715907],[121.290133,23.715633],[121.289936,23.715721],[121.289934,23.715901],[121.28974,23.715719],[121.289939,23.71554],[121.289941,23.71536],[121.290139,23.715181],[121.290335,23.715183],[121.290436,23.715004],[121.290145,23.71473],[121.289654,23.714815],[121.289653,23.714905],[121.289458,23.714812],[121.289456,23.714903],[121.289161,23.71499],[121.289252,23.715533],[121.289447,23.715625],[121.289341,23.716256],[121.289047,23.716253],[121.289048,23.716162],[121.288654,23.716248],[121.288657,23.716068],[121.288462,23.715975],[121.287966,23.716421],[121.288159,23.716604],[121.28826,23.716425],[121.288751,23.71634],[121.289236,23.716797],[121.289133,23.717157],[121.289327,23.717339],[121.289819,23.717164]],[[121.289434,23.716618],[121.289533,23.716529],[121.289532,23.716619],[121.289434,23.716618]]],[[[121.291072,23.718894],[121.290975,23.718802],[121.290778,23.71889],[121.29078,23.71871],[121.291367,23.718807],[121.291469,23.718537],[121.291666,23.718449],[121.29157,23.718267],[121.291372,23.718446],[121.291176,23.718443],[121.290982,23.718261],[121.290984,23.71808],[121.291182,23.717992],[121.291086,23.71781],[121.29079,23.717897],[121.290591,23.718166],[121.29,23.71834],[121.290095,23.718612],[121.290386,23.718796],[121.29048,23.719158],[121.29097,23.719164],[121.291072,23.718894]]],[[[121.284887,23.719367],[121.284986,23.719278],[121.28489,23.719096],[121.284595,23.719183],[121.284691,23.719365],[121.284887,23.719367]]],[[[121.284402,23.71891],[121.284109,23.718817],[121.284112,23.718636],[121.283819,23.718543],[121.283724,23.718271],[121.283528,23.718268],[121.283429,23.718358],[121.283422,23.718899],[121.283224,23.718987],[121.283021,23.719527],[121.282726,23.719614],[121.282526,23.719883],[121.281937,23.719966],[121.281738,23.720145],[121.281733,23.720506],[121.282122,23.720781],[121.282614,23.720696],[121.282812,23.720518],[121.282818,23.720067],[121.28311,23.72025],[121.283705,23.719715],[121.28361,23.719534],[121.283216,23.719619],[121.283319,23.719259],[121.283809,23.719265],[121.283708,23.719535],[121.283903,23.719627],[121.284298,23.719361],[121.284203,23.719179],[121.284399,23.719181],[121.284398,23.719271],[121.284595,23.719183],[121.284402,23.71891]],[[121.282916,23.720068],[121.283015,23.719978],[121.283014,23.720069],[121.282916,23.720068]],[[121.283809,23.719265],[121.283908,23.719176],[121.283907,23.719266],[121.283809,23.719265]]],[[[121.28664,23.720289],[121.287129,23.720385],[121.28703,23.720474],[121.287126,23.720656],[121.287324,23.720478],[121.287421,23.720569],[121.287911,23.720574],[121.287912,23.720484],[121.288107,23.720577],[121.288309,23.720127],[121.288507,23.720039],[121.28851,23.719768],[121.288315,23.719676],[121.28832,23.719315],[121.288223,23.719223],[121.288027,23.719221],[121.288026,23.719312],[121.287733,23.719218],[121.287634,23.719307],[121.287729,23.719489],[121.288025,23.719402],[121.28802,23.719763],[121.287723,23.71994],[121.287818,23.720212],[121.287237,23.719664],[121.287039,23.719752],[121.287037,23.719933],[121.286839,23.720111],[121.286843,23.71975],[121.28655,23.719656],[121.286449,23.719926],[121.286547,23.719927],[121.28664,23.720289]],[[121.287226,23.720477],[121.287228,23.720296],[121.287426,23.720208],[121.287423,23.720388],[121.287226,23.720477]],[[121.288012,23.720395],[121.287915,23.720304],[121.288013,23.720305],[121.288012,23.720395]]],[[[121.28654,23.720469],[121.286346,23.720286],[121.286449,23.719926],[121.286061,23.719561],[121.285865,23.719559],[121.285765,23.719738],[121.28557,23.719646],[121.285371,23.719824],[121.285467,23.720006],[121.285665,23.719827],[121.285861,23.719829],[121.286055,23.720012],[121.286053,23.720193],[121.285856,23.720281],[121.285853,23.720461],[121.286047,23.720644],[121.28654,23.720469]]],[[[121.290151,23.721773],[121.290153,23.721683],[121.290447,23.721686],[121.290645,23.721508],[121.290648,23.721327],[121.290453,23.721235],[121.290457,23.720874],[121.290656,23.720695],[121.290467,23.720151],[121.29017,23.720329],[121.290167,23.720599],[121.289969,23.720688],[121.289966,23.720958],[121.289771,23.720866],[121.289669,23.721136],[121.289571,23.721135],[121.289568,23.721405],[121.28947,23.721404],[121.289563,23.721767],[121.289857,23.72177],[121.289858,23.72168],[121.290151,23.721773]]],[[[121.285923,23.722629],[121.286119,23.722631],[121.286219,23.722452],[121.286416,23.722454],[121.286511,23.722636],[121.286611,23.722547],[121.286807,23.722549],[121.286805,23.722639],[121.287199,23.722553],[121.287296,23.722645],[121.287399,23.722284],[121.286909,23.722189],[121.286711,23.722367],[121.286717,23.721916],[121.286913,23.721918],[121.286912,23.722008],[121.287207,23.721921],[121.287304,23.722013],[121.287504,23.721744],[121.287799,23.721657],[121.287801,23.721476],[121.287607,23.721384],[121.287407,23.721652],[121.287211,23.72165],[121.287018,23.721377],[121.286822,23.721375],[121.286424,23.721822],[121.286032,23.721818],[121.285838,23.721635],[121.285939,23.721365],[121.285453,23.721089],[121.28546,23.720547],[121.285657,23.720459],[121.285659,23.720279],[121.28517,23.720183],[121.285075,23.720001],[121.284779,23.720088],[121.284679,23.720268],[121.284386,23.720174],[121.284087,23.720532],[121.284478,23.720627],[121.284477,23.720717],[121.284771,23.72072],[121.284668,23.72108],[121.284862,23.721263],[121.284565,23.72144],[121.284562,23.721711],[121.284464,23.72171],[121.284262,23.722159],[121.284359,23.722251],[121.284654,23.722164],[121.284848,23.722346],[121.285145,23.722079],[121.285249,23.721629],[121.285643,23.721543],[121.285639,23.721813],[121.285342,23.722081],[121.285537,23.722174],[121.285637,23.721994],[121.285833,23.721996],[121.286027,23.722179],[121.286024,23.72236],[121.285826,23.722538],[121.28563,23.722536],[121.285529,23.722715],[121.285822,23.722809],[121.285923,23.722629]]],[[[121.288682,23.721667],[121.288781,23.721577],[121.288977,23.72158],[121.289072,23.721851],[121.289465,23.721766],[121.289271,23.721583],[121.289275,23.721312],[121.289177,23.721311],[121.289083,23.720949],[121.288887,23.720946],[121.288787,23.721126],[121.288493,23.721123],[121.288294,23.721301],[121.288387,23.721663],[121.288189,23.721842],[121.28858,23.721936],[121.288682,23.721667]]],[[[121.29308,23.722799],[121.293181,23.722619],[121.293377,23.722621],[121.293774,23.722265],[121.293777,23.721994],[121.293583,23.721901],[121.293489,23.721539],[121.293295,23.721356],[121.293099,23.721354],[121.293007,23.720902],[121.292909,23.720901],[121.293012,23.720541],[121.292719,23.720447],[121.29252,23.720625],[121.292617,23.720717],[121.292512,23.721257],[121.292415,23.721166],[121.29212,23.721253],[121.292215,23.721435],[121.292412,23.721437],[121.292409,23.721617],[121.292213,23.721615],[121.292117,23.721434],[121.291921,23.721431],[121.291821,23.721611],[121.292016,23.721703],[121.292011,23.722065],[121.292499,23.722251],[121.292589,23.722884],[121.292784,23.722976],[121.292884,23.722797],[121.29308,23.722799]],[[121.293186,23.722258],[121.293382,23.72226],[121.293381,23.722351],[121.293184,23.722348],[121.293186,23.722258]],[[121.293189,23.721987],[121.293287,23.721988],[121.293285,23.722169],[121.293187,23.722168],[121.293189,23.721987]],[[121.292406,23.721888],[121.292307,23.721978],[121.292308,23.721887],[121.292406,23.721888]],[[121.292406,23.721888],[121.292505,23.721799],[121.292504,23.721889],[121.292406,23.721888]]],[[[121.294228,23.725069],[121.294425,23.724981],[121.29463,23.724351],[121.295025,23.724084],[121.294639,23.723629],[121.294645,23.723177],[121.294841,23.723179],[121.295039,23.723001],[121.295044,23.72264],[121.294849,23.722547],[121.294649,23.722816],[121.294355,23.722813],[121.294554,23.722634],[121.294558,23.722273],[121.29417,23.721998],[121.294068,23.722268],[121.294263,23.72236],[121.294261,23.722541],[121.294163,23.72254],[121.29406,23.7229],[121.294255,23.722992],[121.294253,23.723173],[121.293962,23.722899],[121.293666,23.722986],[121.293474,23.722713],[121.293275,23.722891],[121.293858,23.723349],[121.293754,23.723799],[121.294241,23.724076],[121.294238,23.724256],[121.294041,23.724344],[121.294038,23.724615],[121.29384,23.724703],[121.293837,23.724974],[121.293934,23.725066],[121.294229,23.724979],[121.294228,23.725069]],[[121.294538,23.723808],[121.294442,23.723717],[121.29454,23.723718],[121.294538,23.723808]]],[[[121.301312,23.708171],[121.301216,23.708079],[121.300921,23.708076],[121.300923,23.707986],[121.300628,23.707983],[121.30063,23.707892],[121.300433,23.70789],[121.300432,23.70798],[121.300139,23.707887],[121.30014,23.707797],[121.299747,23.707883],[121.299458,23.707518],[121.298774,23.70733],[121.298679,23.707058],[121.298581,23.707057],[121.29868,23.706968],[121.298584,23.706786],[121.298092,23.706961],[121.298188,23.707143],[121.298482,23.707146],[121.298479,23.707327],[121.298673,23.70751],[121.298966,23.707603],[121.298865,23.707873],[121.299058,23.708056],[121.299254,23.708058],[121.29935,23.708239],[121.299546,23.708242],[121.299844,23.707974],[121.299842,23.708155],[121.300132,23.708429],[121.300328,23.708431],[121.30043,23.708161],[121.300626,23.708163],[121.300625,23.708253],[121.300919,23.708257],[121.30121,23.708531],[121.301309,23.708442],[121.301312,23.708171]]],[[[121.301465,23.711513],[121.301175,23.711239],[121.301177,23.711059],[121.300982,23.710966],[121.300984,23.710786],[121.300597,23.71042],[121.300401,23.710418],[121.300403,23.710238],[121.300111,23.710054],[121.300114,23.709873],[121.299239,23.709231],[121.299138,23.709501],[121.299623,23.709868],[121.29962,23.710139],[121.299913,23.710232],[121.300007,23.710504],[121.300203,23.710506],[121.300299,23.710688],[121.300495,23.71069],[121.300689,23.710873],[121.300589,23.711052],[121.300687,23.711053],[121.300781,23.711325],[121.300979,23.711237],[121.301268,23.711602],[121.301465,23.711513]]],[[[121.301622,23.714585],[121.301524,23.714584],[121.30163,23.713953],[121.302027,23.713596],[121.302033,23.713145],[121.302132,23.713056],[121.301743,23.712781],[121.301745,23.7126],[121.301552,23.712417],[121.301556,23.712056],[121.301361,23.711964],[121.301259,23.712324],[121.301063,23.712322],[121.300864,23.7125],[121.300862,23.712681],[121.30096,23.712682],[121.300861,23.712771],[121.300855,23.713222],[121.300953,23.713223],[121.300949,23.713494],[121.301047,23.713495],[121.301141,23.713858],[121.301336,23.71395],[121.301232,23.7144],[121.301033,23.714579],[121.301227,23.714762],[121.301521,23.714765],[121.301622,23.714585]]],[[[121.298284,23.71482],[121.29829,23.714368],[121.297803,23.714092],[121.297809,23.71364],[121.297614,23.713548],[121.297515,23.713637],[121.297509,23.714089],[121.296911,23.714804],[121.297008,23.714896],[121.297107,23.714807],[121.297696,23.714813],[121.297791,23.714995],[121.298086,23.714998],[121.298284,23.71482]],[[121.2976,23.714631],[121.297699,23.714542],[121.297698,23.714632],[121.2976,23.714631]]],[[[121.298228,23.719153],[121.298426,23.718975],[121.298523,23.719066],[121.298819,23.718979],[121.298823,23.718618],[121.298921,23.718619],[121.299025,23.718169],[121.299519,23.717903],[121.299521,23.717723],[121.299818,23.717545],[121.299821,23.717274],[121.300118,23.717097],[121.300125,23.716555],[121.300223,23.716557],[121.300131,23.716104],[121.299833,23.716372],[121.299827,23.716823],[121.299729,23.716822],[121.299726,23.717093],[121.299628,23.717092],[121.299324,23.717811],[121.299128,23.717809],[121.29883,23.718076],[121.298828,23.718257],[121.298431,23.718614],[121.298429,23.718794],[121.298035,23.71888],[121.298038,23.7187],[121.298236,23.718521],[121.29814,23.71834],[121.297745,23.718606],[121.297642,23.718966],[121.297935,23.71906],[121.297934,23.71915],[121.298033,23.719061],[121.298228,23.719153]]],[[[121.296932,23.720764],[121.297227,23.720677],[121.29713,23.720586],[121.297142,23.719683],[121.297045,23.719592],[121.296748,23.719859],[121.296742,23.720311],[121.296839,23.720402],[121.296642,23.7204],[121.296644,23.72031],[121.296446,23.720398],[121.296444,23.720578],[121.296638,23.720761],[121.296737,23.720672],[121.296933,23.720674],[121.296932,23.720764]]],[[[121.303265,23.723994],[121.303662,23.723638],[121.303576,23.722734],[121.304166,23.72256],[121.304267,23.72238],[121.30417,23.722289],[121.302798,23.722183],[121.302508,23.721909],[121.302512,23.721548],[121.302415,23.721457],[121.302218,23.721545],[121.302125,23.721183],[121.302027,23.721182],[121.302032,23.72073],[121.30223,23.720642],[121.302237,23.7201],[121.302042,23.720008],[121.30194,23.720278],[121.301842,23.720277],[121.301837,23.720638],[121.30164,23.720726],[121.301632,23.721358],[121.302216,23.721725],[121.302213,23.721906],[121.302503,23.72227],[121.302499,23.722541],[121.302596,23.722633],[121.302892,23.722546],[121.302986,23.722818],[121.303084,23.722819],[121.303082,23.722999],[121.302886,23.722997],[121.302693,23.722724],[121.302397,23.722901],[121.302392,23.723262],[121.302195,23.723351],[121.302192,23.723531],[121.30229,23.723532],[121.302188,23.723892],[121.302774,23.724079],[121.302972,23.723901],[121.303265,23.723994]]],[[[121.303166,23.724084],[121.303355,23.724628],[121.30365,23.72454],[121.303653,23.72436],[121.303458,23.724267],[121.303363,23.723996],[121.303265,23.723994],[121.303166,23.724084]]],[[[121.296665,23.726179],[121.296863,23.726091],[121.296865,23.725911],[121.29667,23.725818],[121.296769,23.725729],[121.296675,23.725457],[121.297071,23.725191],[121.297074,23.72492],[121.297466,23.724924],[121.297665,23.724746],[121.297667,23.724565],[121.297963,23.724478],[121.297771,23.724115],[121.297275,23.724561],[121.296786,23.724465],[121.296592,23.724282],[121.296591,23.724373],[121.296001,23.724456],[121.295901,23.724636],[121.295705,23.724634],[121.295706,23.724543],[121.295509,23.724632],[121.295701,23.724905],[121.295504,23.724993],[121.295502,23.725173],[121.295303,23.725352],[121.2953,23.725623],[121.295886,23.72581],[121.295981,23.725991],[121.296473,23.725906],[121.296665,23.726179]],[[121.296475,23.725726],[121.296573,23.725727],[121.296571,23.725907],[121.296473,23.725906],[121.296475,23.725726]],[[121.296378,23.725634],[121.296478,23.725545],[121.296476,23.725635],[121.296378,23.725634]],[[121.296481,23.725274],[121.29658,23.725185],[121.296579,23.725275],[121.296481,23.725274]],[[121.295998,23.724727],[121.296096,23.724728],[121.296093,23.724909],[121.295995,23.724908],[121.295998,23.724727]]],[[[121.302457,23.725792],[121.302557,23.725702],[121.302463,23.72534],[121.30276,23.725163],[121.302763,23.724892],[121.302861,23.724893],[121.302868,23.724351],[121.302771,23.72426],[121.302574,23.724348],[121.302469,23.724889],[121.30237,23.724978],[121.301879,23.724973],[121.30178,23.725062],[121.301875,23.725334],[121.301479,23.7256],[121.301477,23.725781],[121.301672,23.725873],[121.301766,23.726145],[121.302161,23.725969],[121.302165,23.725608],[121.302457,23.725792]],[[121.302165,23.725608],[121.302069,23.725516],[121.302167,23.725517],[121.302165,23.725608]]],[[[121.306249,23.728362],[121.306155,23.72809],[121.30596,23.727997],[121.305867,23.727545],[121.305092,23.726814],[121.304798,23.726811],[121.304604,23.726628],[121.304711,23.725997],[121.304516,23.725904],[121.304218,23.726172],[121.304213,23.726533],[121.304311,23.726534],[121.304406,23.726806],[121.304602,23.726808],[121.304598,23.727079],[121.305471,23.727902],[121.305467,23.728172],[121.305369,23.728171],[121.305464,23.728443],[121.305757,23.728537],[121.305755,23.728627],[121.306246,23.728632],[121.306345,23.728543],[121.306347,23.728363],[121.306249,23.728362]]],[[[121.303312,23.727968],[121.303216,23.727786],[121.302922,23.727783],[121.302728,23.727601],[121.302831,23.72724],[121.302541,23.726876],[121.302643,23.726606],[121.302449,23.726424],[121.302253,23.726421],[121.302054,23.7266],[121.302052,23.72678],[121.301656,23.727047],[121.301653,23.727318],[121.302043,23.727503],[121.301844,23.727681],[121.301842,23.727862],[121.301939,23.727953],[121.302234,23.727866],[121.302525,23.72814],[121.303312,23.727968]],[[121.302339,23.727325],[121.30205,23.726961],[121.302538,23.727147],[121.302535,23.727328],[121.302339,23.727325]]]]}},{"type":"Feature","properties":{"kind":"bare_dam","month":"2018-07","area_ha":11.38},"geometry":{"type":"MultiPolygon","coordinates":[[[[121.297713,23.690794],[121.298209,23.690348],[121.298503,23.690351],[121.298702,23.690172],[121.298704,23.689992],[121.298215,23.689896],[121.298115,23.690076],[121.297919,23.690074],[121.297522,23.69043],[121.297713,23.690794]]],[[[121.299767,23.691177],[121.299572,23.691085],[121.299575,23.690904],[121.299871,23.690727],[121.299779,23.690275],[121.30017,23.690369],[121.300069,23.690639],[121.300167,23.69064],[121.300261,23.690912],[121.300653,23.690916],[121.300852,23.690738],[121.300859,23.690196],[121.300761,23.690195],[121.300862,23.689925],[121.300765,23.689834],[121.30008,23.689736],[121.299584,23.690182],[121.299388,23.69018],[121.299292,23.689998],[121.298997,23.690085],[121.298995,23.690266],[121.299383,23.690541],[121.299381,23.690722],[121.299183,23.6909],[121.298789,23.690986],[121.298785,23.691347],[121.298978,23.69153],[121.299665,23.691537],[121.299767,23.691177]],[[121.300565,23.690193],[121.300468,23.690102],[121.300566,23.690103],[121.300565,23.690193]]],[[[121.300315,23.694344],[121.300513,23.694165],[121.300417,23.693984],[121.300123,23.693981],[121.300028,23.693799],[121.299537,23.693794],[121.299248,23.693429],[121.298954,23.693426],[121.298955,23.693336],[121.298758,23.693424],[121.298755,23.693604],[121.298853,23.693605],[121.298753,23.693785],[121.299046,23.693878],[121.299142,23.69406],[121.299533,23.694155],[121.299532,23.694245],[121.29973,23.694067],[121.300024,23.69407],[121.300022,23.69425],[121.300315,23.694344]]],[[[121.302958,23.694644],[121.30256,23.695091],[121.302656,23.695273],[121.302951,23.695186],[121.303047,23.695367],[121.303341,23.69537],[121.30334,23.695461],[121.303537,23.695373],[121.303443,23.695101],[121.303248,23.695008],[121.303446,23.69483],[121.303351,23.694648],[121.302958,23.694644]],[[121.302857,23.694914],[121.302954,23.695005],[121.302856,23.695004],[121.302857,23.694914]]],[[[121.2989,23.697579],[121.299096,23.697581],[121.299198,23.697312],[121.299495,23.697044],[121.299202,23.69695],[121.299206,23.69668],[121.298914,23.696496],[121.299024,23.695594],[121.298829,23.695501],[121.298831,23.695321],[121.298444,23.694955],[121.298246,23.695044],[121.298253,23.694502],[121.298551,23.694234],[121.298553,23.694054],[121.298262,23.69387],[121.297865,23.694227],[121.298059,23.694409],[121.298056,23.69459],[121.297958,23.694589],[121.297854,23.695039],[121.297657,23.695127],[121.297655,23.695308],[121.297753,23.695309],[121.297747,23.69576],[121.297648,23.69585],[121.298035,23.696215],[121.298028,23.696757],[121.298223,23.696849],[121.298323,23.69667],[121.29852,23.696672],[121.298713,23.696855],[121.298709,23.697216],[121.298511,23.697304],[121.298409,23.697664],[121.2988,23.697759],[121.2989,23.697579]],[[121.298425,23.6964],[121.298328,23.696309],[121.298426,23.69631],[121.298425,23.6964]]],[[[121.30105,23.698145],[121.301246,23.698147],[121.301445,23.697968],[121.301447,23.697788],[121.301545,23.697789],[121.30145,23.697517],[121.301155,23.697604],[121.30115,23.697965],[121.300856,23.697962],[121.300662,23.697779],[121.300366,23.697956],[121.300364,23.698137],[121.300755,23.698232],[121.300754,23.698322],[121.301049,23.698235],[121.30105,23.698145]]],[[[121.299081,23.698755],[121.299279,23.698577],[121.298988,23.698393],[121.298886,23.698663],[121.29869,23.69866],[121.298589,23.69884],[121.298978,23.699115],[121.299081,23.698755]]],[[[121.295447,23.699167],[121.295643,23.699169],[121.295941,23.698901],[121.296332,23.698996],[121.296432,23.698816],[121.296239,23.698633],[121.295846,23.698629],[121.295845,23.698719],[121.295452,23.698805],[121.295252,23.699074],[121.294959,23.698981],[121.294961,23.69889],[121.294665,23.698977],[121.294858,23.69925],[121.295347,23.699346],[121.295447,23.699167]]],[[[121.299062,23.7002],[121.298867,23.700107],[121.298871,23.699836],[121.29858,23.699562],[121.297884,23.700277],[121.298079,23.700369],[121.298279,23.700101],[121.298475,23.700103],[121.298669,23.700286],[121.298666,23.700466],[121.299157,23.700472],[121.299062,23.7002]]],[[[121.312759,23.687437],[121.312564,23.687344],[121.312366,23.687523],[121.312555,23.688067],[121.312752,23.687978],[121.312759,23.687437]]],[[[121.310784,23.688499],[121.31098,23.688501],[121.31118,23.688232],[121.310985,23.68814],[121.310984,23.68823],[121.31059,23.688316],[121.310391,23.688585],[121.310586,23.688677],[121.310784,23.688499]]],[[[121.305736,23.692146],[121.306034,23.691878],[121.305839,23.691786],[121.305938,23.691697],[121.305845,23.691334],[121.305748,23.691243],[121.305453,23.69133],[121.305254,23.691508],[121.305251,23.691779],[121.305445,23.691962],[121.305641,23.691964],[121.305736,23.692146]]],[[[121.303485,23.69185],[121.303387,23.691849],[121.303488,23.691579],[121.303195,23.691486],[121.303197,23.691396],[121.302704,23.691571],[121.303188,23.692028],[121.303384,23.69203],[121.303485,23.69185]]],[[[121.304462,23.692132],[121.304268,23.691949],[121.303875,23.692035],[121.303872,23.692216],[121.304066,23.692398],[121.30436,23.692402],[121.304462,23.692132]]],[[[121.304448,23.693215],[121.304253,23.693123],[121.304354,23.692853],[121.304159,23.692761],[121.304162,23.69258],[121.303869,23.692487],[121.303767,23.692756],[121.303669,23.692755],[121.303766,23.692847],[121.303666,23.693026],[121.303859,23.693209],[121.304154,23.693212],[121.304249,23.693394],[121.304448,23.693215]],[[121.303863,23.692938],[121.303864,23.692848],[121.30406,23.69285],[121.304059,23.69294],[121.303863,23.692938]]],[[[121.305017,23.694666],[121.304728,23.694302],[121.304431,23.694479],[121.304429,23.69466],[121.30472,23.694934],[121.305015,23.694847],[121.305017,23.694666]]],[[[121.303431,23.696003],[121.303433,23.695823],[121.303045,23.695548],[121.302844,23.695907],[121.303135,23.696181],[121.303431,23.696003]]]]}},{"type":"Feature","properties":{"kind":"water","month":"2018-07","area_ha":0.16},"geometry":{"type":"Polygon","coordinates":[[[121.303726,23.695916],[121.30373,23.695646],[121.304225,23.69529],[121.304121,23.69574],[121.303726,23.695916]]]}}]}