{"type":"FeatureCollection","features":[{"type":"Feature","properties":{"kind":"bare_slide","month":"2018-06","area_ha":6.4},"geometry":{"type":"MultiPolygon","coordinates":[[[[121.300428,23.708342],[121.300431,23.708071],[121.300919,23.708257],[121.301015,23.708438],[121.301211,23.70844],[121.301312,23.708171],[121.300921,23.708076],[121.300826,23.707894],[121.300334,23.707979],[121.30014,23.707797],[121.299748,23.707792],[121.299361,23.707427],[121.298967,23.707513],[121.298865,23.707873],[121.299158,23.707966],[121.29935,23.708239],[121.299844,23.707974],[121.299842,23.708155],[121.300035,23.708337],[121.300232,23.708339],[121.30023,23.70843],[121.300428,23.708342]]],[[[121.301464,23.711604],[121.301178,23.710968],[121.300597,23.71042],[121.300401,23.710418],[121.300403,23.710238],[121.300209,23.710055],[121.300013,23.710053],[121.299912,23.710322],[121.300105,23.710505],[121.300301,23.710507],[121.300397,23.710689],[121.300593,23.710691],[121.300589,23.711052],[121.300782,23.711235],[121.300979,23.711237],[121.301267,23.711692],[121.301464,23.711604]]],[[[121.295056,23.714152],[121.295059,23.713971],[121.295649,23.713797],[121.295555,23.713525],[121.29585,23.713438],[121.295854,23.713167],[121.296251,23.712811],[121.296157,23.712448],[121.29596,23.712536],[121.295957,23.712807],[121.29556,23.713164],[121.295067,23.713339],[121.295161,23.713611],[121.294765,23.713968],[121.294859,23.71424],[121.295056,23.714152]]],[[[121.297211,23.714356],[121.296914,23.714624],[121.297008,23.714896],[121.297304,23.714809],[121.297305,23.714718],[121.297696,23.714813],[121.297695,23.714903],[121.298185,23.714909],[121.298284,23.71482],[121.29829,23.714368],[121.297997,23.714275],[121.297707,23.71391],[121.297511,23.713908],[121.297412,23.713997],[121.297507,23.714269],[121.297211,23.714356]],[[121.297507,23.714269],[121.297604,23.714361],[121.297506,23.714359],[121.297507,23.714269]],[[121.297698,23.714632],[121.2976,23.714631],[121.297602,23.714451],[121.2977,23.714452],[121.297698,23.714632]]],[[[121.28994,23.71545],[121.290041,23.71518],[121.290337,23.715093],[121.29034,23.714822],[121.290243,23.714731],[121.289458,23.714812],[121.289358,23.714902],[121.289453,23.715174],[121.289254,23.715352],[121.289351,23.715443],[121.289647,23.715356],[121.289742,23.715538],[121.28994,23.71545]]],[[[121.298827,23.718347],[121.29952,23.717813],[121.299722,23.717364],[121.300118,23.717097],[121.300123,23.716736],[121.300025,23.716735],[121.300126,23.716465],[121.300224,23.716466],[121.300131,23.716104],[121.299834,23.716281],[121.299726,23.717093],[121.299428,23.71736],[121.299325,23.717721],[121.29903,23.717808],[121.298731,23.718165],[121.298827,23.718347]]],[[[121.29823,23.718973],[121.298229,23.719063],[121.298425,23.719065],[121.298426,23.718975],[121.298719,23.719068],[121.298924,23.718439],[121.298729,23.718346],[121.298231,23.718882],[121.298035,23.71888],[121.298138,23.71852],[121.297943,23.718428],[121.297545,23.718875],[121.297641,23.719056],[121.29823,23.718973]]],[[[121.303382,23.722551],[121.303284,23.72255],[121.303191,23.722188],[121.302895,23.722275],[121.302893,23.722455],[121.303088,23.722548],[121.303182,23.72282],[121.30338,23.722732],[121.303382,23.722551]]],[[[121.302984,23.722998],[121.302688,23.723085],[121.302687,23.723175],[121.302394,23.723082],[121.302095,23.72344],[121.30229,23.723532],[121.30249,23.723264],[121.302686,23.723266],[121.30288,23.723448],[121.302876,23.723719],[121.303167,23.723993],[121.303363,23.723996],[121.303565,23.723546],[121.303176,23.723271],[121.303279,23.722911],[121.303084,23.722819],[121.302984,23.722998]]]]}},{"type":"Feature","properties":{"kind":"bare_dam","month":"2018-06","area_ha":9.4},"geometry":{"type":"MultiPolygon","coordinates":[[[[121.298109,23.690527],[121.298307,23.690349],[121.29831,23.690168],[121.298018,23.689984],[121.297521,23.690521],[121.297618,23.690612],[121.298109,23.690527]]],[[[121.300755,23.690646],[121.300853,23.690648],[121.300856,23.690377],[121.300758,23.690376],[121.300862,23.689925],[121.300276,23.689738],[121.300175,23.690008],[121.299978,23.690096],[121.300171,23.690279],[121.30007,23.690549],[121.300457,23.690914],[121.300653,23.690916],[121.300755,23.690646]]],[[[121.299372,23.691444],[121.299469,23.691535],[121.299862,23.691449],[121.299671,23.691086],[121.299376,23.691083],[121.299183,23.6909],[121.299185,23.69072],[121.299383,23.690541],[121.29958,23.690543],[121.299675,23.690725],[121.299872,23.690637],[121.299876,23.690366],[121.299585,23.690092],[121.299192,23.690178],[121.299093,23.690267],[121.299187,23.690539],[121.298989,23.690717],[121.298596,23.690803],[121.298789,23.690986],[121.298786,23.691257],[121.299173,23.691622],[121.299372,23.691444]]],[[[121.299731,23.693976],[121.300024,23.69407],[121.300124,23.69389],[121.300028,23.693799],[121.299928,23.693888],[121.299537,23.693794],[121.299249,23.693339],[121.298853,23.693605],[121.299435,23.694154],[121.299631,23.694156],[121.299731,23.693976]]],[[[121.298704,23.697577],[121.298998,23.69758],[121.299196,23.697402],[121.299199,23.697221],[121.299494,23.697134],[121.299496,23.696954],[121.2994,23.696862],[121.299202,23.69695],[121.299206,23.69668],[121.298914,23.696496],[121.298822,23.696043],[121.299019,23.695955],[121.299024,23.695594],[121.298829,23.695501],[121.298831,23.695321],[121.298541,23.695047],[121.298245,23.695134],[121.298252,23.694592],[121.298155,23.694501],[121.298452,23.694323],[121.298457,23.693962],[121.298262,23.69387],[121.297865,23.694227],[121.298059,23.694409],[121.298056,23.69459],[121.297858,23.694768],[121.297854,23.695039],[121.297561,23.694946],[121.297461,23.695125],[121.297754,23.695219],[121.297753,23.695309],[121.298146,23.695223],[121.29834,23.695406],[121.298335,23.695767],[121.297939,23.696033],[121.298036,23.696125],[121.297935,23.696395],[121.298033,23.696396],[121.298125,23.696848],[121.298323,23.69667],[121.298716,23.696674],[121.298909,23.696857],[121.298907,23.697037],[121.298511,23.697304],[121.298409,23.697664],[121.298604,23.697756],[121.298704,23.697577]],[[121.298723,23.696132],[121.298626,23.696041],[121.298724,23.696042],[121.298723,23.696132]]],[[[121.301051,23.698054],[121.300662,23.697779],[121.300366,23.697956],[121.300559,23.698229],[121.300951,23.698234],[121.301051,23.698054]]],[[[121.295843,23.6989],[121.296332,23.698996],[121.296434,23.698726],[121.296044,23.698541],[121.296043,23.698631],[121.295748,23.698628],[121.29545,23.698986],[121.295743,23.699079],[121.295843,23.6989]]],[[[121.299062,23.7002],[121.298964,23.700199],[121.298775,23.699655],[121.298482,23.699561],[121.298386,23.699379],[121.298091,23.699467],[121.297694,23.699823],[121.29798,23.700459],[121.299157,23.700472],[121.299062,23.7002]]],[[[121.310784,23.688499],[121.31098,23.688501],[121.311179,23.688322],[121.311084,23.688051],[121.310393,23.688404],[121.310488,23.688676],[121.310783,23.688589],[121.310784,23.688499]]],[[[121.308494,23.691183],[121.308198,23.69136],[121.30839,23.691633],[121.308688,23.691365],[121.308983,23.691278],[121.308987,23.691008],[121.308889,23.691006],[121.30899,23.690737],[121.308892,23.690736],[121.308896,23.690465],[121.308798,23.690464],[121.308704,23.690101],[121.308507,23.69019],[121.308505,23.69037],[121.308603,23.690371],[121.308501,23.690641],[121.308696,23.690733],[121.308494,23.691183]],[[121.308694,23.690914],[121.308791,23.691005],[121.308693,23.691004],[121.308694,23.690914]]],[[[121.305644,23.691693],[121.305939,23.691606],[121.305748,23.691243],[121.305254,23.691508],[121.305348,23.691871],[121.305544,23.691873],[121.305644,23.691693]]],[[[121.303772,23.692395],[121.303673,23.692484],[121.30377,23.692576],[121.303666,23.693026],[121.303859,23.693209],[121.304056,23.693211],[121.304155,23.693122],[121.304059,23.69294],[121.304258,23.692762],[121.303772,23.692395]],[[121.303863,23.692938],[121.303864,23.692848],[121.30406,23.69285],[121.304059,23.69294],[121.303863,23.692938]],[[121.303966,23.692578],[121.303866,23.692667],[121.303868,23.692577],[121.303966,23.692578]]],[[[121.303443,23.695101],[121.303248,23.695008],[121.303447,23.694739],[121.302958,23.694644],[121.302859,23.694733],[121.302955,23.694915],[121.302759,23.694913],[121.302559,23.695181],[121.302656,23.695273],[121.302951,23.695186],[121.303047,23.695367],[121.303341,23.69537],[121.303443,23.695101]]],[[[121.304417,23.695563],[121.304716,23.695205],[121.304227,23.695109],[121.304033,23.694926],[121.303934,23.695016],[121.304031,23.695107],[121.303928,23.695467],[121.304122,23.69565],[121.304417,23.695563]]],[[[121.301247,23.698056],[121.301645,23.697609],[121.301452,23.697427],[121.300962,23.697331],[121.300861,23.697601],[121.301154,23.697694],[121.301052,23.697964],[121.301247,23.698056]]]]}}]}