{"type":"FeatureCollection","features":[{"type":"Feature","properties":{"kind":"bare_slide","month":"2018-12","area_ha":34.07},"geometry":{"type":"MultiPolygon","coordinates":[[[[121.294462,23.714597],[121.294658,23.714599],[121.294961,23.71397],[121.295157,23.713972],[121.295356,23.713704],[121.295553,23.713706],[121.295751,23.713527],[121.295755,23.713257],[121.295951,23.713259],[121.296149,23.71308],[121.296154,23.712719],[121.296252,23.71272],[121.296157,23.712448],[121.295961,23.712446],[121.295858,23.712806],[121.295166,23.71325],[121.295261,23.713522],[121.295062,23.7137],[121.294669,23.713786],[121.294371,23.714054],[121.294368,23.714325],[121.29407,23.714592],[121.294264,23.714775],[121.294462,23.714597]]],[[[121.298283,23.71491],[121.298188,23.714638],[121.298286,23.714639],[121.29819,23.714548],[121.298195,23.714096],[121.297905,23.713822],[121.297709,23.71382],[121.297711,23.713639],[121.297516,23.713547],[121.297417,23.713636],[121.297411,23.714088],[121.296914,23.714624],[121.297011,23.714715],[121.297305,23.714718],[121.297306,23.714628],[121.297697,23.714723],[121.29789,23.714996],[121.298184,23.714999],[121.298283,23.71491]]],[[[121.287982,23.715157],[121.287788,23.714975],[121.287688,23.715154],[121.287883,23.715247],[121.287982,23.715157]]],[[[121.289127,23.717608],[121.289423,23.717431],[121.289525,23.717161],[121.289622,23.717252],[121.289819,23.717164],[121.289722,23.717073],[121.289825,23.716713],[121.290119,23.716716],[121.290121,23.716626],[121.290416,23.716539],[121.290222,23.716356],[121.290324,23.716086],[121.290227,23.715995],[121.289931,23.716082],[121.290032,23.715902],[121.289643,23.715627],[121.289942,23.715269],[121.290138,23.715271],[121.290436,23.715004],[121.290244,23.714641],[121.289753,23.714725],[121.289752,23.714816],[121.289361,23.714721],[121.28936,23.714811],[121.288867,23.714987],[121.28906,23.71526],[121.289256,23.715262],[121.289252,23.715533],[121.289447,23.715625],[121.289342,23.716166],[121.288755,23.716069],[121.288754,23.716159],[121.288262,23.716244],[121.287971,23.71597],[121.288075,23.71552],[121.288173,23.715521],[121.287981,23.715248],[121.287584,23.715604],[121.287092,23.715689],[121.287188,23.715871],[121.287384,23.715873],[121.28738,23.716234],[121.28767,23.716508],[121.287867,23.71642],[121.287963,23.716602],[121.288257,23.716605],[121.288451,23.716788],[121.288448,23.717059],[121.288643,23.717151],[121.28864,23.717332],[121.288542,23.717331],[121.288637,23.717603],[121.289127,23.717608]],[[121.289038,23.716885],[121.289135,23.716976],[121.289037,23.716975],[121.289038,23.716885]],[[121.289138,23.716795],[121.289432,23.716799],[121.289431,23.716889],[121.289136,23.716886],[121.289138,23.716795]],[[121.289438,23.716347],[121.289435,23.716528],[121.289337,23.716527],[121.289241,23.716345],[121.289438,23.716347]],[[121.289831,23.716261],[121.289928,23.716353],[121.28983,23.716352],[121.289831,23.716261]],[[121.28993,23.716172],[121.290126,23.716174],[121.290125,23.716265],[121.289929,23.716262],[121.28993,23.716172]],[[121.287873,23.715969],[121.287776,23.715877],[121.287875,23.715879],[121.287873,23.715969]],[[121.289749,23.714996],[121.289653,23.714905],[121.289751,23.714906],[121.289749,23.714996]]],[[[121.292557,23.717827],[121.293349,23.717203],[121.293352,23.717023],[121.293254,23.717022],[121.293354,23.716842],[121.293061,23.716749],[121.29306,23.716839],[121.29247,23.716923],[121.292473,23.716742],[121.292278,23.71665],[121.291977,23.717188],[121.292268,23.717372],[121.292361,23.717824],[121.292557,23.717827]]],[[[121.290792,23.717807],[121.290395,23.718164],[121.290001,23.71825],[121.290097,23.718431],[121.290293,23.718434],[121.290193,23.718613],[121.290483,23.718887],[121.290681,23.718799],[121.290586,23.718527],[121.290683,23.718619],[121.291173,23.718624],[121.291172,23.718714],[121.291566,23.718628],[121.291372,23.718446],[121.29157,23.718267],[121.291476,23.717995],[121.291673,23.717907],[121.29148,23.717634],[121.29158,23.717545],[121.291873,23.717638],[121.292072,23.71737],[121.291877,23.717277],[121.291777,23.717457],[121.291581,23.717455],[121.291582,23.717364],[121.291287,23.717451],[121.291088,23.71763],[121.291184,23.717811],[121.29138,23.717814],[121.29128,23.717993],[121.290792,23.717807]],[[121.29128,23.717993],[121.291376,23.718084],[121.291278,23.718083],[121.29128,23.717993]],[[121.290391,23.718435],[121.29049,23.718346],[121.290489,23.718436],[121.290391,23.718435]]],[[[121.283109,23.720341],[121.283406,23.720073],[121.28361,23.719534],[121.283513,23.719442],[121.283217,23.719529],[121.28332,23.719169],[121.283125,23.719077],[121.283024,23.719346],[121.282825,23.719525],[121.282629,23.719523],[121.282429,23.719791],[121.282623,23.719974],[121.282819,23.719976],[121.283018,23.719798],[121.282914,23.720248],[121.283109,23.720341]]],[[[121.297031,23.720675],[121.29713,23.720586],[121.297135,23.720225],[121.297037,23.720224],[121.297143,23.719593],[121.29685,23.719499],[121.296746,23.71995],[121.296449,23.720217],[121.296445,23.720488],[121.296639,23.720671],[121.296738,23.720582],[121.297031,23.720675]]],[[[121.296342,23.720848],[121.296437,23.72112],[121.29624,23.721208],[121.296242,23.721028],[121.296047,23.720935],[121.295945,23.721205],[121.296236,23.721479],[121.296335,23.72139],[121.296628,23.721483],[121.29673,23.721214],[121.296828,23.721215],[121.296832,23.720944],[121.296733,23.720943],[121.296639,23.720671],[121.296342,23.720848]]],[[[121.29212,23.721253],[121.292217,23.721344],[121.29261,23.721259],[121.292511,23.721348],[121.292705,23.72153],[121.292698,23.722072],[121.2925,23.72216],[121.292594,23.722523],[121.292889,23.722435],[121.292985,23.722617],[121.293181,23.722619],[121.293677,23.722173],[121.293585,23.721721],[121.292907,23.721081],[121.292917,23.720269],[121.29282,23.720177],[121.292523,23.720445],[121.292416,23.721076],[121.29222,23.721074],[121.29212,23.721253]],[[121.292416,23.721076],[121.292513,23.721167],[121.292415,23.721166],[121.292416,23.721076]]],[[[121.286703,23.722999],[121.286804,23.722729],[121.286902,23.72273],[121.286906,23.72246],[121.287104,23.722281],[121.286909,23.722189],[121.286711,23.722367],[121.286713,23.722187],[121.286518,23.722094],[121.286417,23.722364],[121.286319,23.722363],[121.286215,23.722813],[121.286606,23.722908],[121.286507,23.722997],[121.286602,23.723179],[121.2868,23.723091],[121.286703,23.722999]]],[[[121.29579,23.725628],[121.29599,23.725359],[121.296382,23.725364],[121.296576,23.725546],[121.296677,23.725277],[121.296974,23.725099],[121.296976,23.724919],[121.297175,23.72474],[121.29737,23.724833],[121.297866,23.724387],[121.297869,23.724116],[121.297674,23.724023],[121.297079,23.724559],[121.296789,23.724194],[121.296987,23.724106],[121.29699,23.723835],[121.297189,23.723657],[121.296798,23.723562],[121.2968,23.723382],[121.296605,23.723289],[121.296506,23.723378],[121.2965,23.72383],[121.296202,23.724097],[121.295809,23.724183],[121.295708,23.724363],[121.295414,23.72436],[121.295413,23.72445],[121.295019,23.724536],[121.294729,23.724262],[121.294731,23.724081],[121.29493,23.723903],[121.294638,23.723719],[121.294641,23.723448],[121.294543,23.723447],[121.294648,23.722906],[121.294356,23.722723],[121.294458,23.722453],[121.294263,23.72236],[121.294162,23.72263],[121.294063,23.722629],[121.294257,23.722812],[121.294253,23.723173],[121.293962,23.722899],[121.293765,23.722987],[121.293854,23.72362],[121.294049,23.723712],[121.294047,23.723893],[121.29365,23.72425],[121.293454,23.724248],[121.29326,23.724065],[121.29306,23.724334],[121.293254,23.724516],[121.293646,23.724521],[121.29384,23.724703],[121.29394,23.724614],[121.293846,23.724252],[121.294045,23.724074],[121.294241,23.724076],[121.294822,23.724624],[121.294915,23.724986],[121.295307,23.725081],[121.295304,23.725261],[121.295206,23.72526],[121.295301,23.725532],[121.29579,23.725628]],[[121.296386,23.725002],[121.296583,23.725005],[121.29658,23.725185],[121.296384,23.725183],[121.296386,23.725002]],[[121.295507,23.724722],[121.295607,23.724633],[121.295605,23.724723],[121.295507,23.724722]]],[[[121.299507,23.703726],[121.299215,23.703542],[121.299123,23.70309],[121.299025,23.703089],[121.299029,23.702728],[121.298931,23.702727],[121.298948,23.701463],[121.299047,23.701373],[121.298753,23.70137],[121.298657,23.701188],[121.298069,23.701182],[121.298066,23.701363],[121.29826,23.701545],[121.298256,23.701906],[121.298354,23.701907],[121.298351,23.702088],[121.298153,23.702266],[121.298251,23.702268],[121.298247,23.702538],[121.298442,23.702631],[121.298341,23.702901],[121.298534,23.703083],[121.298531,23.703354],[121.298628,23.703446],[121.298923,23.703359],[121.298823,23.703538],[121.299213,23.703723],[121.299208,23.704084],[121.29911,23.704083],[121.299206,23.704265],[121.299501,23.704178],[121.299507,23.703726]],[[121.298637,23.702723],[121.29854,23.702632],[121.298638,23.702633],[121.298637,23.702723]]],[[[121.298886,23.706248],[121.29899,23.705797],[121.299088,23.705798],[121.299092,23.705437],[121.29919,23.705438],[121.299093,23.705347],[121.2992,23.704716],[121.299298,23.704717],[121.299203,23.704445],[121.299006,23.704533],[121.298899,23.705255],[121.298505,23.705341],[121.298405,23.70552],[121.297913,23.705605],[121.297715,23.705783],[121.297713,23.705964],[121.297906,23.706147],[121.298104,23.706059],[121.298296,23.706332],[121.298492,23.706334],[121.298587,23.706606],[121.298784,23.706517],[121.298788,23.706247],[121.298886,23.706248]]],[[[121.300332,23.70816],[121.300432,23.70798],[121.300142,23.707706],[121.299946,23.707704],[121.299843,23.708064],[121.300133,23.708338],[121.30033,23.70834],[121.300429,23.708251],[121.300332,23.70816]]],[[[121.301015,23.708438],[121.301311,23.708261],[121.301314,23.70808],[121.30112,23.707898],[121.300826,23.707894],[121.300827,23.707804],[121.300433,23.70789],[121.300529,23.708072],[121.30092,23.708166],[121.301015,23.708438]]],[[[121.301273,23.71124],[121.301178,23.710968],[121.300789,23.710693],[121.300792,23.710513],[121.300111,23.710054],[121.300018,23.709692],[121.299239,23.709231],[121.299139,23.709411],[121.299624,23.709778],[121.299621,23.710048],[121.299914,23.710142],[121.3003,23.710598],[121.300593,23.710691],[121.300589,23.711052],[121.30098,23.711147],[121.301075,23.711329],[121.301273,23.71124]]],[[[121.301522,23.714675],[121.301622,23.714585],[121.301525,23.714494],[121.301531,23.714043],[121.301629,23.714044],[121.301733,23.713593],[121.30193,23.713505],[121.301933,23.713234],[121.302131,23.713146],[121.302133,23.712966],[121.301843,23.712601],[121.301647,23.712599],[121.301555,23.712146],[121.301263,23.711963],[121.301162,23.712232],[121.300865,23.71241],[121.30096,23.712682],[121.300761,23.71286],[121.300859,23.712861],[121.300854,23.713313],[121.300952,23.713314],[121.301045,23.713676],[121.30124,23.713768],[121.301235,23.71413],[121.301137,23.714128],[121.301034,23.714489],[121.301228,23.714671],[121.301327,23.714582],[121.301522,23.714675]]],[[[121.29823,23.718973],[121.298329,23.718883],[121.298721,23.718978],[121.29882,23.718889],[121.298826,23.718437],[121.298631,23.718345],[121.298233,23.718792],[121.298036,23.71879],[121.29804,23.718519],[121.298238,23.718341],[121.298045,23.718158],[121.297943,23.718428],[121.297647,23.718605],[121.297643,23.718876],[121.29774,23.718967],[121.298231,23.718882],[121.29823,23.718973]]],[[[121.302122,23.721363],[121.301936,23.720639],[121.302133,23.720551],[121.302136,23.72028],[121.302234,23.720281],[121.302142,23.719828],[121.301746,23.720095],[121.30184,23.720457],[121.301542,23.720725],[121.301633,23.721268],[121.301926,23.721361],[121.301925,23.721451],[121.302122,23.721363]]],[[[121.304525,23.725182],[121.304137,23.724817],[121.304141,23.724546],[121.304044,23.724454],[121.303847,23.724543],[121.303654,23.72427],[121.303361,23.724176],[121.303467,23.723545],[121.303565,23.723546],[121.303575,23.722824],[121.303671,23.722915],[121.303869,23.722827],[121.303676,23.722554],[121.30407,23.722468],[121.30417,23.722289],[121.304073,23.722197],[121.303092,23.722187],[121.303094,23.722096],[121.302798,23.722183],[121.302314,23.721727],[121.302213,23.721906],[121.302504,23.72218],[121.302597,23.722542],[121.302795,23.722454],[121.302797,23.722274],[121.302993,23.722276],[121.302894,23.722365],[121.302985,23.722908],[121.302789,23.722906],[121.302498,23.722632],[121.302395,23.722992],[121.302688,23.723085],[121.303076,23.723451],[121.303064,23.724353],[121.303258,23.724536],[121.303554,23.724449],[121.303648,23.724721],[121.303843,23.724813],[121.30384,23.725084],[121.30413,23.725358],[121.304423,23.725452],[121.304523,23.725363],[121.304525,23.725182]]],[[[121.301965,23.725967],[121.302163,23.725788],[121.302165,23.725608],[121.302362,23.72561],[121.30236,23.7257],[121.302558,23.725612],[121.302465,23.72516],[121.302663,23.725071],[121.302767,23.724621],[121.302865,23.724622],[121.302773,23.72417],[121.302575,23.724258],[121.302372,23.724797],[121.302273,23.724887],[121.301882,23.724792],[121.301783,23.724881],[121.301879,23.724973],[121.301777,23.725333],[121.301581,23.72533],[121.301382,23.725509],[121.30138,23.725689],[121.301477,23.725781],[121.301674,23.725693],[121.301768,23.725965],[121.301965,23.725967]]],[[[121.306252,23.728181],[121.30596,23.727997],[121.305963,23.727726],[121.305673,23.727452],[121.305675,23.727272],[121.305287,23.726906],[121.305091,23.726904],[121.304995,23.726722],[121.304799,23.72672],[121.304605,23.726538],[121.304714,23.725726],[121.30452,23.725543],[121.304324,23.725541],[121.304126,23.72572],[121.304119,23.726261],[121.304217,23.726262],[121.304212,23.726624],[121.30431,23.726625],[121.304211,23.726714],[121.304204,23.727256],[121.304398,23.727438],[121.30489,23.727263],[121.305181,23.727537],[121.305179,23.727718],[121.305374,23.72781],[121.305367,23.728352],[121.305464,23.728443],[121.306149,23.728541],[121.306248,23.728452],[121.306252,23.728181]]],[[[121.303215,23.727877],[121.302924,23.727603],[121.302335,23.727687],[121.302832,23.72715],[121.302637,23.727058],[121.302639,23.726877],[121.302446,23.726694],[121.302449,23.726424],[121.302254,23.726331],[121.301956,23.726599],[121.301954,23.726779],[121.302442,23.726965],[121.302537,23.727237],[121.302146,23.727143],[121.301758,23.726777],[121.301656,23.727047],[121.301558,23.727046],[121.301654,23.727228],[121.301948,23.727231],[121.301944,23.727592],[121.301745,23.72777],[121.301842,23.727862],[121.302137,23.727775],[121.302233,23.727956],[121.303116,23.727966],[121.303215,23.727877]]]]}},{"type":"Feature","properties":{"kind":"bare_dam","month":"2018-12","area_ha":8.65},"geometry":{"type":"MultiPolygon","coordinates":[[[[121.299682,23.690183],[121.299683,23.690093],[121.300074,23.690187],[121.300274,23.689919],[121.30008,23.689736],[121.2991,23.689725],[121.299197,23.689817],[121.299194,23.689997],[121.298997,23.690085],[121.299093,23.690267],[121.299682,23.690183]]],[[[121.299569,23.691356],[121.299668,23.691267],[121.299574,23.690995],[121.299965,23.691089],[121.30006,23.691271],[121.300256,23.691273],[121.300258,23.691183],[121.300649,23.691277],[121.300848,23.691009],[121.300555,23.690915],[121.300556,23.690825],[121.300261,23.690912],[121.300165,23.69073],[121.300066,23.69082],[121.299479,23.690723],[121.29948,23.690632],[121.299187,23.690539],[121.299093,23.690267],[121.298896,23.690355],[121.298411,23.689898],[121.298018,23.689984],[121.297621,23.690341],[121.297615,23.690793],[121.297809,23.690975],[121.298104,23.690888],[121.298205,23.690709],[121.298499,23.690712],[121.298498,23.690802],[121.299087,23.690718],[121.299378,23.690993],[121.299278,23.691082],[121.299083,23.690989],[121.298982,23.691259],[121.299176,23.691442],[121.299569,23.691356]]],[[[121.299741,23.693254],[121.299935,23.693346],[121.300037,23.693077],[121.299843,23.692894],[121.299547,23.693071],[121.298869,23.692432],[121.299068,23.692163],[121.298875,23.69198],[121.298678,23.691978],[121.298577,23.692248],[121.298479,23.692247],[121.298568,23.69297],[121.298859,23.693154],[121.299157,23.692886],[121.299351,23.693069],[121.299444,23.693431],[121.29964,23.693434],[121.299741,23.693254]],[[121.298768,23.692611],[121.298671,23.69252],[121.298769,23.692521],[121.298768,23.692611]]],[[[121.300617,23.693715],[121.300326,23.693441],[121.300129,23.693529],[121.300127,23.69371],[121.300321,23.693892],[121.300517,23.693895],[121.300617,23.693715]]],[[[121.299633,23.693975],[121.29983,23.693887],[121.299735,23.693705],[121.299537,23.693794],[121.299345,23.693521],[121.299048,23.693698],[121.299143,23.69397],[121.299535,23.693974],[121.299536,23.693884],[121.299633,23.693975]]],[[[121.298316,23.697212],[121.298713,23.696855],[121.29842,23.696761],[121.298522,23.696491],[121.298327,23.696399],[121.298129,23.696577],[121.298124,23.696939],[121.298222,23.69694],[121.298316,23.697212]]],[[[121.298863,23.700468],[121.299062,23.7002],[121.298965,23.700108],[121.298768,23.700196],[121.29877,23.700016],[121.298672,23.700015],[121.29878,23.699294],[121.298978,23.699115],[121.299083,23.698574],[121.29938,23.698397],[121.299382,23.698217],[121.29958,23.698038],[121.299485,23.697856],[121.299286,23.698035],[121.298894,23.698031],[121.298596,23.698298],[121.298594,23.698479],[121.298397,23.698567],[121.298395,23.698747],[121.298686,23.698931],[121.298386,23.699379],[121.298091,23.699467],[121.297897,23.699284],[121.297798,23.699373],[121.297894,23.699555],[121.297698,23.699553],[121.297699,23.699462],[121.297502,23.69955],[121.297597,23.699732],[121.29789,23.699826],[121.29798,23.700459],[121.298863,23.700468]]],[[[121.311284,23.687782],[121.311778,23.687426],[121.311781,23.687245],[121.311391,23.687061],[121.311291,23.68724],[121.311484,23.687423],[121.311288,23.687421],[121.311187,23.68769],[121.311284,23.687782]]],[[[121.302217,23.691295],[121.302118,23.691384],[121.301925,23.691111],[121.301533,23.691107],[121.301534,23.691016],[121.301337,23.691104],[121.301334,23.691375],[121.301527,23.691558],[121.301627,23.691469],[121.301921,23.691472],[121.30192,23.691562],[121.302215,23.691475],[121.302312,23.691567],[121.302412,23.691387],[121.302217,23.691295]]],[[[121.302605,23.69166],[121.302705,23.691481],[121.30251,23.691388],[121.30241,23.691568],[121.302605,23.69166]]],[[[121.303777,23.692034],[121.303873,23.692125],[121.304364,23.692131],[121.304365,23.692041],[121.304659,23.692044],[121.304759,23.691864],[121.304663,23.691773],[121.304466,23.691771],[121.304465,23.691861],[121.304172,23.691768],[121.304171,23.691858],[121.303877,23.691855],[121.303876,23.691945],[121.303485,23.69185],[121.303486,23.69176],[121.303191,23.691847],[121.303578,23.692213],[121.303777,23.692034]]],[[[121.301104,23.693991],[121.300813,23.693717],[121.300616,23.693805],[121.300807,23.694169],[121.301003,23.694171],[121.301104,23.693991]]],[[[121.304819,23.694845],[121.305216,23.694488],[121.305023,23.694215],[121.305317,23.694218],[121.305615,23.693951],[121.305519,23.693769],[121.305224,23.693856],[121.305124,23.694035],[121.304927,23.694033],[121.304431,23.694479],[121.30443,23.69457],[121.304819,23.694845]],[[121.304625,23.694662],[121.304724,23.694573],[121.304723,23.694663],[121.304625,23.694662]]],[[[121.302342,23.696804],[121.302831,23.6969],[121.30303,23.696721],[121.302836,23.696539],[121.302838,23.696358],[121.303034,23.69636],[121.303233,23.696182],[121.303236,23.695911],[121.303334,23.695912],[121.303239,23.69573],[121.303042,23.695728],[121.302842,23.696087],[121.302647,23.695995],[121.302448,23.696173],[121.302445,23.696444],[121.302148,23.696622],[121.302047,23.696891],[121.302242,23.696984],[121.302342,23.696804]],[[121.302738,23.696538],[121.302641,23.696446],[121.302739,23.696447],[121.302738,23.696538]]]]}},{"type":"Feature","properties":{"kind":"water","month":"2018-12","area_ha":0.25},"geometry":{"type":"MultiPolygon","coordinates":[[[[121.30869,23.691185],[121.308793,23.690825],[121.308695,23.690824],[121.308699,23.690553],[121.3086,23.690552],[121.308592,23.691184],[121.30869,23.691185]]],[[[121.308592,23.691184],[121.308494,23.691183],[121.308492,23.691363],[121.30859,23.691364],[121.308592,23.691184]]],[[[121.303826,23.695827],[121.304122,23.69565],[121.304126,23.695379],[121.30393,23.695377],[121.303632,23.695644],[121.303826,23.695827]]]]}}]}