{"type":"FeatureCollection","features":[{"type":"Feature","properties":{"kind":"bare_slide","month":"2018-03","area_ha":48.58},"geometry":{"type":"MultiPolygon","coordinates":[[[[121.294276,23.706287],[121.294278,23.706107],[121.294085,23.705924],[121.294381,23.705747],[121.294386,23.705385],[121.293897,23.70529],[121.293698,23.705468],[121.293695,23.705739],[121.293793,23.70574],[121.293694,23.705829],[121.29379,23.705921],[121.293687,23.706371],[121.29398,23.706465],[121.293981,23.706374],[121.294276,23.706287]],[[121.293887,23.706012],[121.293987,23.705923],[121.293985,23.706013],[121.293887,23.706012]]],[[[121.297613,23.706053],[121.297516,23.705962],[121.297319,23.70605],[121.297414,23.706322],[121.297611,23.706234],[121.297613,23.706053]]],[[[121.293965,23.715133],[121.294261,23.714956],[121.293973,23.714501],[121.294169,23.714503],[121.294265,23.714685],[121.294559,23.714688],[121.29456,23.714598],[121.294856,23.714511],[121.294859,23.71424],[121.295056,23.714152],[121.295059,23.713971],[121.29555,23.713886],[121.295749,23.713708],[121.295653,23.713526],[121.295949,23.713349],[121.296052,23.712989],[121.29625,23.712901],[121.296255,23.712449],[121.296158,23.712358],[121.295961,23.712446],[121.295957,23.712807],[121.295659,23.713075],[121.295463,23.713073],[121.295362,23.713252],[121.295068,23.713249],[121.295067,23.713339],[121.294872,23.713247],[121.293979,23.71405],[121.293777,23.714499],[121.293384,23.714585],[121.293283,23.714764],[121.293186,23.714673],[121.292989,23.714761],[121.293085,23.714943],[121.293282,23.714855],[121.293378,23.715036],[121.293773,23.71477],[121.293965,23.715133]],[[121.293773,23.71477],[121.293873,23.714681],[121.293871,23.714771],[121.293773,23.71477]]],[[[121.297295,23.715441],[121.297298,23.71526],[121.297103,23.715168],[121.297202,23.715079],[121.297107,23.714807],[121.297697,23.714723],[121.297793,23.714904],[121.297989,23.714907],[121.29799,23.714816],[121.298383,23.71473],[121.298291,23.714278],[121.297804,23.714002],[121.297712,23.713549],[121.297515,23.713637],[121.297409,23.714268],[121.296914,23.714624],[121.297008,23.714896],[121.296811,23.714984],[121.296809,23.715164],[121.297002,23.715347],[121.296903,23.715436],[121.296707,23.715434],[121.296611,23.715253],[121.296316,23.71534],[121.296509,23.715613],[121.296902,23.715527],[121.296998,23.715708],[121.297295,23.715441]],[[121.297601,23.714541],[121.2977,23.714452],[121.297699,23.714542],[121.297601,23.714541]]],[[[121.290614,23.71636],[121.29101,23.716094],[121.291205,23.716186],[121.291308,23.715826],[121.291902,23.715381],[121.291611,23.715107],[121.291909,23.71484],[121.291813,23.714658],[121.291519,23.714655],[121.29152,23.714564],[121.291323,23.714652],[121.291321,23.714833],[121.291515,23.715016],[121.291412,23.715376],[121.291214,23.715464],[121.291212,23.715645],[121.291016,23.715642],[121.29052,23.716088],[121.290614,23.71636]]],[[[121.289349,23.715624],[121.289447,23.715625],[121.289441,23.716076],[121.289342,23.716166],[121.289048,23.716162],[121.28905,23.715982],[121.289148,23.715983],[121.289056,23.71553],[121.288762,23.715527],[121.288563,23.715706],[121.288658,23.715977],[121.288757,23.715888],[121.288952,23.715981],[121.288848,23.716431],[121.288651,23.716519],[121.288745,23.716791],[121.288941,23.716793],[121.289042,23.716614],[121.289336,23.716617],[121.289337,23.716527],[121.289629,23.716711],[121.289828,23.716532],[121.289831,23.716261],[121.290522,23.715908],[121.290232,23.715634],[121.289839,23.715629],[121.289842,23.715449],[121.290139,23.715181],[121.290435,23.715094],[121.290438,23.714823],[121.290145,23.71473],[121.290146,23.714639],[121.28936,23.714811],[121.289161,23.71499],[121.289159,23.71517],[121.289354,23.715263],[121.289254,23.715352],[121.289349,23.715624]],[[121.289435,23.716528],[121.289534,23.716439],[121.289533,23.716529],[121.289435,23.716528]],[[121.289355,23.715173],[121.289551,23.715175],[121.28955,23.715265],[121.289354,23.715263],[121.289355,23.715173]]],[[[121.284734,23.716024],[121.285024,23.716389],[121.285221,23.716301],[121.285223,23.71612],[121.285518,23.716123],[121.285417,23.716303],[121.285612,23.716395],[121.285714,23.716125],[121.285812,23.716127],[121.28572,23.715674],[121.285918,23.715496],[121.286211,23.715589],[121.286312,23.71541],[121.286215,23.715318],[121.286115,23.715408],[121.285724,23.715313],[121.285624,23.715492],[121.285329,23.715579],[121.285227,23.715849],[121.284933,23.715846],[121.284734,23.716024]],[[121.285227,23.715849],[121.285324,23.715941],[121.285226,23.715939],[121.285227,23.715849]]],[[[121.29177,23.717998],[121.291578,23.717635],[121.29197,23.71773],[121.292071,23.71746],[121.292368,23.717283],[121.29237,23.717102],[121.292468,23.717103],[121.292374,23.716831],[121.292176,23.716919],[121.291974,23.717369],[121.291385,23.717452],[121.291086,23.71781],[121.291379,23.717904],[121.291475,23.718086],[121.291671,23.718088],[121.29177,23.717998]]],[[[121.285007,23.717653],[121.285205,23.717565],[121.285013,23.717201],[121.284914,23.717291],[121.284718,23.717288],[121.284719,23.717198],[121.283934,23.717189],[121.283835,23.717279],[121.28432,23.717735],[121.284713,23.717649],[121.284714,23.717559],[121.285008,23.717562],[121.285007,23.717653]]],[[[121.287643,23.718585],[121.28804,23.718228],[121.288431,23.718323],[121.28863,23.718144],[121.288732,23.717784],[121.288537,23.717692],[121.288437,23.717871],[121.287553,23.717952],[121.287452,23.718222],[121.286957,23.718577],[121.286954,23.718758],[121.287342,23.719123],[121.287538,23.719126],[121.287637,23.719036],[121.287643,23.718585]]],[[[121.282911,23.720429],[121.282914,23.720248],[121.283209,23.720161],[121.284102,23.719358],[121.284396,23.719362],[121.284595,23.719183],[121.284791,23.719185],[121.28479,23.719276],[121.284987,23.719188],[121.284891,23.719006],[121.284596,23.719093],[121.283821,23.718362],[121.283727,23.71809],[121.28343,23.718267],[121.283422,23.718899],[121.283714,23.719083],[121.283611,23.719443],[121.283415,23.719441],[121.283418,23.71917],[121.283223,23.719078],[121.282925,23.719345],[121.282923,23.719526],[121.282527,23.719792],[121.282721,23.719975],[121.282719,23.720156],[121.282521,23.720244],[121.282419,23.720604],[121.282712,23.720697],[121.282813,23.720428],[121.282911,23.720429]]],[[[121.285082,23.71946],[121.284887,23.719367],[121.284786,23.719547],[121.285078,23.71973],[121.285277,23.719552],[121.285181,23.71937],[121.285082,23.71946]]],[[[121.284858,23.721534],[121.28515,23.721718],[121.285252,23.721448],[121.285843,23.721274],[121.285649,23.721091],[121.285651,23.720911],[121.285749,23.720912],[121.285656,23.720549],[121.285854,23.720371],[121.286342,23.720557],[121.286442,23.720468],[121.28645,23.719836],[121.28674,23.72011],[121.287035,23.720113],[121.287036,23.720023],[121.287525,23.720119],[121.287625,23.719939],[121.287238,23.719574],[121.287041,23.719662],[121.287038,23.719842],[121.286842,23.71984],[121.286748,23.719568],[121.286549,23.719747],[121.286256,23.719653],[121.28616,23.719471],[121.285865,23.719559],[121.286263,23.719111],[121.286069,23.718929],[121.285677,23.718924],[121.285678,23.718834],[121.285285,23.71892],[121.2848,23.718463],[121.2847,23.718643],[121.284992,23.718826],[121.285085,23.719189],[121.285284,23.71901],[121.285772,23.719196],[121.285769,23.719377],[121.285475,23.719374],[121.285277,23.719552],[121.285373,23.719643],[121.285273,23.719823],[121.284683,23.719907],[121.284583,23.720086],[121.284289,23.720083],[121.28409,23.720261],[121.284088,23.720442],[121.284282,23.720625],[121.284968,23.720632],[121.284671,23.7209],[121.284668,23.72108],[121.284863,23.721173],[121.284764,23.721262],[121.284858,23.721534]],[[121.284969,23.720542],[121.285166,23.720544],[121.285164,23.720634],[121.284968,23.720632],[121.284969,23.720542]],[[121.284863,23.721173],[121.284962,23.721084],[121.284961,23.721174],[121.284863,23.721173]],[[121.284964,23.720993],[121.285063,23.720904],[121.285062,23.720994],[121.284964,23.720993]],[[121.28507,23.720362],[121.284971,23.720452],[121.284972,23.720361],[121.28507,23.720362]],[[121.28507,23.720362],[121.285169,23.720273],[121.285168,23.720363],[121.28507,23.720362]],[[121.285173,23.720002],[121.285369,23.720005],[121.28537,23.719914],[121.285566,23.719916],[121.285564,23.720097],[121.285368,23.720095],[121.285267,23.720274],[121.285169,23.720273],[121.285173,23.720002]]],[[[121.296932,23.720764],[121.29684,23.720312],[121.297136,23.720135],[121.297142,23.719683],[121.29724,23.719684],[121.297145,23.719503],[121.296849,23.71959],[121.296846,23.71986],[121.296748,23.719859],[121.296645,23.720219],[121.296448,23.720308],[121.296445,23.720488],[121.296543,23.720489],[121.296442,23.720759],[121.296635,23.720942],[121.296932,23.720764]]],[[[121.288008,23.720666],[121.28791,23.720665],[121.288011,23.720485],[121.287817,23.720303],[121.287619,23.720391],[121.287812,23.720664],[121.286538,23.720559],[121.286241,23.720827],[121.286237,23.721098],[121.285841,23.721364],[121.285739,23.721724],[121.285245,23.72199],[121.285241,23.722261],[121.285436,23.722353],[121.285736,23.721905],[121.28603,23.721908],[121.286329,23.72155],[121.286524,23.721643],[121.286823,23.721285],[121.287019,23.721287],[121.287013,23.721738],[121.28711,23.72183],[121.287404,23.721833],[121.287505,23.721654],[121.287896,23.721748],[121.287995,23.721659],[121.287898,23.721568],[121.288001,23.721208],[121.287806,23.721115],[121.287809,23.720935],[121.288006,23.720846],[121.288008,23.720666]],[[121.287806,23.721115],[121.287707,23.721204],[121.287708,23.721114],[121.287806,23.721115]]],[[[121.289082,23.721039],[121.288586,23.721485],[121.288292,23.721482],[121.287993,23.72184],[121.28809,23.721931],[121.28858,23.721936],[121.288682,23.721667],[121.288977,23.72158],[121.289073,23.721761],[121.289366,23.721855],[121.289362,23.722126],[121.289557,23.722218],[121.289159,23.722665],[121.289354,23.722758],[121.289552,23.722579],[121.289746,23.722762],[121.289845,23.722673],[121.289848,23.722492],[121.28975,23.722491],[121.289851,23.722221],[121.289656,23.722129],[121.289661,23.721768],[121.28976,23.721679],[121.289956,23.721681],[121.289955,23.721771],[121.290349,23.721685],[121.290353,23.721324],[121.290551,23.721236],[121.290459,23.720783],[121.290557,23.720784],[121.290658,23.720515],[121.290463,23.720422],[121.290166,23.72069],[121.290064,23.720959],[121.28987,23.720777],[121.289674,23.720775],[121.289578,23.720593],[121.289284,23.72059],[121.288986,23.720857],[121.289082,23.721039]],[[121.290064,23.720959],[121.290161,23.721051],[121.290063,23.72105],[121.290064,23.720959]],[[121.289082,23.721039],[121.289281,23.720861],[121.289671,23.721045],[121.289467,23.721585],[121.289369,23.721584],[121.289276,23.721222],[121.289081,23.721129],[121.289082,23.721039]]],[[[121.29005,23.722043],[121.289853,23.722131],[121.289948,23.722313],[121.290146,23.722225],[121.29005,23.722043]]],[[[121.291304,23.723682],[121.291205,23.723681],[121.291209,23.72341],[121.291111,23.723409],[121.291113,23.723229],[121.291211,23.72323],[121.291117,23.722958],[121.290723,23.723044],[121.290525,23.723222],[121.290523,23.723403],[121.290326,23.7234],[121.290328,23.72331],[121.29013,23.723398],[121.290316,23.724213],[121.29081,23.723948],[121.290619,23.723494],[121.290813,23.723677],[121.291009,23.723679],[121.291003,23.72413],[121.290905,23.724129],[121.291001,23.724311],[121.291298,23.724134],[121.291304,23.723682]]],[[[121.298629,23.703355],[121.299213,23.703723],[121.299306,23.704085],[121.299601,23.703998],[121.299605,23.703727],[121.299216,23.703452],[121.299126,23.702819],[121.298931,23.702727],[121.299031,23.702637],[121.298942,23.701914],[121.29904,23.701915],[121.299145,23.701374],[121.298753,23.70137],[121.298657,23.701188],[121.298167,23.701183],[121.298164,23.701364],[121.298358,23.701546],[121.298355,23.701817],[121.298157,23.701905],[121.298152,23.702357],[121.298347,23.702449],[121.298436,23.703082],[121.298534,23.703083],[121.298629,23.703355]],[[121.298931,23.702727],[121.298832,23.702816],[121.298833,23.702725],[121.298931,23.702727]],[[121.298824,23.703448],[121.298923,23.703359],[121.298922,23.703449],[121.298824,23.703448]]],[[[121.298883,23.706428],[121.298886,23.706248],[121.299182,23.70607],[121.299186,23.7058],[121.299088,23.705798],[121.29919,23.705438],[121.299288,23.705439],[121.299193,23.705258],[121.299093,23.705347],[121.298505,23.705341],[121.298405,23.70552],[121.297913,23.705605],[121.297615,23.705963],[121.297807,23.706236],[121.298101,23.706239],[121.298197,23.706421],[121.298491,23.706424],[121.298587,23.706606],[121.298883,23.706428]]],[[[121.298776,23.707149],[121.298579,23.707238],[121.298576,23.707418],[121.298771,23.707511],[121.298873,23.707241],[121.298776,23.707149]]],[[[121.298866,23.707783],[121.29906,23.707965],[121.299256,23.707967],[121.299351,23.708149],[121.299547,23.708151],[121.299845,23.707884],[121.299842,23.708155],[121.300135,23.708248],[121.300133,23.708338],[121.30033,23.70834],[121.300431,23.708071],[121.300627,23.708073],[121.300723,23.708254],[121.30092,23.708166],[121.301014,23.708529],[121.301409,23.708262],[121.301022,23.707897],[121.30063,23.707892],[121.300631,23.707802],[121.300237,23.707888],[121.300142,23.707706],[121.299748,23.707792],[121.299459,23.707428],[121.299165,23.707425],[121.299166,23.707334],[121.29887,23.707421],[121.298967,23.707513],[121.298866,23.707783]]],[[[121.297828,23.712196],[121.298128,23.711748],[121.298426,23.71148],[121.298428,23.711299],[121.298233,23.711207],[121.298235,23.711026],[121.298333,23.711027],[121.298236,23.710936],[121.298345,23.710125],[121.297862,23.709578],[121.297568,23.709574],[121.297474,23.709212],[121.297572,23.709213],[121.297577,23.708852],[121.297875,23.708584],[121.29817,23.708497],[121.298176,23.708046],[121.298078,23.708045],[121.298181,23.707685],[121.298084,23.707593],[121.297788,23.70768],[121.297596,23.707407],[121.2974,23.707405],[121.297398,23.707496],[121.297103,23.707583],[121.297101,23.707763],[121.297295,23.707946],[121.297883,23.707952],[121.297877,23.708404],[121.297484,23.70849],[121.297382,23.70876],[121.297284,23.708758],[121.29728,23.709029],[121.297181,23.709119],[121.296888,23.709025],[121.296788,23.709205],[121.297759,23.709938],[121.297659,23.710117],[121.298047,23.710392],[121.298135,23.711206],[121.29784,23.711293],[121.297836,23.711564],[121.297638,23.711742],[121.297147,23.711737],[121.29705,23.711645],[121.296949,23.711915],[121.29734,23.71201],[121.297339,23.7121],[121.297633,23.712103],[121.297632,23.712194],[121.297828,23.712196]]],[[[121.31236,23.71082],[121.312658,23.710552],[121.31305,23.710557],[121.313067,23.709202],[121.31277,23.70947],[121.312864,23.709742],[121.312668,23.70974],[121.312469,23.710008],[121.312076,23.710004],[121.311779,23.710272],[121.311776,23.710452],[121.312167,23.710547],[121.31236,23.71082]]],[[[121.311779,23.710272],[121.311585,23.710089],[121.311485,23.710269],[121.31168,23.710361],[121.311779,23.710272]]],[[[121.301372,23.711151],[121.300112,23.709963],[121.300115,23.709783],[121.299727,23.709417],[121.299433,23.709414],[121.299338,23.709142],[121.299141,23.70923],[121.299238,23.709322],[121.299138,23.709501],[121.299431,23.709595],[121.299721,23.709869],[121.299718,23.71014],[121.300008,23.710414],[121.300205,23.710416],[121.300397,23.710689],[121.30069,23.710783],[121.300782,23.711235],[121.301077,23.711238],[121.301367,23.711512],[121.301466,23.711423],[121.301372,23.711151]]],[[[121.301731,23.713684],[121.302028,23.713506],[121.302033,23.713145],[121.302231,23.712967],[121.302037,23.712784],[121.301743,23.712781],[121.301653,23.712148],[121.30136,23.712054],[121.30126,23.712234],[121.301064,23.712231],[121.300865,23.71241],[121.30095,23.713404],[121.301049,23.713405],[121.301142,23.713767],[121.301337,23.71386],[121.301333,23.714131],[121.301036,23.714398],[121.301228,23.714671],[121.301622,23.714585],[121.301731,23.713684]]],[[[121.298628,23.718526],[121.298331,23.718793],[121.298135,23.718791],[121.298138,23.71852],[121.298336,23.718342],[121.298143,23.718159],[121.298041,23.718429],[121.297745,23.718606],[121.297642,23.718966],[121.297739,23.719058],[121.298425,23.719065],[121.298426,23.718975],[121.298817,23.719069],[121.298917,23.71898],[121.299025,23.718169],[121.299519,23.717903],[121.299821,23.717274],[121.300218,23.716918],[121.300125,23.716555],[121.300223,23.716557],[121.300228,23.716195],[121.300425,23.716107],[121.30033,23.715835],[121.299935,23.716102],[121.299726,23.717093],[121.299428,23.71736],[121.299325,23.717721],[121.298831,23.717986],[121.298628,23.718526]]],[[[121.298837,23.717535],[121.298243,23.71798],[121.298339,23.718161],[121.298633,23.718164],[121.298831,23.717986],[121.298834,23.717805],[121.298932,23.717807],[121.298837,23.717535]]],[[[121.303872,23.722556],[121.304166,23.72256],[121.304465,23.722202],[121.304368,23.72211],[121.304074,23.722107],[121.304073,23.722197],[121.302799,23.722093],[121.30251,23.721729],[121.302419,23.721186],[121.302322,23.721095],[121.302125,23.721183],[121.302031,23.72082],[121.302329,23.720553],[121.302338,23.719831],[121.302143,23.719738],[121.301941,23.720187],[121.301843,23.720186],[121.301839,23.720547],[121.301641,23.720636],[121.301632,23.721358],[121.30212,23.721544],[121.302406,23.722179],[121.302504,23.72218],[121.302495,23.722902],[121.302397,23.722901],[121.302393,23.723172],[121.302196,23.72326],[121.302286,23.723893],[121.302579,23.723987],[121.302571,23.724619],[121.302372,23.724797],[121.302467,23.725069],[121.302269,23.725157],[121.302262,23.725699],[121.302359,23.72579],[121.302655,23.725703],[121.302562,23.725251],[121.302858,23.725164],[121.302873,23.72399],[121.30307,23.723902],[121.303161,23.724445],[121.303355,23.724628],[121.30365,23.72454],[121.303564,23.723637],[121.303862,23.723369],[121.303767,23.723097],[121.304161,23.723011],[121.304065,23.722829],[121.303869,23.722827],[121.303872,23.722556]],[[121.302794,23.722544],[121.302989,23.722637],[121.302985,23.722908],[121.30279,23.722815],[121.302794,23.722544]]],[[[121.304061,23.7231],[121.304351,23.723465],[121.304548,23.723376],[121.304358,23.722923],[121.304061,23.7231]]],[[[121.306505,23.723759],[121.306606,23.723489],[121.306316,23.723215],[121.306117,23.723394],[121.305628,23.723298],[121.305629,23.723208],[121.305237,23.723203],[121.305137,23.723383],[121.30504,23.723292],[121.304842,23.72338],[121.304938,23.723561],[121.305332,23.723475],[121.305427,23.723657],[121.305821,23.723571],[121.305916,23.723753],[121.306113,23.723755],[121.306114,23.723664],[121.306505,23.723759]]],[[[121.306385,23.725473],[121.306192,23.7252],[121.305702,23.725195],[121.305602,23.725284],[121.305698,23.725466],[121.306189,23.725471],[121.306187,23.725562],[121.306385,23.725473]]],[[[121.30519,23.726815],[121.304997,23.726632],[121.304702,23.726629],[121.304608,23.726357],[121.304805,23.726269],[121.304811,23.725817],[121.305105,23.725821],[121.305298,23.726094],[121.305692,23.725917],[121.305598,23.725645],[121.3055,23.725644],[121.305601,23.725375],[121.305504,23.725283],[121.304916,23.725277],[121.304814,23.725547],[121.304716,23.725545],[121.30472,23.725275],[121.304427,23.725181],[121.304429,23.725001],[121.304331,23.724999],[121.304333,23.724819],[121.304532,23.72464],[121.304338,23.724458],[121.304044,23.724454],[121.304043,23.724545],[121.303848,23.724452],[121.303648,23.724721],[121.30394,23.724905],[121.304035,23.725177],[121.304231,23.725179],[121.304424,23.725362],[121.30442,23.725723],[121.304322,23.725722],[121.304318,23.725993],[121.30422,23.725992],[121.304214,23.726443],[121.30489,23.727263],[121.305186,23.727176],[121.30519,23.726815]]],[[[121.302148,23.726962],[121.301752,23.727229],[121.30175,23.727409],[121.301848,23.72741],[121.301746,23.72768],[121.302231,23.728137],[121.302917,23.728144],[121.302918,23.728054],[121.30331,23.728149],[121.303311,23.728058],[121.303606,23.727971],[121.303317,23.727607],[121.303022,23.727604],[121.302829,23.727421],[121.302831,23.72724],[121.303129,23.726973],[121.30303,23.726972],[121.303034,23.726701],[121.302839,23.726608],[121.302746,23.726246],[121.302646,23.726335],[121.302453,23.726153],[121.302255,23.726241],[121.302253,23.726421],[121.302054,23.7266],[121.302148,23.726962]],[[121.302246,23.726963],[121.302245,23.727053],[121.302147,23.727052],[121.302148,23.726962],[121.302246,23.726963]]],[[[121.305948,23.7289],[121.306344,23.728633],[121.306352,23.728001],[121.305666,23.727994],[121.305565,23.728173],[121.305271,23.72817],[121.30517,23.72835],[121.304681,23.728254],[121.304483,23.728432],[121.304482,23.728523],[121.305364,23.728532],[121.305362,23.728713],[121.30595,23.728719],[121.305948,23.7289]]]]}},{"type":"Feature","properties":{"kind":"bare_dam","month":"2018-03","area_ha":24.42},"geometry":{"type":"MultiPolygon","coordinates":[[[[121.298608,23.68981],[121.298705,23.689902],[121.298706,23.689811],[121.298608,23.68981]]],[[[121.30178,23.694811],[121.302077,23.694544],[121.301883,23.694361],[121.301687,23.694359],[121.301593,23.694087],[121.301397,23.694085],[121.301396,23.694175],[121.301201,23.694083],[121.301203,23.693902],[121.301008,23.69381],[121.30111,23.69354],[121.300819,23.693266],[121.300526,23.693172],[121.300528,23.692992],[121.300333,23.692899],[121.300336,23.692719],[121.300434,23.69272],[121.300338,23.692538],[121.299947,23.692444],[121.29956,23.692078],[121.299068,23.692163],[121.298974,23.691891],[121.298384,23.691975],[121.298186,23.692153],[121.298282,23.692335],[121.298675,23.692249],[121.298664,23.693062],[121.298956,23.693245],[121.298852,23.693696],[121.298754,23.693695],[121.298849,23.693967],[121.299241,23.693971],[121.29924,23.694061],[121.299534,23.694064],[121.29963,23.694246],[121.299826,23.694248],[121.299925,23.694159],[121.299829,23.693977],[121.300415,23.694164],[121.300517,23.693895],[121.300615,23.693896],[121.300904,23.69426],[121.301198,23.694263],[121.301197,23.694354],[121.301394,23.694265],[121.30178,23.694811]],[[121.300321,23.693892],[121.300224,23.693801],[121.300322,23.693802],[121.300321,23.693892]],[[121.299543,23.693342],[121.299443,23.693522],[121.299345,23.693521],[121.299347,23.69334],[121.299543,23.693342]],[[121.29916,23.692616],[121.299162,23.692525],[121.299358,23.692527],[121.299357,23.692618],[121.29916,23.692616]]],[[[121.298155,23.694501],[121.298552,23.694144],[121.298458,23.693872],[121.298262,23.69387],[121.297964,23.694137],[121.297962,23.694318],[121.298155,23.694501]]],[[[121.297953,23.69495],[121.297657,23.695127],[121.29775,23.69549],[121.297848,23.695491],[121.29765,23.695669],[121.297648,23.69585],[121.298036,23.696125],[121.298124,23.696939],[121.298319,23.697031],[121.298315,23.697302],[121.29851,23.697394],[121.298507,23.697665],[121.298898,23.69776],[121.298998,23.69758],[121.299194,23.697582],[121.299393,23.697404],[121.299495,23.697044],[121.2993,23.696951],[121.299207,23.696589],[121.298915,23.696405],[121.299018,23.696045],[121.298921,23.695954],[121.298724,23.696042],[121.298239,23.695585],[121.298242,23.695405],[121.298639,23.695048],[121.29825,23.694773],[121.298155,23.694501],[121.297958,23.694589],[121.297953,23.69495]],[[121.298347,23.694864],[121.298248,23.694953],[121.298249,23.694863],[121.298347,23.694864]],[[121.298525,23.696221],[121.298522,23.696491],[121.298424,23.69649],[121.298329,23.696218],[121.298525,23.696221]]],[[[121.299981,23.69741],[121.300179,23.697232],[121.300184,23.696871],[121.299891,23.696777],[121.299688,23.697317],[121.299981,23.69741]]],[[[121.300951,23.698234],[121.301743,23.69761],[121.301649,23.697338],[121.300962,23.697331],[121.300764,23.697509],[121.30086,23.697691],[121.301155,23.697604],[121.301252,23.697695],[121.301152,23.697875],[121.300759,23.69787],[121.300761,23.69778],[121.30027,23.697775],[121.300171,23.697864],[121.300267,23.698046],[121.300463,23.698048],[121.300657,23.698231],[121.300951,23.698234]]],[[[121.295743,23.699079],[121.295843,23.6989],[121.296333,23.698905],[121.29643,23.698997],[121.29653,23.698817],[121.29624,23.698543],[121.295848,23.698539],[121.295747,23.698718],[121.295551,23.698716],[121.295353,23.698895],[121.295448,23.699076],[121.295743,23.699079]]],[[[121.294571,23.698705],[121.294372,23.698884],[121.294567,23.698976],[121.294668,23.698797],[121.294571,23.698705]]],[[[121.294859,23.69916],[121.295348,23.699256],[121.295448,23.699076],[121.294766,23.698798],[121.294665,23.698977],[121.294859,23.69916]]],[[[121.299063,23.700109],[121.298774,23.699745],[121.298779,23.699384],[121.298976,23.699296],[121.299081,23.698755],[121.299377,23.698578],[121.29938,23.698397],[121.299675,23.69831],[121.299676,23.69822],[121.300168,23.698135],[121.30017,23.697954],[121.299976,23.697772],[121.299679,23.698039],[121.299482,23.698037],[121.299283,23.698306],[121.299089,23.698123],[121.298598,23.698208],[121.298404,23.698025],[121.298201,23.698565],[121.298298,23.698656],[121.298886,23.698663],[121.298884,23.698843],[121.298685,23.699022],[121.298489,23.699019],[121.29849,23.698929],[121.298293,23.699017],[121.298291,23.699198],[121.297994,23.699375],[121.298089,23.699647],[121.297893,23.699645],[121.297797,23.699463],[121.297502,23.69955],[121.297694,23.699823],[121.297987,23.699917],[121.297884,23.700277],[121.298078,23.70046],[121.299157,23.700472],[121.299063,23.700109]]],[[[121.31148,23.687784],[121.311876,23.687427],[121.311879,23.687246],[121.311586,23.687153],[121.311785,23.686884],[121.311494,23.6867],[121.311394,23.68679],[121.311488,23.687152],[121.31139,23.687151],[121.311285,23.687692],[121.31148,23.687784]]],[[[121.31276,23.687346],[121.312468,23.687163],[121.312278,23.686709],[121.311885,23.686795],[121.311881,23.687066],[121.312075,23.687249],[121.312369,23.687252],[121.312267,23.687522],[121.312462,23.687614],[121.312556,23.687976],[121.312753,23.687888],[121.31276,23.687346]]],[[[121.302034,23.690299],[121.30184,23.690117],[121.30174,23.690296],[121.301935,23.690389],[121.302034,23.690299]]],[[[121.303795,23.69059],[121.303698,23.690498],[121.303502,23.690496],[121.303505,23.690315],[121.303702,23.690227],[121.303509,23.689954],[121.303215,23.689951],[121.303216,23.689861],[121.302628,23.689854],[121.302529,23.689944],[121.302625,23.690125],[121.30331,23.690223],[121.303207,23.690583],[121.303401,23.690766],[121.303694,23.690859],[121.303793,23.69077],[121.303795,23.69059]]],[[[121.306321,23.692423],[121.306615,23.692426],[121.306614,23.692517],[121.306811,23.692429],[121.306717,23.692157],[121.306619,23.692156],[121.306719,23.691976],[121.306622,23.691885],[121.306328,23.691881],[121.306327,23.691972],[121.306034,23.691878],[121.30584,23.691695],[121.305942,23.691426],[121.305748,23.691243],[121.305453,23.69133],[121.305351,23.6916],[121.304856,23.691956],[121.304761,23.691774],[121.303975,23.691856],[121.303879,23.691674],[121.303683,23.691672],[121.303393,23.691398],[121.302804,23.691391],[121.302806,23.691301],[121.302316,23.691205],[121.301928,23.69093],[121.301634,23.690927],[121.301538,23.690745],[121.301342,23.690743],[121.301143,23.690922],[121.301048,23.69074],[121.300852,23.690738],[121.300858,23.690286],[121.300957,23.690197],[121.301642,23.690295],[121.301742,23.690116],[121.301253,23.69002],[121.301254,23.68993],[121.300765,23.689834],[121.300767,23.689744],[121.2991,23.689725],[121.299197,23.689817],[121.299194,23.689997],[121.299096,23.689996],[121.29919,23.690358],[121.298991,23.690537],[121.298795,23.690535],[121.298801,23.690083],[121.298607,23.6899],[121.298215,23.689896],[121.297621,23.690341],[121.297616,23.690702],[121.297906,23.691067],[121.298201,23.69098],[121.298301,23.6908],[121.298791,23.690896],[121.298786,23.691257],[121.299076,23.691531],[121.299273,23.691533],[121.299274,23.691443],[121.299666,23.691447],[121.299665,23.691537],[121.29996,23.69145],[121.300057,23.691542],[121.300058,23.691452],[121.300352,23.691455],[121.300353,23.691364],[121.30045,23.691456],[121.300549,23.691367],[121.301431,23.691467],[121.301526,23.691648],[121.302312,23.691567],[121.302311,23.691657],[121.302605,23.69166],[121.302604,23.69175],[121.302703,23.691661],[121.303094,23.691756],[121.303577,23.692303],[121.30397,23.692217],[121.303969,23.692307],[121.304361,23.692311],[121.30436,23.692402],[121.304557,23.692314],[121.304462,23.692132],[121.304757,23.692045],[121.304853,23.692226],[121.305049,23.692229],[121.305348,23.691871],[121.305544,23.691873],[121.305932,23.692148],[121.306025,23.692601],[121.30632,23.692513],[121.306321,23.692423]],[[121.29977,23.690997],[121.299968,23.690818],[121.299878,23.690185],[121.300269,23.69028],[121.300071,23.690458],[121.300168,23.69055],[121.300066,23.69082],[121.30026,23.691002],[121.299963,23.69118],[121.299961,23.69136],[121.299765,23.691358],[121.299769,23.691087],[121.299867,23.691088],[121.29977,23.690997]]],[[[121.308493,23.691273],[121.308297,23.691271],[121.307999,23.691539],[121.308192,23.691812],[121.308389,23.691723],[121.308292,23.691632],[121.308393,23.691453],[121.308588,23.691545],[121.308688,23.691365],[121.308884,23.691368],[121.309083,23.691189],[121.308892,23.690736],[121.308695,23.690824],[121.308791,23.691005],[121.308693,23.691004],[121.308493,23.691273]],[[121.308692,23.691095],[121.308788,23.691186],[121.30869,23.691185],[121.308692,23.691095]]],[[[121.304028,23.695378],[121.304224,23.69538],[121.304417,23.695563],[121.304715,23.695295],[121.304818,23.694935],[121.305314,23.694489],[121.305024,23.694125],[121.304729,23.694212],[121.304233,23.694658],[121.304231,23.694838],[121.303737,23.695104],[121.303834,23.695195],[121.303831,23.695376],[121.303733,23.695375],[121.303828,23.695647],[121.304025,23.695559],[121.304028,23.695378]]],[[[121.303925,23.695738],[121.303828,23.695647],[121.303631,23.695735],[121.303725,23.696007],[121.303923,23.695919],[121.303925,23.695738]]],[[[121.302534,23.697168],[121.302733,23.696899],[121.303028,23.696812],[121.302935,23.69645],[121.30323,23.696362],[121.303333,23.696002],[121.30353,23.695914],[121.303435,23.695733],[121.303335,23.695822],[121.303042,23.695728],[121.30294,23.696088],[121.302744,23.696086],[121.302347,23.696443],[121.302244,23.696803],[121.301748,23.697249],[121.302041,23.697343],[121.302042,23.697252],[121.302534,23.697168]]]]}},{"type":"Feature","properties":{"kind":"water","month":"2018-03","area_ha":0.33},"geometry":{"type":"MultiPolygon","coordinates":[[[[121.298393,23.698838],[121.298489,23.699019],[121.298685,23.699022],[121.298884,23.698843],[121.298886,23.698663],[121.298298,23.698656],[121.298201,23.698565],[121.298198,23.698745],[121.298393,23.698838]]],[[[121.2981,23.698744],[121.298,23.698924],[121.298194,23.699106],[121.297896,23.699374],[121.298092,23.699376],[121.298291,23.699198],[121.298295,23.698837],[121.2981,23.698744]]]]}}]}