{"type":"FeatureCollection","features":[{"type":"Feature","properties":{"kind":"bare_slide","month":"2018-01","area_ha":68.57},"geometry":{"type":"MultiPolygon","coordinates":[[[[121.294275,23.706378],[121.294086,23.705834],[121.294382,23.705656],[121.294385,23.705476],[121.294191,23.705293],[121.293897,23.70529],[121.293896,23.70538],[121.2936,23.705467],[121.293598,23.705648],[121.293696,23.705649],[121.293692,23.70592],[121.293594,23.705919],[121.293688,23.706281],[121.293588,23.70637],[121.293782,23.706553],[121.294275,23.706378]],[[121.293887,23.706012],[121.293987,23.705923],[121.293985,23.706013],[121.293887,23.706012]]],[[[121.288375,23.715071],[121.288182,23.714889],[121.288081,23.715068],[121.288276,23.715161],[121.288375,23.715071]]],[[[121.288767,23.715166],[121.288573,23.714983],[121.288472,23.715163],[121.288667,23.715255],[121.288767,23.715166]]],[[[121.283956,23.715564],[121.284055,23.715475],[121.283963,23.715022],[121.284157,23.715205],[121.284452,23.715118],[121.284164,23.714664],[121.283672,23.714748],[121.283568,23.715199],[121.28347,23.715198],[121.283468,23.715378],[121.283662,23.715561],[121.283761,23.715472],[121.283956,23.715564]]],[[[121.288081,23.715068],[121.287984,23.714977],[121.287786,23.715155],[121.287689,23.715064],[121.287493,23.715062],[121.287492,23.715152],[121.287101,23.715057],[121.286902,23.715236],[121.286998,23.715417],[121.2867,23.715685],[121.287091,23.71578],[121.28719,23.71569],[121.287095,23.715509],[121.287393,23.715241],[121.287882,23.715337],[121.288081,23.715068]]],[[[121.287782,23.715426],[121.288073,23.7157],[121.288173,23.715521],[121.287882,23.715337],[121.287782,23.715426]]],[[[121.284722,23.716927],[121.284822,23.716838],[121.284727,23.716566],[121.285223,23.71612],[121.285913,23.715857],[121.286211,23.715589],[121.286115,23.715408],[121.28582,23.715495],[121.285819,23.715585],[121.285427,23.715581],[121.285128,23.715938],[121.284834,23.715935],[121.284337,23.716381],[121.284233,23.716831],[121.284722,23.716927]]],[[[121.284418,23.717736],[121.284419,23.717646],[121.284713,23.717649],[121.284714,23.717559],[121.28501,23.717472],[121.284906,23.717923],[121.285099,23.718105],[121.285001,23.718104],[121.284997,23.718465],[121.284799,23.718553],[121.284797,23.718734],[121.284992,23.718826],[121.285086,23.719098],[121.28548,23.719012],[121.285779,23.718655],[121.285292,23.718378],[121.285392,23.718199],[121.285982,23.718115],[121.285983,23.718025],[121.286472,23.71812],[121.286575,23.71776],[121.286771,23.717763],[121.286971,23.717494],[121.287068,23.717585],[121.287363,23.717498],[121.287364,23.717408],[121.287559,23.7175],[121.287858,23.717143],[121.288152,23.717146],[121.28815,23.717326],[121.288443,23.71742],[121.288635,23.717693],[121.289126,23.717698],[121.289127,23.717608],[121.289422,23.717521],[121.289524,23.717251],[121.289621,23.717343],[121.289818,23.717255],[121.289824,23.716803],[121.290414,23.716719],[121.290614,23.71636],[121.29081,23.716362],[121.29101,23.716094],[121.291205,23.716186],[121.291308,23.715826],[121.291903,23.715291],[121.291513,23.715106],[121.291214,23.715464],[121.29131,23.715646],[121.291114,23.715643],[121.290914,23.715912],[121.290718,23.71591],[121.29032,23.716357],[121.289928,23.716353],[121.290028,23.716173],[121.290324,23.716086],[121.290327,23.715815],[121.290133,23.715633],[121.28974,23.715719],[121.289742,23.715538],[121.290139,23.715181],[121.290335,23.715183],[121.290436,23.715004],[121.290338,23.715003],[121.290243,23.714731],[121.290046,23.714819],[121.290044,23.715],[121.289749,23.714996],[121.289748,23.715087],[121.28965,23.715085],[121.289556,23.714814],[121.289262,23.71481],[121.289063,23.714989],[121.289061,23.715169],[121.288866,23.715077],[121.288767,23.715166],[121.288764,23.715347],[121.288568,23.715344],[121.28837,23.715523],[121.288465,23.715704],[121.288269,23.715702],[121.28797,23.71606],[121.287481,23.715964],[121.28738,23.716234],[121.287084,23.716321],[121.286587,23.716858],[121.28649,23.716766],[121.286391,23.716855],[121.2859,23.71685],[121.285899,23.71694],[121.28531,23.717024],[121.285209,23.717203],[121.285013,23.717201],[121.284815,23.71738],[121.284621,23.717197],[121.284129,23.717282],[121.28403,23.717371],[121.284125,23.717643],[121.284418,23.717736]],[[121.286087,23.717574],[121.28599,23.717483],[121.286088,23.717484],[121.286087,23.717574]],[[121.286088,23.717484],[121.286187,23.717395],[121.286186,23.717485],[121.286088,23.717484]],[[121.287071,23.717314],[121.28707,23.717405],[121.286874,23.717403],[121.286875,23.717312],[121.287071,23.717314]],[[121.287866,23.716511],[121.287963,23.716602],[121.287865,23.716601],[121.287866,23.716511]],[[121.289534,23.716439],[121.289533,23.716529],[121.289239,23.716526],[121.28924,23.716435],[121.289534,23.716439]],[[121.288855,23.715889],[121.288751,23.71634],[121.288653,23.716339],[121.28856,23.715976],[121.288855,23.715889]],[[121.289149,23.715893],[121.289153,23.715622],[121.289055,23.715621],[121.289058,23.71535],[121.289254,23.715352],[121.289252,23.715533],[121.289447,23.715625],[121.289341,23.716256],[121.289047,23.716253],[121.288952,23.715981],[121.289149,23.715893]],[[121.289935,23.715811],[121.289934,23.715901],[121.289738,23.715899],[121.289739,23.715809],[121.289935,23.715811]]],[[[121.283737,23.717277],[121.283833,23.717459],[121.28403,23.717371],[121.283934,23.717189],[121.283737,23.717277]]],[[[121.28744,23.719124],[121.287247,23.718851],[121.287443,23.718854],[121.287637,23.719036],[121.287739,23.718767],[121.287936,23.718678],[121.287938,23.718498],[121.288135,23.7185],[121.288235,23.718321],[121.28853,23.718234],[121.288437,23.717871],[121.288044,23.717957],[121.287943,23.718137],[121.287649,23.718133],[121.28765,23.718043],[121.28716,23.718038],[121.287159,23.718128],[121.286866,23.718035],[121.286766,23.718124],[121.28667,23.718032],[121.286471,23.718211],[121.286468,23.718482],[121.286172,23.718569],[121.286169,23.718839],[121.286462,23.718933],[121.28646,23.719023],[121.28705,23.71894],[121.287243,23.719213],[121.28744,23.719124]],[[121.286562,23.718754],[121.286661,23.718664],[121.28666,23.718755],[121.286562,23.718754]]],[[[121.284003,23.719448],[121.284005,23.719267],[121.284302,23.71909],[121.284304,23.718909],[121.284014,23.718635],[121.283817,23.718633],[121.28382,23.718452],[121.283528,23.718268],[121.283429,23.718358],[121.283422,23.718899],[121.28381,23.719175],[121.283612,23.719353],[121.28361,23.719534],[121.283804,23.719626],[121.284003,23.719448]]],[[[121.287012,23.721829],[121.287306,23.721832],[121.287505,23.721654],[121.287507,23.721473],[121.288089,23.722021],[121.288482,23.721935],[121.288782,23.721487],[121.289072,23.721851],[121.289759,23.721769],[121.28976,23.721679],[121.290151,23.721773],[121.290252,23.721594],[121.290546,23.721597],[121.290648,23.721327],[121.290357,23.721053],[121.290456,23.720964],[121.290381,23.719247],[121.290776,23.718981],[121.290585,23.718617],[121.291269,23.718806],[121.291372,23.718446],[121.291569,23.718357],[121.291475,23.718086],[121.291672,23.717997],[121.291578,23.717635],[121.291871,23.717729],[121.292071,23.71746],[121.291974,23.717369],[121.291776,23.717547],[121.291385,23.717452],[121.291086,23.71781],[121.29089,23.717808],[121.290493,23.718165],[121.290199,23.718162],[121.290197,23.718252],[121.289902,23.718339],[121.29029,23.718705],[121.290287,23.718885],[121.289893,23.719061],[121.289987,23.719333],[121.289789,23.719512],[121.289984,23.719604],[121.290077,23.719966],[121.289581,23.720412],[121.289288,23.720319],[121.28899,23.720586],[121.288794,23.720584],[121.288795,23.720494],[121.288696,23.720583],[121.288205,23.720578],[121.288105,23.720757],[121.287909,23.720755],[121.28791,23.720665],[121.287811,23.720754],[121.286928,23.720744],[121.286929,23.720654],[121.286634,23.720741],[121.286635,23.720651],[121.286341,23.720647],[121.286245,23.720466],[121.285658,23.720369],[121.285464,23.720186],[121.28507,23.720362],[121.285262,23.720635],[121.284966,23.720813],[121.285062,23.720994],[121.284863,23.721173],[121.285154,23.721447],[121.285941,23.721275],[121.285642,23.721633],[121.285736,23.721905],[121.286228,23.72182],[121.286525,23.721552],[121.286528,23.721372],[121.286823,23.721285],[121.286924,23.721105],[121.287022,23.721106],[121.287016,23.721558],[121.286918,23.721557],[121.287012,23.721829]],[[121.288684,23.721486],[121.288685,23.721396],[121.288586,23.721485],[121.28839,23.721483],[121.288391,23.721392],[121.288588,23.721304],[121.288591,23.721124],[121.288789,23.720945],[121.288793,23.720675],[121.288989,23.720677],[121.289085,23.720858],[121.28938,23.720771],[121.289476,23.720953],[121.28977,23.720956],[121.289668,23.721226],[121.289471,23.721314],[121.289467,23.721585],[121.289271,23.721583],[121.289275,23.721312],[121.289177,23.721311],[121.289082,23.721039],[121.288885,23.721127],[121.288883,23.721308],[121.288684,23.721486]],[[121.289771,23.720866],[121.289869,23.720867],[121.289971,23.720597],[121.290166,23.72069],[121.290062,23.72114],[121.289771,23.720866]],[[121.289961,23.72132],[121.289863,23.721318],[121.289865,23.721138],[121.289964,23.721139],[121.289961,23.72132]],[[121.290287,23.718885],[121.290384,23.718976],[121.290286,23.718975],[121.290287,23.718885]],[[121.287022,23.721106],[121.287121,23.721017],[121.28712,23.721107],[121.287022,23.721106]],[[121.286134,23.721458],[121.286234,23.721369],[121.286232,23.721459],[121.286134,23.721458]],[[121.287804,23.721296],[121.287607,23.721384],[121.287611,23.721023],[121.287709,23.721024],[121.287804,23.721296]],[[121.29039,23.718525],[121.290489,23.718436],[121.290488,23.718526],[121.29039,23.718525]],[[121.291182,23.717992],[121.291281,23.717903],[121.29128,23.717993],[121.291182,23.717992]]],[[[121.283111,23.72016],[121.283606,23.719804],[121.283608,23.719624],[121.283315,23.71953],[121.283319,23.719259],[121.283124,23.719167],[121.282727,23.719524],[121.282725,23.719704],[121.28292,23.719797],[121.282917,23.719977],[121.283015,23.719978],[121.283111,23.72016]]],[[[121.29282,23.720177],[121.292627,23.719995],[121.292526,23.720174],[121.292721,23.720266],[121.29282,23.720177]]],[[[121.284972,23.720361],[121.285073,23.720092],[121.285171,23.720093],[121.285076,23.719911],[121.284877,23.720089],[121.28419,23.720172],[121.28399,23.720441],[121.284184,23.720623],[121.284772,23.72063],[121.284874,23.72036],[121.284972,23.720361]]],[[[121.282614,23.720696],[121.282816,23.720247],[121.283013,23.720159],[121.282917,23.719977],[121.282124,23.720601],[121.282317,23.720874],[121.282614,23.720696]]],[[[121.284868,23.720812],[121.284671,23.7209],[121.284766,23.721081],[121.284964,23.720993],[121.284868,23.720812]]],[[[121.291283,23.725217],[121.291775,23.725132],[121.291973,23.724954],[121.291976,23.724773],[121.291588,23.724408],[121.291195,23.724494],[121.291198,23.724223],[121.291296,23.724224],[121.291301,23.723863],[121.291106,23.72377],[121.291113,23.723229],[121.291212,23.723139],[121.290919,23.723046],[121.290918,23.723136],[121.290525,23.723222],[121.290424,23.723402],[121.290717,23.723495],[121.290812,23.723767],[121.29091,23.723768],[121.290898,23.724671],[121.291093,23.724763],[121.291091,23.724944],[121.290794,23.725121],[121.290791,23.725392],[121.290986,23.725485],[121.291283,23.725217]]],[[[121.2995,23.704268],[121.299507,23.703726],[121.299214,23.703633],[121.299123,23.70309],[121.298831,23.702906],[121.29893,23.702817],[121.298945,23.701643],[121.299043,23.701644],[121.299047,23.701373],[121.298753,23.70137],[121.298657,23.701188],[121.298069,23.701182],[121.298162,23.701544],[121.29826,23.701545],[121.298257,23.701816],[121.298059,23.701904],[121.298057,23.702085],[121.298155,23.702086],[121.298152,23.702357],[121.29825,23.702358],[121.298246,23.702629],[121.298344,23.70263],[121.29834,23.702991],[121.298438,23.702992],[121.298531,23.703354],[121.298725,23.703537],[121.298922,23.703449],[121.29892,23.703629],[121.299211,23.703813],[121.299207,23.704174],[121.299109,23.704173],[121.299103,23.704625],[121.2992,23.704716],[121.299397,23.704628],[121.299402,23.704267],[121.2995,23.704268]]],[[[121.298883,23.706428],[121.298887,23.706157],[121.298985,23.706159],[121.298892,23.705796],[121.299188,23.705619],[121.299192,23.705348],[121.299093,23.705347],[121.299197,23.704897],[121.299101,23.704805],[121.298903,23.704893],[121.298897,23.705345],[121.298603,23.705342],[121.298206,23.705698],[121.297715,23.705783],[121.29771,23.706144],[121.298393,23.706423],[121.298583,23.706876],[121.298781,23.706788],[121.298785,23.706427],[121.298883,23.706428]]],[[[121.298084,23.707593],[121.29789,23.707411],[121.2974,23.707405],[121.297398,23.707496],[121.297103,23.707583],[121.297101,23.707763],[121.297295,23.707946],[121.297785,23.707951],[121.297979,23.708134],[121.298078,23.708045],[121.298084,23.707593]]],[[[121.300432,23.70798],[121.30014,23.707797],[121.299455,23.707699],[121.299263,23.707426],[121.299067,23.707424],[121.298965,23.707693],[121.298867,23.707692],[121.298865,23.707873],[121.299158,23.707966],[121.29935,23.708239],[121.299549,23.708061],[121.299745,23.708063],[121.300132,23.708429],[121.300428,23.708342],[121.300432,23.70798]]],[[[121.298247,23.710124],[121.297861,23.709668],[121.297663,23.709756],[121.29747,23.709573],[121.297477,23.709031],[121.29738,23.70894],[121.297181,23.709119],[121.296788,23.709205],[121.297174,23.70966],[121.29737,23.709662],[121.297758,23.710028],[121.297657,23.710207],[121.297949,23.710391],[121.298043,23.710753],[121.29824,23.710665],[121.298247,23.710124]]],[[[121.301368,23.711422],[121.301371,23.711241],[121.301079,23.711058],[121.301081,23.710877],[121.300111,23.710054],[121.300018,23.709692],[121.299238,23.709322],[121.299138,23.709501],[121.299623,23.709868],[121.299619,23.710229],[121.300107,23.710415],[121.300299,23.710688],[121.300495,23.71069],[121.300587,23.711143],[121.300979,23.711237],[121.301267,23.711692],[121.301464,23.711604],[121.301466,23.711423],[121.301368,23.711422]]],[[[121.297927,23.712107],[121.298029,23.711837],[121.298326,23.711569],[121.29833,23.711298],[121.298136,23.711116],[121.29774,23.711382],[121.297737,23.711653],[121.297538,23.711831],[121.297047,23.711916],[121.297143,23.712098],[121.297535,23.712102],[121.297631,23.712284],[121.297927,23.712107]]],[[[121.301527,23.714313],[121.301625,23.714314],[121.301531,23.714043],[121.301728,23.713954],[121.301731,23.713684],[121.301929,23.713595],[121.301932,23.713325],[121.30203,23.713326],[121.302133,23.712966],[121.301646,23.712689],[121.301555,23.712146],[121.301262,23.712053],[121.300766,23.712499],[121.30076,23.71295],[121.300858,23.712952],[121.300948,23.713585],[121.301239,23.713859],[121.301234,23.71422],[121.301136,23.714219],[121.301033,23.714579],[121.301325,23.714763],[121.301524,23.714584],[121.301527,23.714313]]],[[[121.294069,23.714683],[121.293971,23.714682],[121.293973,23.714501],[121.294264,23.714775],[121.29446,23.714777],[121.294758,23.71451],[121.29476,23.714329],[121.294957,23.714241],[121.295059,23.713971],[121.295353,23.713975],[121.295354,23.713884],[121.295649,23.713797],[121.295653,23.713526],[121.29585,23.713438],[121.295953,23.713078],[121.296251,23.712811],[121.296156,23.712539],[121.295861,23.712626],[121.295857,23.712897],[121.295659,23.713075],[121.295463,23.713073],[121.295362,23.713252],[121.294773,23.713336],[121.294375,23.713783],[121.294179,23.713781],[121.29398,23.713959],[121.293978,23.71414],[121.29378,23.714228],[121.293778,23.714409],[121.29348,23.714676],[121.293284,23.714674],[121.293184,23.714854],[121.293476,23.715037],[121.293773,23.71477],[121.29377,23.715041],[121.294063,23.715134],[121.294162,23.715045],[121.294069,23.714683]]],[[[121.297096,23.715709],[121.297195,23.71562],[121.297107,23.714807],[121.297304,23.714809],[121.297305,23.714718],[121.297402,23.71481],[121.297599,23.714722],[121.297695,23.714903],[121.298185,23.714909],[121.298284,23.71482],[121.29829,23.714368],[121.297803,23.714092],[121.297807,23.713821],[121.297709,23.71382],[121.29781,23.71355],[121.297713,23.713459],[121.297516,23.713547],[121.297409,23.714268],[121.297213,23.714266],[121.297111,23.714536],[121.296813,23.714803],[121.29671,23.715163],[121.296904,23.715346],[121.296805,23.715435],[121.296609,23.715433],[121.296513,23.715252],[121.296316,23.71534],[121.296314,23.71552],[121.296507,23.715703],[121.296703,23.715705],[121.296705,23.715615],[121.297096,23.715709]],[[121.297601,23.714541],[121.297502,23.71463],[121.297503,23.71454],[121.297601,23.714541]],[[121.297601,23.714541],[121.2977,23.714452],[121.297699,23.714542],[121.297601,23.714541]]],[[[121.298524,23.718976],[121.298523,23.719066],[121.298819,23.718979],[121.299026,23.718078],[121.299321,23.718082],[121.299523,23.717632],[121.300118,23.717097],[121.300123,23.716736],[121.300025,23.716735],[121.300129,23.716285],[121.300424,23.716198],[121.300231,23.715925],[121.299836,23.716191],[121.29983,23.716642],[121.299631,23.716821],[121.299526,23.717362],[121.299329,23.71745],[121.299325,23.717721],[121.29903,23.717808],[121.298732,23.718075],[121.298729,23.718346],[121.298432,23.718523],[121.29843,23.718704],[121.298036,23.71879],[121.298039,23.718609],[121.298237,23.718431],[121.298043,23.718248],[121.297942,23.718518],[121.297546,23.718785],[121.297641,23.719056],[121.298131,23.719062],[121.298228,23.719153],[121.298229,23.719063],[121.298524,23.718976]]],[[[121.302339,23.71974],[121.302146,23.719558],[121.302045,23.719737],[121.30224,23.719829],[121.302339,23.71974]]],[[[121.297128,23.720767],[121.297227,23.720677],[121.29713,23.720586],[121.297136,23.720135],[121.297038,23.720133],[121.297142,23.719683],[121.296947,23.719591],[121.296749,23.719769],[121.296645,23.720219],[121.296448,23.720308],[121.296445,23.720488],[121.296543,23.720489],[121.296638,23.720761],[121.296737,23.720672],[121.297128,23.720767]]],[[[121.296431,23.721572],[121.296432,23.721481],[121.296627,23.721574],[121.296925,23.721306],[121.296927,23.721126],[121.296732,23.721033],[121.296638,23.720761],[121.296341,23.720938],[121.296436,23.72121],[121.29624,23.721208],[121.296144,23.721027],[121.295947,23.721115],[121.296039,23.721567],[121.296136,23.721659],[121.296431,23.721572]]],[[[121.293432,23.725963],[121.293231,23.726322],[121.293525,23.726325],[121.293527,23.726145],[121.29392,23.726149],[121.293922,23.725969],[121.294314,23.725973],[121.294422,23.725252],[121.294619,23.725164],[121.294425,23.724981],[121.294428,23.7248],[121.294526,23.724801],[121.294631,23.724261],[121.294827,23.724263],[121.295025,23.724084],[121.294933,23.723632],[121.294641,23.723448],[121.294645,23.723177],[121.29484,23.72327],[121.294941,23.723],[121.295039,23.723001],[121.295045,23.72255],[121.294948,23.722458],[121.295445,23.722012],[121.295641,23.722014],[121.296039,23.721567],[121.295747,23.721383],[121.295547,23.721652],[121.294959,23.721646],[121.294958,23.721736],[121.294665,23.721642],[121.294466,23.721821],[121.294464,23.722001],[121.294171,23.721908],[121.293971,23.722177],[121.293775,23.722174],[121.293682,23.721812],[121.293487,23.72172],[121.29349,23.721449],[121.293297,23.721266],[121.293099,23.721354],[121.292809,23.72108],[121.292908,23.720991],[121.292916,23.720359],[121.292721,23.720266],[121.29262,23.720536],[121.292422,23.720624],[121.292519,23.720716],[121.292416,23.721076],[121.292023,23.721162],[121.292021,23.721342],[121.291823,23.72143],[121.29182,23.721701],[121.292015,23.721794],[121.291914,23.721973],[121.292108,23.722156],[121.292402,23.722159],[121.2924,23.72234],[121.292498,23.722341],[121.292491,23.722883],[121.292393,23.722881],[121.29239,23.723062],[121.292584,23.723245],[121.292483,23.723515],[121.292873,23.723699],[121.29277,23.72406],[121.293062,23.724243],[121.292665,23.7246],[121.29286,23.724693],[121.293255,23.724426],[121.293254,23.724516],[121.293548,23.72452],[121.293742,23.724702],[121.293638,23.725153],[121.293049,23.725236],[121.293048,23.725327],[121.292557,23.725321],[121.292359,23.7255],[121.292454,23.725681],[121.292847,23.725686],[121.292846,23.725776],[121.293141,23.725689],[121.293142,23.725599],[121.293435,23.725692],[121.29353,23.725964],[121.293432,23.725963]],[[121.29495,23.722368],[121.294849,23.722547],[121.294453,23.722814],[121.294561,23.722093],[121.294854,23.722186],[121.294851,23.722367],[121.29495,23.722368]],[[121.292809,23.72108],[121.292709,23.721169],[121.292711,23.721079],[121.292809,23.72108]],[[121.293532,23.725784],[121.293631,23.725694],[121.29363,23.725785],[121.293532,23.725784]],[[121.293756,23.723619],[121.294051,23.723622],[121.294049,23.723712],[121.293755,23.723709],[121.293756,23.723619]],[[121.294344,23.723716],[121.294443,23.723627],[121.294442,23.723717],[121.294344,23.723716]],[[121.294249,23.723444],[121.29415,23.723533],[121.294151,23.723443],[121.294249,23.723444]],[[121.294249,23.723444],[121.294348,23.723355],[121.294347,23.723445],[121.294249,23.723444]],[[121.294647,23.722997],[121.294746,23.722907],[121.294745,23.722998],[121.294647,23.722997]],[[121.293672,23.722534],[121.29377,23.722535],[121.293768,23.722716],[121.29367,23.722715],[121.293672,23.722534]],[[121.293969,23.722357],[121.294165,23.722359],[121.294162,23.72263],[121.293965,23.722628],[121.293969,23.722357]],[[121.293187,23.722168],[121.293286,23.722079],[121.293285,23.722169],[121.293187,23.722168]],[[121.292901,23.721533],[121.293096,23.721625],[121.29319,23.721897],[121.292994,23.721895],[121.292901,23.721533]],[[121.292309,23.721797],[121.292408,23.721708],[121.292407,23.721798],[121.292309,23.721797]],[[121.292311,23.721616],[121.29241,23.721527],[121.292409,23.721617],[121.292311,23.721616]]],[[[121.302296,23.723081],[121.302294,23.723261],[121.302097,23.72335],[121.302188,23.723892],[121.302481,23.723986],[121.302673,23.724259],[121.302575,23.724258],[121.302572,23.724529],[121.302474,23.724528],[121.302272,23.724977],[121.302076,23.724975],[121.302077,23.724884],[121.301781,23.724971],[121.301876,23.725243],[121.301381,23.725599],[121.301475,23.725871],[121.301669,23.726054],[121.301963,23.726057],[121.302162,23.725879],[121.302165,23.725608],[121.302359,23.72579],[121.302557,23.725702],[121.302464,23.72525],[121.30276,23.725163],[121.302764,23.724802],[121.302862,23.724803],[121.302774,23.724079],[121.30307,23.723902],[121.30316,23.724535],[121.303257,23.724626],[121.30365,23.72454],[121.303647,23.724811],[121.304422,23.725542],[121.304224,23.725721],[121.304213,23.726533],[121.304505,23.726717],[121.3045,23.727078],[121.304793,23.727172],[121.304791,23.727352],[121.305084,23.727446],[121.305179,23.727718],[121.305374,23.72781],[121.305365,23.728442],[121.305757,23.728537],[121.305755,23.728627],[121.306246,23.728632],[121.306347,23.728363],[121.30596,23.727997],[121.305963,23.727726],[121.305673,23.727452],[121.305675,23.727272],[121.305384,23.726998],[121.305188,23.726995],[121.305092,23.726814],[121.304798,23.726811],[121.304604,23.726628],[121.304608,23.726357],[121.304706,23.726358],[121.304711,23.725997],[121.304612,23.725996],[121.304616,23.725725],[121.304518,23.725724],[121.304622,23.725274],[121.304329,23.72518],[121.304331,23.724999],[121.304136,23.724907],[121.304237,23.724728],[121.303943,23.724634],[121.303751,23.724361],[121.303555,23.724359],[121.303461,23.723997],[121.303266,23.723904],[121.303662,23.723638],[121.303666,23.723367],[121.303764,23.723368],[121.303669,23.723096],[121.303965,23.723009],[121.303771,23.722826],[121.303773,23.722646],[121.304166,23.72256],[121.304366,23.722291],[121.304269,23.722199],[121.303877,23.722195],[121.303876,23.722285],[121.302896,23.722184],[121.302801,23.722003],[121.302508,23.721909],[121.302515,23.721368],[121.30232,23.721275],[121.302121,23.721454],[121.302125,23.721183],[121.302027,23.721182],[121.302032,23.72073],[121.302328,23.720643],[121.302239,23.71992],[121.302044,23.719827],[121.301842,23.720277],[121.301744,23.720275],[121.301839,23.720547],[121.301641,23.720636],[121.301537,23.721086],[121.301636,23.721087],[121.301632,23.721358],[121.302119,23.721634],[121.302116,23.721815],[121.302311,23.721907],[121.302308,23.722178],[121.302597,23.722542],[121.302399,23.722721],[121.302394,23.723082],[121.302296,23.723081]],[[121.302595,23.722723],[121.302696,23.722543],[121.302892,23.722546],[121.302985,23.722908],[121.302789,23.722906],[121.302595,23.722723]],[[121.303375,23.723093],[121.303474,23.723003],[121.303473,23.723094],[121.303375,23.723093]],[[121.303575,23.722824],[121.303674,23.722735],[121.303673,23.722825],[121.303575,23.722824]]],[[[121.297151,23.726546],[121.29745,23.726188],[121.297157,23.726094],[121.297158,23.726004],[121.296863,23.726091],[121.296676,23.725367],[121.297072,23.7251],[121.297173,23.72483],[121.297368,23.724923],[121.297667,23.724565],[121.297863,23.724567],[121.297965,23.724297],[121.297674,23.724023],[121.297476,23.724202],[121.297473,23.724382],[121.297178,23.724469],[121.297084,23.724197],[121.296596,23.724011],[121.296494,23.724281],[121.296002,23.724366],[121.295605,23.724723],[121.295603,23.724903],[121.295206,23.72526],[121.295103,23.72562],[121.2952,23.725712],[121.295691,23.725717],[121.29598,23.726082],[121.296176,23.726084],[121.296375,23.725905],[121.296664,23.72627],[121.29686,23.726272],[121.296761,23.726361],[121.296857,23.726543],[121.297151,23.726546]],[[121.296085,23.725541],[121.296182,23.725632],[121.296084,23.725631],[121.296085,23.725541]],[[121.296379,23.725544],[121.296476,23.725635],[121.296378,23.725634],[121.296379,23.725544]],[[121.2959,23.724726],[121.295997,23.724818],[121.295899,23.724816],[121.2959,23.724726]]],[[[121.303313,23.727878],[121.30302,23.727784],[121.302729,23.72751],[121.302928,23.727332],[121.302541,23.726876],[121.302743,23.726427],[121.302254,23.726331],[121.302056,23.72651],[121.302053,23.72669],[121.301557,23.727136],[121.301555,23.727317],[121.301749,23.727499],[121.301745,23.72777],[121.301939,23.727953],[121.302233,23.727956],[121.302232,23.728047],[121.302526,23.72805],[121.302525,23.72814],[121.303213,23.728057],[121.303313,23.727878]],[[121.302342,23.727145],[121.302439,23.727236],[121.302341,23.727235],[121.302342,23.727145]],[[121.302245,23.727053],[121.302146,23.727143],[121.302147,23.727052],[121.302245,23.727053]],[[121.302147,23.727052],[121.30205,23.726961],[121.302148,23.726962],[121.302147,23.727052]]]]}},{"type":"Feature","properties":{"kind":"bare_dam","month":"2018-01","area_ha":15.66},"geometry":{"type":"MultiPolygon","coordinates":[[[[121.301148,23.69056],[121.301151,23.69038],[121.301447,23.690203],[121.30135,23.690111],[121.301452,23.689841],[121.301355,23.68975],[121.300668,23.689743],[121.300667,23.689833],[121.300961,23.689836],[121.301155,23.690019],[121.301153,23.690199],[121.300856,23.690377],[121.300951,23.690649],[121.301148,23.69056]]],[[[121.300859,23.690196],[121.300665,23.690013],[121.300467,23.690192],[121.30027,23.69019],[121.300171,23.690279],[121.300267,23.690461],[121.300169,23.690459],[121.300066,23.69082],[121.29987,23.690817],[121.299875,23.690456],[121.299777,23.690455],[121.299881,23.690005],[121.299784,23.689913],[121.299588,23.689911],[121.299487,23.690091],[121.299194,23.689997],[121.298995,23.690266],[121.298705,23.689902],[121.298215,23.689896],[121.298213,23.690077],[121.298407,23.690259],[121.29811,23.690437],[121.297819,23.690163],[121.297521,23.690521],[121.297619,23.690522],[121.297614,23.690883],[121.297808,23.691066],[121.298201,23.69098],[121.298301,23.6908],[121.298789,23.690986],[121.298785,23.691347],[121.298978,23.69153],[121.299273,23.691533],[121.299274,23.691443],[121.299665,23.691537],[121.299764,23.691448],[121.299669,23.691176],[121.299865,23.691178],[121.29996,23.69145],[121.300254,23.691454],[121.300255,23.691363],[121.300352,23.691455],[121.300548,23.691457],[121.300549,23.691367],[121.301038,23.691462],[121.301138,23.691373],[121.30133,23.691646],[121.301722,23.69165],[121.301724,23.69156],[121.302115,23.691655],[121.302214,23.691565],[121.302406,23.691838],[121.3027,23.691842],[121.302699,23.691932],[121.302995,23.691845],[121.302992,23.692026],[121.303186,23.692208],[121.303382,23.69221],[121.303478,23.692392],[121.303676,23.692214],[121.303872,23.692216],[121.303871,23.692306],[121.304166,23.692219],[121.303974,23.691946],[121.303583,23.691851],[121.303682,23.691762],[121.303586,23.691581],[121.30339,23.691578],[121.303197,23.691396],[121.302705,23.691481],[121.302609,23.691299],[121.302412,23.691387],[121.302025,23.691022],[121.301436,23.691015],[121.301438,23.690925],[121.301143,23.690922],[121.301142,23.691012],[121.300849,23.690918],[121.30075,23.691008],[121.300653,23.690916],[121.300656,23.690736],[121.300754,23.690737],[121.30066,23.690375],[121.300859,23.690196]],[[121.30066,23.690375],[121.300563,23.690283],[121.300661,23.690284],[121.30066,23.690375]],[[121.301139,23.691283],[121.301042,23.691191],[121.30114,23.691192],[121.301139,23.691283]],[[121.299578,23.690634],[121.299481,23.690542],[121.29958,23.690543],[121.299578,23.690634]]],[[[121.30142,23.692279],[121.301127,23.692186],[121.301031,23.692004],[121.300835,23.692002],[121.30074,23.69182],[121.300542,23.691908],[121.301124,23.692457],[121.30132,23.692459],[121.30142,23.692279]]],[[[121.30149,23.694447],[121.301788,23.694179],[121.301692,23.693998],[121.301104,23.693991],[121.30091,23.693809],[121.301009,23.693719],[121.300914,23.693538],[121.300717,23.693536],[121.300519,23.693714],[121.300228,23.69344],[121.300332,23.69299],[121.300234,23.692989],[121.300238,23.692718],[121.299947,23.692444],[121.299653,23.69244],[121.299362,23.692166],[121.29897,23.692162],[121.298875,23.69198],[121.298775,23.69207],[121.298579,23.692067],[121.29858,23.691977],[121.298187,23.692063],[121.298185,23.692244],[121.298087,23.692243],[121.298182,23.692424],[121.298381,23.692246],[121.298675,23.692249],[121.298671,23.69252],[121.298573,23.692519],[121.298669,23.6927],[121.29857,23.69279],[121.298668,23.692791],[121.298664,23.693062],[121.298859,23.693154],[121.298857,23.693335],[121.299052,23.693427],[121.298754,23.693695],[121.298947,23.693968],[121.299632,23.694066],[121.299633,23.693975],[121.299928,23.693888],[121.299834,23.693616],[121.30003,23.693618],[121.300321,23.693892],[121.300615,23.693896],[121.300514,23.694075],[121.300902,23.694441],[121.30149,23.694447]],[[121.299445,23.693341],[121.299443,23.693522],[121.299148,23.693609],[121.29915,23.693428],[121.299445,23.693341]],[[121.299547,23.693071],[121.29945,23.69298],[121.299548,23.692981],[121.299547,23.693071]],[[121.299645,23.693072],[121.299646,23.692982],[121.299842,23.692984],[121.299841,23.693075],[121.299645,23.693072]],[[121.299061,23.692705],[121.299062,23.692614],[121.299258,23.692617],[121.299257,23.692707],[121.299061,23.692705]]],[[[121.298718,23.696494],[121.298921,23.695954],[121.298726,23.695862],[121.298525,23.696221],[121.298332,23.696038],[121.298133,23.696216],[121.298327,23.696399],[121.298718,23.696494]]],[[[121.298811,23.696856],[121.298619,23.696583],[121.298423,23.696581],[121.298125,23.696848],[121.298123,23.697029],[121.298412,23.697393],[121.298611,23.697215],[121.298805,23.697307],[121.299103,23.69704],[121.299007,23.696858],[121.298712,23.696945],[121.298811,23.696856]],[[121.298712,23.696945],[121.298613,23.697034],[121.298614,23.696944],[121.298712,23.696945]]],[[[121.298407,23.697754],[121.298504,23.697846],[121.298702,23.697758],[121.298608,23.697395],[121.298411,23.697483],[121.298407,23.697754]]],[[[121.298965,23.700108],[121.298772,23.699926],[121.29878,23.699294],[121.298977,23.699205],[121.298979,23.699025],[121.299077,23.699026],[121.298982,23.698844],[121.29928,23.698486],[121.29899,23.698212],[121.298794,23.69821],[121.298793,23.6983],[121.298399,23.698386],[121.298589,23.69884],[121.298296,23.698746],[121.298197,23.698836],[121.298291,23.699198],[121.297895,23.699464],[121.297992,23.699556],[121.297883,23.700367],[121.29798,23.700459],[121.299059,23.70047],[121.298965,23.700108]],[[121.298278,23.700191],[121.298181,23.7001],[121.298279,23.700101],[121.298278,23.700191]]],[[[121.311378,23.688054],[121.31128,23.688053],[121.311282,23.687872],[121.311579,23.687695],[121.311581,23.687514],[121.311483,23.687513],[121.311585,23.687243],[121.311488,23.687152],[121.311291,23.68724],[121.311385,23.687512],[121.311088,23.68778],[121.311184,23.687871],[121.311083,23.688141],[121.311278,23.688233],[121.311378,23.688054]]],[[[121.308701,23.690372],[121.308998,23.690105],[121.308707,23.689921],[121.308711,23.68956],[121.308516,23.689467],[121.308414,23.689827],[121.308316,23.689826],[121.308408,23.690279],[121.308701,23.690372]]],[[[121.303499,23.690767],[121.303598,23.690678],[121.303502,23.690496],[121.303208,23.690493],[121.303209,23.690402],[121.302914,23.69049],[121.303007,23.690852],[121.303499,23.690767]]],[[[121.304417,23.695563],[121.304817,23.695025],[121.304723,23.694663],[121.30482,23.694755],[121.305213,23.694669],[121.305313,23.694579],[121.305217,23.694398],[121.304922,23.694485],[121.304826,23.694303],[121.30463,23.694301],[121.304431,23.694479],[121.304429,23.69466],[121.304624,23.694752],[121.304426,23.694931],[121.304423,23.695111],[121.304133,23.694837],[121.303736,23.695194],[121.30383,23.695466],[121.304127,23.695289],[121.304417,23.695563]]],[[[121.302346,23.696533],[121.302047,23.696891],[121.30214,23.697254],[121.302337,23.697165],[121.302439,23.696896],[121.302732,23.696989],[121.302733,23.696899],[121.303028,23.696812],[121.302933,23.69663],[121.302737,23.696628],[121.302935,23.69645],[121.302937,23.696269],[121.302646,23.696085],[121.302447,23.696264],[121.302542,23.696536],[121.302346,23.696533]],[[121.302542,23.696536],[121.302639,23.696627],[121.302541,23.696626],[121.302542,23.696536]]],[[[121.302043,23.697162],[121.301848,23.69707],[121.301748,23.697249],[121.301943,23.697342],[121.302043,23.697162]]],[[[121.300951,23.698234],[121.301743,23.69761],[121.301648,23.697429],[121.300765,23.697419],[121.300666,23.697508],[121.300762,23.69769],[121.301252,23.697695],[121.301251,23.697786],[121.301052,23.697964],[121.300955,23.697873],[121.300367,23.697866],[121.300268,23.697955],[121.300559,23.698229],[121.300951,23.698234]]]]}},{"type":"Feature","properties":{"kind":"water","month":"2018-01","area_ha":0.43},"geometry":{"type":"MultiPolygon","coordinates":[[[[121.308591,23.691274],[121.308788,23.691186],[121.308794,23.690735],[121.3086,23.690552],[121.308596,23.690913],[121.308694,23.690914],[121.308591,23.691274]]],[[[121.308591,23.691274],[121.308394,23.691362],[121.308194,23.691631],[121.30839,23.691633],[121.308589,23.691455],[121.308591,23.691274]]],[[[121.304024,23.695649],[121.304223,23.69547],[121.304127,23.695289],[121.30383,23.695466],[121.303729,23.695736],[121.304022,23.695829],[121.304024,23.695649]]],[[[121.303035,23.69627],[121.303135,23.696181],[121.302939,23.696179],[121.302935,23.69645],[121.302738,23.696538],[121.302932,23.69672],[121.30303,23.696721],[121.303035,23.69627]]]]}}]}