{"type":"FeatureCollection","features":[{"type":"Feature","properties":{"kind":"bare_slide","month":"2019-06","area_ha":33.77},"geometry":{"type":"MultiPolygon","coordinates":[[[[121.293974,23.714411],[121.293779,23.714318],[121.29358,23.714587],[121.293384,23.714585],[121.293185,23.714763],[121.292794,23.714669],[121.292695,23.714758],[121.292789,23.71503],[121.292495,23.715027],[121.292395,23.715206],[121.292492,23.715297],[121.292786,23.715301],[121.292787,23.71521],[121.292982,23.715303],[121.293085,23.714943],[121.293379,23.714946],[121.29338,23.714856],[121.293576,23.714858],[121.293677,23.714678],[121.293972,23.714591],[121.293974,23.714411]]],[[[121.294261,23.714956],[121.294069,23.714683],[121.293773,23.71477],[121.293867,23.715132],[121.294261,23.714956]]],[[[121.291305,23.716007],[121.291308,23.715826],[121.291504,23.715828],[121.291606,23.715559],[121.292,23.715382],[121.291904,23.715201],[121.29161,23.715197],[121.291613,23.715017],[121.29181,23.714929],[121.291715,23.714657],[121.291224,23.714742],[121.291515,23.715016],[121.291512,23.715196],[121.291315,23.715284],[121.291113,23.715734],[121.290719,23.71582],[121.291009,23.716184],[121.291305,23.716007]]],[[[121.289336,23.716617],[121.290032,23.715902],[121.290327,23.715815],[121.290232,23.715634],[121.289741,23.715628],[121.289843,23.715359],[121.290039,23.715361],[121.290139,23.715181],[121.290435,23.715094],[121.290437,23.714914],[121.290048,23.714638],[121.289753,23.714725],[121.289752,23.714816],[121.289262,23.71481],[121.289162,23.714899],[121.289259,23.714991],[121.289251,23.715623],[121.289445,23.715806],[121.289442,23.715986],[121.289244,23.716165],[121.28895,23.716161],[121.288951,23.716071],[121.288655,23.716158],[121.288559,23.716067],[121.288261,23.716334],[121.288065,23.716332],[121.288066,23.716242],[121.287869,23.71633],[121.287964,23.716512],[121.288064,23.716422],[121.28826,23.716425],[121.288259,23.716515],[121.288652,23.716429],[121.288748,23.716611],[121.289336,23.716617]]],[[[121.291771,23.717908],[121.291578,23.717635],[121.291871,23.717729],[121.292071,23.71746],[121.292267,23.717462],[121.292263,23.717823],[121.292556,23.717917],[121.29325,23.717292],[121.293254,23.717022],[121.293157,23.71693],[121.292763,23.717016],[121.292659,23.717466],[121.292561,23.717465],[121.292566,23.717104],[121.292275,23.71683],[121.291776,23.717547],[121.291483,23.717454],[121.291482,23.717544],[121.291186,23.717631],[121.291184,23.717811],[121.291475,23.718086],[121.291771,23.717908]]],[[[121.290676,23.71916],[121.290776,23.718981],[121.290873,23.719072],[121.291071,23.718984],[121.290975,23.718802],[121.290778,23.71889],[121.290683,23.718619],[121.29078,23.71871],[121.291075,23.718623],[121.291171,23.718805],[121.291367,23.718807],[121.291566,23.718628],[121.29147,23.718447],[121.291176,23.718443],[121.290982,23.718261],[121.290984,23.71808],[121.291082,23.718081],[121.290987,23.7179],[121.290692,23.717896],[121.290493,23.718165],[121.29,23.71834],[121.290384,23.718976],[121.289993,23.718882],[121.289893,23.719061],[121.290186,23.719155],[121.290281,23.719337],[121.29048,23.719158],[121.290676,23.71916]]],[[[121.284399,23.719181],[121.284499,23.719002],[121.284305,23.718819],[121.284109,23.718817],[121.283819,23.718543],[121.283724,23.718271],[121.283528,23.718268],[121.283424,23.718719],[121.283227,23.718807],[121.283124,23.719167],[121.283319,23.719259],[121.28332,23.719169],[121.283812,23.719084],[121.283907,23.719266],[121.284103,23.719268],[121.284105,23.719178],[121.284399,23.719181]]],[[[121.284003,23.719448],[121.283809,23.719265],[121.283709,23.719444],[121.283904,23.719537],[121.284003,23.719448]]],[[[121.282517,23.720605],[121.282515,23.720695],[121.282712,23.720697],[121.282813,23.720428],[121.282911,23.720429],[121.282721,23.719975],[121.283016,23.719888],[121.283014,23.720069],[121.283209,23.720161],[121.283607,23.719714],[121.283511,23.719532],[121.283118,23.719618],[121.282924,23.719436],[121.282428,23.719882],[121.282036,23.719877],[121.282035,23.719968],[121.281739,23.720055],[121.281638,23.720324],[121.282024,23.72078],[121.282517,23.720605]]],[[[121.290448,23.721596],[121.290646,23.721417],[121.290357,23.721053],[121.290461,23.720603],[121.289972,23.720507],[121.289871,23.720686],[121.290066,23.720779],[121.290062,23.72114],[121.289964,23.721139],[121.289961,23.72132],[121.289668,23.721226],[121.289469,23.721495],[121.289565,23.721586],[121.290056,23.721591],[121.290055,23.721682],[121.290448,23.721596]]],[[[121.28868,23.721757],[121.288683,23.721576],[121.288781,23.721577],[121.288685,23.721396],[121.288487,23.721574],[121.288292,23.721482],[121.28849,23.721303],[121.288395,23.721122],[121.288196,23.7213],[121.288,23.721298],[121.288001,23.721208],[121.28751,23.721292],[121.287507,23.721473],[121.287992,23.72193],[121.288482,23.721935],[121.28868,23.721757]]],[[[121.284655,23.722073],[121.284757,23.721804],[121.284854,23.721895],[121.285149,23.721808],[121.285154,23.721447],[121.285646,23.721272],[121.285454,23.720999],[121.285258,23.720997],[121.285257,23.721087],[121.284964,23.720993],[121.284864,23.721082],[121.284862,23.721263],[121.284565,23.72144],[121.284563,23.721621],[121.284465,23.72162],[121.284362,23.72198],[121.284066,23.722157],[121.284063,23.722338],[121.284355,23.722522],[121.284459,23.722071],[121.284655,23.722073]]],[[[121.295043,23.72273],[121.294751,23.722546],[121.294651,23.722726],[121.294455,23.722724],[121.294256,23.722902],[121.294253,23.723173],[121.294056,23.723171],[121.293964,23.722718],[121.293866,23.722717],[121.293871,23.722356],[121.293773,23.722355],[121.293584,23.721811],[121.292905,23.721171],[121.292915,23.720449],[121.292818,23.720358],[121.292521,23.720535],[121.292416,23.721076],[121.292121,23.721163],[121.292217,23.721344],[121.291822,23.721521],[121.292016,23.721703],[121.292011,23.722065],[121.292402,23.722159],[121.292496,23.722521],[121.292689,23.722704],[121.293083,23.722618],[121.293664,23.723166],[121.293561,23.723526],[121.293853,23.72371],[121.29385,23.723981],[121.294238,23.724256],[121.294236,23.724437],[121.29384,23.724703],[121.293837,23.724974],[121.293739,23.724973],[121.293834,23.725155],[121.293637,23.725243],[121.293733,23.725425],[121.293832,23.725335],[121.294125,23.725429],[121.294123,23.72561],[121.293629,23.725875],[121.293723,23.726147],[121.29392,23.726149],[121.293922,23.725969],[121.294314,23.725973],[121.294217,23.725881],[121.294317,23.725792],[121.294223,23.72543],[121.294422,23.725252],[121.294329,23.724799],[121.294428,23.7248],[121.294529,23.72453],[121.294725,23.724533],[121.294915,23.724986],[121.295403,23.725172],[121.295301,23.725532],[121.295692,23.725627],[121.295884,23.7259],[121.296473,23.725906],[121.296371,23.726176],[121.296566,23.726269],[121.296567,23.726178],[121.296863,23.726091],[121.296865,23.725911],[121.29667,23.725818],[121.296672,23.725638],[121.296574,23.725637],[121.296676,23.725367],[121.296383,23.725273],[121.296385,23.725093],[121.296583,23.725005],[121.29658,23.725185],[121.296775,23.725278],[121.297073,23.72501],[121.297075,23.724829],[121.297466,23.724924],[121.297863,23.724567],[121.297868,23.724206],[121.297575,23.724113],[121.297275,23.724561],[121.296981,23.724557],[121.296782,23.724736],[121.296785,23.724555],[121.296883,23.724556],[121.296789,23.724194],[121.296987,23.724106],[121.296989,23.723925],[121.297187,23.723747],[121.296894,23.723654],[121.296604,23.723379],[121.296505,23.723469],[121.296497,23.72401],[121.296301,23.724008],[121.296201,23.724188],[121.295809,23.724183],[121.295707,23.724453],[121.295511,23.724451],[121.29551,23.724541],[121.295413,23.72445],[121.294921,23.724535],[121.294631,23.724261],[121.294926,23.724174],[121.295026,23.723994],[121.294833,23.723811],[121.294637,23.723809],[121.294547,23.723176],[121.294646,23.723087],[121.294841,23.723179],[121.29494,23.72309],[121.294844,23.722909],[121.295043,23.72273]],[[121.294844,23.722909],[121.294748,23.722817],[121.294846,23.722818],[121.294844,23.722909]],[[121.296378,23.725634],[121.296381,23.725454],[121.296479,23.725455],[121.296476,23.725635],[121.296378,23.725634]],[[121.295507,23.724722],[121.295411,23.72463],[121.295509,23.724632],[121.295507,23.724722]],[[121.294249,23.723444],[121.294152,23.723352],[121.29425,23.723353],[121.294249,23.723444]]],[[[121.300431,23.708071],[121.30014,23.707797],[121.299846,23.707793],[121.299746,23.707973],[121.300035,23.708337],[121.300328,23.708431],[121.300431,23.708071]]],[[[121.301017,23.708258],[121.301016,23.708348],[121.301311,23.708261],[121.301022,23.707897],[121.300532,23.707891],[121.300432,23.70798],[121.300528,23.708162],[121.301017,23.708258]]],[[[121.301273,23.71124],[121.300788,23.710784],[121.300791,23.710603],[121.300498,23.710509],[121.30011,23.710144],[121.300112,23.709963],[121.299823,23.709599],[121.299432,23.709504],[121.299336,23.709323],[121.299139,23.709411],[121.299623,23.709868],[121.29962,23.710139],[121.299913,23.710232],[121.300299,23.710688],[121.300592,23.710781],[121.300589,23.711052],[121.300782,23.711235],[121.300979,23.711237],[121.301074,23.711419],[121.301273,23.71124]]],[[[121.298025,23.712108],[121.29803,23.711747],[121.297836,23.711564],[121.297639,23.711652],[121.297636,23.711833],[121.296852,23.711824],[121.296753,23.711913],[121.296848,23.712095],[121.297339,23.7121],[121.297338,23.71219],[121.297632,23.712194],[121.297631,23.712284],[121.298025,23.712108]]],[[[121.295156,23.714063],[121.29575,23.713618],[121.295753,23.713347],[121.296149,23.71308],[121.296154,23.712719],[121.296252,23.71272],[121.296157,23.712448],[121.29596,23.712536],[121.295957,23.712807],[121.295759,23.712895],[121.295757,23.713076],[121.295263,23.713341],[121.295358,23.713613],[121.294961,23.71397],[121.295156,23.714063]]],[[[121.301423,23.714764],[121.30162,23.714676],[121.301524,23.714584],[121.301529,23.714133],[121.301628,23.714134],[121.301731,23.713684],[121.301929,23.713595],[121.302132,23.713056],[121.30155,23.712508],[121.301554,23.712237],[121.301359,23.712144],[121.301259,23.712324],[121.301063,23.712322],[121.300864,23.7125],[121.300961,23.712591],[121.300854,23.713313],[121.300952,23.713314],[121.301044,23.713766],[121.301239,23.713859],[121.301234,23.71422],[121.301136,23.714219],[121.301033,23.714579],[121.301227,23.714762],[121.301326,23.714672],[121.301423,23.714764]]],[[[121.298185,23.714909],[121.298284,23.71482],[121.298194,23.714186],[121.297514,23.713727],[121.297414,23.713817],[121.297409,23.714268],[121.296912,23.714714],[121.297009,23.714805],[121.297304,23.714809],[121.297305,23.714718],[121.297696,23.714813],[121.297986,23.715087],[121.298183,23.715089],[121.298282,23.715],[121.298185,23.714909]]],[[[121.296627,23.721574],[121.296729,23.721304],[121.296827,23.721305],[121.296735,23.720852],[121.297129,23.720676],[121.297134,23.720315],[121.297036,23.720314],[121.297143,23.719593],[121.297046,23.719501],[121.29675,23.719679],[121.296644,23.72031],[121.296446,23.720398],[121.296444,23.720578],[121.296542,23.720579],[121.296436,23.72121],[121.296042,23.721296],[121.296235,23.721569],[121.296334,23.72148],[121.296627,23.721574]]],[[[121.304329,23.72518],[121.304237,23.724728],[121.304043,23.724545],[121.303847,23.724543],[121.303751,23.724361],[121.303554,23.724449],[121.303459,23.724177],[121.303361,23.724176],[121.30346,23.724087],[121.303368,23.723634],[121.303565,23.723546],[121.303477,23.722823],[121.303774,23.722555],[121.30397,23.722557],[121.304072,23.722288],[121.303975,23.722196],[121.303876,23.722285],[121.3027,23.722182],[121.302506,23.722],[121.302509,23.721819],[121.302314,23.721727],[121.302213,23.721906],[121.302503,23.72227],[121.302499,23.722541],[121.302596,23.722633],[121.302892,23.722546],[121.302984,23.722998],[121.302788,23.722996],[121.302595,23.722723],[121.302398,23.722811],[121.302393,23.723172],[121.302097,23.72335],[121.302193,23.723441],[121.302188,23.723892],[121.302579,23.723987],[121.302578,23.724077],[121.30307,23.723902],[121.303064,23.724353],[121.303355,23.724628],[121.30365,23.72454],[121.303647,23.724811],[121.303939,23.724995],[121.304033,23.725267],[121.30423,23.725269],[121.304329,23.72518]]],[[[121.302064,23.725878],[121.302165,23.725608],[121.302359,23.72579],[121.302557,23.725702],[121.302464,23.72525],[121.302761,23.725073],[121.302767,23.724621],[121.302865,23.724622],[121.30277,23.72435],[121.302573,23.724438],[121.30237,23.724978],[121.301881,23.724882],[121.301781,23.724971],[121.301876,23.725243],[121.301381,23.725599],[121.301477,23.725781],[121.301673,23.725783],[121.301767,23.726055],[121.302064,23.725878]]],[[[121.306248,23.728452],[121.30625,23.728271],[121.305959,23.728087],[121.305962,23.727817],[121.305671,23.727543],[121.305674,23.727362],[121.305189,23.726905],[121.304993,23.726903],[121.304604,23.726628],[121.304713,23.725816],[121.304519,23.725634],[121.304323,23.725631],[121.304124,23.72581],[121.304212,23.726624],[121.304406,23.726806],[121.304207,23.726985],[121.304203,23.727346],[121.304594,23.72744],[121.304694,23.727261],[121.30489,23.727263],[121.305181,23.727537],[121.305179,23.727718],[121.305374,23.72781],[121.305367,23.728352],[121.30556,23.728535],[121.30605,23.72863],[121.306248,23.728452]]],[[[121.302351,23.726422],[121.302056,23.72651],[121.302053,23.72669],[121.302151,23.726691],[121.302051,23.726871],[121.302245,23.727053],[121.302441,23.727056],[121.302535,23.727328],[121.302339,23.727325],[121.302244,23.727144],[121.301756,23.726958],[121.301655,23.727137],[121.301948,23.727231],[121.301944,23.727592],[121.301745,23.72777],[121.302234,23.727866],[121.30233,23.728048],[121.30282,23.728053],[121.302821,23.727963],[121.303115,23.728056],[121.303214,23.727967],[121.303118,23.727785],[121.302629,23.72769],[121.302831,23.72724],[121.30254,23.726966],[121.302542,23.726786],[121.302348,23.726693],[121.302447,23.726604],[121.302351,23.726422]],[[121.302348,23.726693],[121.302248,23.726783],[121.302249,23.726692],[121.302348,23.726693]],[[121.302335,23.727687],[121.302434,23.727597],[121.302433,23.727688],[121.302335,23.727687]]]]}},{"type":"Feature","properties":{"kind":"bare_dam","month":"2019-06","area_ha":20.74},"geometry":{"type":"MultiPolygon","coordinates":[[[[121.2983,23.69089],[121.298303,23.69071],[121.297818,23.690253],[121.297522,23.69043],[121.297615,23.690793],[121.297809,23.690975],[121.2983,23.69089]]],[[[121.299683,23.690093],[121.299192,23.690178],[121.299093,23.690267],[121.299187,23.690539],[121.298989,23.690717],[121.298498,23.690802],[121.298593,23.690984],[121.298789,23.690986],[121.298785,23.691347],[121.299078,23.691441],[121.299076,23.691531],[121.299371,23.691534],[121.299372,23.691444],[121.299665,23.691537],[121.299764,23.691448],[121.299669,23.691176],[121.299865,23.691178],[121.300058,23.691452],[121.300254,23.691454],[121.300255,23.691363],[121.300352,23.691455],[121.301431,23.691467],[121.301526,23.691648],[121.301822,23.691561],[121.30182,23.691651],[121.302409,23.691658],[121.302408,23.691748],[121.302604,23.69175],[121.302605,23.69166],[121.303094,23.691756],[121.303193,23.691667],[121.303097,23.691485],[121.302998,23.691574],[121.302705,23.691481],[121.302706,23.69139],[121.302411,23.691477],[121.302122,23.691113],[121.301827,23.69111],[121.301829,23.691019],[121.301533,23.691107],[121.301438,23.690925],[121.301242,23.690923],[121.301043,23.691101],[121.300949,23.690829],[121.300652,23.691007],[121.300654,23.690826],[121.300752,23.690827],[121.30066,23.690375],[121.30125,23.690291],[121.301349,23.690201],[121.301253,23.69002],[121.300861,23.690016],[121.300765,23.689834],[121.30008,23.689736],[121.299979,23.690006],[121.29978,23.690184],[121.299683,23.690093]],[[121.30075,23.691008],[121.300847,23.691099],[121.300749,23.691098],[121.30075,23.691008]],[[121.299878,23.690185],[121.299877,23.690276],[121.300172,23.690189],[121.300065,23.69091],[121.299869,23.690908],[121.299874,23.690546],[121.29968,23.690364],[121.299878,23.690185]],[[121.300565,23.690193],[121.300468,23.690102],[121.300566,23.690103],[121.300565,23.690193]]],[[[121.300531,23.692811],[121.300143,23.692446],[121.299848,23.692533],[121.299558,23.692168],[121.299362,23.692166],[121.299263,23.692255],[121.299358,23.692527],[121.298961,23.692884],[121.298765,23.692882],[121.298663,23.693152],[121.299051,23.693517],[121.299444,23.693431],[121.299442,23.693612],[121.299146,23.693699],[121.29924,23.694061],[121.299631,23.694156],[121.299632,23.694066],[121.299927,23.693978],[121.300023,23.69416],[121.300316,23.694254],[121.300417,23.693984],[121.300124,23.69389],[121.300126,23.6938],[121.300621,23.693444],[121.300527,23.693082],[121.300332,23.69299],[121.300531,23.692811]],[[121.300331,23.69308],[121.300135,23.693078],[121.30004,23.692806],[121.300139,23.692807],[121.300331,23.69308]]],[[[121.301878,23.694813],[121.302171,23.694906],[121.302271,23.694727],[121.30198,23.694452],[121.301784,23.69445],[121.30159,23.694268],[121.301593,23.694087],[121.301301,23.693903],[121.301003,23.694171],[121.301001,23.694351],[121.301489,23.694537],[121.30168,23.694901],[121.301876,23.694903],[121.301878,23.694813]]],[[[121.301251,23.697786],[121.301546,23.697699],[121.301353,23.697425],[121.300765,23.697419],[121.300567,23.697597],[121.300662,23.697779],[121.300859,23.697781],[121.30086,23.697691],[121.301252,23.697695],[121.301251,23.697786]]],[[[121.299157,23.700472],[121.298963,23.700289],[121.298871,23.699836],[121.298773,23.699835],[121.298777,23.699474],[121.299076,23.699116],[121.299081,23.698755],[121.299179,23.698756],[121.299381,23.698307],[121.299871,23.698312],[121.300267,23.698046],[121.299977,23.697681],[121.300271,23.697685],[121.300471,23.697416],[121.300374,23.697324],[121.299884,23.697319],[121.299686,23.697497],[121.29978,23.697769],[121.298895,23.69794],[121.298898,23.69776],[121.298996,23.697761],[121.2989,23.697579],[121.298998,23.69758],[121.299102,23.69713],[121.2992,23.697131],[121.299108,23.696678],[121.298913,23.696586],[121.298925,23.695683],[121.299024,23.695594],[121.298539,23.695137],[121.298245,23.695134],[121.297955,23.69486],[121.297756,23.695038],[121.297745,23.695941],[121.298036,23.696125],[121.298123,23.697029],[121.298511,23.697304],[121.298306,23.698024],[121.298403,23.698115],[121.298698,23.698028],[121.298697,23.698119],[121.298498,23.698297],[121.298304,23.698205],[121.298102,23.698654],[121.298004,23.698653],[121.298196,23.698926],[121.298392,23.698928],[121.29839,23.699109],[121.298193,23.699197],[121.297999,23.699014],[121.297896,23.699374],[121.297499,23.699731],[121.297792,23.699824],[121.297888,23.700006],[121.298281,23.69992],[121.298764,23.700467],[121.299157,23.700472]]],[[[121.29525,23.699255],[121.295643,23.699169],[121.295843,23.6989],[121.296234,23.698995],[121.296336,23.698725],[121.296239,23.698633],[121.295748,23.698628],[121.295252,23.699074],[121.295056,23.699072],[121.294863,23.698889],[121.294665,23.698977],[121.294858,23.69925],[121.295054,23.699253],[121.295055,23.699162],[121.295251,23.699164],[121.29525,23.699255]]],[[[121.311282,23.687872],[121.311579,23.687695],[121.311486,23.687332],[121.311684,23.687154],[121.31188,23.687156],[121.311976,23.687338],[121.312172,23.68734],[121.31237,23.687162],[121.312178,23.686889],[121.311883,23.686885],[121.311882,23.686976],[121.311589,23.686882],[121.311591,23.686792],[121.311393,23.68688],[121.311389,23.687241],[121.311291,23.68724],[121.311385,23.687512],[121.311287,23.687511],[121.311186,23.687781],[121.311282,23.687872]]],[[[121.312658,23.687616],[121.312757,23.687617],[121.312759,23.687437],[121.312467,23.687253],[121.312269,23.687431],[121.312362,23.687794],[121.312557,23.687886],[121.312658,23.687616]]],[[[121.310784,23.688499],[121.31098,23.688501],[121.31118,23.688232],[121.310887,23.688139],[121.310391,23.688585],[121.310586,23.688677],[121.310784,23.688499]]],[[[121.310734,23.692381],[121.311329,23.691846],[121.31104,23.691481],[121.310746,23.691478],[121.31065,23.691297],[121.310454,23.691294],[121.31026,23.691112],[121.309966,23.691109],[121.309967,23.691018],[121.309771,23.691016],[121.30977,23.691106],[121.309281,23.691011],[121.309182,23.6911],[121.308988,23.690917],[121.308896,23.690465],[121.308501,23.690641],[121.308498,23.690912],[121.3084,23.690911],[121.308396,23.691182],[121.308298,23.691181],[121.308295,23.691451],[121.308197,23.69145],[121.308291,23.691722],[121.308589,23.691455],[121.308785,23.691457],[121.308784,23.691547],[121.30898,23.691549],[121.309076,23.691731],[121.309272,23.691733],[121.309367,23.691915],[121.309563,23.691917],[121.309952,23.692192],[121.310344,23.692196],[121.310538,23.692379],[121.310734,23.692381]]],[[[121.304462,23.692132],[121.304658,23.692134],[121.304758,23.691955],[121.304661,23.691863],[121.304562,23.691952],[121.303582,23.691942],[121.303388,23.691759],[121.303093,23.691846],[121.303285,23.692119],[121.303872,23.692216],[121.303871,23.692306],[121.304361,23.692311],[121.304462,23.692132]]],[[[121.306516,23.692516],[121.30681,23.692519],[121.307208,23.692072],[121.307111,23.69198],[121.30613,23.69206],[121.306131,23.69197],[121.305838,23.691876],[121.305746,23.691424],[121.305452,23.69142],[121.305154,23.691688],[121.305152,23.691869],[121.304756,23.692135],[121.30495,23.692318],[121.305248,23.69196],[121.305641,23.691964],[121.305931,23.692238],[121.306025,23.692601],[121.306416,23.692695],[121.306516,23.692516]]],[[[121.303248,23.695008],[121.303445,23.69492],[121.303253,23.694647],[121.302468,23.694638],[121.30227,23.694817],[121.302365,23.694999],[121.302562,23.695001],[121.302656,23.695273],[121.303048,23.695277],[121.303144,23.695459],[121.30344,23.695281],[121.303345,23.6951],[121.303051,23.695096],[121.303151,23.694917],[121.303248,23.695008]],[[121.302758,23.695003],[121.302759,23.694913],[121.303053,23.694916],[121.303052,23.695006],[121.302758,23.695003]]]]}},{"type":"Feature","properties":{"kind":"water","month":"2019-06","area_ha":0.22},"geometry":{"type":"MultiPolygon","coordinates":[[[[121.300368,23.697776],[121.30037,23.697686],[121.300566,23.697688],[121.300765,23.697419],[121.300569,23.697417],[121.300271,23.697685],[121.299977,23.697681],[121.299976,23.697772],[121.300368,23.697776]]],[[[121.299189,23.697944],[121.299191,23.697853],[121.299485,23.697856],[121.299487,23.697676],[121.298898,23.69776],[121.298895,23.69794],[121.299189,23.697944]]]]}}]}