{"type":"FeatureCollection","features":[{"type":"Feature","properties":{"kind":"bare_slide","month":"2019-04","area_ha":9.41},"geometry":{"type":"MultiPolygon","coordinates":[[[[121.283861,23.715292],[121.28406,23.715114],[121.284453,23.715028],[121.284455,23.714847],[121.284067,23.714572],[121.284171,23.714122],[121.284467,23.713945],[121.284374,23.713582],[121.284079,23.713669],[121.282987,23.71465],[121.283079,23.715103],[121.283275,23.715105],[121.283573,23.714838],[121.283571,23.715018],[121.283861,23.715292]]],[[[121.284623,23.717016],[121.285018,23.71684],[121.285024,23.716389],[121.285221,23.716301],[121.285125,23.716119],[121.285323,23.716031],[121.285227,23.715849],[121.284834,23.715935],[121.284635,23.716114],[121.284633,23.716294],[121.284826,23.716477],[121.284529,23.716744],[121.284432,23.716653],[121.284235,23.716741],[121.28433,23.716923],[121.284528,23.716835],[121.284623,23.717016]]],[[[121.2892,23.719505],[121.288916,23.71878],[121.288327,23.718773],[121.288029,23.719041],[121.288124,23.719313],[121.288422,23.719045],[121.288618,23.719047],[121.288711,23.719409],[121.288908,23.719321],[121.289003,23.719593],[121.2892,23.719505]]],[[[121.283109,23.720341],[121.282915,23.720158],[121.282917,23.719977],[121.283116,23.719799],[121.283312,23.719801],[121.283506,23.719984],[121.283706,23.719625],[121.284297,23.719451],[121.284595,23.719183],[121.284886,23.719457],[121.285183,23.71919],[121.285186,23.719009],[121.284893,23.718916],[121.284891,23.719006],[121.284596,23.719093],[121.284403,23.71882],[121.28411,23.718726],[121.284016,23.718454],[121.28382,23.718452],[121.283529,23.718178],[121.283324,23.718898],[121.283714,23.719083],[121.283614,23.719172],[121.283709,23.719444],[121.283217,23.719529],[121.283319,23.719259],[121.283124,23.719167],[121.283022,23.719437],[121.282528,23.719702],[121.282526,23.719883],[121.282818,23.720067],[121.282718,23.720246],[121.282911,23.720429],[121.283109,23.720341]],[[121.284009,23.718996],[121.28391,23.719085],[121.283911,23.718995],[121.284009,23.718996]]],[[[121.284772,23.72063],[121.284874,23.72036],[121.285071,23.720272],[121.285073,23.720092],[121.285565,23.720007],[121.285665,23.719827],[121.285861,23.719829],[121.285956,23.720101],[121.285857,23.720191],[121.285661,23.720188],[121.285662,23.720098],[121.285268,23.720184],[121.285167,23.720454],[121.285069,23.720453],[121.285261,23.720726],[121.285757,23.72028],[121.286247,23.720375],[121.286449,23.719926],[121.286739,23.7202],[121.287328,23.720207],[121.287625,23.719939],[121.287238,23.719574],[121.287042,23.719572],[121.286941,23.719751],[121.286649,23.719567],[121.286648,23.719657],[121.286354,23.719654],[121.286254,23.719834],[121.286058,23.719832],[121.285864,23.719649],[121.285866,23.719468],[121.285671,23.719376],[121.28567,23.719466],[121.285375,23.719553],[121.285371,23.719824],[121.285175,23.719822],[121.285174,23.719912],[121.284881,23.719818],[121.284681,23.720087],[121.284386,23.720174],[121.284383,23.720355],[121.284481,23.720356],[121.28438,23.720626],[121.284477,23.720717],[121.284772,23.72063]]],[[[121.288482,23.721935],[121.288782,23.721487],[121.288685,23.721396],[121.288488,23.721484],[121.28849,23.721303],[121.288588,23.721304],[121.288692,23.720854],[121.28889,23.720766],[121.288892,23.720585],[121.288208,23.720397],[121.288106,23.720667],[121.288301,23.720759],[121.288202,23.720849],[121.288296,23.721121],[121.288098,23.721299],[121.287904,23.721116],[121.287708,23.721114],[121.28741,23.721382],[121.287407,23.721652],[121.287504,23.721744],[121.287701,23.721656],[121.287992,23.72193],[121.288482,23.721935]]],[[[121.294216,23.725972],[121.294318,23.725702],[121.294416,23.725703],[121.294422,23.725252],[121.294619,23.725164],[121.294523,23.724982],[121.294228,23.725069],[121.294224,23.72534],[121.294027,23.725428],[121.294025,23.725608],[121.293829,23.725606],[121.293432,23.725963],[121.293429,23.726144],[121.29392,23.726149],[121.293922,23.725969],[121.294216,23.725972]]],[[[121.303213,23.728057],[121.303312,23.727968],[121.303314,23.727788],[121.302923,23.727693],[121.302924,23.727603],[121.302336,23.727596],[121.302137,23.727775],[121.302232,23.728047],[121.302624,23.728051],[121.302623,23.728141],[121.302722,23.728052],[121.303213,23.728057]]],[[[121.306351,23.728092],[121.306058,23.727998],[121.305962,23.727817],[121.305764,23.727995],[121.305471,23.727902],[121.305367,23.728352],[121.30556,23.728535],[121.306246,23.728632],[121.306345,23.728543],[121.306351,23.728092]]]]}},{"type":"Feature","properties":{"kind":"bare_dam","month":"2019-04","area_ha":12.33},"geometry":{"type":"MultiPolygon","coordinates":[[[[121.299142,23.69406],[121.299146,23.693699],[121.298758,23.693424],[121.298659,23.693513],[121.298751,23.693966],[121.298944,23.694148],[121.299142,23.69406]]],[[[121.298636,23.695228],[121.298444,23.694955],[121.298248,23.694953],[121.298253,23.694502],[121.298451,23.694414],[121.298455,23.694053],[121.29826,23.69396],[121.297963,23.694228],[121.298056,23.69459],[121.297958,23.694589],[121.297854,23.695039],[121.297461,23.695125],[121.297557,23.695307],[121.297753,23.695309],[121.297748,23.69567],[121.29755,23.695849],[121.297645,23.69603],[121.297841,23.696032],[121.29784,23.696123],[121.298037,23.696035],[121.297943,23.695763],[121.298636,23.695228]]],[[[121.298635,23.695319],[121.298927,23.695503],[121.299027,23.695323],[121.298736,23.695139],[121.298734,23.69523],[121.298636,23.695228],[121.298635,23.695319]]],[[[121.298802,23.697578],[121.299296,23.697313],[121.299298,23.697132],[121.300085,23.69696],[121.300087,23.696779],[121.299892,23.696687],[121.299993,23.696508],[121.299798,23.696415],[121.2999,23.696055],[121.299705,23.695963],[121.299708,23.695782],[121.299806,23.695783],[121.299714,23.695331],[121.299416,23.695598],[121.299411,23.695959],[121.299313,23.695958],[121.299409,23.69614],[121.299311,23.696139],[121.299206,23.69668],[121.298913,23.696586],[121.298814,23.696675],[121.298907,23.697037],[121.298611,23.697215],[121.298608,23.697395],[121.298802,23.697578]]],[[[121.29349,23.698874],[121.294176,23.698882],[121.294277,23.698702],[121.293886,23.698608],[121.293887,23.698517],[121.293002,23.698688],[121.293291,23.699052],[121.29349,23.698874]]],[[[121.296625,23.699089],[121.296141,23.698632],[121.295846,23.698629],[121.295845,23.698719],[121.29555,23.698806],[121.295743,23.699079],[121.296234,23.698995],[121.296427,23.699268],[121.296625,23.699089]]],[[[121.302818,23.690308],[121.302723,23.690126],[121.302429,23.690123],[121.302431,23.689942],[121.303116,23.69004],[121.303216,23.689861],[121.303023,23.689678],[121.302532,23.689673],[121.302531,23.689763],[121.302237,23.68976],[121.302235,23.68994],[121.301941,23.689937],[121.302034,23.690299],[121.30223,23.690301],[121.302231,23.690211],[121.302425,23.690394],[121.302818,23.690308]]],[[[121.304569,23.691411],[121.304374,23.691318],[121.30428,23.691046],[121.304084,23.691044],[121.30389,23.690861],[121.304187,23.690594],[121.30419,23.690413],[121.303802,23.690048],[121.303313,23.689952],[121.302916,23.690309],[121.303012,23.690491],[121.303503,23.690406],[121.303697,23.690588],[121.303695,23.690769],[121.303496,23.690947],[121.303887,23.691042],[121.304371,23.691589],[121.304569,23.691411]]],[[[121.303666,23.693026],[121.303759,23.693388],[121.304054,23.693301],[121.304246,23.693665],[121.304444,23.693486],[121.304639,23.693579],[121.304838,23.6934],[121.304842,23.693039],[121.305136,23.693042],[121.305138,23.692952],[121.305531,23.692866],[121.305436,23.692594],[121.305338,23.692593],[121.30544,23.692323],[121.305147,23.69223],[121.304849,23.692497],[121.304946,23.692589],[121.304845,23.692858],[121.304552,23.692765],[121.304553,23.692675],[121.304064,23.692579],[121.304065,23.692489],[121.304555,23.692494],[121.304652,23.692585],[121.304752,23.692406],[121.304268,23.691949],[121.303876,23.691945],[121.303586,23.691581],[121.303293,23.691487],[121.303296,23.691306],[121.303494,23.691128],[121.303397,23.691037],[121.303004,23.691123],[121.303009,23.690761],[121.302911,23.69076],[121.302816,23.690488],[121.302424,23.690484],[121.302425,23.690394],[121.302326,23.690483],[121.301542,23.690474],[121.301442,23.690564],[121.301538,23.690745],[121.301341,23.690833],[121.301136,23.691463],[121.300645,23.691548],[121.300644,23.691639],[121.300448,23.691636],[121.300352,23.691455],[121.300058,23.691452],[121.299955,23.691812],[121.299659,23.691989],[121.299657,23.692169],[121.300044,23.692535],[121.300338,23.692538],[121.300434,23.69272],[121.300631,23.692632],[121.300633,23.692451],[121.300928,23.692454],[121.300926,23.692545],[121.301219,23.692638],[121.301321,23.692368],[121.30093,23.692274],[121.301033,23.691914],[121.301328,23.691827],[121.301326,23.692007],[121.301715,23.692192],[121.301915,23.691923],[121.301526,23.691648],[121.301529,23.691468],[121.301727,23.691289],[121.302511,23.691298],[121.302899,23.691663],[121.302897,23.691844],[121.303478,23.692392],[121.303674,23.692394],[121.303668,23.692846],[121.30357,23.692845],[121.303568,23.693025],[121.303666,23.693026]],[[121.304065,23.692489],[121.303968,23.692397],[121.304066,23.692398],[121.304065,23.692489]],[[121.301328,23.691827],[121.301427,23.691737],[121.301426,23.691828],[121.301328,23.691827]],[[121.303674,23.692394],[121.303773,23.692305],[121.303772,23.692395],[121.303674,23.692394]]],[[[121.30343,23.696094],[121.303431,23.696003],[121.303724,23.696097],[121.303824,23.695918],[121.303728,23.695826],[121.303432,23.695913],[121.303337,23.695732],[121.303044,23.695638],[121.302941,23.695998],[121.303135,23.696181],[121.30343,23.696094]]],[[[121.303028,23.696812],[121.30293,23.696811],[121.302934,23.69654],[121.30274,23.696357],[121.302445,23.696444],[121.302443,23.696625],[121.30283,23.69699],[121.303028,23.696812]]],[[[121.30095,23.698324],[121.301642,23.69788],[121.301449,23.697607],[121.301057,23.697603],[121.300957,23.697782],[121.30115,23.697965],[121.301051,23.698054],[121.300758,23.697961],[121.300559,23.698229],[121.30095,23.698324]]]]}},{"type":"Feature","properties":{"kind":"water","month":"2019-04","area_ha":3.4},"geometry":{"type":"MultiPolygon","coordinates":[[[[121.303213,23.690132],[121.303214,23.690041],[121.302431,23.689942],[121.302429,23.690123],[121.302919,23.690128],[121.302918,23.690219],[121.303213,23.690132]]],[[[121.308702,23.690282],[121.308706,23.690011],[121.308511,23.689919],[121.308505,23.69037],[121.308702,23.690282]]],[[[121.303013,23.6904],[121.30272,23.690307],[121.302719,23.690397],[121.302425,23.690394],[121.302424,23.690484],[121.303012,23.690491],[121.303013,23.6904]]],[[[121.302329,23.690212],[121.302034,23.690299],[121.301941,23.689937],[121.301449,23.690022],[121.301355,23.68975],[121.300374,23.689739],[121.300268,23.69037],[121.300366,23.690371],[121.30036,23.690823],[121.300555,23.690915],[121.300551,23.691276],[121.300353,23.691364],[121.300351,23.691545],[121.300644,23.691639],[121.300645,23.691548],[121.301136,23.691463],[121.30124,23.691013],[121.301538,23.690745],[121.301443,23.690473],[121.302326,23.690483],[121.302425,23.690394],[121.302329,23.690212]]],[[[121.308591,23.691274],[121.30879,23.691096],[121.308986,23.691098],[121.308989,23.690827],[121.308794,23.690735],[121.308798,23.690464],[121.308603,23.690371],[121.308495,23.691092],[121.308594,23.691094],[121.308591,23.691274]]],[[[121.310738,23.69211],[121.31074,23.69193],[121.310543,23.692018],[121.310545,23.691837],[121.310054,23.691922],[121.309861,23.691649],[121.309566,23.691736],[121.309565,23.691827],[121.309761,23.691829],[121.309855,23.692101],[121.310247,23.692105],[121.310246,23.692195],[121.31054,23.692198],[121.310539,23.692289],[121.310738,23.69211]]],[[[121.291345,23.697947],[121.291441,23.698039],[121.291443,23.697948],[121.291345,23.697947]]],[[[121.291733,23.698223],[121.291927,23.698405],[121.292027,23.698226],[121.291831,23.698224],[121.291834,23.698043],[121.291441,23.698039],[121.291439,23.698219],[121.291733,23.698223]]]]}}]}