{"type":"FeatureCollection","features":[{"type":"Feature","properties":{"kind":"bare_slide","month":"2019-02","area_ha":54.15},"geometry":{"type":"MultiPolygon","coordinates":[[[[121.294177,23.713871],[121.293184,23.714854],[121.292891,23.71476],[121.292892,23.71467],[121.292696,23.714668],[121.292596,23.714847],[121.292889,23.714941],[121.292887,23.715031],[121.293083,23.715033],[121.293085,23.714943],[121.293476,23.715037],[121.293773,23.71477],[121.29377,23.715041],[121.293965,23.715133],[121.294164,23.714864],[121.293874,23.71459],[121.29407,23.714592],[121.294263,23.714866],[121.294461,23.714687],[121.294657,23.714689],[121.29496,23.714061],[121.295452,23.713885],[121.29575,23.713618],[121.295752,23.713437],[121.296049,23.71326],[121.296253,23.71263],[121.295961,23.712446],[121.295857,23.712897],[121.295067,23.713339],[121.295261,23.713522],[121.295061,23.713791],[121.294766,23.713878],[121.294573,23.713605],[121.294377,23.713603],[121.294277,23.713782],[121.29447,23.713965],[121.294177,23.713871]],[[121.294077,23.714051],[121.294174,23.714142],[121.294076,23.714141],[121.294077,23.714051]]],[[[121.290327,23.715815],[121.290133,23.715633],[121.28974,23.715719],[121.289742,23.715538],[121.290435,23.715094],[121.290339,23.714912],[121.289458,23.714812],[121.289456,23.714903],[121.289063,23.714989],[121.28916,23.71508],[121.28906,23.71526],[121.289254,23.715352],[121.28925,23.715713],[121.28954,23.715987],[121.289739,23.715809],[121.289935,23.715811],[121.290226,23.716085],[121.290325,23.715996],[121.290327,23.715815]]],[[[121.284244,23.716019],[121.284346,23.715749],[121.284055,23.715475],[121.283859,23.715473],[121.283758,23.715652],[121.283367,23.715558],[121.283169,23.715736],[121.283265,23.715918],[121.283852,23.716015],[121.283947,23.716196],[121.284244,23.716019]]],[[[121.286809,23.714873],[121.286612,23.714962],[121.286707,23.715143],[121.286511,23.715141],[121.286411,23.715321],[121.286215,23.715318],[121.285819,23.715585],[121.285427,23.715581],[121.285128,23.715938],[121.284834,23.715935],[121.284535,23.716293],[121.284339,23.716291],[121.284239,23.71638],[121.284233,23.716831],[121.284135,23.71683],[121.284231,23.717012],[121.284819,23.717019],[121.284919,23.716929],[121.284824,23.716657],[121.284922,23.716659],[121.284926,23.716388],[121.285123,23.7163],[121.285125,23.716119],[121.285617,23.716034],[121.285717,23.715855],[121.285913,23.715857],[121.286211,23.715589],[121.286407,23.715591],[121.286988,23.71614],[121.287284,23.716053],[121.287281,23.716233],[121.286587,23.716858],[121.286095,23.716942],[121.286483,23.717308],[121.286478,23.717669],[121.286082,23.717936],[121.286275,23.718209],[121.286471,23.718211],[121.286469,23.718391],[121.285977,23.718476],[121.28617,23.718749],[121.286366,23.718751],[121.286466,23.718572],[121.287055,23.718578],[121.28715,23.71876],[121.287445,23.718763],[121.28754,23.718945],[121.287736,23.718947],[121.287838,23.718677],[121.288133,23.71859],[121.28853,23.718234],[121.288534,23.717963],[121.288143,23.717868],[121.287845,23.718136],[121.287649,23.718133],[121.28765,23.718043],[121.286864,23.718125],[121.286768,23.718033],[121.286872,23.717583],[121.287166,23.717586],[121.287266,23.717407],[121.287657,23.717501],[121.287858,23.717143],[121.288152,23.717146],[121.28815,23.717326],[121.288441,23.7176],[121.288637,23.717603],[121.288732,23.717784],[121.289126,23.717698],[121.289127,23.717608],[121.289422,23.717521],[121.289524,23.717251],[121.289621,23.717343],[121.289818,23.717255],[121.28982,23.717074],[121.289722,23.717073],[121.289824,23.716803],[121.290414,23.716719],[121.290516,23.716359],[121.29081,23.716362],[121.291307,23.715916],[121.291309,23.715736],[121.291114,23.715643],[121.29032,23.716357],[121.290026,23.716354],[121.290025,23.716444],[121.289829,23.716442],[121.28954,23.715987],[121.289243,23.716255],[121.288948,23.716252],[121.28895,23.716161],[121.288556,23.716247],[121.288659,23.715887],[121.288855,23.715889],[121.288854,23.71598],[121.289149,23.715893],[121.288959,23.715439],[121.288267,23.715883],[121.288368,23.715613],[121.287882,23.715337],[121.287981,23.715248],[121.287885,23.715066],[121.286905,23.715055],[121.286809,23.714873]],[[121.286905,23.715055],[121.286805,23.715144],[121.286807,23.715054],[121.286905,23.715055]],[[121.289135,23.716976],[121.289234,23.716887],[121.289233,23.716977],[121.289135,23.716976]],[[121.289331,23.716978],[121.289431,23.716889],[121.289429,23.716979],[121.289331,23.716978]],[[121.287768,23.716509],[121.287963,23.716602],[121.287961,23.716782],[121.287766,23.71669],[121.287768,23.716509]],[[121.28924,23.716435],[121.289534,23.716439],[121.289532,23.716619],[121.289238,23.716616],[121.28924,23.716435]],[[121.287775,23.715968],[121.287971,23.71597],[121.28797,23.71606],[121.287774,23.716058],[121.287775,23.715968]],[[121.287682,23.715605],[121.28719,23.71569],[121.287194,23.715419],[121.287586,23.715424],[121.287682,23.715605]]],[[[121.292556,23.717917],[121.293249,23.717383],[121.293353,23.716932],[121.29306,23.716839],[121.29296,23.717018],[121.292863,23.716927],[121.292469,23.717013],[121.292472,23.716832],[121.292277,23.71674],[121.291975,23.717278],[121.292267,23.717462],[121.292359,23.717915],[121.292556,23.717917]]],[[[121.289006,23.719322],[121.288912,23.71905],[121.28901,23.719052],[121.289014,23.718781],[121.28931,23.718603],[121.289214,23.718422],[121.288917,23.718689],[121.288622,23.718686],[121.288424,23.718864],[121.288618,23.719047],[121.288615,23.719228],[121.288517,23.719227],[121.288612,23.719499],[121.289006,23.719322]]],[[[121.290692,23.717896],[121.290493,23.718165],[121.289902,23.718339],[121.290193,23.718613],[121.29019,23.718794],[121.290385,23.718886],[121.290383,23.719067],[121.289992,23.718972],[121.289893,23.719061],[121.289987,23.719333],[121.289888,23.719422],[121.289595,23.719329],[121.289496,23.719418],[121.28959,23.71969],[121.289296,23.719687],[121.289295,23.719777],[121.288999,23.719864],[121.289095,23.720046],[121.289487,23.72005],[121.289588,23.719871],[121.289981,23.719785],[121.289977,23.720146],[121.290171,23.720238],[121.290168,23.720509],[121.290459,23.720783],[121.290657,23.720605],[121.290462,23.720512],[121.290568,23.719881],[121.290373,23.719789],[121.290381,23.719247],[121.290873,23.719072],[121.290679,23.718889],[121.290682,23.718709],[121.291465,23.718808],[121.291763,23.71854],[121.291472,23.718266],[121.291475,23.718086],[121.291672,23.717997],[121.291578,23.717635],[121.291871,23.717729],[121.292071,23.71746],[121.291876,23.717368],[121.291776,23.717547],[121.29158,23.717545],[121.291581,23.717455],[121.291285,23.717542],[121.291186,23.717631],[121.291278,23.718083],[121.291082,23.718081],[121.290987,23.7179],[121.290692,23.717896]],[[121.290682,23.718709],[121.290585,23.718617],[121.290683,23.718619],[121.290682,23.718709]],[[121.291278,23.718083],[121.291375,23.718175],[121.291277,23.718174],[121.291278,23.718083]]],[[[121.283626,23.71827],[121.28333,23.718447],[121.283326,23.718718],[121.283715,23.718993],[121.283809,23.719265],[121.283413,23.719531],[121.283319,23.719259],[121.283124,23.719167],[121.282528,23.719702],[121.282623,23.719974],[121.282819,23.719976],[121.28292,23.719797],[121.283507,23.719894],[121.283706,23.719625],[121.284002,23.719538],[121.284005,23.719267],[121.284201,23.719269],[121.2844,23.719091],[121.283626,23.71827]],[[121.283819,23.718543],[121.283719,23.718632],[121.283721,23.718541],[121.283819,23.718543]]],[[[121.289199,23.719595],[121.289103,23.719414],[121.288907,23.719412],[121.288807,23.719591],[121.2891,23.719685],[121.289199,23.719595]]],[[[121.285467,23.720006],[121.285665,23.719827],[121.285861,23.719829],[121.286055,23.720012],[121.285952,23.720372],[121.286243,23.720646],[121.286439,23.720648],[121.286638,23.72047],[121.28664,23.720289],[121.287326,23.720297],[121.287227,23.720386],[121.287323,23.720568],[121.287618,23.720481],[121.287625,23.719939],[121.287332,23.719846],[121.287239,23.719483],[121.286749,23.719478],[121.286648,23.719657],[121.28606,23.719651],[121.285866,23.719468],[121.285869,23.719288],[121.286066,23.7192],[121.28597,23.719018],[121.285676,23.719015],[121.285675,23.719105],[121.285281,23.719191],[121.285378,23.719282],[121.28537,23.719914],[121.285467,23.720006]]],[[[121.285273,23.719823],[121.284878,23.719999],[121.284974,23.720181],[121.28517,23.720183],[121.285369,23.720005],[121.285273,23.719823]]],[[[121.297129,23.720676],[121.297134,23.720315],[121.297036,23.720314],[121.297143,23.719593],[121.296948,23.7195],[121.29675,23.719679],[121.296645,23.720219],[121.296448,23.720308],[121.296444,23.720578],[121.296542,23.720579],[121.296637,23.720851],[121.297129,23.720676]]],[[[121.285252,23.721448],[121.285063,23.720904],[121.28526,23.720816],[121.285264,23.720545],[121.28556,23.720368],[121.285464,23.720186],[121.28517,23.720183],[121.284873,23.72045],[121.284967,23.720722],[121.28457,23.721079],[121.285054,23.721536],[121.285252,23.721448]]],[[[121.296725,23.721575],[121.296726,23.721484],[121.296921,23.721577],[121.297022,23.721397],[121.296924,23.721396],[121.296926,23.721216],[121.296637,23.720851],[121.296341,23.720938],[121.296438,23.72103],[121.296337,23.7213],[121.296238,23.721299],[121.296144,23.721027],[121.295947,23.721115],[121.295943,23.721386],[121.296137,23.721568],[121.296333,23.72157],[121.296334,23.72148],[121.296725,23.721575]]],[[[121.292108,23.722156],[121.292308,23.721887],[121.292602,23.721891],[121.293098,23.721444],[121.293004,23.721173],[121.292905,23.721171],[121.292915,23.720449],[121.292818,23.720358],[121.292422,23.720624],[121.292517,23.720896],[121.292419,23.720895],[121.292416,23.721076],[121.29222,23.721074],[121.292022,23.721252],[121.292117,23.721434],[121.291822,23.721521],[121.29182,23.721701],[121.292015,23.721794],[121.291913,23.722063],[121.292108,23.722156]]],[[[121.29715,23.726636],[121.296958,23.726273],[121.297253,23.726276],[121.297353,23.726097],[121.297159,23.725914],[121.296863,23.726091],[121.296865,23.725911],[121.296671,23.725728],[121.296676,23.725367],[121.297072,23.7251],[121.297074,23.72492],[121.297172,23.724921],[121.297168,23.725282],[121.297264,23.725373],[121.297462,23.725285],[121.297466,23.724924],[121.297862,23.724657],[121.297869,23.724116],[121.297674,23.724023],[121.297374,23.724471],[121.296885,23.724376],[121.296988,23.724016],[121.297385,23.723659],[121.297288,23.723568],[121.296894,23.723654],[121.296604,23.723379],[121.296505,23.723469],[121.296499,23.72392],[121.296203,23.724007],[121.296103,23.724187],[121.295809,23.724183],[121.295707,23.724453],[121.295315,23.724449],[121.295121,23.724266],[121.295019,23.724536],[121.294728,23.724352],[121.294626,23.724622],[121.294821,23.724714],[121.294817,23.724985],[121.295011,23.725168],[121.295207,23.72517],[121.295106,23.72544],[121.295204,23.725441],[121.295298,23.725713],[121.295691,23.725717],[121.29598,23.726082],[121.296374,23.725996],[121.296468,23.726267],[121.296859,23.726362],[121.296759,23.726542],[121.296953,23.726724],[121.29715,23.726636]],[[121.296377,23.725725],[121.296476,23.725635],[121.296475,23.725726],[121.296377,23.725725]]],[[[121.309511,23.703565],[121.309615,23.703115],[121.309224,23.70302],[121.309225,23.70293],[121.308931,23.702926],[121.308934,23.702746],[121.308739,23.702653],[121.308537,23.703103],[121.30834,23.703191],[121.308337,23.703371],[121.308531,23.703554],[121.308826,23.703467],[121.309116,23.703831],[121.309312,23.703834],[121.309413,23.703564],[121.309511,23.703565]]],[[[121.299295,23.704898],[121.2993,23.704537],[121.299398,23.704538],[121.299402,23.704267],[121.2995,23.704268],[121.299506,23.703816],[121.299214,23.703633],[121.299122,23.70318],[121.299024,23.703179],[121.299028,23.702818],[121.29893,23.702817],[121.298945,23.701643],[121.299043,23.701644],[121.299047,23.701373],[121.298753,23.70137],[121.298657,23.701188],[121.298069,23.701182],[121.298065,23.701453],[121.298259,23.701636],[121.298256,23.701906],[121.298058,23.701995],[121.298056,23.702175],[121.298154,23.702176],[121.29815,23.702447],[121.298248,23.702448],[121.298245,23.702719],[121.298343,23.70272],[121.298338,23.703081],[121.298533,23.703174],[121.298627,23.703536],[121.298824,23.703448],[121.298822,23.703628],[121.299115,23.703722],[121.299104,23.704534],[121.299006,23.704533],[121.299002,23.704804],[121.298904,23.704803],[121.2989,23.705164],[121.299095,23.705257],[121.299197,23.704897],[121.299295,23.704898]]],[[[121.298406,23.70543],[121.298306,23.705609],[121.297715,23.705783],[121.29771,23.706144],[121.298198,23.70633],[121.298197,23.706421],[121.298491,23.706424],[121.298489,23.706605],[121.298684,23.706697],[121.298786,23.706337],[121.298985,23.706159],[121.29919,23.705438],[121.298997,23.705256],[121.298798,23.705434],[121.298406,23.70543]]],[[[121.300431,23.708071],[121.30014,23.707797],[121.299649,23.707881],[121.299361,23.707427],[121.299067,23.707424],[121.298965,23.707693],[121.298867,23.707692],[121.298865,23.707873],[121.299058,23.708056],[121.299254,23.708058],[121.29935,23.708239],[121.299648,23.707972],[121.299844,23.707974],[121.29984,23.708245],[121.300034,23.708428],[121.300328,23.708431],[121.300431,23.708071]]],[[[121.300919,23.708257],[121.300817,23.708526],[121.301012,23.708619],[121.301312,23.708171],[121.301022,23.707897],[121.300631,23.707802],[121.300431,23.708071],[121.300529,23.708072],[121.300625,23.708253],[121.300919,23.708257]]],[[[121.297339,23.7121],[121.297436,23.712192],[121.297729,23.712285],[121.298026,23.712017],[121.29803,23.711747],[121.298327,23.711479],[121.298233,23.711207],[121.298135,23.711206],[121.298234,23.711117],[121.298137,23.711025],[121.298247,23.710124],[121.297861,23.709668],[121.29747,23.709573],[121.297478,23.708941],[121.297576,23.708942],[121.297677,23.708672],[121.297874,23.708675],[121.298072,23.708496],[121.298077,23.708135],[121.297979,23.708134],[121.298083,23.707684],[121.297888,23.707591],[121.298086,23.707413],[121.29799,23.707231],[121.297102,23.707673],[121.297295,23.707946],[121.297786,23.707861],[121.297881,23.708133],[121.297782,23.708132],[121.29768,23.708492],[121.297286,23.708578],[121.297182,23.709028],[121.29669,23.709203],[121.296786,23.709385],[121.296982,23.709387],[121.296979,23.709568],[121.297173,23.709751],[121.297369,23.709753],[121.29766,23.710027],[121.297753,23.710389],[121.297948,23.710481],[121.297943,23.710843],[121.298042,23.710844],[121.29794,23.711113],[121.298037,23.711205],[121.297541,23.711651],[121.297636,23.711833],[121.297341,23.71192],[121.297339,23.7121]],[[121.29803,23.711747],[121.297933,23.711655],[121.298031,23.711656],[121.29803,23.711747]],[[121.297636,23.711833],[121.297733,23.711924],[121.297635,23.711923],[121.297636,23.711833]]],[[[121.301272,23.711331],[121.301177,23.711059],[121.300788,23.710784],[121.300791,23.710603],[121.30011,23.710144],[121.300017,23.709782],[121.299726,23.709508],[121.299432,23.709504],[121.299238,23.709322],[121.299138,23.709501],[121.299623,23.709868],[121.29962,23.710139],[121.300007,23.710504],[121.300203,23.710506],[121.300299,23.710688],[121.300592,23.710781],[121.300587,23.711143],[121.300979,23.711237],[121.301074,23.711419],[121.301272,23.711331]]],[[[121.306853,23.712024],[121.306563,23.71166],[121.306268,23.711747],[121.306265,23.711927],[121.306459,23.71211],[121.306753,23.712113],[121.306853,23.712024]]],[[[121.305967,23.712285],[121.306256,23.71265],[121.306943,23.712657],[121.307042,23.712568],[121.306946,23.712386],[121.306555,23.712292],[121.306459,23.71211],[121.305967,23.712285]]],[[[121.301524,23.714584],[121.301529,23.714133],[121.301727,23.714045],[121.301731,23.713684],[121.301929,23.713595],[121.301931,23.713415],[121.302229,23.713147],[121.301842,23.712691],[121.301646,23.712689],[121.301554,23.712237],[121.301262,23.712053],[121.300865,23.71241],[121.300959,23.712772],[121.300761,23.71286],[121.300759,23.713041],[121.300857,23.713042],[121.300852,23.713403],[121.301046,23.713586],[121.301043,23.713857],[121.301238,23.713949],[121.301234,23.71422],[121.301136,23.714219],[121.301033,23.714579],[121.301227,23.714762],[121.301524,23.714584]]],[[[121.298185,23.714909],[121.298284,23.71482],[121.298187,23.714728],[121.298194,23.714186],[121.298,23.714004],[121.297804,23.714002],[121.29771,23.71373],[121.297515,23.713637],[121.297416,23.713726],[121.297409,23.714268],[121.296912,23.714714],[121.297009,23.714805],[121.297696,23.714813],[121.297888,23.715086],[121.298183,23.715089],[121.298282,23.715],[121.298185,23.714909]]],[[[121.29823,23.718973],[121.298229,23.719063],[121.298328,23.718974],[121.298719,23.719068],[121.298819,23.718979],[121.298824,23.718528],[121.29863,23.718435],[121.298231,23.718882],[121.298035,23.71888],[121.298039,23.718609],[121.298237,23.718431],[121.298043,23.718248],[121.297845,23.718427],[121.297843,23.718607],[121.297546,23.718785],[121.297544,23.718965],[121.297837,23.719059],[121.297836,23.719149],[121.298034,23.718971],[121.29823,23.718973]]],[[[121.297779,23.723483],[121.297882,23.723123],[121.297784,23.723122],[121.297789,23.72276],[121.297594,23.722668],[121.297491,23.723028],[121.297589,23.723029],[121.297682,23.723391],[121.297385,23.723659],[121.297775,23.723844],[121.297874,23.723755],[121.297877,23.723484],[121.297779,23.723483]]],[[[121.302297,23.722991],[121.302393,23.723172],[121.302097,23.72335],[121.302094,23.72353],[121.302192,23.723531],[121.30209,23.723891],[121.302481,23.723986],[121.302573,23.724438],[121.302475,23.724437],[121.302471,23.724708],[121.302373,23.724707],[121.302272,23.724977],[121.302076,23.724975],[121.302077,23.724884],[121.301781,23.724971],[121.301876,23.725243],[121.301381,23.725599],[121.301377,23.72587],[121.301474,23.725961],[121.301672,23.725873],[121.301767,23.726055],[121.301963,23.726057],[121.302164,23.725698],[121.30236,23.7257],[121.302359,23.72579],[121.302557,23.725702],[121.302464,23.72525],[121.302761,23.725073],[121.302764,23.724802],[121.302862,23.724803],[121.302774,23.724079],[121.303069,23.723992],[121.303063,23.724444],[121.303257,23.724626],[121.303649,23.724631],[121.303549,23.72481],[121.303841,23.724994],[121.303838,23.725175],[121.304129,23.725449],[121.304325,23.725451],[121.304323,23.725631],[121.304126,23.72572],[121.304115,23.726532],[121.304309,23.726715],[121.30411,23.726893],[121.304207,23.726985],[121.304105,23.727345],[121.304298,23.727527],[121.304593,23.727531],[121.304693,23.727351],[121.304889,23.727353],[121.305083,23.727536],[121.305081,23.727717],[121.305372,23.7279],[121.305369,23.728171],[121.305271,23.72817],[121.305365,23.728442],[121.305659,23.728536],[121.305657,23.728626],[121.306148,23.728631],[121.306252,23.728181],[121.30596,23.727997],[121.305674,23.727362],[121.305286,23.726996],[121.30509,23.726994],[121.304994,23.726813],[121.304798,23.726811],[121.304604,23.726628],[121.304713,23.725816],[121.304421,23.725633],[121.304524,23.725272],[121.304232,23.725089],[121.30414,23.724636],[121.303749,23.724542],[121.303653,23.72436],[121.30336,23.724266],[121.303466,23.723635],[121.303663,23.723547],[121.303566,23.723456],[121.303572,23.723005],[121.303865,23.723098],[121.303966,23.722919],[121.303772,23.722736],[121.303282,23.72273],[121.303284,23.72255],[121.303582,23.722282],[121.303485,23.722191],[121.302798,23.722183],[121.302703,23.722002],[121.302506,23.722],[121.302415,23.721457],[121.302318,23.721365],[121.302121,23.721454],[121.301933,23.720819],[121.302031,23.72082],[121.302135,23.72037],[121.302233,23.720371],[121.302239,23.71992],[121.302044,23.719827],[121.301943,23.720097],[121.301745,23.720185],[121.301839,23.720547],[121.301641,23.720636],[121.301537,23.721086],[121.301636,23.721087],[121.301632,23.721358],[121.302119,23.721634],[121.302308,23.722178],[121.302503,23.72227],[121.302596,23.722633],[121.302399,23.722721],[121.302395,23.722992],[121.302297,23.722991]],[[121.302595,23.722723],[121.302794,23.722544],[121.302987,23.722727],[121.302886,23.722997],[121.302691,23.722905],[121.302693,23.722724],[121.302595,23.722723]]],[[[121.303214,23.727967],[121.302923,23.727693],[121.302531,23.727689],[121.302533,23.727508],[121.30273,23.72742],[121.302734,23.727149],[121.302444,23.726785],[121.302448,23.726514],[121.302155,23.72642],[121.301953,23.72687],[121.302147,23.727052],[121.302343,23.727054],[121.302437,23.727326],[121.302241,23.727324],[121.301757,23.726867],[121.301655,23.727137],[121.301557,23.727136],[121.301652,23.727408],[121.301751,23.727319],[121.301946,23.727411],[121.301944,23.727592],[121.301847,23.727501],[121.301649,23.727589],[121.301744,23.727861],[121.302135,23.727955],[121.302134,23.728045],[121.302526,23.72805],[121.302525,23.72814],[121.303214,23.727967]],[[121.302335,23.727687],[121.302434,23.727597],[121.302433,23.727688],[121.302335,23.727687]]]]}},{"type":"Feature","properties":{"kind":"bare_dam","month":"2019-02","area_ha":22.71},"geometry":{"type":"MultiPolygon","coordinates":[[[[121.300762,23.690105],[121.300862,23.689925],[121.300569,23.689832],[121.30057,23.689741],[121.300471,23.689831],[121.300275,23.689829],[121.300276,23.689738],[121.298708,23.689721],[121.298607,23.6899],[121.298117,23.689895],[121.297521,23.690521],[121.297619,23.690522],[121.297615,23.690793],[121.297713,23.690794],[121.297808,23.691066],[121.298103,23.690979],[121.298203,23.690799],[121.298791,23.690896],[121.298786,23.691257],[121.299076,23.691531],[121.299176,23.691442],[121.299567,23.691536],[121.299671,23.691086],[121.300058,23.691452],[121.300942,23.691371],[121.30094,23.691461],[121.301431,23.691467],[121.301526,23.691648],[121.301626,23.691559],[121.302214,23.691565],[121.302213,23.691656],[121.302704,23.691571],[121.302608,23.691389],[121.302411,23.691477],[121.302218,23.691204],[121.302119,23.691294],[121.301925,23.691111],[121.301532,23.691197],[121.30134,23.690924],[121.30124,23.691013],[121.300555,23.690915],[121.300659,23.690465],[121.300464,23.690372],[121.300467,23.690192],[121.300762,23.690105]],[[121.300467,23.690192],[121.30037,23.6901],[121.300468,23.690102],[121.300467,23.690192]],[[121.300457,23.690914],[121.300261,23.690912],[121.300262,23.690822],[121.300458,23.690824],[121.300457,23.690914]],[[121.299778,23.690365],[121.29968,23.690364],[121.299682,23.690183],[121.300171,23.690279],[121.300066,23.69082],[121.29987,23.690817],[121.299778,23.690365]],[[121.298996,23.690176],[121.298897,23.690265],[121.298898,23.690175],[121.298996,23.690176]]],[[[121.300624,23.693173],[121.300525,23.693263],[121.300527,23.693082],[121.300429,23.693081],[121.300532,23.692721],[121.300143,23.692446],[121.299751,23.692441],[121.299753,23.692261],[121.29956,23.692078],[121.29946,23.692167],[121.29897,23.692162],[121.298876,23.69189],[121.298677,23.692068],[121.298481,23.692066],[121.298482,23.691976],[121.298187,23.692063],[121.298282,23.692335],[121.298479,23.692247],[121.298867,23.692522],[121.29857,23.69279],[121.298566,23.693061],[121.299052,23.693427],[121.298852,23.693696],[121.29924,23.694061],[121.300025,23.69398],[121.300316,23.694254],[121.300417,23.693984],[121.300614,23.693986],[121.300708,23.694258],[121.301002,23.694261],[121.301001,23.694351],[121.301295,23.694355],[121.301294,23.694445],[121.301587,23.694538],[121.301689,23.694269],[121.30159,23.694268],[121.301497,23.693905],[121.301302,23.693813],[121.301104,23.693991],[121.30091,23.693809],[121.301013,23.693449],[121.300624,23.693173]],[[121.300818,23.693356],[121.300719,23.693445],[121.30072,23.693355],[121.300818,23.693356]],[[121.300716,23.693626],[121.300521,23.693533],[121.300524,23.693353],[121.300719,23.693445],[121.300716,23.693626]],[[121.299834,23.693616],[121.300032,23.693438],[121.300128,23.693619],[121.299931,23.693708],[121.299834,23.693616]],[[121.299149,23.693518],[121.299246,23.69361],[121.299148,23.693609],[121.299149,23.693518]],[[121.299247,23.693519],[121.299346,23.69343],[121.299345,23.693521],[121.299247,23.693519]],[[121.300233,23.693079],[121.300136,23.692987],[121.300234,23.692989],[121.300233,23.693079]]],[[[121.29784,23.696123],[121.298337,23.695586],[121.298145,23.695313],[121.297948,23.695401],[121.29795,23.695221],[121.298245,23.695134],[121.298151,23.694862],[121.297755,23.695128],[121.297852,23.69522],[121.29785,23.6954],[121.297752,23.695399],[121.297846,23.695671],[121.297649,23.695759],[121.297646,23.69594],[121.29784,23.696123]]],[[[121.298706,23.697396],[121.299002,23.697309],[121.298906,23.697128],[121.299103,23.69704],[121.299107,23.696769],[121.298913,23.696586],[121.298717,23.696584],[121.298716,23.696674],[121.298225,23.696669],[121.298129,23.696577],[121.298029,23.696667],[121.298123,23.697029],[121.298511,23.697304],[121.29841,23.697574],[121.298605,23.697666],[121.298706,23.697396]]],[[[121.301248,23.697966],[121.301644,23.6977],[121.30155,23.697428],[121.301059,23.697422],[121.301058,23.697513],[121.300863,23.69742],[121.300764,23.697509],[121.30086,23.697691],[121.300959,23.697602],[121.301252,23.697695],[121.301153,23.697784],[121.301248,23.697966]]],[[[121.295546,23.699077],[121.295743,23.699079],[121.295843,23.6989],[121.296235,23.698904],[121.296336,23.698725],[121.296239,23.698633],[121.295748,23.698628],[121.295451,23.698896],[121.295255,23.698894],[121.295055,23.699162],[121.295348,23.699256],[121.295546,23.699077]]],[[[121.298965,23.700108],[121.298772,23.699926],[121.298779,23.699384],[121.298977,23.699205],[121.299082,23.698665],[121.299279,23.698577],[121.299381,23.698307],[121.299676,23.69822],[121.299679,23.698039],[121.299872,23.698222],[121.300168,23.698135],[121.300169,23.698045],[121.300462,23.698138],[121.300561,23.698049],[121.300465,23.697867],[121.30017,23.697954],[121.299977,23.697681],[121.299682,23.697768],[121.299488,23.697586],[121.299188,23.698034],[121.298894,23.698031],[121.298596,23.698298],[121.298304,23.698205],[121.298105,23.698383],[121.298002,23.698743],[121.298099,23.698835],[121.298395,23.698747],[121.298587,23.69902],[121.298389,23.699199],[121.298194,23.699106],[121.297994,23.699375],[121.297799,23.699283],[121.297401,23.69973],[121.29789,23.699826],[121.297883,23.700367],[121.29798,23.700459],[121.299059,23.70047],[121.298965,23.700108]]],[[[121.311282,23.687872],[121.311678,23.687605],[121.31168,23.687425],[121.311878,23.687337],[121.311782,23.687155],[121.311978,23.687157],[121.31246,23.687795],[121.312657,23.687706],[121.31266,23.687526],[121.312562,23.687525],[121.312564,23.687344],[121.312369,23.687252],[121.312371,23.687071],[121.312178,23.686889],[121.311589,23.686882],[121.311492,23.686791],[121.31139,23.687151],[121.311292,23.68715],[121.311186,23.687781],[121.311282,23.687872]]],[[[121.303194,23.691576],[121.302803,23.691482],[121.302703,23.691661],[121.303094,23.691756],[121.303194,23.691576]]],[[[121.310734,23.692381],[121.31123,23.691935],[121.311233,23.691754],[121.311039,23.691572],[121.310648,23.691477],[121.31065,23.691297],[121.310357,23.691203],[121.310358,23.691113],[121.309477,23.691013],[121.309377,23.691192],[121.308985,23.691188],[121.308983,23.691278],[121.308886,23.691187],[121.308689,23.691275],[121.308495,23.691092],[121.307999,23.691539],[121.307997,23.691719],[121.308192,23.691812],[121.308589,23.691455],[121.308785,23.691457],[121.308784,23.691547],[121.30898,23.691549],[121.309076,23.691731],[121.309272,23.691733],[121.309367,23.691915],[121.309563,23.691917],[121.309952,23.692192],[121.310442,23.692197],[121.310538,23.692379],[121.310734,23.692381]]],[[[121.306023,23.692691],[121.30642,23.692334],[121.306616,23.692336],[121.306717,23.692157],[121.307009,23.69234],[121.307108,23.692251],[121.307012,23.69207],[121.30721,23.691891],[121.306819,23.691797],[121.306818,23.691887],[121.306131,23.69197],[121.306132,23.691879],[121.305838,23.691876],[121.30584,23.691695],[121.305646,23.691513],[121.305547,23.691602],[121.305352,23.69151],[121.304954,23.691957],[121.304758,23.691955],[121.304663,23.691773],[121.304563,23.691862],[121.304073,23.691857],[121.304072,23.691947],[121.303582,23.691942],[121.303583,23.691851],[121.303289,23.691848],[121.30329,23.691758],[121.303093,23.691846],[121.30348,23.692211],[121.304363,23.692221],[121.304364,23.692131],[121.304951,23.692228],[121.30525,23.69187],[121.305446,23.691872],[121.305834,23.692147],[121.306023,23.692691]]],[[[121.304319,23.695562],[121.304617,23.695294],[121.304619,23.695114],[121.304817,23.695025],[121.304819,23.694845],[121.305117,23.694577],[121.30551,23.694491],[121.305317,23.694218],[121.305712,23.694042],[121.305618,23.69368],[121.305222,23.694037],[121.305026,23.694034],[121.304826,23.694303],[121.30463,23.694301],[121.304232,23.694748],[121.304036,23.694746],[121.303835,23.695105],[121.303738,23.695014],[121.303541,23.695102],[121.303928,23.695467],[121.304126,23.695379],[121.304319,23.695562]],[[121.304424,23.695021],[121.304328,23.69493],[121.304426,23.694931],[121.304424,23.695021]],[[121.305217,23.694398],[121.30512,23.694306],[121.305218,23.694307],[121.305217,23.694398]]],[[[121.303144,23.695459],[121.303442,23.695191],[121.303248,23.695008],[121.303052,23.695006],[121.303053,23.694916],[121.303446,23.69483],[121.303352,23.694558],[121.302469,23.694548],[121.302468,23.694638],[121.302075,23.694724],[121.302171,23.694906],[121.302465,23.694909],[121.302462,23.69509],[121.302656,23.695273],[121.302853,23.695184],[121.303144,23.695459]],[[121.302956,23.694824],[121.302954,23.695005],[121.302856,23.695004],[121.30276,23.694822],[121.302956,23.694824]]],[[[121.302139,23.697344],[121.302635,23.696898],[121.30293,23.696811],[121.302837,23.696448],[121.303033,23.696451],[121.303232,23.696272],[121.303235,23.696001],[121.303333,23.696002],[121.303239,23.69573],[121.303042,23.695728],[121.302941,23.695998],[121.302447,23.696264],[121.302444,23.696534],[121.302147,23.696712],[121.302145,23.696892],[121.301748,23.697249],[121.302139,23.697344]]]]}},{"type":"Feature","properties":{"kind":"water","month":"2019-02","area_ha":0.14},"geometry":{"type":"Polygon","coordinates":[[[121.308689,23.691275],[121.308693,23.691004],[121.308595,23.691003],[121.308696,23.690733],[121.308598,23.690732],[121.3086,23.690552],[121.308797,23.690554],[121.308793,23.690825],[121.308891,23.690826],[121.308787,23.691276],[121.308689,23.691275]]]}}]}