{"type":"FeatureCollection","features":[{"type":"Feature","properties":{"kind":"bare_slide","month":"2019-08","area_ha":17.9},"geometry":{"type":"MultiPolygon","coordinates":[[[[121.297632,23.712194],[121.297928,23.712016],[121.297835,23.711654],[121.298128,23.711748],[121.298326,23.711569],[121.298233,23.711207],[121.297939,23.711204],[121.297838,23.711383],[121.298032,23.711566],[121.297739,23.711472],[121.297538,23.711831],[121.297244,23.711828],[121.297245,23.711738],[121.29695,23.711825],[121.297046,23.712007],[121.297633,23.712103],[121.297632,23.712194]]],[[[121.297104,23.715077],[121.297006,23.715076],[121.297107,23.714807],[121.297403,23.71472],[121.297402,23.71481],[121.297696,23.714813],[121.297888,23.715086],[121.298181,23.71518],[121.298281,23.71509],[121.298184,23.714999],[121.298291,23.714278],[121.298,23.714004],[121.297511,23.713908],[121.297409,23.714268],[121.297211,23.714356],[121.297209,23.714537],[121.296914,23.714624],[121.29691,23.714895],[121.296812,23.714894],[121.296905,23.715256],[121.297104,23.715077]]],[[[121.297198,23.715349],[121.297003,23.715257],[121.296803,23.715616],[121.297096,23.715709],[121.297198,23.715349]]],[[[121.289833,23.716081],[121.290128,23.716084],[121.290327,23.715815],[121.29023,23.715724],[121.28974,23.715719],[121.290138,23.715271],[121.289845,23.715178],[121.289555,23.714904],[121.289451,23.715354],[121.289253,23.715442],[121.28925,23.715713],[121.289445,23.715806],[121.289342,23.716166],[121.289733,23.71626],[121.289833,23.716081]]],[[[121.292556,23.717917],[121.29325,23.717292],[121.293254,23.717022],[121.293157,23.71693],[121.292763,23.717016],[121.292664,23.717105],[121.292759,23.717377],[121.292561,23.717465],[121.292566,23.717104],[121.292275,23.71683],[121.292174,23.7171],[121.291977,23.717188],[121.291974,23.717369],[121.291777,23.717457],[121.291775,23.717637],[121.29197,23.71773],[121.292071,23.71746],[121.292267,23.717462],[121.292359,23.717915],[121.292556,23.717917]]],[[[121.281758,23.71861],[121.282154,23.718343],[121.282158,23.718073],[121.281963,23.71798],[121.282064,23.71771],[121.281575,23.717615],[121.281381,23.717432],[121.281282,23.717521],[121.281378,23.717703],[121.28118,23.717791],[121.281178,23.717971],[121.28147,23.718155],[121.281468,23.718336],[121.281758,23.71861]]],[[[121.290872,23.719162],[121.291071,23.718984],[121.290974,23.718893],[121.290776,23.718981],[121.290682,23.718709],[121.290878,23.718711],[121.290877,23.718801],[121.291074,23.718713],[121.290977,23.718622],[121.290984,23.71808],[121.291082,23.718081],[121.290987,23.7179],[121.290689,23.718167],[121.290493,23.718165],[121.290392,23.718344],[121.289999,23.71843],[121.29048,23.719158],[121.290774,23.719161],[121.290775,23.719071],[121.290872,23.719162]]],[[[121.283007,23.72061],[121.282716,23.720336],[121.282725,23.719704],[121.282433,23.71952],[121.282533,23.719341],[121.282338,23.719248],[121.281941,23.719605],[121.282135,23.719788],[121.282035,23.719968],[121.282423,23.720243],[121.282321,23.720603],[121.282514,23.720786],[121.282808,23.720789],[121.283007,23.72061]],[[121.282232,23.719879],[121.282331,23.71979],[121.28233,23.71988],[121.282232,23.719879]]],[[[121.296542,23.720579],[121.296536,23.721031],[121.296438,23.72103],[121.296534,23.721211],[121.296435,23.721301],[121.296142,23.721207],[121.296042,23.721296],[121.296137,23.721568],[121.296431,23.721572],[121.296432,23.721481],[121.296627,23.721574],[121.296826,23.721395],[121.296733,23.720943],[121.296832,23.720944],[121.296834,23.720763],[121.297129,23.720676],[121.297135,23.720225],[121.297037,23.720224],[121.297136,23.720135],[121.297142,23.719683],[121.297045,23.719592],[121.296749,23.719769],[121.296744,23.72013],[121.296446,23.720398],[121.296444,23.720578],[121.296542,23.720579]],[[121.296644,23.72031],[121.296741,23.720401],[121.296642,23.7204],[121.296644,23.72031]]],[[[121.298922,23.703449],[121.298827,23.703177],[121.299025,23.703089],[121.298928,23.702997],[121.299027,23.702908],[121.299029,23.702728],[121.298931,23.702727],[121.299047,23.701373],[121.298753,23.70137],[121.298657,23.701188],[121.298069,23.701182],[121.298065,23.701453],[121.298259,23.701636],[121.298257,23.701816],[121.298058,23.701995],[121.298253,23.702087],[121.29825,23.702358],[121.298348,23.702359],[121.298435,23.703173],[121.298725,23.703537],[121.298922,23.703449]]],[[[121.298496,23.706063],[121.298892,23.705796],[121.298894,23.705616],[121.2987,23.705433],[121.297715,23.705783],[121.297807,23.706236],[121.2982,23.70615],[121.298394,23.706333],[121.298496,23.706063]]],[[[121.310837,23.707282],[121.310742,23.70701],[121.31084,23.707011],[121.310943,23.706651],[121.311239,23.706473],[121.31095,23.706109],[121.310653,23.706286],[121.310647,23.706738],[121.310351,23.706915],[121.310349,23.707096],[121.310639,23.70737],[121.310837,23.707282]]],[[[121.300037,23.708247],[121.300035,23.708337],[121.30033,23.70834],[121.30043,23.708161],[121.300626,23.708163],[121.300625,23.708253],[121.300919,23.708257],[121.301015,23.708438],[121.30131,23.708351],[121.300729,23.707803],[121.30053,23.707981],[121.300236,23.707978],[121.300042,23.707796],[121.299943,23.707885],[121.299552,23.70779],[121.299362,23.707337],[121.299163,23.707515],[121.299067,23.707424],[121.298869,23.707512],[121.298966,23.707603],[121.298865,23.707873],[121.299058,23.708056],[121.299254,23.708058],[121.29935,23.708239],[121.299546,23.708242],[121.299647,23.708062],[121.29984,23.708245],[121.300037,23.708247]],[[121.299745,23.708063],[121.299844,23.707974],[121.299843,23.708064],[121.299745,23.708063]]],[[[121.311028,23.707645],[121.310928,23.707824],[121.310732,23.707822],[121.310539,23.707549],[121.310244,23.707636],[121.310335,23.708179],[121.310628,23.708273],[121.310723,23.708454],[121.310921,23.708366],[121.310917,23.708637],[121.310819,23.708636],[121.310915,23.708818],[121.311308,23.708732],[121.311313,23.70837],[121.311215,23.708369],[121.311315,23.70819],[121.311904,23.708196],[121.311902,23.708287],[121.312394,23.708202],[121.312397,23.707931],[121.312202,23.707838],[121.312108,23.707566],[121.311716,23.707562],[121.311615,23.707742],[121.311321,23.707738],[121.31132,23.707829],[121.311028,23.707645]],[[121.311218,23.708099],[121.311021,23.708187],[121.311022,23.708096],[121.310826,23.708094],[121.310828,23.707914],[121.311023,23.708006],[121.311222,23.707828],[121.311218,23.708099]]],[[[121.301273,23.71124],[121.30011,23.710144],[121.300112,23.709963],[121.299531,23.709415],[121.299335,23.709413],[121.299337,23.709233],[121.299142,23.70914],[121.299043,23.709229],[121.299138,23.709501],[121.299428,23.709775],[121.299721,23.709869],[121.299912,23.710322],[121.300396,23.710779],[121.300592,23.710781],[121.300687,23.711053],[121.301074,23.711419],[121.301273,23.71124]]],[[[121.301423,23.714764],[121.30162,23.714676],[121.301526,23.714404],[121.301624,23.714405],[121.301628,23.714134],[121.301726,23.714135],[121.30173,23.713774],[121.301928,23.713686],[121.30203,23.713326],[121.302226,23.713328],[121.302327,23.713148],[121.301842,23.712691],[121.301646,23.712689],[121.301554,23.712237],[121.301261,23.712143],[121.300864,23.7125],[121.300961,23.712591],[121.300855,23.713222],[121.300953,23.713223],[121.300949,23.713494],[121.301047,23.713495],[121.301141,23.713858],[121.301336,23.71395],[121.301232,23.7144],[121.301033,23.714579],[121.301227,23.714762],[121.301326,23.714672],[121.301423,23.714764]]],[[[121.30404,23.724725],[121.30375,23.724451],[121.303554,23.724449],[121.30336,23.724266],[121.303459,23.724177],[121.303461,23.723997],[121.303363,23.723996],[121.303367,23.723725],[121.303465,23.723726],[121.30337,23.723454],[121.30347,23.723365],[121.303276,23.723182],[121.30308,23.72318],[121.302881,23.723358],[121.302788,23.722996],[121.302394,23.723082],[121.302293,23.723352],[121.302195,23.723351],[121.302192,23.723531],[121.30229,23.723532],[121.302188,23.723892],[121.302576,23.724167],[121.303069,23.723992],[121.303263,23.724175],[121.30316,23.724535],[121.303649,23.724631],[121.303841,23.724994],[121.304038,23.724906],[121.30404,23.724725]]],[[[121.302162,23.725879],[121.302164,23.725698],[121.30236,23.7257],[121.302359,23.72579],[121.302557,23.725702],[121.302463,23.72534],[121.30276,23.725163],[121.302766,23.724711],[121.302864,23.724712],[121.302769,23.724441],[121.302572,23.724529],[121.302369,23.725068],[121.301879,23.724973],[121.30178,23.725062],[121.301874,23.725424],[121.301578,23.725511],[121.301575,23.725782],[121.301864,23.726146],[121.302162,23.725879]]]]}},{"type":"Feature","properties":{"kind":"bare_dam","month":"2019-08","area_ha":22.52},"geometry":{"type":"MultiPolygon","coordinates":[[[[121.298102,23.691069],[121.2983,23.69089],[121.298208,23.690438],[121.298013,23.690345],[121.298016,23.690165],[121.297819,23.690163],[121.297522,23.69043],[121.297519,23.690611],[121.297618,23.690612],[121.297808,23.691066],[121.298102,23.691069]]],[[[121.299863,23.691359],[121.299376,23.691083],[121.299379,23.690902],[121.299576,23.690814],[121.299481,23.690542],[121.299675,23.690725],[121.299872,23.690637],[121.299778,23.690365],[121.299582,23.690363],[121.299581,23.690453],[121.299386,23.690361],[121.299287,23.69045],[121.299381,23.690722],[121.299183,23.6909],[121.298692,23.690895],[121.298494,23.691073],[121.298589,23.691345],[121.29898,23.69144],[121.298978,23.69153],[121.299763,23.691539],[121.299863,23.691359]]],[[[121.301882,23.694451],[121.301687,23.694359],[121.30169,23.694178],[121.301495,23.694086],[121.301497,23.693905],[121.301108,23.69363],[121.301111,23.69345],[121.300917,23.693267],[121.299937,23.693256],[121.299743,23.693073],[121.29975,23.692532],[121.299848,23.692533],[121.299753,23.692261],[121.299068,23.692163],[121.299071,23.691982],[121.298779,23.691799],[121.298781,23.691618],[121.298491,23.691344],[121.298294,23.691342],[121.298199,23.69116],[121.297903,23.691247],[121.297901,23.691428],[121.297803,23.691427],[121.297895,23.691879],[121.298187,23.692063],[121.29828,23.692425],[121.298478,23.692337],[121.298473,23.692698],[121.298667,23.692881],[121.298663,23.693152],[121.299052,23.693427],[121.298949,23.693787],[121.299242,23.693881],[121.299337,23.694153],[121.299535,23.693974],[121.300025,23.69398],[121.300316,23.694254],[121.300415,23.694164],[121.300611,23.694167],[121.300707,23.694348],[121.301002,23.694261],[121.301001,23.694351],[121.30149,23.694447],[121.30168,23.694901],[121.301878,23.694813],[121.301882,23.694451]],[[121.300612,23.694076],[121.300516,23.693985],[121.300614,23.693986],[121.300612,23.694076]],[[121.299244,23.6937],[121.299148,23.693609],[121.299246,23.69361],[121.299244,23.6937]],[[121.298383,23.692065],[121.298385,23.691885],[121.298582,23.691887],[121.298579,23.692067],[121.298383,23.692065]]],[[[121.298593,23.698569],[121.298788,23.698662],[121.298888,23.698482],[121.299279,23.698577],[121.299577,23.698309],[121.300067,23.698314],[121.300266,23.698136],[121.300268,23.697955],[121.299976,23.697772],[121.299979,23.697591],[121.300273,23.697594],[121.300373,23.697415],[121.30008,23.697321],[121.30018,23.697142],[121.29989,23.696868],[121.299787,23.697228],[121.299589,23.697406],[121.299295,23.697403],[121.299194,23.697582],[121.298998,23.69758],[121.299102,23.69713],[121.2992,23.697131],[121.299203,23.69686],[121.298913,23.696586],[121.298923,23.695773],[121.299021,23.695774],[121.299024,23.695594],[121.298732,23.69541],[121.298637,23.695138],[121.298244,23.695224],[121.298246,23.695044],[121.298148,23.695042],[121.298249,23.694863],[121.298054,23.694771],[121.297656,23.695218],[121.297753,23.695309],[121.297646,23.69594],[121.29784,23.696123],[121.298036,23.696125],[121.298123,23.697029],[121.29851,23.697394],[121.298507,23.697665],[121.298409,23.697664],[121.298304,23.698205],[121.298205,23.698204],[121.298203,23.698384],[121.298301,23.698385],[121.2982,23.698655],[121.298493,23.698749],[121.298593,23.698569]],[[121.299289,23.697854],[121.29929,23.697764],[121.299486,23.697766],[121.299485,23.697856],[121.299289,23.697854]]],[[[121.300856,23.697962],[121.300759,23.69787],[121.300958,23.697692],[121.300665,23.697599],[121.300466,23.697777],[121.300364,23.698137],[121.300755,23.698232],[121.300856,23.697962]]],[[[121.295447,23.699167],[121.295643,23.699169],[121.295942,23.698811],[121.295845,23.698719],[121.29555,23.698806],[121.295152,23.699254],[121.295347,23.699346],[121.295447,23.699167]]],[[[121.295154,23.699073],[121.294861,23.698979],[121.294863,23.698889],[121.294665,23.698977],[121.294858,23.69925],[121.295054,23.699253],[121.295154,23.699073]]],[[[121.298376,23.700192],[121.298279,23.700101],[121.298673,23.699924],[121.298676,23.699744],[121.298873,23.699656],[121.298777,23.699474],[121.299075,23.699206],[121.298786,23.698842],[121.29849,23.698929],[121.298388,23.699289],[121.298194,23.699106],[121.2978,23.699192],[121.297895,23.699464],[121.298288,23.699378],[121.298285,23.699649],[121.298188,23.699558],[121.297893,23.699645],[121.297797,23.699463],[121.297402,23.69964],[121.297498,23.699821],[121.297889,23.699916],[121.297883,23.700367],[121.29798,23.700459],[121.298274,23.700462],[121.298376,23.700192]]],[[[121.31276,23.687346],[121.312276,23.68689],[121.311882,23.686976],[121.312075,23.687249],[121.312369,23.687252],[121.312266,23.687612],[121.312557,23.687886],[121.312754,23.687798],[121.31276,23.687346]]],[[[121.310881,23.68859],[121.311179,23.688322],[121.311083,23.688141],[121.310687,23.688407],[121.310492,23.688315],[121.310293,23.688584],[121.310586,23.688677],[121.310587,23.688587],[121.310881,23.68859]]],[[[121.302818,23.690308],[121.30272,23.690307],[121.302723,23.690126],[121.303211,23.690312],[121.303312,23.690042],[121.303215,23.689951],[121.302921,23.689948],[121.30292,23.690038],[121.302627,23.689945],[121.302523,23.690395],[121.302718,23.690487],[121.302818,23.690308]]],[[[121.301431,23.691467],[121.301333,23.691466],[121.301335,23.691285],[121.301531,23.691287],[121.301633,23.691017],[121.301439,23.690835],[121.30134,23.690924],[121.300752,23.690827],[121.300755,23.690646],[121.300952,23.690558],[121.300956,23.690287],[121.301445,23.690383],[121.301546,23.690113],[121.301253,23.69002],[121.301158,23.689838],[121.30057,23.689741],[121.300565,23.690193],[121.300174,23.690098],[121.299975,23.690277],[121.300072,23.690368],[121.300065,23.69091],[121.300162,23.691001],[121.300555,23.690915],[121.300749,23.691098],[121.300647,23.691368],[121.300938,23.691642],[121.30133,23.691646],[121.301431,23.691467]]],[[[121.310636,23.69238],[121.311329,23.691846],[121.31104,23.691481],[121.310746,23.691478],[121.31065,23.691297],[121.310356,23.691293],[121.310065,23.691019],[121.309183,23.69101],[121.308989,23.690827],[121.309091,23.690557],[121.308896,23.690465],[121.308898,23.690284],[121.308703,23.690192],[121.308505,23.69037],[121.308498,23.690912],[121.3084,23.690911],[121.308494,23.691183],[121.308298,23.691181],[121.3081,23.691359],[121.308097,23.69154],[121.308291,23.691722],[121.308487,23.691724],[121.308588,23.691545],[121.30898,23.691549],[121.309076,23.691731],[121.309272,23.691733],[121.309562,23.692007],[121.309856,23.69201],[121.309952,23.692192],[121.310442,23.692197],[121.310636,23.69238]]],[[[121.303188,23.692028],[121.303479,23.692302],[121.303774,23.692215],[121.303773,23.692305],[121.304165,23.692309],[121.304164,23.6924],[121.304556,23.692404],[121.304557,23.692314],[121.30485,23.692407],[121.305148,23.692139],[121.30515,23.691959],[121.305739,23.691965],[121.305833,23.692237],[121.305931,23.692238],[121.305825,23.692869],[121.306117,23.693053],[121.306218,23.692783],[121.306414,23.692785],[121.306613,23.692607],[121.306519,23.692245],[121.306718,23.692066],[121.307011,23.69216],[121.30721,23.691891],[121.307016,23.691799],[121.306915,23.691978],[121.306719,23.691976],[121.30672,23.691886],[121.306621,23.691975],[121.306131,23.69197],[121.306132,23.691879],[121.305839,23.691786],[121.305747,23.691333],[121.305353,23.691419],[121.305252,23.691689],[121.304954,23.691957],[121.304758,23.691955],[121.304564,23.691772],[121.304464,23.691951],[121.304072,23.691947],[121.304071,23.692037],[121.303876,23.691945],[121.303781,23.691673],[121.303585,23.691671],[121.303586,23.691581],[121.303389,23.691669],[121.303293,23.691487],[121.303097,23.691485],[121.303096,23.691575],[121.302607,23.691479],[121.302508,23.691569],[121.302799,23.691843],[121.303191,23.691847],[121.303188,23.692028]],[[121.303191,23.691847],[121.30329,23.691758],[121.303289,23.691848],[121.303191,23.691847]],[[121.304657,23.692224],[121.30456,23.692133],[121.304658,23.692134],[121.304657,23.692224]],[[121.303485,23.69185],[121.303681,23.691852],[121.30368,23.691943],[121.303484,23.691941],[121.303485,23.69185]],[[121.303485,23.69185],[121.303388,23.691759],[121.303486,23.69176],[121.303485,23.69185]]],[[[121.304248,23.693484],[121.304743,23.693128],[121.30465,23.692766],[121.304451,23.692944],[121.304064,23.692579],[121.303669,23.692755],[121.303666,23.693026],[121.303859,23.693209],[121.304056,23.693211],[121.304248,23.693484]],[[121.304449,23.693125],[121.304352,23.693034],[121.30445,23.693035],[121.304449,23.693125]]],[[[121.305609,23.694402],[121.305808,23.694224],[121.305815,23.693682],[121.305718,23.69359],[121.305122,23.694126],[121.305314,23.694489],[121.305609,23.694402]]]]}},{"type":"Feature","properties":{"kind":"water","month":"2019-08","area_ha":1.08},"geometry":{"type":"MultiPolygon","coordinates":[[[[121.31158,23.687604],[121.31178,23.687336],[121.312367,23.687432],[121.312369,23.687252],[121.312075,23.687249],[121.311979,23.687067],[121.311685,23.687064],[121.311288,23.687421],[121.311286,23.687601],[121.31158,23.687604]]],[[[121.280745,23.691148],[121.280746,23.691058],[121.280355,23.690963],[121.280353,23.691144],[121.28094,23.69124],[121.280941,23.69115],[121.280745,23.691148]]],[[[121.303725,23.696007],[121.303924,23.695828],[121.30412,23.69583],[121.304123,23.69556],[121.303925,23.695738],[121.303631,23.695735],[121.303725,23.696007]]],[[[121.303724,23.696097],[121.303627,23.696006],[121.303626,23.696096],[121.303724,23.696097]]],[[[121.300564,23.697778],[121.300665,23.697599],[121.30135,23.697696],[121.30155,23.697428],[121.30057,23.697327],[121.30047,23.697506],[121.299979,23.697591],[121.299976,23.697772],[121.300564,23.697778]]],[[[121.298488,23.69911],[121.298298,23.698656],[121.298102,23.698654],[121.298099,23.698835],[121.298293,23.699017],[121.298193,23.699197],[121.298388,23.699289],[121.29839,23.699109],[121.298488,23.69911]]]]}}]}