{"type":"FeatureCollection","features":[{"type":"Feature","properties":{"kind":"bare_slide","month":"2019-09","area_ha":34.61},"geometry":{"type":"MultiPolygon","coordinates":[[[[121.295551,23.713796],[121.29575,23.713618],[121.295753,23.713347],[121.295949,23.713349],[121.296051,23.713079],[121.296149,23.71308],[121.296154,23.712719],[121.296252,23.71272],[121.296158,23.712358],[121.295961,23.712446],[121.295957,23.712807],[121.295462,23.713163],[121.295556,23.713435],[121.295258,23.713703],[121.295551,23.713796]]],[[[121.29838,23.715001],[121.298186,23.714818],[121.298292,23.714188],[121.298,23.714004],[121.298003,23.713823],[121.297615,23.713458],[121.29741,23.714178],[121.297213,23.714266],[121.297111,23.714536],[121.296816,23.714623],[121.296812,23.714894],[121.297007,23.714986],[121.297109,23.714716],[121.297599,23.714722],[121.298084,23.715088],[121.298281,23.71509],[121.29838,23.715001]]],[[[121.294163,23.714955],[121.294758,23.71451],[121.29476,23.714329],[121.294957,23.714241],[121.29496,23.714061],[121.295157,23.713972],[121.295061,23.713791],[121.294865,23.713789],[121.294368,23.714325],[121.294172,23.714323],[121.293978,23.71414],[121.293581,23.714497],[121.293677,23.714678],[121.293873,23.714681],[121.294071,23.714502],[121.294163,23.714955]]],[[[121.288659,23.715887],[121.289052,23.715801],[121.289058,23.71535],[121.288961,23.715258],[121.288765,23.715256],[121.288567,23.715435],[121.288663,23.715616],[121.288466,23.715614],[121.288177,23.71525],[121.28798,23.715338],[121.287983,23.715067],[121.288081,23.715068],[121.287986,23.714886],[121.287492,23.715152],[121.287587,23.715334],[121.287784,23.715336],[121.28778,23.715607],[121.287682,23.715605],[121.287776,23.715877],[121.287974,23.715789],[121.287971,23.71597],[121.288264,23.716063],[121.28836,23.716245],[121.288655,23.716158],[121.288659,23.715887]]],[[[121.29081,23.716362],[121.291109,23.716005],[121.291405,23.715918],[121.291212,23.715645],[121.291113,23.715734],[121.290918,23.715641],[121.290419,23.716268],[121.29081,23.716362]]],[[[121.290323,23.716177],[121.290425,23.715816],[121.290232,23.715634],[121.289838,23.71572],[121.289742,23.715538],[121.290139,23.715181],[121.290335,23.715183],[121.290437,23.714914],[121.290243,23.714731],[121.290047,23.714729],[121.289947,23.714908],[121.289262,23.71481],[121.289158,23.715261],[121.289256,23.715262],[121.289251,23.715623],[121.289446,23.715715],[121.289442,23.715986],[121.289244,23.716165],[121.288853,23.71607],[121.288654,23.716248],[121.288848,23.716431],[121.288846,23.716612],[121.289139,23.716705],[121.289037,23.716975],[121.289134,23.717066],[121.289331,23.716978],[121.289427,23.71716],[121.289721,23.717163],[121.289915,23.717346],[121.290213,23.717078],[121.290118,23.716806],[121.290412,23.71681],[121.290611,23.716631],[121.290516,23.716359],[121.290318,23.716538],[121.290025,23.716444],[121.290323,23.716177]],[[121.28983,23.716352],[121.289532,23.716619],[121.289239,23.716526],[121.289341,23.716256],[121.289732,23.716351],[121.28993,23.716172],[121.290026,23.716354],[121.28983,23.716352]],[[121.289332,23.716888],[121.289432,23.716799],[121.289431,23.716889],[121.289332,23.716888]]],[[[121.292557,23.717827],[121.29325,23.717292],[121.293255,23.716931],[121.29306,23.716839],[121.292762,23.717106],[121.29276,23.717287],[121.292564,23.717285],[121.292663,23.717196],[121.292469,23.717013],[121.292572,23.716653],[121.292377,23.71656],[121.291975,23.717278],[121.292268,23.717372],[121.292361,23.717824],[121.292557,23.717827]]],[[[121.291861,23.718541],[121.291765,23.71836],[121.291568,23.718448],[121.291664,23.718629],[121.291861,23.718541]]],[[[121.291278,23.718083],[121.29089,23.717808],[121.290592,23.718076],[121.290001,23.71825],[121.290195,23.718433],[121.290193,23.718613],[121.290388,23.718706],[121.290384,23.718976],[121.290287,23.718885],[121.289894,23.718971],[121.289987,23.719333],[121.289594,23.719419],[121.289687,23.719781],[121.289883,23.719784],[121.289884,23.719693],[121.290275,23.719788],[121.290375,23.719699],[121.290182,23.719426],[121.29028,23.719427],[121.290579,23.719069],[121.290972,23.718983],[121.290877,23.718801],[121.290681,23.718799],[121.290683,23.718619],[121.291173,23.718624],[121.291269,23.718806],[121.291564,23.718719],[121.291567,23.718538],[121.291469,23.718537],[121.291571,23.718177],[121.291475,23.718086],[121.291772,23.717818],[121.291285,23.717542],[121.291186,23.717631],[121.291278,23.718083]],[[121.29048,23.719158],[121.290383,23.719067],[121.290481,23.719068],[121.29048,23.719158]],[[121.291376,23.718084],[121.291375,23.718175],[121.291277,23.718174],[121.291278,23.718083],[121.291376,23.718084]],[[121.291273,23.718535],[121.291372,23.718446],[121.291371,23.718536],[121.291273,23.718535]],[[121.290787,23.718168],[121.290886,23.718079],[121.290885,23.718169],[121.290787,23.718168]]],[[[121.284301,23.71918],[121.284499,23.719002],[121.284305,23.718819],[121.284109,23.718817],[121.284112,23.718636],[121.283819,23.718543],[121.283724,23.718271],[121.283528,23.718268],[121.283424,23.718719],[121.283908,23.719176],[121.284203,23.719179],[121.284204,23.719089],[121.284301,23.71918]]],[[[121.282911,23.720429],[121.282814,23.720337],[121.28282,23.719886],[121.283016,23.719888],[121.283014,23.720069],[121.283209,23.720161],[121.283607,23.719714],[121.283511,23.719532],[121.283216,23.719619],[121.28322,23.719349],[121.283318,23.71935],[121.283222,23.719168],[121.283025,23.719256],[121.283022,23.719437],[121.282824,23.719615],[121.282628,23.719613],[121.282428,23.719882],[121.282133,23.719969],[121.28252,23.720334],[121.282614,23.720696],[121.282911,23.720429]]],[[[121.2927,23.721892],[121.292402,23.722159],[121.292597,23.722252],[121.292698,23.722072],[121.292894,23.722074],[121.293087,23.722257],[121.293083,23.722618],[121.292884,23.722797],[121.292688,23.722794],[121.292588,23.722974],[121.292975,23.723339],[121.293466,23.723345],[121.293659,23.723528],[121.293655,23.723889],[121.293457,23.723977],[121.293455,23.724157],[121.29365,23.72425],[121.293548,23.72452],[121.29384,23.724703],[121.293833,23.725245],[121.294126,23.725339],[121.294124,23.725519],[121.294319,23.725612],[121.294423,23.725161],[121.294521,23.725162],[121.294327,23.72498],[121.294329,23.724799],[121.294627,23.724532],[121.294631,23.724261],[121.294926,23.724174],[121.295026,23.723994],[121.294833,23.723811],[121.294637,23.723809],[121.294541,23.723628],[121.294245,23.723715],[121.294052,23.723532],[121.294054,23.723351],[121.294253,23.723173],[121.293865,23.722807],[121.293871,23.722356],[121.293773,23.722355],[121.293488,23.721629],[121.293002,23.721263],[121.292909,23.720901],[121.292712,23.720989],[121.292518,23.720806],[121.292416,23.721076],[121.292121,23.721163],[121.292217,23.721344],[121.291921,23.721431],[121.291918,23.721702],[121.292113,23.721795],[121.29251,23.721438],[121.2927,23.721892]],[[121.294052,23.723532],[121.293952,23.723621],[121.293954,23.723531],[121.294052,23.723532]],[[121.29251,23.721438],[121.292609,23.721349],[121.292608,23.721439],[121.29251,23.721438]]],[[[121.296664,23.72627],[121.296863,23.726091],[121.296865,23.725911],[121.296767,23.72591],[121.296676,23.725367],[121.296383,23.725273],[121.296385,23.725093],[121.296583,23.725005],[121.29658,23.725185],[121.296873,23.725279],[121.297075,23.724829],[121.297466,23.724924],[121.297963,23.724478],[121.297773,23.723934],[121.297576,23.724022],[121.297473,23.724382],[121.297275,23.724561],[121.296981,23.724557],[121.29698,23.724648],[121.296783,23.724646],[121.296884,23.724466],[121.296786,23.724465],[121.296789,23.724194],[121.296596,23.724011],[121.296301,23.724008],[121.296201,23.724188],[121.295907,23.724184],[121.295509,23.724632],[121.295315,23.724449],[121.295216,23.724538],[121.294921,23.724535],[121.294923,23.724444],[121.294725,23.724533],[121.29482,23.724805],[121.29511,23.725079],[121.295503,23.725083],[121.295301,23.725532],[121.295789,23.725718],[121.29598,23.726082],[121.296176,23.726084],[121.296277,23.725904],[121.296473,23.725906],[121.29647,23.726087],[121.296372,23.726086],[121.296468,23.726267],[121.296664,23.72627]],[[121.296182,23.725632],[121.296183,23.725542],[121.296379,23.725544],[121.296378,23.725634],[121.296182,23.725632]]],[[[121.298357,23.701637],[121.298059,23.701904],[121.298156,23.701996],[121.298055,23.702265],[121.29825,23.702358],[121.298247,23.702538],[121.298441,23.702721],[121.29834,23.702991],[121.298438,23.702992],[121.298531,23.703354],[121.298726,23.703447],[121.298924,23.703268],[121.298927,23.703088],[121.298538,23.702813],[121.298637,23.702723],[121.298543,23.702451],[121.298739,23.702454],[121.298834,23.702635],[121.299032,23.702547],[121.298943,23.701824],[121.299041,23.701825],[121.299145,23.701374],[121.298753,23.70137],[121.298559,23.701187],[121.298459,23.701367],[121.298163,23.701454],[121.298357,23.701637]],[[121.298357,23.701637],[121.298456,23.701547],[121.298455,23.701638],[121.298357,23.701637]],[[121.298254,23.701997],[121.298352,23.701998],[121.29835,23.702178],[121.298252,23.702177],[121.298254,23.701997]],[[121.29855,23.70191],[121.298649,23.70182],[121.298648,23.701911],[121.29855,23.70191]]],[[[121.299496,23.704539],[121.299502,23.704087],[121.2996,23.704088],[121.299703,23.703728],[121.299217,23.703362],[121.299019,23.70354],[121.299017,23.703721],[121.299211,23.703813],[121.299112,23.703902],[121.299204,23.704355],[121.299106,23.704354],[121.299004,23.704714],[121.299297,23.704807],[121.299398,23.704538],[121.299496,23.704539]],[[121.299308,23.703905],[121.299408,23.703815],[121.299406,23.703906],[121.299308,23.703905]]],[[[121.301014,23.708529],[121.30131,23.708351],[121.301314,23.70808],[121.301023,23.707806],[121.300729,23.707803],[121.30073,23.707713],[121.300534,23.707711],[121.300533,23.707801],[121.300042,23.707796],[121.299946,23.707704],[121.299846,23.707793],[121.299943,23.707885],[121.299843,23.708064],[121.300133,23.708338],[121.30033,23.70834],[121.300431,23.708071],[121.30092,23.708166],[121.301014,23.708529]]],[[[121.301468,23.711333],[121.301176,23.711149],[121.301178,23.710968],[121.300983,23.710876],[121.300986,23.710695],[121.300111,23.710054],[121.300115,23.709783],[121.299727,23.709417],[121.299531,23.709415],[121.299337,23.709233],[121.299041,23.70941],[121.299137,23.709592],[121.299334,23.709503],[121.299624,23.709778],[121.299717,23.71023],[121.300011,23.710233],[121.3003,23.710598],[121.300593,23.710691],[121.30059,23.710962],[121.300688,23.710963],[121.300782,23.711235],[121.30098,23.711147],[121.301268,23.711602],[121.301465,23.711513],[121.301468,23.711333]]],[[[121.297242,23.712009],[121.297339,23.7121],[121.29773,23.712195],[121.298027,23.711927],[121.29803,23.711747],[121.298326,23.711569],[121.298036,23.711295],[121.298333,23.711027],[121.298337,23.710757],[121.298435,23.710758],[121.298441,23.710306],[121.298247,23.710124],[121.298049,23.710302],[121.297952,23.710211],[121.297754,23.710299],[121.297948,23.710481],[121.298039,23.711024],[121.297842,23.711112],[121.297938,23.711294],[121.29764,23.711562],[121.297638,23.711742],[121.297244,23.711828],[121.297242,23.712009]],[[121.297837,23.711474],[121.297934,23.711565],[121.297836,23.711564],[121.297837,23.711474]],[[121.297638,23.711742],[121.297734,23.711834],[121.297636,23.711833],[121.297638,23.711742]]],[[[121.301522,23.714675],[121.301622,23.714585],[121.301528,23.714223],[121.301626,23.714224],[121.301731,23.713684],[121.302028,23.713506],[121.301932,23.713325],[121.30223,23.713057],[121.302035,23.712964],[121.302135,23.712785],[121.301748,23.71242],[121.301552,23.712417],[121.301556,23.712056],[121.301361,23.711964],[121.30126,23.712234],[121.300964,23.712321],[121.300855,23.713222],[121.300953,23.713223],[121.301045,23.713676],[121.30124,23.713768],[121.301233,23.71431],[121.301034,23.714489],[121.301133,23.71449],[121.301227,23.714762],[121.301522,23.714675]]],[[[121.298624,23.718887],[121.298622,23.718977],[121.29882,23.718889],[121.298824,23.718528],[121.29863,23.718435],[121.298331,23.718793],[121.298135,23.718791],[121.298138,23.71852],[121.298236,23.718521],[121.298142,23.718249],[121.297645,23.718695],[121.297739,23.719058],[121.298229,23.719063],[121.29823,23.718973],[121.298624,23.718887]]],[[[121.302027,23.721182],[121.301934,23.720729],[121.302233,23.720371],[121.302141,23.719919],[121.301745,23.720185],[121.301839,23.720547],[121.301641,23.720636],[121.30173,23.721359],[121.302023,23.721452],[121.302122,23.721363],[121.302125,23.721183],[121.302027,23.721182]]],[[[121.302873,23.72399],[121.30307,23.723902],[121.303161,23.724445],[121.303355,23.724628],[121.30365,23.72454],[121.303936,23.725176],[121.304131,23.725268],[121.30433,23.72509],[121.304233,23.724998],[121.304333,23.724819],[121.304138,23.724726],[121.304141,23.724546],[121.303947,23.724363],[121.303458,23.724267],[121.303572,23.723005],[121.303966,23.722919],[121.303772,23.722736],[121.303774,23.722555],[121.30397,23.722557],[121.30417,23.722289],[121.304073,23.722197],[121.303779,23.722194],[121.303778,23.722284],[121.302896,23.722184],[121.302411,23.721818],[121.302309,23.722088],[121.302504,23.72218],[121.302501,23.722451],[121.302597,23.722542],[121.302795,23.722454],[121.302989,23.722637],[121.302985,23.722908],[121.302497,23.722722],[121.302393,23.723172],[121.302196,23.72326],[121.302193,23.723441],[121.302292,23.723442],[121.302189,23.723802],[121.302578,23.724077],[121.302569,23.724709],[121.302666,23.724801],[121.302864,23.724712],[121.302873,23.72399]]],[[[121.302569,23.724709],[121.302272,23.724977],[121.301881,23.724882],[121.301781,23.724971],[121.301875,23.725334],[121.301579,23.725421],[121.301576,23.725692],[121.301867,23.725966],[121.302163,23.725788],[121.302167,23.725517],[121.30236,23.7257],[121.302558,23.725612],[121.302464,23.72525],[121.302662,23.725162],[121.302763,23.724892],[121.302665,23.724891],[121.302569,23.724709]],[[121.302167,23.725517],[121.30207,23.725426],[121.302168,23.725427],[121.302167,23.725517]]],[[[121.303213,23.728057],[121.303312,23.727968],[121.303216,23.727786],[121.30263,23.727599],[121.302732,23.72733],[121.30283,23.727331],[121.302735,23.727059],[121.302538,23.727147],[121.302535,23.727328],[121.302242,23.727234],[121.301953,23.72687],[121.301656,23.727047],[121.302044,23.727412],[121.301746,23.72768],[121.301842,23.727862],[121.302234,23.727866],[121.30233,23.728048],[121.302918,23.728054],[121.30292,23.727964],[121.303213,23.728057]]],[[[121.306252,23.728181],[121.30596,23.727997],[121.305867,23.727545],[121.305092,23.726814],[121.304795,23.727081],[121.304598,23.727079],[121.304503,23.726898],[121.304207,23.726985],[121.3043,23.727437],[121.304594,23.72744],[121.304694,23.727261],[121.30489,23.727263],[121.305084,23.727446],[121.305082,23.727626],[121.305375,23.72772],[121.305371,23.727991],[121.305469,23.727992],[121.305368,23.728262],[121.305466,23.728263],[121.30556,23.728535],[121.306149,23.728541],[121.306248,23.728452],[121.306252,23.728181]]]]}},{"type":"Feature","properties":{"kind":"bare_dam","month":"2019-09","area_ha":12.69},"geometry":{"type":"MultiPolygon","coordinates":[[[[121.299765,23.691358],[121.299087,23.690718],[121.298793,23.690715],[121.298794,23.690625],[121.298499,23.690712],[121.298594,23.690894],[121.298889,23.690897],[121.298883,23.691348],[121.29898,23.69144],[121.299666,23.691447],[121.299765,23.691358]]],[[[121.298681,23.691798],[121.298781,23.691618],[121.298489,23.691434],[121.298388,23.691704],[121.298485,23.691795],[121.298681,23.691798]]],[[[121.298195,23.691431],[121.298,23.691339],[121.297898,23.691699],[121.297996,23.6917],[121.297993,23.69188],[121.298188,23.691973],[121.298283,23.692245],[121.298577,23.692248],[121.298473,23.692698],[121.29886,23.693064],[121.299158,23.692796],[121.29916,23.692616],[121.298966,23.692523],[121.299072,23.691892],[121.298779,23.691799],[121.298678,23.691978],[121.298384,23.691975],[121.298287,23.691884],[121.298388,23.691704],[121.298193,23.691612],[121.298195,23.691431]]],[[[121.300032,23.693438],[121.299733,23.693796],[121.299537,23.693794],[121.299442,23.693612],[121.299149,23.693518],[121.299249,23.693339],[121.299054,23.693246],[121.298955,23.693336],[121.299051,23.693517],[121.298852,23.693696],[121.299338,23.694062],[121.299536,23.693884],[121.300122,23.694071],[121.300221,23.693982],[121.300127,23.69371],[121.300225,23.693711],[121.300321,23.693892],[121.300615,23.693896],[121.300904,23.69426],[121.301101,23.694172],[121.300813,23.693717],[121.300519,23.693714],[121.300325,23.693531],[121.300524,23.693353],[121.30043,23.692991],[121.300232,23.693169],[121.299941,23.692895],[121.299646,23.692982],[121.300032,23.693438]],[[121.300031,23.693528],[121.300128,23.693619],[121.30003,23.693618],[121.300031,23.693528]]],[[[121.2987,23.697848],[121.298998,23.69758],[121.299,23.6974],[121.299199,23.697221],[121.299206,23.69668],[121.298914,23.696496],[121.298923,23.695773],[121.298728,23.695681],[121.29853,23.695859],[121.298336,23.695677],[121.298339,23.695496],[121.298736,23.695139],[121.298639,23.695048],[121.298245,23.695134],[121.298052,23.694951],[121.298152,23.694772],[121.297957,23.694679],[121.297858,23.694768],[121.297953,23.69495],[121.297657,23.695127],[121.297754,23.695219],[121.297747,23.69576],[121.297648,23.69585],[121.297841,23.696032],[121.298037,23.696035],[121.297935,23.696395],[121.298033,23.696396],[121.298124,23.696939],[121.298511,23.697304],[121.298407,23.697754],[121.2987,23.697848]],[[121.298426,23.69631],[121.298329,23.696218],[121.298427,23.696219],[121.298426,23.69631]]],[[[121.29847,23.700464],[121.298868,23.700017],[121.298675,23.699834],[121.298774,23.699745],[121.298678,23.699563],[121.298875,23.699475],[121.298878,23.699295],[121.299076,23.699116],[121.299082,23.698665],[121.299279,23.698577],[121.299185,23.698305],[121.298791,23.698391],[121.298395,23.698747],[121.29839,23.699109],[121.2981,23.698744],[121.297903,23.698832],[121.298097,23.699015],[121.297995,23.699285],[121.29819,23.699377],[121.298089,23.699647],[121.297793,23.699734],[121.29789,23.699826],[121.297884,23.700277],[121.298078,23.70046],[121.29847,23.700464]],[[121.298279,23.700101],[121.298182,23.700009],[121.29828,23.70001],[121.298279,23.700101]],[[121.298579,23.699652],[121.298482,23.699561],[121.29858,23.699562],[121.298579,23.699652]]],[[[121.30331,23.690223],[121.303704,23.690047],[121.303609,23.689865],[121.303509,23.689954],[121.303313,23.689952],[121.303314,23.689862],[121.302823,23.689947],[121.302919,23.690128],[121.303311,23.690133],[121.30331,23.690223]]],[[[121.300757,23.690466],[121.300369,23.690191],[121.30017,23.690369],[121.300167,23.69064],[121.300653,23.690916],[121.300757,23.690466]]],[[[121.305643,23.691784],[121.305939,23.691606],[121.305846,23.691244],[121.305651,23.691152],[121.305352,23.69151],[121.305643,23.691784]]],[[[121.309086,23.690918],[121.30879,23.691096],[121.308786,23.691367],[121.309077,23.691641],[121.309273,23.691643],[121.309369,23.691824],[121.309565,23.691827],[121.30966,23.692008],[121.309954,23.692011],[121.310148,23.692194],[121.31054,23.692198],[121.310734,23.692381],[121.311329,23.691846],[121.31104,23.691481],[121.310746,23.691478],[121.31065,23.691297],[121.310259,23.691202],[121.310163,23.69102],[121.309379,23.691012],[121.309181,23.69119],[121.309086,23.690918]],[[121.309181,23.69119],[121.309081,23.691279],[121.309083,23.691189],[121.309181,23.69119]]],[[[121.30212,23.691203],[121.30183,23.690929],[121.301631,23.691108],[121.301536,23.690926],[121.301242,23.690923],[121.30124,23.691013],[121.301044,23.691011],[121.301045,23.690921],[121.30075,23.691008],[121.300653,23.690916],[121.300354,23.691274],[121.300451,23.691366],[121.301432,23.691376],[121.301527,23.691558],[121.301921,23.691472],[121.30192,23.691562],[121.302312,23.691567],[121.302311,23.691657],[121.302801,23.691662],[121.3028,23.691752],[121.303094,23.691756],[121.30348,23.692211],[121.303676,23.692214],[121.303677,23.692123],[121.30397,23.692217],[121.303969,23.692307],[121.304166,23.692219],[121.303973,23.692036],[121.304073,23.691857],[121.303682,23.691762],[121.303393,23.691398],[121.303098,23.691395],[121.3031,23.691304],[121.302706,23.69139],[121.302611,23.691209],[121.302413,23.691297],[121.302415,23.691206],[121.30212,23.691203]],[[121.303682,23.691762],[121.303583,23.691851],[121.303584,23.691761],[121.303682,23.691762]],[[121.30212,23.691203],[121.302021,23.691292],[121.302022,23.691202],[121.30212,23.691203]]],[[[121.299773,23.698311],[121.300068,23.698224],[121.300169,23.698045],[121.300463,23.698048],[121.300559,23.698229],[121.301049,23.698235],[121.301447,23.697788],[121.301253,23.697605],[121.300959,23.697602],[121.300761,23.69778],[121.299975,23.697862],[121.299775,23.698131],[121.299679,23.698039],[121.299481,23.698127],[121.299577,23.698309],[121.299676,23.69822],[121.299773,23.698311]]]]}},{"type":"Feature","properties":{"kind":"water","month":"2019-09","area_ha":4.63},"geometry":{"type":"MultiPolygon","coordinates":[[[[121.279571,23.690954],[121.279669,23.690955],[121.279671,23.690775],[121.279573,23.690774],[121.279571,23.690954]]],[[[121.279569,23.691135],[121.279571,23.690954],[121.279375,23.690952],[121.279077,23.69122],[121.279272,23.691312],[121.279273,23.691222],[121.279569,23.691135]]],[[[121.284357,23.692362],[121.284264,23.692],[121.283971,23.691906],[121.283973,23.691726],[121.283777,23.691723],[121.283293,23.691266],[121.283289,23.691537],[121.283775,23.691904],[121.283773,23.692084],[121.28416,23.69245],[121.284357,23.692362]]],[[[121.284645,23.692817],[121.284649,23.692546],[121.284551,23.692545],[121.284451,23.692724],[121.284549,23.692725],[121.28464,23.693268],[121.284738,23.693269],[121.284842,23.692819],[121.284645,23.692817]]],[[[121.284931,23.693452],[121.284934,23.693271],[121.284738,23.693269],[121.284735,23.69345],[121.284931,23.693452]]],[[[121.285027,23.693633],[121.284832,23.693541],[121.284923,23.694084],[121.285119,23.694086],[121.285027,23.693633]]],[[[121.285119,23.694086],[121.285216,23.694177],[121.285217,23.694087],[121.285119,23.694086]]],[[[121.289213,23.695937],[121.28912,23.695575],[121.288924,23.695573],[121.288726,23.695751],[121.289016,23.696025],[121.289213,23.695937]]],[[[121.290759,23.69776],[121.290468,23.697486],[121.29047,23.697306],[121.290275,23.697213],[121.290182,23.696851],[121.289892,23.696577],[121.289695,23.696575],[121.289889,23.696757],[121.289887,23.696938],[121.290179,23.697122],[121.290272,23.697484],[121.290564,23.697668],[121.290561,23.697848],[121.290755,23.698031],[121.291244,23.698127],[121.291247,23.697946],[121.29105,23.697944],[121.291053,23.697764],[121.290759,23.69776]]],[[[121.292219,23.698589],[121.292025,23.698406],[121.292027,23.698226],[121.291831,23.698224],[121.291736,23.698042],[121.291343,23.698038],[121.291536,23.698311],[121.29183,23.698314],[121.292024,23.698497],[121.292021,23.698677],[121.292512,23.698683],[121.292514,23.698502],[121.292219,23.698589]]],[[[121.293982,23.698699],[121.293887,23.698517],[121.293199,23.6986],[121.293197,23.698781],[121.293982,23.698699]]],[[[121.295744,23.698989],[121.295745,23.698899],[121.295941,23.698901],[121.295945,23.69863],[121.295453,23.698715],[121.295352,23.698985],[121.294861,23.698979],[121.294474,23.698614],[121.294179,23.698701],[121.294177,23.698791],[121.294763,23.698978],[121.294859,23.69916],[121.295447,23.699167],[121.295548,23.698987],[121.295744,23.698989]]],[[[121.298096,23.699105],[121.297902,23.698923],[121.297897,23.699284],[121.298096,23.699105]]],[[[121.298091,23.699467],[121.298189,23.699468],[121.298093,23.699286],[121.297994,23.699375],[121.297799,23.699283],[121.2977,23.699372],[121.297793,23.699734],[121.298089,23.699647],[121.298091,23.699467]]],[[[121.311784,23.686975],[121.311389,23.687241],[121.311482,23.687603],[121.311679,23.687515],[121.311682,23.687335],[121.312173,23.68725],[121.311784,23.686975]]],[[[121.312364,23.687613],[121.312462,23.687614],[121.312465,23.687433],[121.312367,23.687432],[121.312467,23.687253],[121.312272,23.68716],[121.312172,23.68734],[121.31227,23.687341],[121.312364,23.687613]]],[[[121.311383,23.687693],[121.311482,23.687603],[121.311384,23.687602],[121.311383,23.687693]]],[[[121.310981,23.688411],[121.311183,23.687961],[121.310786,23.688318],[121.310492,23.688315],[121.310391,23.688585],[121.310685,23.688588],[121.310785,23.688408],[121.310981,23.688411]]],[[[121.309011,23.689111],[121.309014,23.688931],[121.309112,23.688932],[121.309114,23.688751],[121.30862,23.689017],[121.308715,23.689289],[121.309011,23.689111]]],[[[121.308607,23.69001],[121.30861,23.689829],[121.308415,23.689737],[121.308506,23.69028],[121.308799,23.690373],[121.308706,23.690011],[121.308607,23.69001]]],[[[121.30839,23.691633],[121.308786,23.691367],[121.30879,23.691096],[121.308888,23.691097],[121.308798,23.690464],[121.308602,23.690462],[121.308597,23.690823],[121.308499,23.690822],[121.308592,23.691184],[121.308396,23.691182],[121.308394,23.691362],[121.308099,23.691449],[121.308097,23.69154],[121.30839,23.691633]]],[[[121.30562,23.693589],[121.305222,23.694037],[121.305418,23.694039],[121.305611,23.694221],[121.30562,23.693589]]],[[[121.304319,23.695562],[121.304225,23.69529],[121.304127,23.695289],[121.304026,23.695468],[121.303732,23.695465],[121.30363,23.695825],[121.304022,23.695829],[121.304123,23.69556],[121.304319,23.695562]]],[[[121.302739,23.696447],[121.302637,23.696717],[121.30303,23.696721],[121.303034,23.69636],[121.302739,23.696447]]],[[[121.301351,23.697606],[121.301452,23.697427],[121.30057,23.697327],[121.300666,23.697508],[121.30027,23.697775],[121.300761,23.69778],[121.300959,23.697602],[121.301351,23.697606]]],[[[121.300171,23.697864],[121.30027,23.697775],[121.300172,23.697774],[121.300171,23.697864]]],[[[121.298691,23.69857],[121.298696,23.698209],[121.298596,23.698298],[121.298402,23.698206],[121.298397,23.698567],[121.298202,23.698474],[121.2982,23.698655],[121.298102,23.698654],[121.298292,23.699108],[121.29839,23.699109],[121.298495,23.698568],[121.298691,23.69857]]]]}}]}