{"type":"FeatureCollection","features":[{"type":"Feature","properties":{"kind":"bare_slide","month":"2019-01","area_ha":60.72},"geometry":{"type":"MultiPolygon","coordinates":[[[[121.283185,23.714472],[121.283574,23.714747],[121.283568,23.715199],[121.28347,23.715198],[121.283565,23.71547],[121.283761,23.715472],[121.28406,23.715114],[121.284355,23.715027],[121.284357,23.714846],[121.284066,23.714662],[121.284069,23.714392],[121.283971,23.71439],[121.284073,23.714121],[121.284468,23.713854],[121.284375,23.713492],[121.283185,23.714472]]],[[[121.283085,23.714652],[121.283184,23.714562],[121.283086,23.714561],[121.283085,23.714652]]],[[[121.28719,23.71569],[121.286998,23.715417],[121.286801,23.715505],[121.286993,23.715778],[121.28719,23.71569]]],[[[121.284823,23.716748],[121.284927,23.716297],[121.285225,23.71603],[121.285519,23.716033],[121.285718,23.715764],[121.285915,23.715767],[121.286014,23.715677],[121.285918,23.715496],[121.285427,23.715581],[121.285129,23.715848],[121.284835,23.715845],[121.284636,23.716023],[121.284634,23.716204],[121.284339,23.716291],[121.284233,23.716831],[121.28433,23.716923],[121.284821,23.716928],[121.28492,23.716839],[121.284823,23.716748]]],[[[121.285014,23.717111],[121.285013,23.717201],[121.283934,23.717189],[121.283741,23.717007],[121.283638,23.717367],[121.284127,23.717462],[121.284223,23.717644],[121.284517,23.717647],[121.284611,23.717919],[121.284315,23.718097],[121.284411,23.718278],[121.284607,23.71828],[121.285004,23.717924],[121.2852,23.717926],[121.285489,23.71829],[121.285687,23.718202],[121.285689,23.718021],[121.285983,23.718025],[121.285984,23.717934],[121.286375,23.718029],[121.286577,23.71758],[121.287658,23.717411],[121.287859,23.717052],[121.288153,23.717055],[121.288151,23.717236],[121.288444,23.71733],[121.288637,23.717603],[121.289127,23.717608],[121.289128,23.717518],[121.289423,23.717431],[121.289525,23.717161],[121.289622,23.717252],[121.289819,23.717164],[121.289722,23.717073],[121.289825,23.716713],[121.290415,23.716629],[121.290516,23.716359],[121.290812,23.716272],[121.290912,23.716093],[121.291108,23.716095],[121.291309,23.715736],[121.291114,23.715643],[121.291113,23.715734],[121.290719,23.71582],[121.290323,23.716177],[121.29032,23.716357],[121.290027,23.716264],[121.290028,23.716173],[121.290324,23.716086],[121.290227,23.715995],[121.290328,23.715725],[121.290232,23.715634],[121.289741,23.715628],[121.289744,23.715448],[121.289942,23.715269],[121.290138,23.715271],[121.290437,23.714914],[121.290146,23.714639],[121.28995,23.714637],[121.28985,23.714817],[121.289459,23.714722],[121.289458,23.714812],[121.289163,23.714809],[121.288965,23.714988],[121.289256,23.715262],[121.289251,23.715623],[121.289446,23.715715],[121.289342,23.716166],[121.289146,23.716163],[121.289145,23.716254],[121.288951,23.716071],[121.288557,23.716157],[121.288758,23.715798],[121.288855,23.715889],[121.289151,23.715802],[121.28896,23.715349],[121.288763,23.715437],[121.288761,23.715617],[121.288364,23.715974],[121.288072,23.71579],[121.288175,23.71543],[121.28798,23.715338],[121.287979,23.715428],[121.287585,23.715514],[121.287485,23.715694],[121.287388,23.715602],[121.28719,23.71569],[121.287381,23.716144],[121.287085,23.716231],[121.286588,23.716767],[121.285704,23.716848],[121.285407,23.717115],[121.28531,23.717024],[121.285014,23.717111]],[[121.28985,23.714817],[121.289947,23.714908],[121.289849,23.714907],[121.28985,23.714817]],[[121.285407,23.717115],[121.285503,23.717207],[121.285405,23.717206],[121.285407,23.717115]],[[121.285503,23.717207],[121.2856,23.717298],[121.285502,23.717297],[121.285503,23.717207]],[[121.285108,23.717473],[121.285207,23.717384],[121.285206,23.717474],[121.285108,23.717473]],[[121.289431,23.716889],[121.289234,23.716887],[121.289233,23.716977],[121.289037,23.716975],[121.289138,23.716795],[121.289432,23.716799],[121.289431,23.716889]],[[121.287864,23.716691],[121.287766,23.71669],[121.287769,23.716419],[121.287966,23.716421],[121.287864,23.716691]],[[121.289338,23.716437],[121.289534,23.716439],[121.289533,23.716529],[121.289337,23.716527],[121.289338,23.716437]],[[121.287871,23.716149],[121.28797,23.71606],[121.287969,23.71615],[121.287871,23.716149]],[[121.287775,23.715968],[121.287875,23.715879],[121.287873,23.715969],[121.287775,23.715968]],[[121.290031,23.715993],[121.29013,23.715903],[121.290129,23.715994],[121.290031,23.715993]]],[[[121.290681,23.718799],[121.290585,23.718617],[121.291173,23.718624],[121.291172,23.718714],[121.291664,23.718629],[121.291765,23.71836],[121.291473,23.718176],[121.291476,23.717995],[121.291672,23.717997],[121.291772,23.717818],[121.291479,23.717724],[121.29148,23.717634],[121.291677,23.717636],[121.291678,23.717546],[121.291873,23.717638],[121.292072,23.71737],[121.292268,23.717372],[121.292264,23.717733],[121.292557,23.717827],[121.292756,23.717558],[121.293052,23.717471],[121.293054,23.71729],[121.293349,23.717203],[121.293354,23.716842],[121.293061,23.716749],[121.29306,23.716839],[121.292766,23.716836],[121.292567,23.717014],[121.292277,23.71674],[121.291777,23.717457],[121.291484,23.717363],[121.291186,23.717631],[121.291184,23.717811],[121.291282,23.717812],[121.291182,23.717992],[121.290988,23.717809],[121.290792,23.717807],[121.290395,23.718164],[121.289903,23.718249],[121.290291,23.718614],[121.290385,23.718886],[121.290581,23.718888],[121.290681,23.718799]],[[121.292566,23.717104],[121.292664,23.717105],[121.292662,23.717286],[121.292564,23.717285],[121.292566,23.717104]]],[[[121.285383,23.718921],[121.28548,23.719012],[121.285581,23.718743],[121.285778,23.718745],[121.285878,23.718565],[121.285684,23.718383],[121.28539,23.718379],[121.285391,23.718289],[121.285195,23.718287],[121.285194,23.718377],[121.284901,23.718284],[121.284702,23.718462],[121.2847,23.718643],[121.284895,23.718735],[121.284793,23.719005],[121.285086,23.719098],[121.285088,23.719008],[121.285383,23.718921]]],[[[121.286352,23.719835],[121.287146,23.719121],[121.28744,23.719124],[121.287341,23.719214],[121.287436,23.719395],[121.287536,23.719306],[121.288025,23.719402],[121.288024,23.719492],[121.288221,23.719404],[121.288324,23.719044],[121.288227,23.718953],[121.287736,23.718947],[121.287739,23.718767],[121.288137,23.718319],[121.288333,23.718322],[121.288532,23.718143],[121.288438,23.717781],[121.287947,23.717866],[121.287846,23.718045],[121.287552,23.718042],[121.287553,23.717952],[121.287161,23.717947],[121.28716,23.718038],[121.286573,23.717941],[121.286473,23.71803],[121.28647,23.718301],[121.286174,23.718388],[121.286074,23.718568],[121.286751,23.719297],[121.286355,23.719564],[121.286358,23.719383],[121.286163,23.719291],[121.286262,23.719202],[121.286166,23.71902],[121.285677,23.718924],[121.285577,23.719104],[121.286352,23.719835]]],[[[121.28291,23.720519],[121.282911,23.720429],[121.283207,23.720342],[121.283209,23.720161],[121.283506,23.719984],[121.283608,23.719624],[121.283904,23.719537],[121.284007,23.719177],[121.284303,23.718999],[121.283722,23.718451],[121.283627,23.718179],[121.28343,23.718267],[121.283425,23.718628],[121.283228,23.718717],[121.283224,23.718987],[121.283126,23.718986],[121.283024,23.719346],[121.282726,23.719614],[121.28253,23.719612],[121.282429,23.719791],[121.281939,23.719786],[121.281938,23.719876],[121.281642,23.719963],[121.281636,23.720415],[121.281927,23.720689],[121.282417,23.720694],[121.282419,23.720604],[121.28291,23.720519]],[[121.283016,23.719888],[121.282818,23.720067],[121.28282,23.719886],[121.283016,23.719888]],[[121.283611,23.719443],[121.283217,23.719529],[121.28332,23.719169],[121.283614,23.719172],[121.283611,23.719443]]],[[[121.288315,23.719676],[121.288122,23.719493],[121.288021,23.719673],[121.288216,23.719765],[121.288315,23.719676]]],[[[121.290459,23.720783],[121.290464,23.720332],[121.290366,23.720331],[121.290466,23.720242],[121.290369,23.72015],[121.290373,23.719789],[121.290472,23.71979],[121.290375,23.719699],[121.290382,23.719157],[121.290481,23.719068],[121.289993,23.718882],[121.289894,23.718971],[121.289988,23.719243],[121.289594,23.719419],[121.289688,23.719691],[121.289982,23.719694],[121.289978,23.720056],[121.28988,23.720054],[121.289778,23.720324],[121.289583,23.720232],[121.289582,23.720322],[121.289288,23.720319],[121.289187,23.720498],[121.289382,23.720591],[121.289476,23.720953],[121.289672,23.720955],[121.289969,23.720688],[121.29016,23.721141],[121.290357,23.721053],[121.290361,23.720782],[121.290459,23.720783]],[[121.29017,23.720329],[121.29027,23.720239],[121.290268,23.72033],[121.29017,23.720329]]],[[[121.284973,23.720271],[121.285075,23.720001],[121.285173,23.720002],[121.285077,23.719821],[121.284585,23.719906],[121.284485,23.720085],[121.284191,23.720082],[121.28399,23.720441],[121.284087,23.720532],[121.284773,23.72054],[121.284875,23.72027],[121.284973,23.720271]]],[[[121.285366,23.720185],[121.285169,23.720273],[121.285362,23.720546],[121.284966,23.720813],[121.285062,23.720994],[121.285258,23.720997],[121.285656,23.720549],[121.286048,23.720554],[121.286241,23.720827],[121.286536,23.72074],[121.286343,23.720467],[121.285856,23.720281],[121.285858,23.7201],[121.286156,23.719833],[121.285671,23.719376],[121.285375,23.719553],[121.285372,23.719734],[121.285567,23.719826],[121.285463,23.720276],[121.285366,23.720185]],[[121.285767,23.719557],[121.285668,23.719647],[121.285669,23.719556],[121.285767,23.719557]],[[121.285567,23.719826],[121.285666,23.719737],[121.285665,23.719827],[121.285567,23.719826]]],[[[121.288582,23.721756],[121.288392,23.721302],[121.288591,23.721124],[121.288594,23.720853],[121.288792,23.720765],[121.288697,23.720493],[121.288207,23.720487],[121.288205,23.720578],[121.287813,23.720573],[121.287812,23.720664],[121.287715,23.720572],[121.287323,23.720568],[121.287322,23.720658],[121.286833,23.720563],[121.286733,23.720652],[121.286926,23.720925],[121.287416,23.72093],[121.28761,23.721113],[121.287508,23.721383],[121.28809,23.721931],[121.288582,23.721756]]],[[[121.286703,23.722999],[121.286901,23.722821],[121.286906,23.72246],[121.287104,23.722281],[121.286909,23.722189],[121.286711,23.722367],[121.286713,23.722187],[121.286518,23.722094],[121.286417,23.722364],[121.286319,23.722363],[121.286215,23.722813],[121.286606,23.722908],[121.286507,23.722997],[121.286602,23.723179],[121.2868,23.723091],[121.286703,23.722999]]],[[[121.299045,23.701554],[121.299047,23.701373],[121.298753,23.70137],[121.298657,23.701188],[121.298069,23.701182],[121.298162,23.701544],[121.29826,23.701545],[121.298257,23.701816],[121.298058,23.701995],[121.298156,23.701996],[121.298247,23.702538],[121.298442,23.702631],[121.298341,23.702901],[121.298534,23.703083],[121.298531,23.703354],[121.298628,23.703446],[121.298825,23.703357],[121.298823,23.703538],[121.299116,23.703632],[121.299113,23.703812],[121.299211,23.703813],[121.299104,23.704534],[121.299006,23.704533],[121.299002,23.704804],[121.298904,23.704803],[121.298899,23.705255],[121.298505,23.705341],[121.298405,23.70552],[121.297913,23.705605],[121.297715,23.705783],[121.297711,23.706054],[121.297905,23.706237],[121.298102,23.706149],[121.298198,23.70633],[121.298492,23.706334],[121.298587,23.706606],[121.298885,23.706338],[121.298888,23.706067],[121.298986,23.706068],[121.29889,23.705887],[121.299088,23.705798],[121.299092,23.705437],[121.29919,23.705438],[121.299093,23.705347],[121.299199,23.704806],[121.299297,23.704807],[121.2993,23.704537],[121.299398,23.704538],[121.299402,23.704267],[121.2995,23.704268],[121.299507,23.703726],[121.299215,23.703542],[121.299124,23.703],[121.298833,23.702725],[121.298933,23.702636],[121.298947,23.701553],[121.299045,23.701554]],[[121.29889,23.705887],[121.298793,23.705795],[121.298892,23.705796],[121.29889,23.705887]],[[121.298833,23.702725],[121.298734,23.702815],[121.298735,23.702724],[121.298833,23.702725]],[[121.298637,23.702723],[121.29854,23.702632],[121.298638,23.702633],[121.298637,23.702723]]],[[[121.298075,23.708225],[121.297981,23.707953],[121.298079,23.707955],[121.298087,23.707323],[121.29799,23.707231],[121.297792,23.70741],[121.2974,23.707405],[121.297398,23.707496],[121.297103,23.707583],[121.297101,23.707763],[121.297295,23.707946],[121.297787,23.707771],[121.297785,23.707951],[121.297883,23.707952],[121.297781,23.708222],[121.297878,23.708314],[121.298075,23.708225]]],[[[121.297681,23.708402],[121.297875,23.708584],[121.297975,23.708405],[121.29778,23.708312],[121.297681,23.708402]]],[[[121.298054,23.709851],[121.297861,23.709668],[121.29747,23.709573],[121.297479,23.708851],[121.297382,23.70876],[121.297185,23.708848],[121.297182,23.709028],[121.296691,23.709113],[121.297757,23.710118],[121.298052,23.710031],[121.298054,23.709851]]],[[[121.301178,23.710968],[121.300693,23.710602],[121.300695,23.710421],[121.300402,23.710328],[121.300111,23.710054],[121.300114,23.709873],[121.299824,23.709509],[121.29953,23.709506],[121.299337,23.709233],[121.29914,23.709321],[121.299624,23.709778],[121.29962,23.710139],[121.300593,23.710691],[121.300686,23.711144],[121.301077,23.711238],[121.301176,23.711149],[121.301178,23.710968]]],[[[121.297928,23.712016],[121.29803,23.711747],[121.298327,23.711479],[121.298236,23.710936],[121.298138,23.710935],[121.298141,23.710754],[121.298239,23.710756],[121.298246,23.710214],[121.298149,23.710122],[121.297852,23.7103],[121.297945,23.710752],[121.298043,23.710753],[121.297939,23.711204],[121.297741,23.711292],[121.29754,23.711741],[121.297048,23.711826],[121.297144,23.712008],[121.297438,23.712011],[121.297632,23.712194],[121.297928,23.712016]]],[[[121.301522,23.714675],[121.301622,23.714585],[121.301529,23.714133],[121.301728,23.713954],[121.301733,23.713593],[121.30193,23.713505],[121.301933,23.713234],[121.302129,23.713236],[121.30223,23.713057],[121.302035,23.712964],[121.302037,23.712784],[121.301843,23.712601],[121.301647,23.712599],[121.301555,23.712146],[121.301262,23.712053],[121.300865,23.71241],[121.30096,23.712682],[121.300761,23.71286],[121.300859,23.712861],[121.300948,23.713585],[121.301239,23.713859],[121.301234,23.71422],[121.301037,23.714308],[121.301034,23.714489],[121.301228,23.714671],[121.301327,23.714582],[121.301522,23.714675]]],[[[121.294163,23.714955],[121.29397,23.714772],[121.293973,23.714501],[121.294264,23.714775],[121.294559,23.714688],[121.294758,23.71451],[121.29476,23.714329],[121.294957,23.714241],[121.29496,23.714061],[121.295257,23.713793],[121.29575,23.713618],[121.295753,23.713347],[121.296149,23.71308],[121.296156,23.712539],[121.296059,23.712447],[121.295862,23.712535],[121.295858,23.712806],[121.295166,23.71325],[121.295261,23.713522],[121.295062,23.7137],[121.294866,23.713698],[121.294865,23.713789],[121.294572,23.713695],[121.29447,23.713965],[121.294274,23.713963],[121.294081,23.71378],[121.293882,23.713958],[121.293779,23.714318],[121.293482,23.714586],[121.293285,23.714584],[121.293185,23.714763],[121.292892,23.71467],[121.292893,23.71458],[121.292696,23.714668],[121.292889,23.714941],[121.293184,23.714854],[121.29328,23.715035],[121.293677,23.714678],[121.293775,23.71468],[121.293867,23.715132],[121.294163,23.714955]]],[[[121.298186,23.714818],[121.298285,23.714729],[121.298195,23.714096],[121.297515,23.713637],[121.297416,23.713726],[121.29741,23.714178],[121.296914,23.714624],[121.297011,23.714715],[121.297599,23.714722],[121.29789,23.714996],[121.298184,23.714999],[121.298283,23.71491],[121.298186,23.714818]]],[[[121.298231,23.718882],[121.29823,23.718973],[121.298426,23.718975],[121.298428,23.718885],[121.298721,23.718978],[121.29882,23.718889],[121.298826,23.718437],[121.298631,23.718345],[121.298233,23.718792],[121.298036,23.71879],[121.298139,23.71843],[121.297944,23.718337],[121.297746,23.718516],[121.297743,23.718696],[121.297546,23.718785],[121.297837,23.719059],[121.298035,23.71888],[121.298231,23.718882]]],[[[121.296726,23.721484],[121.296728,23.721394],[121.296825,23.721486],[121.297022,23.721397],[121.296927,23.721126],[121.296732,23.721033],[121.296737,23.720672],[121.29713,23.720586],[121.297135,23.720225],[121.297037,23.720224],[121.297143,23.719593],[121.297046,23.719501],[121.296751,23.719588],[121.296746,23.71995],[121.296449,23.720217],[121.296445,23.720488],[121.296543,23.720489],[121.296437,23.72112],[121.296338,23.721209],[121.296144,23.721027],[121.295947,23.721115],[121.295944,23.721295],[121.296138,23.721478],[121.296334,23.72148],[121.296335,23.72139],[121.296726,23.721484]]],[[[121.294729,23.724262],[121.294927,23.724083],[121.29493,23.723903],[121.294637,23.723809],[121.294547,23.723176],[121.294842,23.723089],[121.295043,23.72273],[121.294849,23.722547],[121.294651,23.722726],[121.294356,23.722723],[121.294458,23.722453],[121.294263,23.72236],[121.294162,23.72263],[121.294063,23.722629],[121.294257,23.722812],[121.294253,23.723173],[121.294058,23.72308],[121.29406,23.7229],[121.293866,23.722717],[121.293872,23.722266],[121.293677,23.722173],[121.293585,23.721721],[121.292907,23.721081],[121.292917,23.720269],[121.292722,23.720176],[121.292621,23.720446],[121.292523,23.720445],[121.292418,23.720985],[121.291822,23.721521],[121.292016,23.721703],[121.29231,23.721707],[121.292308,23.721887],[121.292015,23.721794],[121.291914,23.721973],[121.292108,23.722156],[121.292499,23.722251],[121.292496,23.722521],[121.292594,23.722523],[121.292492,23.722792],[121.292589,23.722884],[121.292887,23.722616],[121.293279,23.72262],[121.293666,23.722986],[121.293662,23.723347],[121.293265,23.723704],[121.29307,23.723611],[121.293069,23.723702],[121.292773,23.723789],[121.292771,23.723969],[121.293063,23.724153],[121.29306,23.724334],[121.293351,23.724608],[121.293548,23.72452],[121.293644,23.724701],[121.29384,23.724703],[121.293838,23.724884],[121.294324,23.725251],[121.294423,23.725161],[121.294329,23.724799],[121.294428,23.7248],[121.294529,23.72453],[121.294725,23.724533],[121.294915,23.724986],[121.295307,23.725081],[121.295304,23.725261],[121.295206,23.72526],[121.295301,23.725532],[121.295984,23.725811],[121.296183,23.725542],[121.296576,23.725546],[121.296677,23.725277],[121.297073,23.72501],[121.297075,23.724829],[121.297368,23.724923],[121.297865,23.724477],[121.297772,23.724024],[121.297276,23.72447],[121.29708,23.724468],[121.296887,23.724195],[121.296985,23.724196],[121.296989,23.723925],[121.297287,23.723658],[121.296798,23.723562],[121.296702,23.723381],[121.296505,23.723469],[121.296499,23.72392],[121.296303,23.723918],[121.296202,23.724097],[121.295908,23.724094],[121.295708,23.724363],[121.295218,23.724357],[121.295121,23.724266],[121.294923,23.724444],[121.294729,23.724262]],[[121.295021,23.724446],[121.295117,23.724537],[121.295019,23.724536],[121.295021,23.724446]],[[121.296384,23.725183],[121.296483,23.725094],[121.296482,23.725184],[121.296384,23.725183]],[[121.295506,23.724812],[121.295605,23.724723],[121.295604,23.724813],[121.295506,23.724812]],[[121.292901,23.721533],[121.292998,23.721624],[121.2929,23.721623],[121.292901,23.721533]],[[121.292803,23.721532],[121.292805,23.721351],[121.292903,23.721352],[121.292901,23.721533],[121.292803,23.721532]],[[121.292511,23.721348],[121.29261,23.721259],[121.292609,23.721349],[121.292511,23.721348]]],[[[121.302703,23.722002],[121.302506,23.722],[121.302415,23.721457],[121.302318,23.721365],[121.302121,23.721454],[121.302125,23.721183],[121.302027,23.721182],[121.30203,23.720911],[121.301932,23.72091],[121.301934,23.720729],[121.302233,23.720371],[121.30224,23.719829],[121.302045,23.719737],[121.301843,23.720186],[121.301745,23.720185],[121.301741,23.720546],[121.301542,23.720725],[121.301539,23.720996],[121.301637,23.720997],[121.301633,23.721268],[121.302216,23.721725],[121.302309,23.722088],[121.302504,23.72218],[121.302501,23.722451],[121.302597,23.722542],[121.302893,23.722455],[121.302889,23.722726],[121.302987,23.722727],[121.302985,23.722908],[121.302789,23.722906],[121.302596,23.722633],[121.302399,23.722721],[121.302394,23.723082],[121.302098,23.723259],[121.302095,23.72344],[121.302193,23.723441],[121.302091,23.723801],[121.302482,23.723896],[121.302578,23.724077],[121.30307,23.723902],[121.303064,23.724353],[121.303355,23.724628],[121.30365,23.72454],[121.303648,23.724721],[121.303843,23.724813],[121.30384,23.725084],[121.30413,23.725358],[121.304117,23.726352],[121.304215,23.726353],[121.304212,23.726624],[121.30431,23.726625],[121.304211,23.726714],[121.304203,23.727346],[121.304594,23.72744],[121.304694,23.727261],[121.30489,23.727263],[121.305084,23.727446],[121.305082,23.727626],[121.305374,23.72781],[121.305367,23.728352],[121.30556,23.728535],[121.306149,23.728541],[121.306252,23.728181],[121.30596,23.727997],[121.305963,23.727726],[121.305673,23.727452],[121.305675,23.727272],[121.305287,23.726906],[121.305091,23.726904],[121.304995,23.726722],[121.304799,23.72672],[121.304605,23.726538],[121.304713,23.725816],[121.304519,23.725634],[121.304525,23.725182],[121.304137,23.724817],[121.304141,23.724546],[121.304044,23.724454],[121.303847,23.724543],[121.303654,23.72427],[121.303361,23.724176],[121.30346,23.724087],[121.303466,23.723635],[121.303664,23.723457],[121.303573,23.722914],[121.30367,23.723006],[121.303966,23.722919],[121.303772,23.722736],[121.303774,23.722555],[121.30407,23.722468],[121.30417,23.722289],[121.304073,23.722197],[121.303779,23.722194],[121.303778,23.722284],[121.303681,23.722193],[121.302994,23.722185],[121.302895,23.722275],[121.302703,23.722002]],[[121.302895,23.722275],[121.302796,23.722364],[121.302797,23.722274],[121.302895,23.722275]]],[[[121.302163,23.725788],[121.302165,23.725608],[121.302362,23.72561],[121.30236,23.7257],[121.302558,23.725612],[121.302465,23.72516],[121.302762,23.724982],[121.302766,23.724711],[121.302864,23.724712],[121.302869,23.724261],[121.302773,23.72417],[121.302575,23.724258],[121.302371,23.724888],[121.302175,23.724885],[121.302174,23.724976],[121.301979,23.724883],[121.301876,23.725243],[121.301381,23.725599],[121.301379,23.72578],[121.301475,23.725871],[121.301673,23.725783],[121.301768,23.725965],[121.301965,23.725967],[121.302163,23.725788]]],[[[121.302735,23.727059],[121.302541,23.726876],[121.302546,23.726515],[121.302254,23.726331],[121.301956,23.726599],[121.301954,23.726779],[121.302148,23.726962],[121.302344,23.726964],[121.302439,23.727236],[121.302242,23.727234],[121.301758,23.726777],[121.301656,23.727047],[121.301558,23.727046],[121.301653,23.727318],[121.301948,23.727231],[121.301945,23.727502],[121.301848,23.72741],[121.301651,23.727498],[121.301745,23.72777],[121.302136,23.727865],[121.302135,23.727955],[121.302429,23.727958],[121.302428,23.728049],[121.303116,23.727966],[121.303215,23.727877],[121.303119,23.727695],[121.302532,23.727598],[121.30273,23.72742],[121.302735,23.727059]],[[121.302532,23.727598],[121.302433,23.727688],[121.302434,23.727597],[121.302532,23.727598]]]]}},{"type":"Feature","properties":{"kind":"bare_dam","month":"2019-01","area_ha":17.83},"geometry":{"type":"MultiPolygon","coordinates":[[[[121.302704,23.691571],[121.302608,23.691389],[121.302314,23.691386],[121.301925,23.691111],[121.301533,23.691107],[121.30134,23.690924],[121.30124,23.691013],[121.300946,23.69101],[121.300947,23.690919],[121.30075,23.691008],[121.300556,23.690825],[121.300261,23.690912],[121.300263,23.690731],[121.300657,23.690645],[121.300562,23.690373],[121.300366,23.690371],[121.300069,23.690639],[121.300066,23.69082],[121.29987,23.690817],[121.299774,23.690636],[121.299285,23.69054],[121.299191,23.690268],[121.299484,23.690362],[121.299781,23.690094],[121.299978,23.690096],[121.299976,23.690186],[121.300076,23.690097],[121.30027,23.69019],[121.300371,23.69001],[121.300762,23.690105],[121.300862,23.689925],[121.300668,23.689743],[121.298708,23.689721],[121.298607,23.6899],[121.298117,23.689895],[121.297621,23.690341],[121.297615,23.690793],[121.297809,23.690975],[121.298202,23.690889],[121.298303,23.69071],[121.298792,23.690806],[121.298884,23.691258],[121.299078,23.691441],[121.299569,23.691356],[121.299668,23.691267],[121.299574,23.690995],[121.29977,23.690997],[121.300059,23.691361],[121.300255,23.691363],[121.300256,23.691273],[121.300647,23.691368],[121.300747,23.691278],[121.300745,23.691369],[121.301432,23.691376],[121.301527,23.691558],[121.301724,23.69156],[121.301725,23.69147],[121.30241,23.691568],[121.302409,23.691658],[121.302704,23.691571]],[[121.2988,23.690173],[121.298997,23.690085],[121.299093,23.690267],[121.298896,23.690355],[121.2988,23.690173]]],[[[121.300318,23.694073],[121.300419,23.693894],[121.300615,23.693896],[121.300709,23.694168],[121.301003,23.694171],[121.301002,23.694261],[121.301393,23.694356],[121.301489,23.694537],[121.301784,23.69445],[121.301398,23.693995],[121.301103,23.694082],[121.301105,23.693901],[121.300813,23.693717],[121.300912,23.693628],[121.300817,23.693446],[121.300618,23.693625],[121.300423,23.693532],[121.300426,23.693352],[121.300623,23.693264],[121.300332,23.69299],[121.300434,23.69272],[121.300532,23.692721],[121.300436,23.692539],[121.299654,23.69235],[121.29956,23.692078],[121.299166,23.692164],[121.299167,23.692074],[121.298678,23.691978],[121.298376,23.692607],[121.298571,23.692699],[121.298568,23.69297],[121.29915,23.693428],[121.29895,23.693697],[121.299241,23.693971],[121.300124,23.69389],[121.300318,23.694073]],[[121.299149,23.693518],[121.299246,23.69361],[121.299148,23.693609],[121.299149,23.693518]],[[121.299247,23.693519],[121.299346,23.69343],[121.299345,23.693521],[121.299247,23.693519]],[[121.300124,23.69389],[121.300224,23.693801],[121.300223,23.693891],[121.300124,23.69389]],[[121.300128,23.693619],[121.300031,23.693528],[121.300129,23.693529],[121.300128,23.693619]],[[121.300136,23.692987],[121.300235,23.692898],[121.300234,23.692989],[121.300136,23.692987]],[[121.300137,23.692897],[121.30004,23.692806],[121.300139,23.692807],[121.300137,23.692897]],[[121.299648,23.692801],[121.299551,23.69271],[121.299649,23.692711],[121.299648,23.692801]]],[[[121.301586,23.694629],[121.301682,23.69481],[121.301878,23.694813],[121.302077,23.694544],[121.301784,23.69445],[121.301586,23.694629]]],[[[121.298043,23.695583],[121.297748,23.69567],[121.297648,23.69585],[121.297941,23.695943],[121.298139,23.695765],[121.298043,23.695583]]],[[[121.298611,23.697215],[121.299009,23.696768],[121.298913,23.696586],[121.298618,23.696673],[121.29862,23.696492],[121.298818,23.696314],[121.298825,23.695772],[121.298728,23.695681],[121.298532,23.695679],[121.298531,23.695769],[121.298238,23.695676],[121.298137,23.695945],[121.298039,23.695944],[121.298036,23.696125],[121.298134,23.696126],[121.298035,23.696215],[121.298028,23.696757],[121.298414,23.697213],[121.298611,23.697215]],[[121.298428,23.696129],[121.298332,23.696038],[121.29843,23.696039],[121.298428,23.696129]]],[[[121.302239,23.697164],[121.302436,23.697166],[121.302537,23.696897],[121.30303,23.696721],[121.302836,23.696539],[121.302838,23.696358],[121.303034,23.69636],[121.303233,23.696182],[121.303335,23.695822],[121.303142,23.695639],[121.302944,23.695727],[121.302842,23.696087],[121.302647,23.695995],[121.302448,23.696173],[121.302445,23.696444],[121.302248,23.696532],[121.302245,23.696713],[121.30175,23.697069],[121.301845,23.697341],[121.302238,23.697255],[121.302239,23.697164]]],[[[121.299157,23.700472],[121.298867,23.700107],[121.298671,23.700105],[121.298675,23.699834],[121.298773,23.699835],[121.29878,23.699294],[121.298978,23.699115],[121.298983,23.698754],[121.29928,23.698486],[121.299186,23.698214],[121.299482,23.698037],[121.299387,23.697855],[121.299191,23.697853],[121.29909,23.698033],[121.298796,23.698029],[121.298596,23.698298],[121.298304,23.698205],[121.298105,23.698383],[121.298103,23.698564],[121.298201,23.698565],[121.2981,23.698744],[121.298391,23.699018],[121.298093,23.699286],[121.297799,23.699283],[121.297502,23.69955],[121.297597,23.699732],[121.297891,23.699735],[121.297883,23.700367],[121.29798,23.700459],[121.299157,23.700472]]],[[[121.311978,23.687157],[121.312461,23.687704],[121.312658,23.687616],[121.312372,23.686981],[121.312179,23.686798],[121.311885,23.686795],[121.311685,23.687064],[121.311978,23.687157]]],[[[121.311489,23.687062],[121.311292,23.68715],[121.311286,23.687601],[121.311188,23.6876],[121.311284,23.687782],[121.311878,23.687337],[121.311685,23.687064],[121.311586,23.687153],[121.311489,23.687062]]],[[[121.310833,23.692292],[121.311231,23.691845],[121.310941,23.691571],[121.310745,23.691568],[121.310455,23.691204],[121.309671,23.691196],[121.309472,23.691374],[121.309376,23.691283],[121.30908,23.69137],[121.309083,23.691189],[121.308889,23.691006],[121.30879,23.691096],[121.308595,23.691003],[121.308297,23.691271],[121.308392,23.691543],[121.30859,23.691364],[121.308786,23.691367],[121.30898,23.691549],[121.309177,23.691461],[121.309563,23.691917],[121.309858,23.69192],[121.309953,23.692102],[121.310444,23.692107],[121.310637,23.69229],[121.310833,23.692292]]],[[[121.306222,23.692512],[121.306421,23.692244],[121.306616,23.692336],[121.306717,23.692157],[121.306912,23.692249],[121.307114,23.6918],[121.306919,23.691707],[121.306917,23.691798],[121.306525,23.691793],[121.306425,23.691973],[121.305935,23.691967],[121.305936,23.691877],[121.305739,23.691965],[121.306026,23.69251],[121.306222,23.692512]]],[[[121.304321,23.695471],[121.304618,23.695204],[121.304721,23.694844],[121.305216,23.694488],[121.305121,23.694216],[121.305317,23.694218],[121.305714,23.693861],[121.305618,23.69368],[121.305321,23.693947],[121.304927,23.694033],[121.30443,23.69457],[121.304234,23.694567],[121.303937,23.694835],[121.304227,23.695109],[121.304126,23.695379],[121.304321,23.695471]],[[121.30433,23.694749],[121.304524,23.694932],[121.304326,23.69502],[121.30433,23.694749]]],[[[121.303443,23.695101],[121.303053,23.694916],[121.303054,23.694825],[121.303447,23.694739],[121.303353,23.694468],[121.302765,23.694461],[121.302368,23.694818],[121.302657,23.695182],[121.302951,23.695186],[121.303145,23.695368],[121.303341,23.69537],[121.303443,23.695101]],[[121.302957,23.694734],[121.302955,23.694915],[121.302857,23.694914],[121.302761,23.694732],[121.302957,23.694734]]]]}}]}