{"type":"FeatureCollection","features":[{"type":"Feature","properties":{"kind":"bare_slide","month":"2019-10","area_ha":61.29},"geometry":{"type":"MultiPolygon","coordinates":[[[[121.292885,23.715212],[121.293083,23.715033],[121.293086,23.714853],[121.29328,23.715035],[121.293478,23.714857],[121.293672,23.71504],[121.293966,23.715043],[121.294166,23.714774],[121.294362,23.714776],[121.294659,23.714509],[121.294662,23.714328],[121.294958,23.714151],[121.294863,23.713969],[121.295059,23.713971],[121.295258,23.713703],[121.295553,23.713706],[121.295655,23.713346],[121.29615,23.71299],[121.296157,23.712448],[121.29606,23.712357],[121.295863,23.712445],[121.295857,23.712897],[121.295661,23.712894],[121.295462,23.713163],[121.295167,23.71316],[121.295166,23.71325],[121.294872,23.713247],[121.294871,23.713337],[121.294676,23.713245],[121.294477,23.713423],[121.294475,23.713604],[121.293882,23.713958],[121.293779,23.714318],[121.293482,23.714586],[121.293187,23.714583],[121.292989,23.714761],[121.292697,23.714577],[121.292597,23.714757],[121.29279,23.71494],[121.292496,23.714936],[121.292396,23.715116],[121.292885,23.715212]],[[121.294069,23.714683],[121.293873,23.714681],[121.293876,23.71441],[121.294071,23.714502],[121.294069,23.714683]]],[[[121.28406,23.715114],[121.284262,23.714665],[121.283969,23.714571],[121.283973,23.71421],[121.284369,23.713943],[121.284372,23.713763],[121.28447,23.713764],[121.284375,23.713492],[121.282888,23.71474],[121.282982,23.715012],[121.283475,23.714836],[121.283473,23.715017],[121.283571,23.715018],[121.283468,23.715378],[121.283565,23.71547],[121.283859,23.715473],[121.283962,23.715113],[121.28406,23.715114]]],[[[121.289837,23.71581],[121.289643,23.715627],[121.289745,23.715357],[121.29004,23.71527],[121.290338,23.715003],[121.29034,23.714822],[121.290146,23.714639],[121.289852,23.714636],[121.289851,23.714727],[121.289557,23.714723],[121.289556,23.714814],[121.289263,23.71472],[121.288867,23.714987],[121.288963,23.715168],[121.289256,23.715262],[121.289154,23.715531],[121.289542,23.715897],[121.289738,23.715899],[121.289837,23.71581]]],[[[121.285222,23.71621],[121.285225,23.71603],[121.285421,23.716032],[121.28562,23.715763],[121.285916,23.715676],[121.28582,23.715495],[121.285428,23.71549],[121.285129,23.715848],[121.284933,23.715846],[121.284537,23.716112],[121.284632,23.716384],[121.285222,23.71621]]],[[[121.288074,23.71561],[121.288077,23.715429],[121.288175,23.71543],[121.288079,23.715249],[121.287782,23.715426],[121.287876,23.715788],[121.287974,23.715789],[121.287873,23.715969],[121.287677,23.715967],[121.287583,23.715695],[121.287192,23.7156],[121.287091,23.71578],[121.287189,23.715781],[121.287284,23.716053],[121.286588,23.716767],[121.285606,23.716847],[121.285605,23.716937],[121.285311,23.716934],[121.28521,23.717113],[121.284721,23.717017],[121.28472,23.717108],[121.284328,23.717103],[121.284327,23.717194],[121.283643,23.717006],[121.283541,23.717275],[121.283735,23.717458],[121.284127,23.717462],[121.284515,23.717828],[121.285004,23.717924],[121.285293,23.718288],[121.285489,23.71829],[121.285689,23.718021],[121.285983,23.718025],[121.285984,23.717934],[121.286178,23.718117],[121.286472,23.71812],[121.28647,23.718301],[121.286763,23.718395],[121.286762,23.718485],[121.286861,23.718396],[121.287154,23.718489],[121.287254,23.71831],[121.28745,23.718312],[121.287834,23.718948],[121.288031,23.71895],[121.288126,23.719132],[121.288619,23.718957],[121.288615,23.719228],[121.28881,23.71932],[121.28891,23.719231],[121.288916,23.71878],[121.289311,23.718513],[121.289413,23.718243],[121.289708,23.718156],[121.289614,23.717884],[121.289712,23.717885],[121.289715,23.717615],[121.289813,23.717616],[121.289818,23.717255],[121.290017,23.717076],[121.289824,23.716803],[121.290315,23.716718],[121.290514,23.71654],[121.290517,23.716269],[121.290812,23.716272],[121.291506,23.715648],[121.291509,23.715467],[121.291804,23.71538],[121.291904,23.715201],[121.291415,23.715105],[121.291217,23.715283],[121.291214,23.715464],[121.291313,23.715465],[121.291212,23.715645],[121.291016,23.715642],[121.291015,23.715733],[121.29082,23.71564],[121.290522,23.715908],[121.290421,23.716178],[121.29013,23.715903],[121.289832,23.716171],[121.289928,23.716353],[121.289534,23.716439],[121.289533,23.716529],[121.289044,23.716433],[121.288951,23.716071],[121.288557,23.716157],[121.288562,23.715796],[121.288956,23.71571],[121.288958,23.715529],[121.28886,23.715528],[121.288963,23.715168],[121.288866,23.715077],[121.288074,23.71561]],[[121.29032,23.716357],[121.290222,23.716356],[121.290123,23.716445],[121.290224,23.716175],[121.290323,23.716177],[121.29032,23.716357]],[[121.288469,23.715434],[121.288566,23.715525],[121.288468,23.715524],[121.288469,23.715434]],[[121.288039,23.718318],[121.287844,23.718226],[121.288042,23.718048],[121.287947,23.717866],[121.287748,23.718044],[121.287651,23.717953],[121.286768,23.718033],[121.286769,23.717943],[121.286377,23.717939],[121.286378,23.717849],[121.286575,23.71776],[121.286577,23.71758],[121.287167,23.717496],[121.287267,23.717317],[121.28756,23.71741],[121.287859,23.717052],[121.288153,23.717055],[121.288151,23.717236],[121.288541,23.717421],[121.288438,23.717781],[121.288632,23.717964],[121.288335,23.718141],[121.288333,23.718322],[121.288624,23.718596],[121.288425,23.718774],[121.288229,23.718772],[121.288035,23.718589],[121.288039,23.718318]],[[121.28599,23.717483],[121.285891,23.717572],[121.285892,23.717482],[121.28599,23.717483]],[[121.28599,23.717483],[121.286089,23.717394],[121.286088,23.717484],[121.28599,23.717483]],[[121.289034,23.717246],[121.28923,23.717248],[121.289229,23.717338],[121.289032,23.717336],[121.289034,23.717246]],[[121.287769,23.716419],[121.287966,23.716421],[121.287962,23.716692],[121.287669,23.716599],[121.287769,23.716419]],[[121.287574,23.716327],[121.287674,23.716237],[121.287673,23.716328],[121.287574,23.716327]],[[121.288169,23.715882],[121.288268,23.715793],[121.288267,23.715883],[121.288169,23.715882]]],[[[121.29148,23.717634],[121.291287,23.717451],[121.291186,23.717631],[121.291381,23.717723],[121.29148,23.717634]]],[[[121.291673,23.717907],[121.291577,23.717725],[121.291282,23.717812],[121.291376,23.718084],[121.291673,23.717907]]],[[[121.284401,23.719],[121.284305,23.718819],[121.284109,23.718817],[121.284015,23.718545],[121.283819,23.718543],[121.283821,23.718362],[121.283627,23.718179],[121.28343,23.718267],[121.283424,23.718719],[121.283325,23.718808],[121.283615,23.719082],[121.284105,23.719178],[121.284106,23.719088],[121.284401,23.719]]],[[[121.290593,23.717985],[121.290001,23.71825],[121.290385,23.718886],[121.290286,23.718975],[121.289993,23.718882],[121.28989,23.719242],[121.289497,23.719328],[121.289591,23.7196],[121.289982,23.719694],[121.290078,23.719876],[121.290275,23.719788],[121.290383,23.719067],[121.290874,23.718982],[121.291074,23.718713],[121.291467,23.718627],[121.29147,23.718447],[121.291372,23.718446],[121.291473,23.718176],[121.291375,23.718175],[121.29128,23.717993],[121.290985,23.71799],[121.290792,23.717807],[121.290692,23.717896],[121.290787,23.718168],[121.290593,23.717985]],[[121.291074,23.718713],[121.290977,23.718622],[121.291075,23.718623],[121.291074,23.718713]],[[121.290689,23.718167],[121.29059,23.718256],[121.290591,23.718166],[121.290689,23.718167]],[[121.290586,23.718527],[121.290684,23.718528],[121.290682,23.718709],[121.290584,23.718708],[121.290586,23.718527]]],[[[121.284004,23.719357],[121.28381,23.719175],[121.28371,23.719354],[121.283905,23.719446],[121.284004,23.719357]]],[[[121.282812,23.720518],[121.282912,23.720338],[121.282814,23.720337],[121.282721,23.719975],[121.283018,23.719798],[121.282916,23.720068],[121.283209,23.720161],[121.283311,23.719891],[121.283607,23.719714],[121.283511,23.719532],[121.283217,23.719529],[121.283123,23.719257],[121.282527,23.719792],[121.281938,23.719876],[121.28164,23.720144],[121.281636,23.720415],[121.281927,23.720689],[121.282417,23.720694],[121.282419,23.720604],[121.282812,23.720518]]],[[[121.285163,23.720725],[121.285455,23.720908],[121.285453,23.721089],[121.285355,23.721088],[121.28545,23.72127],[121.285646,23.721272],[121.285648,23.721181],[121.286333,23.721279],[121.286433,23.7211],[121.286629,23.721102],[121.287013,23.721738],[121.287308,23.721742],[121.287607,23.721384],[121.287993,23.72184],[121.288189,23.721842],[121.28819,23.721751],[121.288584,23.721665],[121.288488,23.721484],[121.288292,23.721482],[121.288294,23.721301],[121.288491,23.721213],[121.288595,23.720763],[121.288794,23.720584],[121.288697,23.720493],[121.288109,23.720486],[121.288107,23.720577],[121.287912,23.720484],[121.287911,23.720574],[121.287421,23.720569],[121.28742,23.720659],[121.286538,23.720559],[121.28624,23.720917],[121.286043,23.720915],[121.28585,23.720732],[121.285852,23.720552],[121.28615,23.720284],[121.285759,23.720189],[121.28576,23.720099],[121.285958,23.719921],[121.286251,23.720014],[121.286353,23.719745],[121.286549,23.719747],[121.286749,23.719478],[121.286652,23.719387],[121.286356,23.719474],[121.286163,23.719291],[121.286361,23.719113],[121.286267,23.718841],[121.286068,23.719019],[121.285774,23.719016],[121.285678,23.718834],[121.285482,23.718832],[121.285481,23.718922],[121.284992,23.718826],[121.284891,23.719006],[121.285376,23.719463],[121.285371,23.719824],[121.285469,23.719825],[121.285464,23.720186],[121.285169,23.720273],[121.285163,23.720725]],[[121.285464,23.720186],[121.285561,23.720278],[121.285463,23.720276],[121.285464,23.720186]],[[121.285767,23.719557],[121.285668,23.719647],[121.285669,23.719556],[121.285767,23.719557]],[[121.285769,23.719377],[121.285965,23.719379],[121.285964,23.719469],[121.285767,23.719557],[121.285769,23.719377]]],[[[121.288894,23.720405],[121.288794,23.720584],[121.288988,23.720767],[121.289282,23.72077],[121.289281,23.720861],[121.289575,23.720864],[121.289675,23.720684],[121.290066,23.720779],[121.289961,23.72132],[121.28957,23.721225],[121.289471,23.721314],[121.289567,23.721496],[121.289862,23.721409],[121.289958,23.72159],[121.290154,23.721593],[121.290155,23.721502],[121.290547,23.721507],[121.290548,23.721416],[121.290844,23.721329],[121.290748,23.721148],[121.290357,23.721053],[121.290363,23.720602],[121.290266,23.72051],[121.290069,23.720598],[121.290071,23.720418],[121.290169,23.720419],[121.290073,23.720237],[121.290271,23.720149],[121.290078,23.719876],[121.289681,23.720233],[121.288894,23.720405]],[[121.289681,23.720233],[121.289778,23.720324],[121.28968,23.720323],[121.289681,23.720233]]],[[[121.294314,23.725973],[121.294217,23.725881],[121.294221,23.725611],[121.294319,23.725612],[121.294223,23.72543],[121.29442,23.725342],[121.294426,23.724891],[121.294328,23.724889],[121.294431,23.724529],[121.294628,23.724441],[121.294731,23.724081],[121.294927,23.724083],[121.294926,23.724174],[121.295221,23.724087],[121.295126,23.723905],[121.294832,23.723902],[121.294638,23.723719],[121.294641,23.723448],[121.294543,23.723447],[121.294549,23.722996],[121.294745,23.722998],[121.294944,23.722819],[121.294947,23.722548],[121.294752,23.722456],[121.294553,23.722725],[121.294356,23.722723],[121.294263,23.72236],[121.293871,23.722356],[121.293677,23.722173],[121.293682,23.721812],[121.293294,23.721447],[121.293098,23.721444],[121.292809,23.72108],[121.292916,23.720359],[121.292721,23.720266],[121.292523,23.720445],[121.292418,23.720985],[121.292121,23.721163],[121.292119,23.721343],[121.291823,23.72143],[121.291821,23.721611],[121.292016,23.721703],[121.291915,23.721883],[121.292109,23.722066],[121.2925,23.72216],[121.292497,23.722431],[121.292595,23.722432],[121.292591,23.722703],[121.292493,23.722702],[121.292584,23.723245],[121.292486,23.723244],[121.292484,23.723424],[121.292679,23.723517],[121.292771,23.723969],[121.293255,23.724426],[121.293452,23.724428],[121.29384,23.724703],[121.293736,23.725154],[121.294125,23.725429],[121.294124,23.725519],[121.293631,23.725694],[121.293627,23.726056],[121.293432,23.725963],[121.293233,23.726142],[121.293231,23.726322],[121.293525,23.726325],[121.293527,23.726145],[121.29392,23.726149],[121.293922,23.725969],[121.294314,23.725973]],[[121.294058,23.72308],[121.294157,23.722991],[121.294156,23.723082],[121.294058,23.72308]]],[[[121.291378,23.725489],[121.291283,23.725217],[121.291976,23.724773],[121.291782,23.72459],[121.291786,23.72432],[121.291984,23.724141],[121.291986,23.723961],[121.291888,23.72396],[121.291992,23.723509],[121.291894,23.723508],[121.2918,23.723236],[121.291602,23.723324],[121.291695,23.723777],[121.291793,23.723778],[121.291589,23.724317],[121.29149,23.724407],[121.290902,23.7244],[121.2908,23.72467],[121.290702,23.724669],[121.290896,23.724852],[121.290894,23.725032],[121.290796,23.725031],[121.290887,23.725574],[121.29118,23.725667],[121.291378,23.725489]],[[121.291093,23.724763],[121.291287,23.724946],[121.290992,23.725033],[121.290994,23.724853],[121.291093,23.724763]]],[[[121.296776,23.725187],[121.297076,23.724739],[121.297175,23.72474],[121.297268,23.725102],[121.297465,23.725014],[121.297469,23.724743],[121.297765,23.724566],[121.297771,23.724115],[121.297576,23.724022],[121.297177,23.72456],[121.296783,23.724646],[121.296691,23.724193],[121.296889,23.724105],[121.297091,23.723656],[121.296798,23.723562],[121.296702,23.723381],[121.296505,23.723469],[121.296499,23.72392],[121.295809,23.724183],[121.295708,23.724363],[121.295218,23.724357],[121.295117,23.724537],[121.294924,23.724354],[121.294628,23.724441],[121.294822,23.724624],[121.294915,23.724986],[121.295403,23.725172],[121.295301,23.725532],[121.295692,23.725627],[121.295981,23.725991],[121.296177,23.725993],[121.296376,23.725815],[121.296469,23.726177],[121.296863,23.726091],[121.296865,23.725911],[121.29667,23.725818],[121.296674,23.725547],[121.296576,23.725546],[121.296578,23.725366],[121.296676,23.725367],[121.29658,23.725185],[121.296776,23.725187]],[[121.296384,23.725183],[121.296385,23.725093],[121.296581,23.725095],[121.29658,23.725185],[121.296384,23.725183]]],[[[121.29909,23.705618],[121.2992,23.704716],[121.299398,23.704538],[121.299404,23.704086],[121.299502,23.704087],[121.299605,23.703727],[121.29941,23.703635],[121.299412,23.703454],[121.299025,23.703089],[121.298941,23.702004],[121.298843,23.702003],[121.299047,23.701373],[121.298753,23.70137],[121.298657,23.701188],[121.297971,23.701181],[121.298064,23.701543],[121.298259,23.701636],[121.298061,23.701814],[121.298055,23.702265],[121.298248,23.702448],[121.298433,23.703353],[121.298627,23.703536],[121.299018,23.70363],[121.299106,23.704354],[121.299008,23.704353],[121.299002,23.704804],[121.298904,23.704803],[121.2989,23.705164],[121.298702,23.705252],[121.2987,23.705433],[121.297814,23.705694],[121.297713,23.705964],[121.297906,23.706147],[121.298104,23.706059],[121.298198,23.70633],[121.298492,23.706334],[121.298686,23.706516],[121.298789,23.706156],[121.298887,23.706157],[121.298793,23.705795],[121.29909,23.705618]],[[121.298793,23.705795],[121.298697,23.705704],[121.298795,23.705705],[121.298793,23.705795]],[[121.298541,23.702542],[121.298641,23.702452],[121.29864,23.702543],[121.298541,23.702542]]],[[[121.300334,23.707979],[121.300044,23.707705],[121.299748,23.707792],[121.299843,23.708064],[121.300133,23.708338],[121.300331,23.70825],[121.300334,23.707979]]],[[[121.301217,23.707989],[121.301023,23.707806],[121.300729,23.707803],[121.30073,23.707713],[121.300534,23.707711],[121.300335,23.707889],[121.300431,23.708071],[121.30092,23.708166],[121.301015,23.708438],[121.301212,23.70835],[121.301217,23.707989]]],[[[121.297463,23.710115],[121.297851,23.71039],[121.297941,23.711023],[121.297744,23.711111],[121.297739,23.711472],[121.297542,23.711561],[121.29754,23.711741],[121.297147,23.711737],[121.297047,23.711916],[121.297731,23.712104],[121.297929,23.711926],[121.297932,23.711745],[121.298129,23.711657],[121.298131,23.711477],[121.298229,23.711478],[121.298137,23.711025],[121.298235,23.711026],[121.298239,23.710756],[121.298337,23.710757],[121.298344,23.710215],[121.297956,23.709849],[121.297766,23.709396],[121.297376,23.709211],[121.29748,23.708761],[121.297777,23.708583],[121.297681,23.708402],[121.297387,23.708398],[121.297285,23.708668],[121.297187,23.708667],[121.297184,23.708938],[121.296788,23.709205],[121.297076,23.709659],[121.297175,23.70957],[121.29737,23.709662],[121.297463,23.710115]],[[121.297273,23.709571],[121.297373,23.709482],[121.297372,23.709572],[121.297273,23.709571]]],[[[121.301371,23.711241],[121.301079,23.711058],[121.301081,23.710877],[121.300014,23.709962],[121.299921,23.7096],[121.29953,23.709506],[121.299142,23.70914],[121.299042,23.70932],[121.299526,23.709776],[121.299523,23.710047],[121.299914,23.710142],[121.300008,23.710414],[121.300496,23.7106],[121.300589,23.711052],[121.30098,23.711147],[121.301171,23.71151],[121.301368,23.711422],[121.301371,23.711241]]],[[[121.297048,23.711826],[121.296854,23.711643],[121.296754,23.711823],[121.296949,23.711915],[121.297048,23.711826]]],[[[121.301428,23.714403],[121.301633,23.713682],[121.302229,23.713147],[121.302231,23.712967],[121.302133,23.712966],[121.30204,23.712603],[121.301649,23.712509],[121.301455,23.712326],[121.301458,23.712055],[121.301263,23.711963],[121.300866,23.71232],[121.30076,23.71295],[121.300858,23.712952],[121.300852,23.713403],[121.30095,23.713404],[121.301044,23.713766],[121.301239,23.713859],[121.301236,23.714039],[121.301038,23.714218],[121.301034,23.714489],[121.301426,23.714583],[121.301525,23.714494],[121.301428,23.714403]]],[[[121.298283,23.71491],[121.298089,23.714727],[121.298188,23.714638],[121.298195,23.714096],[121.297904,23.713912],[121.297906,23.713732],[121.297518,23.713366],[121.297312,23.714177],[121.296718,23.714622],[121.296715,23.714802],[121.29691,23.714895],[121.297208,23.714627],[121.297697,23.714723],[121.29789,23.714996],[121.298184,23.714999],[121.298283,23.71491]]],[[[121.296435,23.721301],[121.296433,23.721391],[121.296925,23.721306],[121.296927,23.721126],[121.296635,23.720942],[121.296738,23.720582],[121.297031,23.720675],[121.29703,23.720765],[121.297227,23.720677],[121.29713,23.720586],[121.297232,23.720316],[121.297037,23.720224],[121.297045,23.719592],[121.296948,23.7195],[121.296653,23.719587],[121.296647,23.720039],[121.296549,23.720038],[121.296645,23.720219],[121.296349,23.720306],[121.296543,23.720489],[121.29644,23.720849],[121.296342,23.720848],[121.296437,23.72112],[121.295945,23.721205],[121.296138,23.721478],[121.296435,23.721301]],[[121.296741,23.720401],[121.29684,23.720312],[121.296839,23.720402],[121.296741,23.720401]]],[[[121.302121,23.721454],[121.301937,23.720549],[121.302134,23.72046],[121.302141,23.719919],[121.301946,23.719826],[121.301845,23.720096],[121.301647,23.720184],[121.301741,23.720546],[121.301543,23.720634],[121.301539,23.720996],[121.301637,23.720997],[121.301633,23.721268],[121.301924,23.721542],[121.302121,23.721454]]],[[[121.303369,23.723544],[121.303467,23.723545],[121.303475,23.722913],[121.303771,23.722826],[121.303676,23.722554],[121.303974,23.722287],[121.302996,23.722095],[121.302894,23.722365],[121.302796,23.722364],[121.302986,23.722818],[121.302691,23.722905],[121.302693,23.722724],[121.302498,23.722632],[121.302394,23.723082],[121.302196,23.72326],[121.302188,23.723892],[121.302576,23.724167],[121.302574,23.724348],[121.302476,23.724347],[121.302569,23.724709],[121.302767,23.724621],[121.30277,23.72435],[121.302672,23.724349],[121.302776,23.723899],[121.302972,23.723901],[121.30316,23.724535],[121.303554,23.724449],[121.303556,23.724269],[121.303361,23.724176],[121.303369,23.723544]]],[[[121.303744,23.724903],[121.304228,23.72536],[121.304426,23.725271],[121.304232,23.725089],[121.304043,23.724545],[121.303653,23.72436],[121.303551,23.72463],[121.303649,23.724631],[121.303744,23.724903]]],[[[121.302065,23.725787],[121.301973,23.725335],[121.302265,23.725519],[121.302367,23.725158],[121.302664,23.724981],[121.302471,23.724708],[121.302273,23.724887],[121.301979,23.724883],[121.301877,23.725153],[121.30168,23.725241],[121.301676,23.725512],[121.301578,23.725511],[121.301672,23.725873],[121.301867,23.725966],[121.302065,23.725787]]],[[[121.297348,23.726458],[121.29745,23.726188],[121.297061,23.725913],[121.296863,23.726091],[121.29676,23.726451],[121.296954,23.726634],[121.297152,23.726456],[121.297348,23.726458]]],[[[121.306252,23.728181],[121.305863,23.727906],[121.305577,23.727271],[121.305092,23.726814],[121.304896,23.726812],[121.304507,23.726536],[121.304616,23.725725],[121.304518,23.725724],[121.304423,23.725452],[121.304227,23.72545],[121.304128,23.725539],[121.304116,23.726442],[121.304407,23.726716],[121.304405,23.726897],[121.304208,23.726894],[121.304107,23.727164],[121.304398,23.727438],[121.304596,23.72726],[121.304792,23.727262],[121.305374,23.72781],[121.305369,23.728171],[121.305467,23.728172],[121.305562,23.728444],[121.306149,23.728541],[121.306248,23.728452],[121.306252,23.728181]]],[[[121.303117,23.727876],[121.303021,23.727694],[121.30263,23.727599],[121.302632,23.727419],[121.302831,23.72724],[121.302735,23.727059],[121.302339,23.727325],[121.301953,23.72687],[121.301756,23.726958],[121.301753,23.727138],[121.302044,23.727412],[121.301845,23.727591],[121.30194,23.727863],[121.302235,23.727776],[121.302428,23.728049],[121.30282,23.728053],[121.302821,23.727963],[121.303117,23.727876]]]]}},{"type":"Feature","properties":{"kind":"bare_dam","month":"2019-10","area_ha":18.11},"geometry":{"type":"MultiPolygon","coordinates":[[[[121.299871,23.690727],[121.299876,23.690366],[121.299779,23.690275],[121.299484,23.690362],[121.299486,23.690181],[121.299682,23.690183],[121.299783,23.690004],[121.299686,23.689912],[121.29939,23.689999],[121.299295,23.689818],[121.298999,23.689905],[121.298904,23.689723],[121.298708,23.689721],[121.298607,23.6899],[121.298117,23.689895],[121.297521,23.690521],[121.29781,23.690885],[121.298006,23.690887],[121.298107,23.690708],[121.298498,23.690802],[121.298496,23.690893],[121.298792,23.690806],[121.298785,23.691347],[121.299078,23.691441],[121.299076,23.691531],[121.299176,23.691442],[121.299665,23.691537],[121.299765,23.691358],[121.299667,23.691357],[121.299572,23.691085],[121.299867,23.691088],[121.300059,23.691361],[121.300158,23.691272],[121.300255,23.691363],[121.300354,23.691274],[121.300451,23.691366],[121.300551,23.691276],[121.300747,23.691278],[121.300745,23.691369],[121.301237,23.691284],[121.301431,23.691467],[121.302997,23.691664],[121.30348,23.692211],[121.303579,23.692122],[121.303873,23.692125],[121.303969,23.692307],[121.304265,23.69222],[121.303683,23.691672],[121.30329,23.691758],[121.303391,23.691488],[121.303098,23.691395],[121.3031,23.691304],[121.302608,23.691389],[121.302609,23.691299],[121.302022,23.691202],[121.301927,23.691021],[121.301631,23.691108],[121.301536,23.690926],[121.300946,23.69101],[121.300752,23.690827],[121.300756,23.690556],[121.300367,23.690281],[121.30037,23.6901],[121.300176,23.689918],[121.299979,23.690006],[121.299976,23.690186],[121.300268,23.69037],[121.300169,23.690459],[121.300262,23.690822],[121.299871,23.690727]],[[121.300458,23.690824],[121.300457,23.690914],[121.300261,23.690912],[121.300262,23.690822],[121.300458,23.690824]],[[121.298799,23.690264],[121.298703,23.690082],[121.298997,23.690085],[121.299092,23.690357],[121.298799,23.690264]],[[121.29919,23.690358],[121.299388,23.69018],[121.299386,23.690361],[121.29919,23.690358]]],[[[121.29857,23.69279],[121.298568,23.69297],[121.299053,23.693337],[121.298949,23.693787],[121.299143,23.69397],[121.299339,23.693972],[121.299338,23.694062],[121.299829,23.693977],[121.29983,23.693887],[121.300024,23.69407],[121.300221,23.693982],[121.300029,23.693709],[121.29993,23.693798],[121.299735,23.693705],[121.299834,23.693616],[121.299738,23.693435],[121.299837,23.693345],[121.300228,23.69344],[121.300427,23.693262],[121.30043,23.692991],[121.300332,23.69299],[121.300435,23.69263],[121.299947,23.692444],[121.299948,23.692353],[121.299751,23.692441],[121.299749,23.692622],[121.299847,23.692623],[121.299746,23.692803],[121.299553,23.69262],[121.299162,23.692525],[121.299072,23.691892],[121.298489,23.691434],[121.298388,23.691704],[121.298678,23.691978],[121.298286,23.691974],[121.298185,23.692244],[121.29838,23.692336],[121.298472,23.692789],[121.29857,23.69279]],[[121.29838,23.692336],[121.298479,23.692247],[121.298478,23.692337],[121.29838,23.692336]],[[121.299441,23.693702],[121.299442,23.693612],[121.299638,23.693614],[121.299637,23.693704],[121.299441,23.693702]],[[121.299347,23.69334],[121.299345,23.693521],[121.299247,23.693519],[121.299151,23.693338],[121.299347,23.69334]]],[[[121.300127,23.69371],[121.300321,23.693892],[121.300518,23.693804],[121.300807,23.694169],[121.301003,23.694171],[121.301002,23.694261],[121.301199,23.694173],[121.300716,23.693626],[121.300422,23.693623],[121.300326,23.693441],[121.300129,23.693529],[121.300127,23.69371]]],[[[121.298825,23.695772],[121.29863,23.69568],[121.298432,23.695858],[121.298141,23.695584],[121.298342,23.695225],[121.297955,23.69486],[121.297853,23.69513],[121.297755,23.695128],[121.297648,23.69585],[121.297938,23.696124],[121.298137,23.695945],[121.298333,23.695948],[121.29833,23.696128],[121.298525,23.696221],[121.298527,23.69613],[121.298823,23.695953],[121.298825,23.695772]]],[[[121.298326,23.696489],[121.298132,23.696307],[121.297935,23.696395],[121.298028,23.696757],[121.298126,23.696758],[121.29822,23.69712],[121.298899,23.697669],[121.299,23.6974],[121.299098,23.697401],[121.299103,23.69704],[121.299005,23.697039],[121.299109,23.696588],[121.298817,23.696404],[121.298919,23.696135],[121.298724,23.696042],[121.298525,23.696221],[121.298523,23.696401],[121.298327,23.696399],[121.298326,23.696489]],[[121.298523,23.696401],[121.29862,23.696492],[121.298522,23.696491],[121.298523,23.696401]]],[[[121.296434,23.698726],[121.29624,23.698543],[121.295748,23.698628],[121.295844,23.69881],[121.296138,23.698813],[121.296234,23.698995],[121.296431,23.698906],[121.296434,23.698726]]],[[[121.299192,23.697763],[121.299089,23.698123],[121.298894,23.698031],[121.298695,23.698299],[121.298598,23.698208],[121.2984,23.698296],[121.298296,23.698746],[121.298587,23.69902],[121.298289,23.699288],[121.297997,23.699195],[121.297895,23.699464],[121.297602,23.699371],[121.297404,23.699549],[121.297499,23.699731],[121.297793,23.699734],[121.297788,23.700186],[121.297886,23.700187],[121.29798,23.700459],[121.299157,23.700472],[121.298963,23.700289],[121.298966,23.700018],[121.298868,23.700017],[121.298775,23.699655],[121.298677,23.699654],[121.29868,23.699383],[121.298978,23.699115],[121.298984,23.698664],[121.29928,23.698486],[121.299283,23.698306],[121.299872,23.698222],[121.300071,23.698044],[121.300952,23.698143],[121.301448,23.697697],[121.300961,23.697421],[121.300662,23.697779],[121.300074,23.697773],[121.299876,23.697951],[121.299386,23.697946],[121.299192,23.697763]],[[121.299386,23.697946],[121.299286,23.698035],[121.299288,23.697945],[121.299386,23.697946]]],[[[121.312558,23.687796],[121.312755,23.687708],[121.312658,23.687616],[121.31276,23.687346],[121.312565,23.687254],[121.312375,23.6868],[121.312083,23.686617],[121.311983,23.686796],[121.312178,23.686889],[121.312078,23.686978],[121.312076,23.687158],[121.312271,23.687251],[121.312171,23.68743],[121.312558,23.687796]],[[121.312462,23.687614],[121.312562,23.687525],[121.31256,23.687615],[121.312462,23.687614]]],[[[121.302721,23.690217],[121.302625,23.690125],[121.301742,23.690116],[121.301743,23.690025],[121.301546,23.690113],[121.301837,23.690387],[121.302621,23.690396],[121.302721,23.690217]]],[[[121.310636,23.69238],[121.311331,23.691755],[121.31104,23.691481],[121.310746,23.691478],[121.310747,23.691388],[121.310356,23.691293],[121.31026,23.691112],[121.309379,23.691012],[121.309277,23.691282],[121.309181,23.69119],[121.308983,23.691278],[121.30889,23.690916],[121.308692,23.691095],[121.3084,23.690911],[121.308298,23.691181],[121.3082,23.69118],[121.308393,23.691453],[121.308884,23.691368],[121.309077,23.691641],[121.309273,23.691643],[121.309369,23.691824],[121.309565,23.691827],[121.309563,23.691917],[121.30976,23.691919],[121.310148,23.692194],[121.31054,23.692198],[121.310636,23.69238]]],[[[121.304917,23.694846],[121.305217,23.694398],[121.304829,23.694032],[121.304728,23.694302],[121.304923,23.694394],[121.30492,23.694575],[121.304724,23.694573],[121.304624,23.694752],[121.304917,23.694846]]],[[[121.304626,23.694572],[121.304335,23.694388],[121.304234,23.694567],[121.304526,23.694751],[121.304626,23.694572]]],[[[121.303351,23.694648],[121.303157,23.694465],[121.302961,23.694463],[121.30296,23.694554],[121.302569,23.694459],[121.302469,23.694548],[121.302565,23.69473],[121.30286,23.694643],[121.302956,23.694824],[121.30325,23.694828],[121.303351,23.694648]]],[[[121.302239,23.697164],[121.30303,23.696721],[121.302934,23.69654],[121.302639,23.696627],[121.30274,23.696357],[121.302936,23.696359],[121.302935,23.69645],[121.303132,23.696361],[121.303135,23.696181],[121.302941,23.695998],[121.302647,23.695995],[121.302151,23.696441],[121.302148,23.696622],[121.30195,23.6968],[121.302239,23.697164]]]]}},{"type":"Feature","properties":{"kind":"water","month":"2019-10","area_ha":2.31},"geometry":{"type":"MultiPolygon","coordinates":[[[[121.299882,23.689914],[121.299688,23.689732],[121.299296,23.689727],[121.29939,23.689999],[121.299882,23.689914]]],[[[121.283296,23.690996],[121.283005,23.690812],[121.28291,23.69054],[121.282616,23.690537],[121.282907,23.690811],[121.282904,23.690991],[121.283196,23.691175],[121.283194,23.691356],[121.28339,23.691358],[121.283296,23.690996]]],[[[121.298604,23.697756],[121.298702,23.697758],[121.298705,23.697487],[121.298607,23.697486],[121.298604,23.697756]]],[[[121.299288,23.697945],[121.299384,23.698036],[121.299386,23.697946],[121.299288,23.697945]]],[[[121.291539,23.69804],[121.291343,23.698038],[121.291342,23.698128],[121.29183,23.698314],[121.291832,23.698133],[121.291538,23.69813],[121.291539,23.69804]]],[[[121.292024,23.698497],[121.29183,23.698314],[121.291828,23.698495],[121.292024,23.698497]]],[[[121.2984,23.698296],[121.298202,23.698474],[121.298006,23.698472],[121.298002,23.698743],[121.298296,23.698746],[121.2984,23.698296]]],[[[121.292024,23.698497],[121.292121,23.698588],[121.292122,23.698498],[121.292024,23.698497]]],[[[121.311683,23.687244],[121.311977,23.687248],[121.31208,23.686887],[121.311591,23.686792],[121.311397,23.686609],[121.31139,23.687151],[121.311487,23.687242],[121.311684,23.687154],[121.311683,23.687244]]],[[[121.299882,23.689914],[121.299979,23.690006],[121.29998,23.689916],[121.299882,23.689914]]],[[[121.308799,23.690373],[121.308603,23.690371],[121.308703,23.690192],[121.308509,23.690009],[121.308594,23.691094],[121.308791,23.691005],[121.308799,23.690373]]],[[[121.308096,23.69163],[121.308394,23.691362],[121.308198,23.69136],[121.308096,23.69163]]],[[[121.307799,23.691898],[121.308094,23.69181],[121.308096,23.69163],[121.3079,23.691628],[121.307799,23.691898]]],[[[121.304026,23.695468],[121.304124,23.695469],[121.304127,23.695289],[121.303831,23.695376],[121.303729,23.695736],[121.303925,23.695738],[121.304026,23.695468]]],[[[121.299192,23.697763],[121.299386,23.697946],[121.299876,23.697951],[121.300074,23.697773],[121.300662,23.697779],[121.300861,23.697601],[121.300864,23.69733],[121.299983,23.69723],[121.299684,23.697588],[121.298801,23.697668],[121.2987,23.697848],[121.299089,23.698123],[121.299192,23.697763]]]]}}]}