{"type":"FeatureCollection","features":[{"type":"Feature","properties":{"kind":"bare_slide","month":"2019-07","area_ha":14.44},"geometry":{"type":"MultiPolygon","coordinates":[[[[121.28954,23.715987],[121.289739,23.715809],[121.290228,23.715905],[121.290328,23.715725],[121.290232,23.715634],[121.289937,23.71563],[121.289936,23.715721],[121.289741,23.715628],[121.29004,23.71527],[121.289458,23.714812],[121.289358,23.714902],[121.289453,23.715174],[121.289256,23.715262],[121.289251,23.715623],[121.28954,23.715987]]],[[[121.29048,23.719158],[121.290873,23.719072],[121.290683,23.718619],[121.290878,23.718711],[121.29098,23.718441],[121.291078,23.718442],[121.29108,23.718262],[121.290982,23.718261],[121.291083,23.717991],[121.290987,23.7179],[121.29079,23.717897],[121.290393,23.718254],[121.29,23.71834],[121.290384,23.718976],[121.289993,23.718882],[121.289893,23.719061],[121.290186,23.719155],[121.290281,23.719337],[121.29048,23.719158]]],[[[121.296835,23.720673],[121.296932,23.720764],[121.297129,23.720676],[121.297134,23.720315],[121.297036,23.720314],[121.297143,23.719593],[121.297046,23.719501],[121.29675,23.719679],[121.296745,23.72004],[121.296647,23.720039],[121.296742,23.720311],[121.296446,23.720398],[121.296637,23.720851],[121.296835,23.720673]]],[[[121.282712,23.720697],[121.28291,23.720519],[121.282914,23.720248],[121.283109,23.720341],[121.283406,23.720073],[121.283409,23.719892],[121.283606,23.719804],[121.283511,23.719532],[121.283118,23.719618],[121.282924,23.719436],[121.282428,23.719882],[121.282035,23.719968],[121.282032,23.720148],[121.282324,23.720332],[121.282417,23.720694],[121.282712,23.720697]],[[121.283014,23.720069],[121.282817,23.720157],[121.28282,23.719886],[121.283016,23.719888],[121.283014,23.720069]]],[[[121.28987,23.720777],[121.290065,23.720869],[121.29006,23.72123],[121.289961,23.72132],[121.289668,23.721226],[121.289567,23.721496],[121.290056,23.721591],[121.290055,23.721682],[121.290546,23.721597],[121.290648,23.721327],[121.290357,23.721053],[121.290359,23.720872],[121.290457,23.720874],[121.290364,23.720511],[121.290463,23.720422],[121.290268,23.72033],[121.290168,23.720509],[121.289873,23.720596],[121.28987,23.720777]],[[121.290168,23.720509],[121.290265,23.720601],[121.290167,23.720599],[121.290168,23.720509]]],[[[121.296433,23.721391],[121.296628,23.721483],[121.296827,23.721305],[121.29683,23.721034],[121.296637,23.720851],[121.296439,23.72094],[121.296337,23.7213],[121.29624,23.721208],[121.296042,23.721296],[121.296235,23.721569],[121.296433,23.721391]]],[[[121.294153,23.723262],[121.294446,23.723356],[121.294646,23.723087],[121.294452,23.722904],[121.294255,23.722992],[121.294253,23.723173],[121.293961,23.722989],[121.293964,23.722718],[121.293866,23.722717],[121.293969,23.722357],[121.293676,23.722264],[121.293679,23.721993],[121.293484,23.7219],[121.293487,23.72172],[121.293001,23.721353],[121.292915,23.720449],[121.29272,23.720357],[121.292521,23.720535],[121.292517,23.720896],[121.292419,23.720895],[121.292415,23.721166],[121.292609,23.721349],[121.292505,23.721799],[121.2927,23.721892],[121.292698,23.722072],[121.292499,23.722251],[121.292596,23.722342],[121.292891,23.722255],[121.293666,23.722986],[121.293663,23.723257],[121.293857,23.723439],[121.294053,23.723442],[121.294153,23.723262]],[[121.293092,23.721896],[121.293287,23.721988],[121.293282,23.72235],[121.293184,23.722348],[121.293188,23.722078],[121.29309,23.722076],[121.293092,23.721896]],[[121.292897,23.721803],[121.2929,23.721623],[121.292998,23.721624],[121.292995,23.721805],[121.292897,23.721803]]],[[[121.295201,23.725621],[121.2954,23.725443],[121.295304,23.725261],[121.295503,23.725083],[121.295993,23.725088],[121.296192,23.72491],[121.296197,23.724459],[121.29649,23.724552],[121.296592,23.724282],[121.296983,23.724377],[121.297182,23.724198],[121.296988,23.724016],[121.297187,23.723747],[121.296894,23.723654],[121.296702,23.723381],[121.296505,23.723469],[121.296597,23.723921],[121.295412,23.72454],[121.295408,23.724811],[121.295112,23.724988],[121.295205,23.725351],[121.295007,23.725529],[121.295201,23.725621]]],[[[121.301177,23.711059],[121.300982,23.710966],[121.300984,23.710786],[121.300597,23.71042],[121.300401,23.710418],[121.30011,23.710144],[121.300017,23.709782],[121.299726,23.709508],[121.29953,23.709506],[121.299336,23.709323],[121.299139,23.709411],[121.299428,23.709775],[121.299624,23.709778],[121.299621,23.710048],[121.299914,23.710142],[121.299912,23.710322],[121.300105,23.710505],[121.300593,23.710691],[121.300589,23.711052],[121.300782,23.711235],[121.301077,23.711238],[121.301177,23.711059]]],[[[121.301227,23.714762],[121.301524,23.714584],[121.301529,23.714133],[121.301728,23.713954],[121.301731,23.713684],[121.301929,23.713595],[121.301932,23.713325],[121.302129,23.713236],[121.302133,23.712966],[121.301647,23.712599],[121.301554,23.712237],[121.301261,23.712143],[121.300864,23.7125],[121.300961,23.712591],[121.300854,23.713313],[121.300952,23.713314],[121.300949,23.713494],[121.301239,23.713859],[121.301233,23.71431],[121.301036,23.714398],[121.301033,23.714579],[121.301227,23.714762]]],[[[121.298283,23.71491],[121.298185,23.714909],[121.298187,23.714728],[121.298285,23.714729],[121.298188,23.714638],[121.298194,23.714186],[121.298,23.714004],[121.297706,23.714],[121.297709,23.71382],[121.297514,23.713727],[121.297414,23.713817],[121.297409,23.714268],[121.296912,23.714714],[121.297009,23.714805],[121.297304,23.714809],[121.297305,23.714718],[121.297696,23.714813],[121.297986,23.715087],[121.298183,23.715089],[121.298283,23.71491]]],[[[121.302122,23.721363],[121.302024,23.721362],[121.301934,23.720729],[121.302133,23.720551],[121.302238,23.72001],[121.302043,23.719918],[121.301941,23.720187],[121.301744,23.720275],[121.301837,23.720638],[121.301541,23.720815],[121.301539,23.720996],[121.301637,23.720997],[121.301634,23.721177],[121.301924,23.721542],[121.302122,23.721363]]],[[[121.303375,23.723093],[121.30318,23.723],[121.303078,23.72327],[121.303273,23.723362],[121.303375,23.723093]]],[[[121.303555,23.724359],[121.303263,23.724175],[121.303363,23.723996],[121.303265,23.723994],[121.303272,23.723453],[121.303175,23.723361],[121.302684,23.723446],[121.302491,23.723173],[121.302295,23.723171],[121.302097,23.72335],[121.30229,23.723532],[121.302191,23.723621],[121.302285,23.723984],[121.302774,23.724079],[121.302874,23.7239],[121.30307,23.723902],[121.303161,23.724445],[121.303454,23.724538],[121.303555,23.724359]]],[[[121.302065,23.725787],[121.302163,23.725788],[121.302165,23.725608],[121.302262,23.725699],[121.30246,23.725611],[121.302464,23.72525],[121.302662,23.725162],[121.302568,23.724799],[121.30237,23.724978],[121.301977,23.724974],[121.301875,23.725334],[121.301578,23.725511],[121.301767,23.726055],[121.301963,23.726057],[121.302065,23.725787]]]]}},{"type":"Feature","properties":{"kind":"bare_dam","month":"2019-07","area_ha":9.42},"geometry":{"type":"MultiPolygon","coordinates":[[[[121.310783,23.688589],[121.311179,23.688322],[121.311084,23.688051],[121.310294,23.688493],[121.31039,23.688675],[121.310783,23.688589]]],[[[121.299777,23.690455],[121.299681,23.690273],[121.299484,23.690362],[121.29958,23.690543],[121.299777,23.690455]]],[[[121.300457,23.690914],[121.300754,23.690737],[121.30066,23.690375],[121.300272,23.690099],[121.300067,23.690729],[121.300164,23.690821],[121.300362,23.690732],[121.300457,23.690914]]],[[[121.298103,23.690979],[121.298402,23.690621],[121.298011,23.690526],[121.297818,23.690253],[121.297522,23.69043],[121.297615,23.690793],[121.297809,23.690975],[121.298103,23.690979]]],[[[121.299567,23.691536],[121.299764,23.691448],[121.299669,23.691176],[121.299571,23.691175],[121.299575,23.690904],[121.299872,23.690637],[121.299776,23.690545],[121.29948,23.690632],[121.299093,23.690267],[121.298991,23.690537],[121.298695,23.690714],[121.298692,23.690895],[121.298886,23.691077],[121.298786,23.691257],[121.299076,23.691531],[121.299273,23.691533],[121.299274,23.691443],[121.299568,23.691446],[121.299567,23.691536]]],[[[121.310833,23.692292],[121.311329,23.691846],[121.31104,23.691481],[121.310746,23.691478],[121.31065,23.691297],[121.310454,23.691294],[121.310065,23.691019],[121.309281,23.691011],[121.309182,23.6911],[121.309184,23.690919],[121.308989,23.690827],[121.309091,23.690557],[121.308896,23.690465],[121.308898,23.690284],[121.308801,23.690193],[121.308506,23.69028],[121.308502,23.690551],[121.3086,23.690552],[121.308499,23.690822],[121.308596,23.690913],[121.3081,23.691359],[121.308292,23.691632],[121.30898,23.691549],[121.309076,23.691731],[121.309467,23.691825],[121.309562,23.692007],[121.309856,23.69201],[121.309952,23.692192],[121.310344,23.692196],[121.310538,23.692379],[121.310833,23.692292]]],[[[121.30574,23.691875],[121.305843,23.691515],[121.305649,23.691332],[121.305353,23.691419],[121.305253,23.691599],[121.305448,23.691691],[121.305446,23.691872],[121.305543,23.691963],[121.30574,23.691875]]],[[[121.304459,23.692312],[121.304268,23.691949],[121.303289,23.691848],[121.303195,23.691486],[121.302705,23.691481],[121.302706,23.69139],[121.302411,23.691477],[121.302315,23.691296],[121.302118,23.691384],[121.302213,23.691656],[121.302508,23.691569],[121.302702,23.691751],[121.302996,23.691755],[121.30348,23.692211],[121.303872,23.692216],[121.303871,23.692306],[121.304263,23.69231],[121.304262,23.692401],[121.304459,23.692312]]],[[[121.298704,23.697577],[121.298999,23.69749],[121.299002,23.697309],[121.2991,23.69731],[121.299005,23.697039],[121.299202,23.69695],[121.299012,23.696497],[121.298914,23.696496],[121.298925,23.695683],[121.299024,23.695594],[121.298732,23.69541],[121.298734,23.69523],[121.298541,23.695047],[121.298245,23.695134],[121.298052,23.694951],[121.298152,23.694772],[121.297957,23.694679],[121.297858,23.694768],[121.297953,23.69495],[121.297657,23.695127],[121.297754,23.695219],[121.297747,23.69576],[121.297648,23.69585],[121.298036,23.696125],[121.298123,23.697029],[121.298511,23.697304],[121.298409,23.697664],[121.298604,23.697756],[121.298704,23.697577]]],[[[121.294957,23.699161],[121.295446,23.699257],[121.295843,23.6989],[121.296235,23.698904],[121.296336,23.698725],[121.296239,23.698633],[121.295748,23.698628],[121.295648,23.698808],[121.295452,23.698805],[121.295352,23.698985],[121.295057,23.698982],[121.295056,23.699072],[121.294764,23.698888],[121.294664,23.699068],[121.294858,23.69925],[121.294957,23.699161]]]]}}]}