{"type":"FeatureCollection","features":[{"type":"Feature","properties":{"kind":"bare_slide","month":"2019-12","area_ha":48.43},"geometry":{"type":"MultiPolygon","coordinates":[[[[121.292884,23.715302],[121.293081,23.715214],[121.293085,23.714943],[121.293278,23.715126],[121.293477,23.714947],[121.293673,23.714949],[121.293769,23.715131],[121.294063,23.715134],[121.294758,23.71451],[121.29496,23.714061],[121.295156,23.714063],[121.295257,23.713793],[121.295452,23.713885],[121.295849,23.713529],[121.295952,23.713168],[121.296149,23.71308],[121.296254,23.71254],[121.296059,23.712447],[121.295857,23.712897],[121.29556,23.713164],[121.295068,23.713249],[121.29487,23.713427],[121.294575,23.713424],[121.294474,23.713694],[121.293881,23.714049],[121.293778,23.714409],[121.29348,23.714676],[121.293284,23.714674],[121.293184,23.714854],[121.292696,23.714668],[121.292596,23.714847],[121.292789,23.71503],[121.292495,23.715027],[121.292395,23.715206],[121.292492,23.715297],[121.292885,23.715212],[121.292884,23.715302]],[[121.294168,23.714594],[121.294166,23.714774],[121.29397,23.714772],[121.293973,23.714501],[121.294168,23.714594]]],[[[121.289348,23.715714],[121.289441,23.716076],[121.289243,23.716255],[121.289047,23.716253],[121.288951,23.716071],[121.288752,23.716249],[121.288459,23.716156],[121.288261,23.716334],[121.288257,23.716605],[121.287961,23.716782],[121.287958,23.716963],[121.288057,23.716964],[121.28815,23.717326],[121.288637,23.717603],[121.288537,23.717692],[121.288633,23.717873],[121.288832,23.717695],[121.28942,23.717702],[121.289711,23.717976],[121.289813,23.717616],[121.289911,23.717617],[121.289817,23.717345],[121.290113,23.717167],[121.29002,23.716805],[121.290412,23.71681],[121.290515,23.71645],[121.29081,23.716362],[121.291109,23.716005],[121.291305,23.716007],[121.291903,23.715291],[121.291513,23.715106],[121.291315,23.715284],[121.291408,23.715647],[121.290718,23.71591],[121.290421,23.716178],[121.290318,23.716538],[121.289829,23.716442],[121.289831,23.716261],[121.290222,23.716356],[121.290321,23.716267],[121.290227,23.715995],[121.290425,23.715816],[121.290132,23.715723],[121.290133,23.715633],[121.28974,23.715719],[121.289742,23.715538],[121.290139,23.715181],[121.290435,23.715094],[121.290437,23.714914],[121.290243,23.714731],[121.289948,23.714818],[121.290044,23.715],[121.289749,23.714996],[121.289654,23.714815],[121.289262,23.71481],[121.28916,23.71508],[121.288964,23.715078],[121.28877,23.714895],[121.288476,23.714892],[121.288475,23.714982],[121.288378,23.714891],[121.288182,23.714889],[121.288181,23.714979],[121.287888,23.714885],[121.287787,23.715065],[121.287101,23.715057],[121.286902,23.715236],[121.286997,23.715508],[121.286799,23.715596],[121.286895,23.715777],[121.287091,23.71578],[121.287089,23.71596],[121.28738,23.716234],[121.287576,23.716236],[121.288073,23.7157],[121.288465,23.715704],[121.288658,23.715977],[121.288952,23.715981],[121.289051,23.715892],[121.28906,23.71526],[121.289254,23.715352],[121.28925,23.715713],[121.289348,23.715714]],[[121.289749,23.714996],[121.28965,23.715085],[121.289651,23.714995],[121.289749,23.714996]],[[121.28906,23.71526],[121.288963,23.715168],[121.289061,23.715169],[121.28906,23.71526]],[[121.288941,23.716793],[121.289041,23.716704],[121.289039,23.716794],[121.288941,23.716793]],[[121.289438,23.716347],[121.289634,23.716349],[121.28963,23.71662],[121.289239,23.716526],[121.289438,23.716347]],[[121.288565,23.715615],[121.288664,23.715526],[121.288663,23.715616],[121.288565,23.715615]],[[121.288667,23.715255],[121.288568,23.715344],[121.288569,23.715254],[121.288667,23.715255]],[[121.288667,23.715255],[121.288767,23.715166],[121.288765,23.715256],[121.288667,23.715255]],[[121.288081,23.715068],[121.288374,23.715162],[121.288373,23.715252],[121.287981,23.715248],[121.288081,23.715068]]],[[[121.292754,23.717738],[121.292856,23.717469],[121.293052,23.717471],[121.29325,23.717292],[121.293254,23.717022],[121.292961,23.716928],[121.292762,23.717106],[121.292759,23.717377],[121.292563,23.717375],[121.292567,23.717014],[121.292277,23.71674],[121.292175,23.71701],[121.291978,23.717098],[121.291975,23.717278],[121.292267,23.717462],[121.292359,23.717915],[121.292558,23.717736],[121.292754,23.717738]]],[[[121.287058,23.718308],[121.286769,23.717943],[121.286475,23.71794],[121.286476,23.71785],[121.286672,23.717852],[121.286971,23.717494],[121.287264,23.717587],[121.287364,23.717408],[121.286875,23.717312],[121.286881,23.716861],[121.286784,23.716769],[121.286096,23.716852],[121.285995,23.717122],[121.286092,23.717213],[121.286485,23.717127],[121.286679,23.71731],[121.286677,23.717491],[121.285883,23.718204],[121.286078,23.718297],[121.286079,23.718206],[121.286472,23.71812],[121.286567,23.718392],[121.286959,23.718397],[121.287058,23.718308]]],[[[121.291071,23.718984],[121.291171,23.718805],[121.291564,23.718719],[121.291567,23.718538],[121.291469,23.718537],[121.291571,23.718177],[121.291475,23.718086],[121.291673,23.717907],[121.291478,23.717815],[121.291384,23.717543],[121.291186,23.717631],[121.291184,23.717811],[121.291282,23.717812],[121.29118,23.718082],[121.290987,23.7179],[121.290887,23.717989],[121.290692,23.717896],[121.290393,23.718254],[121.29,23.71834],[121.290676,23.71916],[121.291071,23.718984]],[[121.290584,23.718708],[121.290683,23.718619],[121.290682,23.718709],[121.290584,23.718708]],[[121.290787,23.718168],[121.290886,23.718079],[121.290885,23.718169],[121.290787,23.718168]]],[[[121.284302,23.71909],[121.284011,23.718816],[121.284014,23.718635],[121.283721,23.718541],[121.283723,23.718361],[121.283528,23.718268],[121.283429,23.718358],[121.283422,23.718899],[121.283715,23.718993],[121.283907,23.719266],[121.284103,23.719268],[121.284302,23.71909]]],[[[121.28371,23.719354],[121.283904,23.719537],[121.284004,23.719357],[121.283809,23.719265],[121.28371,23.719354]]],[[[121.290372,23.719879],[121.29047,23.71988],[121.290474,23.71961],[121.290376,23.719608],[121.29048,23.719158],[121.290286,23.718975],[121.289893,23.719061],[121.289987,23.719333],[121.289497,23.719328],[121.289398,23.719417],[121.289493,23.719599],[121.289297,23.719597],[121.289105,23.719323],[121.288907,23.719412],[121.288905,23.719592],[121.289196,23.719866],[121.289588,23.719871],[121.289587,23.719961],[121.28998,23.719875],[121.290173,23.720148],[121.29037,23.72006],[121.290372,23.719879]]],[[[121.283307,23.720162],[121.283309,23.719982],[121.283606,23.719804],[121.283608,23.719624],[121.283511,23.719532],[121.283216,23.719619],[121.283319,23.719259],[121.283124,23.719167],[121.282824,23.719615],[121.282628,23.719613],[121.282428,23.719882],[121.281938,23.719876],[121.281638,23.720324],[121.282024,23.72078],[121.282416,23.720784],[121.282417,23.720694],[121.282712,23.720697],[121.28291,23.720519],[121.282912,23.720338],[121.282814,23.720337],[121.282915,23.720158],[121.283012,23.720249],[121.283307,23.720162]],[[121.282817,23.720157],[121.282819,23.719976],[121.283016,23.719888],[121.283014,23.720069],[121.282817,23.720157]]],[[[121.285649,23.721091],[121.285651,23.720911],[121.28585,23.720732],[121.286046,23.720734],[121.286141,23.720916],[121.286437,23.720829],[121.286151,23.720194],[121.285856,23.720281],[121.285854,23.720371],[121.285658,23.720369],[121.285563,23.720187],[121.285168,23.720363],[121.285262,23.720635],[121.285066,23.720633],[121.284966,23.720813],[121.285259,23.720906],[121.285547,23.721361],[121.285744,23.721273],[121.285747,23.721092],[121.285649,23.721091]]],[[[121.291821,23.721611],[121.292015,23.721794],[121.291914,23.721973],[121.292108,23.722156],[121.2925,23.72216],[121.292594,23.722523],[121.292988,23.722346],[121.292896,23.721894],[121.293095,23.721715],[121.293291,23.721718],[121.293289,23.721808],[121.293487,23.72172],[121.293294,23.721447],[121.293001,23.721353],[121.292916,23.720359],[121.292819,23.720268],[121.292521,23.720535],[121.292416,23.721076],[121.292122,23.721073],[121.292124,23.720892],[121.292026,23.720891],[121.292129,23.720531],[121.291935,23.720348],[121.291738,23.720436],[121.29173,23.721068],[121.292021,23.721342],[121.291821,23.721611]],[[121.292122,23.721073],[121.292023,23.721162],[121.292024,23.721071],[121.292122,23.721073]],[[121.292021,23.721342],[121.29212,23.721253],[121.292119,23.721343],[121.292021,23.721342]],[[121.29251,23.721438],[121.292609,23.721349],[121.292608,23.721439],[121.29251,23.721438]]],[[[121.28868,23.721757],[121.288585,23.721575],[121.288194,23.721481],[121.287904,23.721116],[121.287708,23.721114],[121.28751,23.721292],[121.287507,23.721473],[121.287992,23.72193],[121.288286,23.721933],[121.288287,23.721843],[121.28868,23.721757]]],[[[121.294321,23.725431],[121.29442,23.725342],[121.294329,23.724799],[121.294627,23.724532],[121.294631,23.724261],[121.295025,23.724084],[121.294833,23.723811],[121.294637,23.723809],[121.294736,23.72372],[121.294645,23.723177],[121.29494,23.72309],[121.295043,23.72273],[121.294751,23.722546],[121.294551,23.722815],[121.294256,23.722902],[121.294253,23.723173],[121.294056,23.723171],[121.294059,23.72299],[121.293865,23.722807],[121.293871,23.722356],[121.29358,23.722082],[121.293183,23.722439],[121.293181,23.722619],[121.293473,23.722803],[121.293365,23.723524],[121.293851,23.723891],[121.293849,23.724071],[121.29365,23.72425],[121.293356,23.724247],[121.293255,23.724426],[121.293548,23.72452],[121.293644,23.724701],[121.29384,23.724703],[121.293832,23.725335],[121.294125,23.725429],[121.294221,23.725611],[121.294418,23.725523],[121.294321,23.725431]],[[121.293853,23.72371],[121.293952,23.723621],[121.293951,23.723711],[121.293853,23.72371]],[[121.294249,23.723444],[121.29415,23.723533],[121.294151,23.723443],[121.294249,23.723444]],[[121.294249,23.723444],[121.294348,23.723355],[121.294347,23.723445],[121.294249,23.723444]]],[[[121.296863,23.726091],[121.296865,23.725911],[121.29667,23.725818],[121.296676,23.725367],[121.296383,23.725273],[121.296385,23.725093],[121.296583,23.725005],[121.29658,23.725185],[121.296873,23.725279],[121.297173,23.72483],[121.297466,23.724924],[121.297863,23.724567],[121.297869,23.724116],[121.297674,23.724023],[121.297573,23.724293],[121.297176,23.72465],[121.296782,23.724736],[121.296785,23.724555],[121.296883,23.724556],[121.296788,23.724284],[121.296985,23.724196],[121.296989,23.723925],[121.297187,23.723747],[121.296894,23.723654],[121.296604,23.723379],[121.296505,23.723469],[121.296597,23.723921],[121.296301,23.724008],[121.296102,23.724277],[121.295807,23.724274],[121.295706,23.724543],[121.295217,23.724448],[121.295018,23.724626],[121.294824,23.724443],[121.294724,23.724623],[121.294822,23.724624],[121.295012,23.725078],[121.295502,23.725173],[121.295303,23.725352],[121.295396,23.725714],[121.295692,23.725627],[121.29598,23.726082],[121.296176,23.726084],[121.296375,23.725905],[121.296468,23.726267],[121.296863,23.726091]]],[[[121.298944,23.701733],[121.299042,23.701734],[121.299145,23.701374],[121.298753,23.70137],[121.298657,23.701188],[121.298069,23.701182],[121.298065,23.701453],[121.298259,23.701636],[121.298152,23.702357],[121.29825,23.702358],[121.298246,23.702629],[121.298344,23.70263],[121.29834,23.702991],[121.298533,23.703174],[121.29853,23.703445],[121.299113,23.703812],[121.299108,23.704264],[121.299206,23.704265],[121.299103,23.704625],[121.299005,23.704624],[121.299001,23.704894],[121.298903,23.704893],[121.298897,23.705345],[121.298504,23.705431],[121.298404,23.70561],[121.297912,23.705695],[121.297714,23.705874],[121.297905,23.706237],[121.2982,23.70615],[121.298296,23.706332],[121.298492,23.706334],[121.298586,23.706696],[121.298783,23.706608],[121.298786,23.706337],[121.298985,23.706159],[121.298889,23.705977],[121.298693,23.705975],[121.298695,23.705794],[121.298892,23.705796],[121.29889,23.705887],[121.299088,23.705798],[121.298895,23.705525],[121.29919,23.705438],[121.299093,23.705347],[121.299197,23.704897],[121.299295,23.704898],[121.299298,23.704717],[121.299496,23.704539],[121.299501,23.704178],[121.299599,23.704179],[121.299605,23.703727],[121.29941,23.703635],[121.299315,23.703363],[121.299119,23.703361],[121.299123,23.70309],[121.299025,23.703089],[121.299125,23.702909],[121.298931,23.702727],[121.298734,23.702815],[121.298736,23.702634],[121.298934,23.702546],[121.298944,23.701733]],[[121.298736,23.702634],[121.29864,23.702543],[121.298738,23.702544],[121.298736,23.702634]]],[[[121.300042,23.707796],[121.299843,23.708064],[121.300232,23.708339],[121.300432,23.70798],[121.300042,23.707796]]],[[[121.30092,23.708166],[121.300917,23.708437],[121.301112,23.70853],[121.30131,23.708351],[121.301312,23.708171],[121.301022,23.707897],[121.300728,23.707893],[121.300729,23.707803],[121.300433,23.70789],[121.300529,23.708072],[121.30092,23.708166]]],[[[121.298026,23.712017],[121.29803,23.711747],[121.298326,23.711569],[121.298235,23.711026],[121.298333,23.711027],[121.29844,23.710397],[121.298052,23.710031],[121.297863,23.709487],[121.297472,23.709393],[121.297578,23.708762],[121.297875,23.708584],[121.297681,23.708402],[121.297285,23.708668],[121.297181,23.709119],[121.296887,23.709115],[121.296787,23.709295],[121.296982,23.709387],[121.297076,23.709659],[121.29737,23.709662],[121.297367,23.709933],[121.297562,23.710026],[121.297655,23.710388],[121.297948,23.710481],[121.29794,23.711113],[121.297743,23.711202],[121.297738,23.711563],[121.297242,23.712009],[121.297535,23.712102],[121.297534,23.712193],[121.298026,23.712017]]],[[[121.301464,23.711604],[121.301081,23.710877],[121.300788,23.710784],[121.300791,23.710603],[121.30011,23.710144],[121.300114,23.709873],[121.299823,23.709599],[121.299627,23.709597],[121.299238,23.709322],[121.299138,23.709501],[121.299623,23.709868],[121.29962,23.710139],[121.299913,23.710232],[121.300202,23.710597],[121.300593,23.710691],[121.300589,23.711052],[121.300782,23.711235],[121.300979,23.711237],[121.301267,23.711692],[121.301464,23.711604]]],[[[121.301622,23.714585],[121.301529,23.714133],[121.301728,23.713954],[121.301731,23.713684],[121.301929,23.713595],[121.301932,23.713325],[121.302128,23.713327],[121.302229,23.713147],[121.302035,23.712964],[121.302038,23.712694],[121.301745,23.7126],[121.301455,23.712326],[121.301457,23.712145],[121.301262,23.712053],[121.301064,23.712231],[121.301061,23.712412],[121.300864,23.7125],[121.300961,23.712591],[121.300854,23.713313],[121.300952,23.713314],[121.301044,23.713766],[121.301239,23.713859],[121.301234,23.71422],[121.301136,23.714219],[121.301033,23.714579],[121.301227,23.714762],[121.301622,23.714585]]],[[[121.29838,23.715001],[121.298186,23.714818],[121.298285,23.714729],[121.298292,23.714188],[121.298,23.714004],[121.297906,23.713732],[121.29771,23.71373],[121.29781,23.71355],[121.297615,23.713458],[121.297514,23.713727],[121.297416,23.713726],[121.29741,23.714178],[121.296716,23.714712],[121.296714,23.714893],[121.296909,23.714985],[121.297109,23.714716],[121.297205,23.714808],[121.297501,23.714721],[121.297986,23.715087],[121.298281,23.71509],[121.29838,23.715001]]],[[[121.298229,23.719063],[121.298527,23.718795],[121.298722,23.718888],[121.298824,23.718528],[121.29863,23.718435],[121.298331,23.718793],[121.298135,23.718791],[121.298139,23.71843],[121.298237,23.718431],[121.298142,23.718249],[121.297546,23.718785],[121.297739,23.719058],[121.298229,23.719063]]],[[[121.296531,23.721392],[121.29653,23.721482],[121.296726,23.721484],[121.296925,23.721306],[121.29683,23.721034],[121.296732,23.721033],[121.296736,23.720762],[121.297128,23.720767],[121.297127,23.720857],[121.297324,23.720769],[121.29713,23.720586],[121.297232,23.720316],[121.297037,23.720224],[121.297039,23.720043],[121.297137,23.720044],[121.297143,23.719593],[121.297046,23.719501],[121.296551,23.719857],[121.296645,23.720219],[121.296448,23.720308],[121.296445,23.720488],[121.296543,23.720489],[121.296436,23.72121],[121.296337,23.7213],[121.296143,23.721117],[121.295945,23.721205],[121.296235,23.721569],[121.296531,23.721392]]],[[[121.302121,23.721454],[121.301934,23.720729],[121.302132,23.720641],[121.302135,23.72037],[121.302233,23.720371],[121.302141,23.719919],[121.301745,23.720185],[121.301839,23.720547],[121.301541,23.720815],[121.301633,23.721268],[121.301924,23.721542],[121.302121,23.721454]]],[[[121.302984,23.722998],[121.302497,23.722722],[121.302393,23.723172],[121.302097,23.72335],[121.302193,23.723441],[121.302186,23.723983],[121.30248,23.724076],[121.302667,23.72471],[121.302865,23.724622],[121.302872,23.72408],[121.30297,23.724082],[121.303063,23.724444],[121.303452,23.724719],[121.303649,23.724631],[121.303647,23.724811],[121.303842,23.724904],[121.303838,23.725175],[121.304032,23.725357],[121.30423,23.725269],[121.304324,23.725541],[121.304127,23.725629],[121.304124,23.72581],[121.304223,23.725811],[121.304119,23.726261],[121.304217,23.726262],[121.304212,23.726624],[121.304406,23.726806],[121.304207,23.726985],[121.304203,23.727346],[121.304495,23.72753],[121.304792,23.727262],[121.304795,23.727081],[121.304992,23.726993],[121.304604,23.726628],[121.304713,23.725816],[121.304422,23.725542],[121.304524,23.725272],[121.304232,23.725089],[121.304332,23.724909],[121.304137,23.724817],[121.30414,23.724636],[121.303457,23.724358],[121.303459,23.724177],[121.303361,23.724176],[121.30346,23.724087],[121.303466,23.723635],[121.303564,23.723637],[121.303472,23.723184],[121.30357,23.723185],[121.303572,23.723005],[121.303868,23.722917],[121.303773,23.722646],[121.304071,23.722378],[121.303974,23.722287],[121.302994,23.722185],[121.302895,23.722275],[121.302992,23.722366],[121.302889,23.722726],[121.303083,23.722909],[121.302984,23.722998]],[[121.303083,23.722909],[121.30318,23.723],[121.303082,23.722999],[121.303083,23.722909]]],[[[121.302163,23.725788],[121.302165,23.725608],[121.302359,23.72579],[121.302557,23.725702],[121.302464,23.72525],[121.302761,23.725073],[121.302763,23.724892],[121.302569,23.724709],[121.302272,23.724977],[121.301977,23.724974],[121.301875,23.725334],[121.301479,23.7256],[121.301867,23.725966],[121.302163,23.725788]],[[121.302069,23.725516],[121.302168,23.725427],[121.302167,23.725517],[121.302069,23.725516]]],[[[121.302531,23.727689],[121.30283,23.727331],[121.302832,23.72715],[121.30254,23.726966],[121.302542,23.726786],[121.302444,23.726785],[121.302545,23.726605],[121.302351,23.726422],[121.301954,23.726779],[121.302148,23.726962],[121.302344,23.726964],[121.302538,23.727147],[121.302535,23.727328],[121.302339,23.727325],[121.301952,23.72696],[121.301656,23.727047],[121.301752,23.727229],[121.301948,23.727231],[121.301944,23.727592],[121.301746,23.72768],[121.301842,23.727862],[121.302136,23.727865],[121.302232,23.728047],[121.303213,23.728057],[121.303312,23.727968],[121.303216,23.727786],[121.302531,23.727689]],[[121.302531,23.727689],[121.302432,23.727778],[121.302433,23.727688],[121.302531,23.727689]],[[121.302433,23.727688],[121.302336,23.727596],[121.302434,23.727597],[121.302433,23.727688]],[[121.302248,23.726783],[121.302348,23.726693],[121.302346,23.726784],[121.302248,23.726783]]],[[[121.306252,23.728181],[121.306155,23.72809],[121.305959,23.728087],[121.305962,23.727817],[121.305673,23.727452],[121.305476,23.72745],[121.305278,23.727628],[121.305367,23.728352],[121.30556,23.728535],[121.306148,23.728631],[121.306247,23.728542],[121.306252,23.728181]]]]}},{"type":"Feature","properties":{"kind":"bare_dam","month":"2019-12","area_ha":17.07},"geometry":{"type":"MultiPolygon","coordinates":[[[[121.301152,23.69029],[121.301837,23.690387],[121.301836,23.690478],[121.30213,23.690481],[121.302131,23.690391],[121.302424,23.690484],[121.302623,23.690215],[121.302429,23.690123],[121.302427,23.690213],[121.302132,23.6903],[121.302036,23.690119],[121.301253,23.69002],[121.301059,23.689837],[121.300856,23.690377],[121.301051,23.690469],[121.301152,23.69029]]],[[[121.299387,23.69027],[121.299192,23.690178],[121.299092,23.690357],[121.299287,23.69045],[121.299387,23.69027]]],[[[121.298203,23.690799],[121.298498,23.690802],[121.298598,23.690623],[121.298307,23.690349],[121.29811,23.690437],[121.297819,23.690163],[121.297522,23.69043],[121.297615,23.690793],[121.297809,23.690975],[121.298202,23.690889],[121.298203,23.690799]]],[[[121.299867,23.691088],[121.300059,23.691361],[121.300354,23.691274],[121.300353,23.691364],[121.300942,23.691371],[121.30094,23.691461],[121.301431,23.691467],[121.301429,23.691557],[121.302312,23.691567],[121.302311,23.691657],[121.302508,23.691569],[121.302507,23.691659],[121.302801,23.691662],[121.3028,23.691752],[121.303095,23.691665],[121.303285,23.692119],[121.304068,23.692218],[121.304262,23.692401],[121.304856,23.691956],[121.304566,23.691682],[121.304665,23.691592],[121.304569,23.691411],[121.304372,23.691499],[121.304469,23.69159],[121.304367,23.69186],[121.30368,23.691943],[121.303681,23.691852],[121.303387,23.691849],[121.303488,23.691579],[121.3031,23.691304],[121.302806,23.691301],[121.302804,23.691391],[121.302609,23.691299],[121.302411,23.691477],[121.302315,23.691296],[121.30163,23.691198],[121.301438,23.690925],[121.301143,23.690922],[121.301142,23.691012],[121.300749,23.691098],[121.300653,23.690916],[121.300261,23.690912],[121.300262,23.690822],[121.299869,23.690908],[121.29987,23.690817],[121.299381,23.690722],[121.299285,23.69054],[121.299088,23.690628],[121.299092,23.690357],[121.298994,23.690356],[121.299095,23.690086],[121.298998,23.689995],[121.299296,23.689727],[121.298708,23.689721],[121.298607,23.6899],[121.298215,23.689896],[121.298213,23.690077],[121.298407,23.690259],[121.298603,23.690262],[121.2986,23.690442],[121.298795,23.690535],[121.298694,23.690804],[121.298889,23.690897],[121.298883,23.691348],[121.29898,23.69144],[121.299176,23.691442],[121.299174,23.691532],[121.29947,23.691445],[121.299668,23.691267],[121.299671,23.691086],[121.299867,23.691088]],[[121.299671,23.691086],[121.299574,23.690995],[121.299672,23.690996],[121.299671,23.691086]]],[[[121.300444,23.691907],[121.300351,23.691545],[121.299858,23.69172],[121.300343,23.692177],[121.30054,23.692089],[121.300542,23.691908],[121.300444,23.691907]]],[[[121.299749,23.692622],[121.299942,23.692805],[121.300237,23.692808],[121.300337,23.692628],[121.299849,23.692443],[121.299749,23.692622]]],[[[121.299458,23.692348],[121.29916,23.692616],[121.298967,23.692433],[121.299068,23.692163],[121.298875,23.69198],[121.298775,23.69207],[121.298579,23.692067],[121.29858,23.691977],[121.298187,23.692063],[121.298283,23.692245],[121.298577,23.692248],[121.298473,23.692698],[121.298571,23.692699],[121.298664,23.693062],[121.298957,23.693155],[121.299156,23.692977],[121.29935,23.693159],[121.299249,23.693339],[121.299443,23.693522],[121.299145,23.693789],[121.299339,23.693972],[121.299438,23.693883],[121.299731,23.693976],[121.29983,23.693887],[121.299736,23.693615],[121.300132,23.693349],[121.300134,23.693168],[121.299939,23.693076],[121.300038,23.692986],[121.299942,23.692805],[121.299745,23.692893],[121.299644,23.693163],[121.299255,23.692887],[121.299455,23.692619],[121.29975,23.692532],[121.299654,23.69235],[121.299458,23.692348]],[[121.299638,23.693614],[121.299635,23.693795],[121.299439,23.693792],[121.299441,23.693702],[121.299638,23.693614]]],[[[121.301104,23.693991],[121.3013,23.693994],[121.301299,23.694084],[121.301496,23.693996],[121.301404,23.693543],[121.30121,23.69336],[121.301013,23.693449],[121.301108,23.69363],[121.30091,23.693809],[121.300714,23.693806],[121.300715,23.693716],[121.300518,23.693804],[121.300422,23.693623],[121.300225,23.693711],[121.300223,23.693891],[121.300319,23.693983],[121.300615,23.693896],[121.300806,23.694259],[121.301002,23.694261],[121.301104,23.693991]]],[[[121.298518,23.696762],[121.29862,23.696492],[121.298918,23.696225],[121.298822,23.696043],[121.298232,23.696127],[121.298034,23.696305],[121.298131,23.696397],[121.298032,23.696486],[121.298124,23.696939],[121.298318,23.697121],[121.298613,23.697034],[121.298616,23.696763],[121.298518,23.696762]]],[[[121.301247,23.698056],[121.301645,23.697609],[121.301452,23.697427],[121.301156,23.697514],[121.301157,23.697423],[121.300766,23.697329],[121.300666,23.697508],[121.300861,23.697601],[121.300859,23.697781],[121.300563,23.697868],[121.300462,23.698138],[121.300951,23.698234],[121.300952,23.698143],[121.301247,23.698056]]],[[[121.298666,23.700466],[121.298964,23.700199],[121.298966,23.700018],[121.298773,23.699835],[121.298779,23.699384],[121.299076,23.699116],[121.299081,23.698755],[121.299479,23.698308],[121.300068,23.698224],[121.300168,23.698135],[121.300072,23.697953],[121.299876,23.697951],[121.299875,23.698041],[121.299386,23.697946],[121.299186,23.698214],[121.298695,23.698299],[121.298296,23.698746],[121.298489,23.699019],[121.297995,23.699285],[121.298091,23.699467],[121.297893,23.699645],[121.297699,23.699462],[121.297402,23.69964],[121.297498,23.699821],[121.297889,23.699916],[121.297883,23.700367],[121.29798,23.700459],[121.298666,23.700466]]],[[[121.31148,23.687784],[121.311976,23.687338],[121.31188,23.687156],[121.31139,23.687151],[121.311291,23.68724],[121.311285,23.687692],[121.31148,23.687784]]],[[[121.312661,23.687436],[121.312273,23.68707],[121.311978,23.687157],[121.312269,23.687431],[121.312459,23.687885],[121.312656,23.687797],[121.312661,23.687436]]],[[[121.30898,23.691549],[121.309079,23.69146],[121.308985,23.691188],[121.308888,23.691097],[121.30869,23.691185],[121.308694,23.690914],[121.308499,23.690822],[121.308198,23.69136],[121.308392,23.691543],[121.308588,23.691545],[121.308589,23.691455],[121.30898,23.691549]]],[[[121.310636,23.69238],[121.311331,23.691755],[121.31104,23.691481],[121.310647,23.691567],[121.31026,23.691112],[121.309672,23.691105],[121.30957,23.691375],[121.309274,23.691552],[121.309369,23.691824],[121.309565,23.691827],[121.30966,23.692008],[121.309856,23.69201],[121.31005,23.692193],[121.310442,23.692197],[121.310636,23.69238]]],[[[121.305916,23.693412],[121.306413,23.692876],[121.306319,23.692604],[121.306221,23.692603],[121.306326,23.692062],[121.306132,23.691879],[121.305838,23.691876],[121.305737,23.692056],[121.305932,23.692148],[121.30593,23.692329],[121.305832,23.692328],[121.305925,23.69269],[121.305827,23.692689],[121.305721,23.69332],[121.305916,23.693412]]],[[[121.305313,23.694579],[121.305805,23.694404],[121.305808,23.694224],[121.30571,23.694222],[121.305809,23.694133],[121.305815,23.693682],[121.30562,23.693589],[121.305321,23.693947],[121.305026,23.694034],[121.30492,23.694575],[121.305311,23.69467],[121.305313,23.694579]]],[[[121.303249,23.694918],[121.303348,23.694829],[121.303254,23.694557],[121.302567,23.694549],[121.302566,23.69464],[121.302271,23.694727],[121.302367,23.694908],[121.302661,23.694911],[121.302662,23.694821],[121.303249,23.694918]]],[[[121.304417,23.695563],[121.304715,23.695295],[121.304717,23.695115],[121.304815,23.695116],[121.30472,23.694934],[121.304524,23.694932],[121.304423,23.695111],[121.304227,23.695109],[121.304029,23.695288],[121.304221,23.695561],[121.304417,23.695563]]],[[[121.303724,23.696097],[121.304022,23.695829],[121.303926,23.695648],[121.304124,23.695469],[121.303736,23.695194],[121.303529,23.696005],[121.303724,23.696097]]],[[[121.303335,23.695822],[121.303239,23.69573],[121.303042,23.695728],[121.302844,23.695907],[121.302842,23.696087],[121.302544,23.696355],[121.302249,23.696442],[121.302046,23.696982],[121.301749,23.697159],[121.301942,23.697432],[121.30214,23.697254],[121.302434,23.697257],[121.302536,23.696987],[121.302929,23.696901],[121.302737,23.696628],[121.302933,23.69663],[121.303131,23.696452],[121.303134,23.696271],[121.303232,23.696272],[121.303136,23.696091],[121.303333,23.696002],[121.303335,23.695822]],[[121.303136,23.696091],[121.303039,23.695999],[121.303137,23.696],[121.303136,23.696091]]]]}},{"type":"Feature","properties":{"kind":"water","month":"2019-12","area_ha":0.62},"geometry":{"type":"MultiPolygon","coordinates":[[[[121.308788,23.691186],[121.308891,23.690826],[121.308793,23.690825],[121.308702,23.690282],[121.308508,23.690099],[121.308596,23.690913],[121.308694,23.690914],[121.30869,23.691185],[121.308788,23.691186]]],[[[121.298395,23.698747],[121.298397,23.698567],[121.298594,23.698479],[121.298498,23.698297],[121.298892,23.698211],[121.298797,23.697939],[121.298996,23.697761],[121.298306,23.698024],[121.2983,23.698476],[121.298103,23.698564],[121.298098,23.698925],[121.298395,23.698747]]],[[[121.298196,23.698926],[121.29839,23.699109],[121.29849,23.698929],[121.298295,23.698837],[121.298196,23.698926]]]]}}]}