{"type":"FeatureCollection","features":[{"type":"Feature","properties":{"kind":"bare_slide","month":"2019-03","area_ha":76.56},"geometry":{"type":"MultiPolygon","coordinates":[[[[121.298086,23.707413],[121.297891,23.70732],[121.297791,23.7075],[121.297398,23.707496],[121.2972,23.707674],[121.297198,23.707855],[121.297295,23.707946],[121.297786,23.707861],[121.29798,23.708044],[121.298079,23.707955],[121.298086,23.707413]]],[[[121.298149,23.710122],[121.298151,23.709942],[121.297861,23.709668],[121.29747,23.709573],[121.297577,23.708852],[121.297875,23.708584],[121.29817,23.708497],[121.298175,23.708136],[121.29798,23.708044],[121.297778,23.708493],[121.297484,23.70849],[121.297382,23.70876],[121.297185,23.708848],[121.297181,23.709119],[121.296887,23.709115],[121.296787,23.709295],[121.297079,23.709479],[121.297173,23.709751],[121.297369,23.709753],[121.297465,23.709934],[121.297758,23.710028],[121.298043,23.710753],[121.29824,23.710665],[121.298247,23.710124],[121.298149,23.710122]]],[[[121.298026,23.712017],[121.298029,23.711837],[121.298326,23.711569],[121.298233,23.711207],[121.298037,23.711205],[121.29764,23.711562],[121.297638,23.711742],[121.297441,23.71174],[121.29744,23.71183],[121.296951,23.711735],[121.296852,23.711824],[121.296948,23.712006],[121.29734,23.71201],[121.297339,23.7121],[121.297633,23.712103],[121.297632,23.712194],[121.297828,23.712196],[121.298026,23.712017]]],[[[121.294064,23.715044],[121.294461,23.714687],[121.294756,23.7146],[121.294759,23.714419],[121.294956,23.714331],[121.294958,23.714151],[121.295355,23.713794],[121.295749,23.713708],[121.295752,23.713437],[121.296148,23.713171],[121.296151,23.7129],[121.29625,23.712901],[121.296255,23.712449],[121.296158,23.712358],[121.295961,23.712446],[121.295957,23.712807],[121.29546,23.713253],[121.295165,23.71334],[121.295261,23.713522],[121.294963,23.71379],[121.294475,23.713604],[121.294275,23.713872],[121.294079,23.71387],[121.293881,23.714049],[121.293777,23.714499],[121.293482,23.714586],[121.293282,23.714855],[121.292891,23.71476],[121.292892,23.71467],[121.292695,23.714758],[121.292984,23.715122],[121.293183,23.714944],[121.293475,23.715128],[121.293773,23.71477],[121.293768,23.715221],[121.293669,23.71522],[121.293765,23.715402],[121.293961,23.715404],[121.294064,23.715044]],[[121.294068,23.714773],[121.294167,23.714684],[121.294166,23.714774],[121.294068,23.714773]]],[[[121.297102,23.715258],[121.297107,23.714807],[121.297402,23.71481],[121.297403,23.71472],[121.297696,23.714813],[121.297986,23.715087],[121.298282,23.715],[121.298292,23.714188],[121.297999,23.714094],[121.297709,23.71382],[121.297711,23.713639],[121.297809,23.71364],[121.297713,23.713459],[121.297516,23.713547],[121.297611,23.713819],[121.297412,23.713997],[121.297409,23.714268],[121.296914,23.714624],[121.29691,23.714895],[121.296812,23.714894],[121.296809,23.715164],[121.296907,23.715166],[121.296803,23.715616],[121.2969,23.715707],[121.297195,23.71562],[121.2972,23.715259],[121.297102,23.715258]]],[[[121.283957,23.715474],[121.284059,23.715204],[121.284452,23.715118],[121.284454,23.714938],[121.284261,23.714755],[121.284064,23.714753],[121.283969,23.714571],[121.283573,23.714838],[121.283282,23.714563],[121.283086,23.714561],[121.282987,23.71465],[121.282981,23.715102],[121.283274,23.715195],[121.283376,23.714926],[121.283572,23.714928],[121.283467,23.715468],[121.283858,23.715563],[121.283856,23.715653],[121.284054,23.715565],[121.283957,23.715474]]],[[[121.286691,23.716407],[121.286785,23.716679],[121.286294,23.716764],[121.286095,23.716942],[121.286289,23.717125],[121.28628,23.717847],[121.286182,23.717846],[121.286277,23.718028],[121.28657,23.718122],[121.28667,23.718032],[121.286575,23.71776],[121.286773,23.717582],[121.287363,23.717498],[121.287364,23.717408],[121.287558,23.717591],[121.287657,23.717501],[121.288442,23.71751],[121.288537,23.717692],[121.288339,23.71787],[121.287947,23.717866],[121.287846,23.718045],[121.28765,23.718043],[121.287651,23.717953],[121.287062,23.718037],[121.286958,23.718487],[121.287251,23.718581],[121.287347,23.718762],[121.28715,23.71876],[121.28705,23.71894],[121.286854,23.718937],[121.286855,23.718847],[121.286364,23.718932],[121.286263,23.719111],[121.285579,23.718923],[121.285479,23.719103],[121.28577,23.719287],[121.285768,23.719467],[121.285572,23.719465],[121.285272,23.719913],[121.28488,23.719909],[121.284878,23.719999],[121.28409,23.720261],[121.284088,23.720442],[121.28399,23.720441],[121.284086,23.720622],[121.284772,23.72063],[121.284874,23.72036],[121.285171,23.720093],[121.285467,23.720006],[121.285464,23.720186],[121.285168,23.720363],[121.285261,23.720726],[121.284966,23.720813],[121.28506,23.721085],[121.284567,23.72135],[121.284463,23.7218],[121.284066,23.722157],[121.284062,23.722428],[121.284256,23.722611],[121.284453,23.722523],[121.284458,23.722162],[121.284849,23.722256],[121.285047,23.722078],[121.285153,23.721537],[121.285841,23.721364],[121.28574,23.721634],[121.285837,23.721725],[121.286034,23.721637],[121.285939,23.721365],[121.286633,23.720831],[121.286639,23.72038],[121.286837,23.720201],[121.287033,23.720204],[121.287226,23.720477],[121.287423,23.720388],[121.28723,23.720206],[121.287233,23.719935],[121.287038,23.719842],[121.287043,23.719481],[121.287141,23.719482],[121.287048,23.71912],[121.287246,23.718942],[121.287736,23.718947],[121.288233,23.718501],[121.288235,23.718321],[121.28853,23.718234],[121.288533,23.718053],[121.288731,23.717875],[121.288926,23.717967],[121.289524,23.717251],[121.289621,23.717343],[121.289818,23.717255],[121.289824,23.716803],[121.29002,23.716805],[121.290021,23.716715],[121.290314,23.716809],[121.290513,23.71663],[121.290516,23.716359],[121.291206,23.716096],[121.291308,23.715826],[121.291504,23.715828],[121.291606,23.715559],[121.291901,23.715472],[121.292001,23.715292],[121.29161,23.715197],[121.291812,23.714748],[121.291421,23.714654],[121.291318,23.715014],[121.291512,23.715196],[121.291414,23.715195],[121.291211,23.715735],[121.290917,23.715732],[121.290816,23.715911],[121.290521,23.715998],[121.290523,23.715818],[121.29033,23.715635],[121.289839,23.715629],[121.289842,23.715449],[121.290137,23.715362],[121.290435,23.715094],[121.290438,23.714823],[121.290341,23.714732],[121.289262,23.71481],[121.289063,23.714989],[121.289061,23.715169],[121.289256,23.715262],[121.289252,23.715533],[121.289447,23.715625],[121.289442,23.715986],[121.289344,23.715985],[121.289342,23.716166],[121.289048,23.716162],[121.288952,23.715981],[121.288655,23.716158],[121.288659,23.715887],[121.289051,23.715892],[121.289154,23.715531],[121.288959,23.715439],[121.288761,23.715617],[121.288466,23.715614],[121.288079,23.715249],[121.288081,23.715068],[121.288667,23.715255],[121.288767,23.715166],[121.288671,23.714984],[121.288183,23.714798],[121.288182,23.714889],[121.287888,23.714885],[121.287787,23.715065],[121.28769,23.714973],[121.287199,23.715058],[121.286811,23.714693],[121.286814,23.714512],[121.286522,23.714328],[121.28642,23.714598],[121.286223,23.714686],[121.286315,23.715139],[121.28602,23.715226],[121.285722,23.715493],[121.285916,23.715676],[121.285913,23.715857],[121.285129,23.715848],[121.285128,23.715938],[121.284734,23.716024],[121.284535,23.716293],[121.285121,23.71648],[121.28522,23.716391],[121.285124,23.716209],[121.28532,23.716211],[121.285318,23.716392],[121.285611,23.716486],[121.285713,23.716216],[121.286109,23.715859],[121.286601,23.715774],[121.2866,23.715864],[121.286992,23.715869],[121.286987,23.71623],[121.286691,23.716407]],[[121.288272,23.715522],[121.288172,23.715611],[121.288173,23.715521],[121.288272,23.715522]],[[121.286888,23.716319],[121.286985,23.71641],[121.286887,23.716409],[121.286888,23.716319]],[[121.286351,23.719925],[121.286449,23.719926],[121.286446,23.720107],[121.286348,23.720106],[121.286351,23.719925]],[[121.290321,23.716267],[121.290421,23.716178],[121.290419,23.716268],[121.290321,23.716267]]],[[[121.282811,23.720608],[121.283007,23.72061],[121.283205,23.720432],[121.283208,23.720251],[121.283503,23.720164],[121.283607,23.719714],[121.283903,23.719627],[121.284004,23.719357],[121.2842,23.719359],[121.284201,23.719269],[121.284494,23.719363],[121.284594,23.719274],[121.284596,23.719093],[121.284402,23.71891],[121.284206,23.718908],[121.284112,23.718636],[121.283724,23.718271],[121.283528,23.718268],[121.28333,23.718447],[121.283424,23.718719],[121.283227,23.718807],[121.283223,23.719078],[121.283125,23.719077],[121.283022,23.719437],[121.282725,23.719704],[121.282528,23.719702],[121.282428,23.719882],[121.281938,23.719876],[121.28164,23.720144],[121.281636,23.720415],[121.282024,23.72078],[121.282416,23.720784],[121.282417,23.720694],[121.28281,23.720699],[121.282811,23.720608]],[[121.283613,23.719263],[121.283709,23.719444],[121.28351,23.719623],[121.283216,23.719619],[121.283319,23.719259],[121.283613,23.719263]]],[[[121.291772,23.717818],[121.292069,23.717641],[121.292071,23.71746],[121.292267,23.717462],[121.292264,23.717733],[121.292556,23.717917],[121.292755,23.717648],[121.292951,23.71765],[121.293348,23.717294],[121.293353,23.716932],[121.29306,23.716839],[121.293059,23.716929],[121.292469,23.717013],[121.292275,23.71683],[121.291875,23.717458],[121.291483,23.717454],[121.291283,23.717722],[121.290792,23.717807],[121.290691,23.717987],[121.290397,23.717983],[121.290297,23.718163],[121.290001,23.71825],[121.289999,23.71843],[121.290388,23.718706],[121.290384,23.718976],[121.289993,23.718882],[121.289894,23.718971],[121.289987,23.719333],[121.289693,23.71933],[121.28959,23.71969],[121.290079,23.719786],[121.290077,23.719966],[121.289681,23.720233],[121.289773,23.720685],[121.290066,23.720779],[121.290064,23.720959],[121.289771,23.720866],[121.289571,23.721135],[121.289276,23.721222],[121.288792,23.720765],[121.288894,23.720405],[121.288507,23.720039],[121.288605,23.72004],[121.288706,23.719771],[121.288903,23.719773],[121.288998,23.719954],[121.289295,23.719777],[121.289297,23.719597],[121.289103,23.719414],[121.289004,23.719503],[121.288221,23.719404],[121.288022,23.719582],[121.28802,23.719763],[121.288409,23.720038],[121.288406,23.720219],[121.288209,23.720307],[121.288204,23.720668],[121.288399,23.72076],[121.288397,23.720941],[121.288198,23.721119],[121.288002,23.721117],[121.287422,23.720479],[121.287225,23.720567],[121.287221,23.720838],[121.28761,23.721113],[121.287608,23.721293],[121.287409,23.721472],[121.287018,23.721377],[121.28682,23.721556],[121.286817,23.721736],[121.287011,23.721919],[121.287208,23.721831],[121.287205,23.722102],[121.287303,23.722103],[121.287202,23.722282],[121.286711,23.722367],[121.286713,23.722187],[121.286518,23.722094],[121.286417,23.722364],[121.286219,23.722452],[121.286312,23.722905],[121.286602,23.723179],[121.2868,23.723091],[121.286904,23.72264],[121.287199,23.722553],[121.287497,23.722286],[121.287404,23.721833],[121.287993,23.72184],[121.288089,23.722021],[121.288578,23.722117],[121.288777,23.721848],[121.288973,23.72185],[121.288972,23.721941],[121.28917,23.721853],[121.288976,23.72167],[121.288978,23.721489],[121.289177,23.721311],[121.289373,23.721313],[121.28976,23.721679],[121.289758,23.721859],[121.289362,23.722126],[121.289556,23.722308],[121.289358,23.722487],[121.289548,23.72294],[121.289944,23.722674],[121.289947,23.722403],[121.290741,23.721689],[121.290935,23.721872],[121.291131,23.721874],[121.291429,23.721607],[121.291432,23.721336],[121.291626,23.721519],[121.291426,23.721787],[121.291719,23.721881],[121.291713,23.722332],[121.291416,23.7226],[121.291412,23.722871],[121.291803,23.722965],[121.292002,23.722787],[121.291908,23.722425],[121.292107,23.722246],[121.2925,23.72216],[121.292505,23.721799],[121.29231,23.721707],[121.292315,23.721346],[121.292511,23.721348],[121.292703,23.721621],[121.293196,23.721446],[121.293102,23.721174],[121.293004,23.721173],[121.293008,23.720811],[121.293206,23.720723],[121.293112,23.720361],[121.292628,23.719904],[121.292524,23.720355],[121.292328,23.720352],[121.292037,23.720078],[121.291639,23.720525],[121.291443,23.720523],[121.291244,23.720702],[121.291147,23.72061],[121.291248,23.720431],[121.290958,23.720066],[121.290761,23.720154],[121.290856,23.720426],[121.290759,23.720335],[121.290463,23.720422],[121.290469,23.719971],[121.290371,23.71997],[121.29047,23.71988],[121.290376,23.719608],[121.290769,23.719522],[121.290674,23.719341],[121.290378,23.719428],[121.29048,23.719158],[121.290971,23.719073],[121.291075,23.718623],[121.291269,23.718806],[121.291465,23.718808],[121.291763,23.71854],[121.291569,23.718357],[121.291573,23.718087],[121.29177,23.717998],[121.291772,23.717818]],[[121.291569,23.718357],[121.29147,23.718447],[121.291471,23.718356],[121.291569,23.718357]],[[121.286608,23.722727],[121.286707,23.722638],[121.286706,23.722728],[121.286608,23.722727]],[[121.289951,23.722132],[121.289754,23.72213],[121.289756,23.72204],[121.289953,23.721952],[121.289951,23.722132]],[[121.290746,23.721328],[121.290942,23.72133],[121.290939,23.721511],[121.290743,23.721509],[121.290746,23.721328]],[[121.290059,23.721321],[121.290455,23.721054],[121.290459,23.720783],[121.290655,23.720785],[121.290755,23.720606],[121.290951,23.720608],[121.291145,23.720791],[121.291139,23.721242],[121.290945,23.72106],[121.290749,23.721057],[121.290452,23.721325],[121.290059,23.721321]],[[121.290683,23.718619],[121.290879,23.718621],[121.290878,23.718711],[121.290682,23.718709],[121.290683,23.718619]],[[121.291182,23.717992],[121.291281,23.717903],[121.29128,23.717993],[121.291182,23.717992]]],[[[121.296627,23.721574],[121.296728,23.721394],[121.296825,23.721486],[121.297022,23.721397],[121.297024,23.721217],[121.296733,23.720943],[121.296736,23.720762],[121.29713,23.720586],[121.297143,23.719593],[121.297046,23.719501],[121.29675,23.719679],[121.296745,23.72004],[121.296448,23.720308],[121.296445,23.720488],[121.296543,23.720489],[121.296436,23.72121],[121.29624,23.721208],[121.296241,23.721118],[121.296044,23.721206],[121.296041,23.721387],[121.296235,23.721569],[121.296334,23.72148],[121.296627,23.721574]]],[[[121.294563,23.721912],[121.294757,23.722095],[121.294955,23.721916],[121.295149,23.722099],[121.295443,23.722102],[121.29584,23.721746],[121.296036,23.721748],[121.296137,23.721568],[121.295746,23.721474],[121.295645,23.721653],[121.295057,23.721647],[121.295056,23.721737],[121.294469,23.72164],[121.294467,23.72173],[121.294075,23.721726],[121.294074,23.721816],[121.293977,23.721725],[121.293486,23.72181],[121.29358,23.722082],[121.294365,23.722091],[121.294563,23.721912]]],[[[121.294326,23.72507],[121.294231,23.724798],[121.294329,23.724799],[121.294236,23.724437],[121.295128,23.723724],[121.295134,23.723273],[121.295036,23.723272],[121.295038,23.723091],[121.295236,23.723003],[121.295142,23.722641],[121.294749,23.722727],[121.294938,23.723271],[121.29484,23.72327],[121.294834,23.723721],[121.294635,23.7239],[121.294341,23.723896],[121.294042,23.724254],[121.29316,23.724244],[121.29306,23.724334],[121.293739,23.724973],[121.294033,23.724976],[121.294129,23.725158],[121.294326,23.72507]]],[[[121.291378,23.725489],[121.291577,23.725311],[121.291579,23.72513],[121.291774,23.725222],[121.291972,23.725044],[121.291976,23.724773],[121.291878,23.724772],[121.291882,23.724411],[121.292081,23.724233],[121.291985,23.724051],[121.29169,23.724138],[121.291587,23.724498],[121.291391,23.724496],[121.29139,23.724586],[121.290999,23.724491],[121.290897,23.724761],[121.290799,23.72476],[121.290797,23.724941],[121.290895,23.724942],[121.290792,23.725302],[121.290986,23.725485],[121.291085,23.725395],[121.291378,23.725489]]],[[[121.297346,23.726638],[121.297448,23.726369],[121.297546,23.72637],[121.297453,23.725917],[121.297163,23.725643],[121.296865,23.725911],[121.296675,23.725457],[121.296973,23.725189],[121.297166,23.725372],[121.297362,23.725374],[121.297561,23.725196],[121.297566,23.724835],[121.297961,23.724568],[121.297965,23.724297],[121.297867,23.724296],[121.297772,23.724024],[121.297575,23.724113],[121.297573,23.724293],[121.297374,23.724471],[121.29718,23.724289],[121.296984,23.724287],[121.297087,23.723927],[121.297286,23.723748],[121.296894,23.723654],[121.2968,23.723382],[121.296605,23.723289],[121.296506,23.723378],[121.296597,23.723921],[121.296303,23.723918],[121.296005,23.724186],[121.295712,23.724092],[121.295414,23.72436],[121.295412,23.72454],[121.2958,23.724815],[121.295798,23.724996],[121.295992,23.725179],[121.296188,23.725181],[121.296576,23.725546],[121.296476,23.725635],[121.296573,23.725727],[121.296469,23.726177],[121.29686,23.726272],[121.296759,23.726542],[121.297049,23.726816],[121.297346,23.726638]],[[121.296482,23.725184],[121.296581,23.725095],[121.29658,23.725185],[121.296482,23.725184]]],[[[121.299096,23.705166],[121.299396,23.704718],[121.299604,23.703818],[121.299215,23.703542],[121.299126,23.702819],[121.298931,23.702727],[121.298944,23.701733],[121.299042,23.701734],[121.299145,23.701374],[121.298753,23.70137],[121.298657,23.701188],[121.298069,23.701182],[121.298162,23.701544],[121.29826,23.701545],[121.298256,23.701906],[121.298058,23.701995],[121.298056,23.702175],[121.298345,23.70254],[121.298341,23.702901],[121.298534,23.703083],[121.298531,23.703354],[121.298918,23.70372],[121.299211,23.703813],[121.299203,23.704445],[121.299005,23.704624],[121.298901,23.705074],[121.299096,23.705166]]],[[[121.310856,23.705747],[121.310762,23.705475],[121.310469,23.705381],[121.310374,23.705109],[121.310276,23.705108],[121.310475,23.70493],[121.31067,23.705022],[121.31077,23.704843],[121.310477,23.704749],[121.310478,23.704659],[121.310184,23.704656],[121.310081,23.705016],[121.309886,23.704923],[121.309785,23.705193],[121.30998,23.705286],[121.310074,23.705558],[121.310368,23.705561],[121.310659,23.705835],[121.310856,23.705747]]],[[[121.298883,23.706428],[121.298987,23.705978],[121.299085,23.705979],[121.29909,23.705618],[121.299188,23.705619],[121.299095,23.705257],[121.298899,23.705255],[121.298798,23.705434],[121.298504,23.705431],[121.298404,23.70561],[121.298109,23.705607],[121.297714,23.705874],[121.297807,23.706236],[121.298199,23.70624],[121.298587,23.706606],[121.298883,23.706428]]],[[[121.312708,23.70667],[121.312711,23.706399],[121.312516,23.706307],[121.31252,23.706036],[121.312325,23.705943],[121.312327,23.705763],[121.312036,23.705489],[121.311644,23.705484],[121.311544,23.705664],[121.312031,23.70594],[121.312028,23.706121],[121.312417,23.706396],[121.312414,23.706667],[121.312901,23.706853],[121.312708,23.70667]]],[[[121.300432,23.70798],[121.30014,23.707797],[121.299649,23.707881],[121.299362,23.707337],[121.298967,23.707513],[121.298963,23.707874],[121.299256,23.707967],[121.299351,23.708149],[121.299844,23.707974],[121.299842,23.708155],[121.300328,23.708431],[121.300428,23.708342],[121.300432,23.70798]]],[[[121.301176,23.711149],[121.300984,23.710786],[121.300207,23.710235],[121.300018,23.709692],[121.299822,23.709689],[121.299726,23.709508],[121.29953,23.709506],[121.299336,23.709323],[121.299139,23.709411],[121.299235,23.709593],[121.299431,23.709595],[121.299624,23.709778],[121.299717,23.71023],[121.299913,23.710232],[121.300105,23.710505],[121.300593,23.710691],[121.300589,23.711052],[121.300782,23.711235],[121.301077,23.711238],[121.301176,23.711149]]],[[[121.307929,23.712216],[121.307935,23.711765],[121.308231,23.711588],[121.308136,23.711406],[121.307939,23.711404],[121.307938,23.711494],[121.307742,23.711492],[121.307646,23.71131],[121.30745,23.711308],[121.307449,23.711398],[121.30696,23.711303],[121.30686,23.711482],[121.306663,23.71148],[121.306568,23.711298],[121.30637,23.711387],[121.307241,23.712299],[121.30773,23.712395],[121.307929,23.712216]]],[[[121.301325,23.714763],[121.301524,23.714584],[121.30173,23.713774],[121.302028,23.713506],[121.302031,23.713235],[121.302229,23.713147],[121.302231,23.712967],[121.301649,23.712509],[121.301556,23.712056],[121.301361,23.711964],[121.30126,23.712234],[121.300864,23.7125],[121.300854,23.713313],[121.300952,23.713314],[121.300949,23.713494],[121.301239,23.713859],[121.30113,23.71467],[121.301325,23.714763]]],[[[121.298738,23.717624],[121.298143,23.718159],[121.298238,23.718341],[121.298831,23.717986],[121.298835,23.717715],[121.298738,23.717624]]],[[[121.298827,23.718347],[121.299123,23.71817],[121.299029,23.717898],[121.298731,23.718165],[121.298827,23.718347]]],[[[121.298425,23.719065],[121.298426,23.718975],[121.29882,23.718889],[121.298824,23.718528],[121.298923,23.718529],[121.298827,23.718347],[121.298231,23.718882],[121.298035,23.71888],[121.298038,23.7187],[121.298236,23.718521],[121.29814,23.71834],[121.297644,23.718786],[121.297739,23.719058],[121.298033,23.719061],[121.298034,23.718971],[121.298425,23.719065]]],[[[121.302412,23.721728],[121.302025,23.721272],[121.302034,23.72064],[121.302232,23.720461],[121.302238,23.72001],[121.302043,23.719918],[121.301941,23.720187],[121.301843,23.720186],[121.301839,23.720547],[121.30164,23.720726],[121.301632,23.721358],[121.301925,23.721451],[121.302215,23.721816],[121.302412,23.721728]]],[[[121.306702,23.723671],[121.306706,23.7234],[121.306413,23.723307],[121.306317,23.723125],[121.306019,23.723393],[121.305726,23.723299],[121.305725,23.723389],[121.305332,23.723475],[121.305427,23.723657],[121.305722,23.72366],[121.305915,23.723843],[121.306015,23.723754],[121.306504,23.723849],[121.306503,23.72394],[121.306798,23.723853],[121.3068,23.723672],[121.306702,23.723671]]],[[[121.306246,23.728632],[121.30635,23.728182],[121.305961,23.727907],[121.305964,23.727636],[121.305673,23.727452],[121.305675,23.727272],[121.305287,23.726906],[121.304798,23.726811],[121.304604,23.726628],[121.304713,23.725816],[121.304421,23.725633],[121.304621,23.725364],[121.304329,23.72518],[121.304238,23.724637],[121.304044,23.724454],[121.303847,23.724543],[121.303459,23.724177],[121.303461,23.723997],[121.303559,23.723998],[121.303466,23.723635],[121.303663,23.723547],[121.303573,23.722914],[121.30377,23.722916],[121.303869,23.722827],[121.303773,23.722646],[121.304166,23.72256],[121.304268,23.72229],[121.304171,23.722198],[121.303975,23.722196],[121.303974,23.722287],[121.303091,23.722277],[121.303092,23.722187],[121.3027,23.722182],[121.302409,23.721908],[121.302309,23.722088],[121.302503,23.72227],[121.302499,23.722541],[121.302989,23.722637],[121.302886,23.722997],[121.302595,23.722723],[121.302397,23.722901],[121.302393,23.723172],[121.302196,23.72326],[121.302188,23.723892],[121.302579,23.723987],[121.302673,23.724259],[121.302575,23.724258],[121.302571,23.724619],[121.302472,23.724618],[121.30237,23.724978],[121.301881,23.724882],[121.301781,23.724971],[121.301876,23.725243],[121.30168,23.725241],[121.301579,23.725421],[121.301284,23.725508],[121.301376,23.72596],[121.301179,23.726048],[121.301177,23.726229],[121.30147,23.726323],[121.301663,23.726505],[121.301661,23.726686],[121.301463,23.726864],[121.301266,23.726862],[121.301073,23.726679],[121.300971,23.726949],[121.301362,23.727044],[121.30136,23.727224],[121.301555,23.727317],[121.301452,23.727677],[121.301745,23.72777],[121.301938,23.728043],[121.302232,23.728047],[121.302231,23.728137],[121.302917,23.728144],[121.302918,23.728054],[121.303113,23.728147],[121.303213,23.728057],[121.303215,23.727877],[121.302922,23.727783],[121.302924,23.727603],[121.302826,23.727602],[121.302829,23.727421],[121.302927,23.727422],[121.30284,23.726518],[121.302548,23.726334],[121.302552,23.726064],[121.302357,23.725971],[121.301956,23.726599],[121.301858,23.726598],[121.301862,23.726327],[121.301764,23.726326],[121.302161,23.725969],[121.302262,23.725699],[121.302359,23.72579],[121.302557,23.725702],[121.302463,23.72534],[121.30276,23.725163],[121.302764,23.724802],[121.302862,23.724803],[121.302774,23.724079],[121.30307,23.723902],[121.303167,23.723993],[121.30316,23.724535],[121.303257,23.724626],[121.30365,23.72454],[121.303647,23.724811],[121.304325,23.725451],[121.304323,23.725631],[121.304126,23.72572],[121.304223,23.725811],[121.304212,23.726624],[121.30431,23.726625],[121.304307,23.726895],[121.304405,23.726897],[121.304206,23.727075],[121.304201,23.727436],[121.304298,23.727527],[121.30479,23.727443],[121.304886,23.727624],[121.305082,23.727626],[121.305276,23.727809],[121.305273,23.72799],[121.305468,23.728082],[121.305369,23.728171],[121.305461,23.728624],[121.305657,23.728626],[121.305659,23.728536],[121.306246,23.728632]],[[121.305663,23.728175],[121.30576,23.728266],[121.305662,23.728265],[121.305663,23.728175]],[[121.305663,23.728175],[121.305566,23.728083],[121.305664,23.728084],[121.305663,23.728175]]]]}},{"type":"Feature","properties":{"kind":"bare_dam","month":"2019-03","area_ha":30.67},"geometry":{"type":"MultiPolygon","coordinates":[[[[121.302621,23.690396],[121.30262,23.690486],[121.302816,23.690488],[121.302916,23.690309],[121.30282,23.690218],[121.302623,23.690215],[121.302622,23.690306],[121.302231,23.690211],[121.302132,23.6903],[121.302228,23.690482],[121.302621,23.690396]]],[[[121.301446,23.690293],[121.301545,23.690204],[121.301449,23.690022],[121.300667,23.689833],[121.300668,23.689743],[121.300569,23.689832],[121.300373,23.68983],[121.300374,23.689739],[121.298708,23.689721],[121.298607,23.6899],[121.298117,23.689895],[121.297522,23.69043],[121.297519,23.690611],[121.297618,23.690612],[121.297614,23.690883],[121.297808,23.691066],[121.298102,23.691069],[121.298202,23.690889],[121.298496,23.690893],[121.298495,23.690983],[121.298692,23.690895],[121.298786,23.691257],[121.299076,23.691531],[121.299371,23.691534],[121.299372,23.691444],[121.299665,23.691537],[121.299767,23.691177],[121.299865,23.691178],[121.300058,23.691452],[121.300844,23.69137],[121.300842,23.69146],[121.301431,23.691467],[121.301526,23.691648],[121.301722,23.69165],[121.301724,23.69156],[121.302409,23.691658],[121.302408,23.691748],[121.302702,23.691751],[121.302703,23.691661],[121.302898,23.691754],[121.302997,23.691664],[121.303191,23.691847],[121.303188,23.692028],[121.303481,23.692121],[121.303577,23.692303],[121.303676,23.692214],[121.304361,23.692311],[121.304462,23.692132],[121.304757,23.692045],[121.304663,23.691773],[121.304367,23.69186],[121.304366,23.69195],[121.303778,23.691944],[121.303293,23.691487],[121.3029,23.691573],[121.302706,23.69139],[121.302314,23.691386],[121.302024,23.691112],[121.30163,23.691198],[121.301438,23.690925],[121.301044,23.691011],[121.300949,23.690829],[121.300752,23.690827],[121.30066,23.690375],[121.301446,23.690293]],[[121.303389,23.691669],[121.30329,23.691758],[121.303291,23.691668],[121.303389,23.691669]],[[121.30066,23.690375],[121.300563,23.690283],[121.300661,23.690284],[121.30066,23.690375]],[[121.299777,23.690455],[121.299779,23.690275],[121.300171,23.690279],[121.300165,23.69073],[121.299968,23.690818],[121.299875,23.690456],[121.299777,23.690455]],[[121.298995,23.690266],[121.298898,23.690175],[121.298996,23.690176],[121.298995,23.690266]]],[[[121.301505,23.693273],[121.301704,23.693095],[121.30151,23.692912],[121.301119,23.692818],[121.30102,23.692907],[121.301114,23.693179],[121.301211,23.69327],[121.301506,23.693183],[121.301505,23.693273]]],[[[121.303144,23.695459],[121.303442,23.695191],[121.303149,23.695097],[121.303151,23.694917],[121.303248,23.695008],[121.303445,23.69492],[121.303352,23.694558],[121.302469,23.694548],[121.302271,23.694727],[121.301883,23.694361],[121.301687,23.694359],[121.30169,23.694178],[121.301495,23.694086],[121.3014,23.693814],[121.301204,23.693812],[121.301203,23.693902],[121.301008,23.69381],[121.301208,23.693541],[121.300821,23.693085],[121.300526,23.693172],[121.30053,23.692901],[121.300727,23.692813],[121.300631,23.692632],[121.299849,23.692443],[121.299462,23.692077],[121.299166,23.692164],[121.299072,23.691892],[121.298684,23.691527],[121.298389,23.691614],[121.298387,23.691794],[121.29858,23.691977],[121.298384,23.691975],[121.298096,23.69152],[121.297899,23.691608],[121.298185,23.692244],[121.298282,23.692335],[121.298479,23.692247],[121.298472,23.692789],[121.29857,23.69279],[121.298663,23.693152],[121.298955,23.693336],[121.298852,23.693696],[121.299337,23.694153],[121.299926,23.694069],[121.299925,23.694159],[121.300316,23.694254],[121.300514,23.694075],[121.300805,23.694349],[121.30149,23.694447],[121.30168,23.694901],[121.302367,23.694908],[121.302656,23.695273],[121.303048,23.695277],[121.303144,23.695459]]],[[[121.30214,23.697254],[121.302434,23.697257],[121.302634,23.696988],[121.30283,23.69699],[121.303028,23.696812],[121.302934,23.69654],[121.303229,23.696453],[121.303234,23.696092],[121.303431,23.696003],[121.303239,23.69573],[121.302943,23.695818],[121.302841,23.696178],[121.302744,23.696086],[121.302546,23.696174],[121.302443,23.696625],[121.301847,23.69716],[121.301942,23.697432],[121.30214,23.697254]]],[[[121.301248,23.697966],[121.301644,23.6977],[121.30155,23.697428],[121.301255,23.697424],[121.301254,23.697515],[121.301058,23.697513],[121.300962,23.697331],[121.300765,23.697419],[121.30086,23.697691],[121.301253,23.697605],[121.301154,23.697694],[121.301248,23.697966]]],[[[121.298406,23.697845],[121.298308,23.697844],[121.298202,23.698474],[121.298004,23.698653],[121.298097,23.699015],[121.2979,23.699103],[121.297897,23.699284],[121.2977,23.699372],[121.297698,23.699553],[121.297499,23.699731],[121.29789,23.699826],[121.297883,23.700367],[121.29798,23.700459],[121.299157,23.700472],[121.298871,23.699836],[121.298773,23.699835],[121.298779,23.699384],[121.298976,23.699296],[121.299081,23.698755],[121.299379,23.698487],[121.299381,23.698307],[121.299577,23.698309],[121.299578,23.698219],[121.299969,23.698313],[121.300267,23.698046],[121.300463,23.698048],[121.300754,23.698322],[121.301051,23.698054],[121.300857,23.697872],[121.300465,23.697867],[121.300466,23.697777],[121.300173,23.697683],[121.300176,23.697503],[121.300374,23.697324],[121.300179,23.697232],[121.300086,23.69687],[121.299791,23.696957],[121.299684,23.697588],[121.299391,23.697494],[121.299292,23.697583],[121.299388,23.697765],[121.299192,23.697763],[121.298993,23.697941],[121.298996,23.697761],[121.299094,23.697762],[121.298999,23.69749],[121.299198,23.697312],[121.299101,23.69722],[121.2992,23.697131],[121.299108,23.696678],[121.298913,23.696586],[121.298925,23.695683],[121.299024,23.695594],[121.298927,23.695503],[121.29873,23.695591],[121.298732,23.69541],[121.297955,23.69486],[121.297657,23.695127],[121.297754,23.695219],[121.297747,23.69576],[121.297648,23.69585],[121.297841,23.696032],[121.298037,23.696035],[121.297935,23.696395],[121.298033,23.696396],[121.298124,23.696939],[121.298319,23.697031],[121.298316,23.697212],[121.298607,23.697486],[121.298409,23.697664],[121.298406,23.697845]],[[121.300173,23.697683],[121.300074,23.697773],[121.300075,23.697682],[121.300173,23.697683]],[[121.299684,23.697588],[121.299781,23.697679],[121.299683,23.697678],[121.299684,23.697588]],[[121.298606,23.697576],[121.298703,23.697667],[121.298605,23.697666],[121.298606,23.697576]],[[121.298598,23.698208],[121.298501,23.698117],[121.298599,23.698118],[121.298598,23.698208]]],[[[121.295544,23.699258],[121.295942,23.698811],[121.296138,23.698813],[121.296234,23.698995],[121.296432,23.698816],[121.296142,23.698542],[121.295848,23.698539],[121.295648,23.698808],[121.295452,23.698805],[121.295352,23.698985],[121.295057,23.698982],[121.294957,23.699161],[121.295054,23.699253],[121.295544,23.699258]]],[[[121.312758,23.687527],[121.312563,23.687435],[121.312565,23.687254],[121.31237,23.687162],[121.312276,23.68689],[121.311589,23.686882],[121.311591,23.686792],[121.311393,23.68688],[121.311387,23.687331],[121.311289,23.68733],[121.311382,23.687783],[121.311878,23.687337],[121.312172,23.68734],[121.312462,23.687614],[121.312459,23.687885],[121.312654,23.687977],[121.312758,23.687527]]],[[[121.310784,23.688499],[121.31098,23.688501],[121.311179,23.688322],[121.311084,23.688051],[121.310786,23.688318],[121.310393,23.688404],[121.310488,23.688676],[121.310783,23.688589],[121.310784,23.688499]]],[[[121.303507,23.690135],[121.303118,23.68986],[121.303019,23.689949],[121.302823,23.689947],[121.302824,23.689856],[121.302431,23.689942],[121.302527,23.690124],[121.30292,23.690038],[121.303016,23.69022],[121.30331,23.690223],[121.303309,23.690313],[121.303507,23.690135]]],[[[121.303209,23.690402],[121.303014,23.69031],[121.302914,23.69049],[121.303109,23.690582],[121.303209,23.690402]]],[[[121.310636,23.69238],[121.31123,23.691935],[121.311233,23.691754],[121.311039,23.691572],[121.310843,23.69157],[121.310358,23.691113],[121.309379,23.691012],[121.309378,23.691102],[121.309083,23.691189],[121.308988,23.690917],[121.308597,23.690823],[121.308493,23.691273],[121.308297,23.691271],[121.3079,23.691628],[121.308191,23.691902],[121.30849,23.691544],[121.308785,23.691457],[121.308784,23.691547],[121.30898,23.691549],[121.309076,23.691731],[121.309272,23.691733],[121.309367,23.691915],[121.309563,23.691917],[121.309757,23.6921],[121.310442,23.692197],[121.310636,23.69238]]],[[[121.306118,23.692963],[121.307108,23.692251],[121.30721,23.691891],[121.306917,23.691798],[121.306916,23.691888],[121.306131,23.69197],[121.306132,23.691879],[121.305839,23.691786],[121.305746,23.691424],[121.305452,23.69142],[121.304756,23.692135],[121.304951,23.692228],[121.305248,23.69196],[121.305739,23.691965],[121.305736,23.692146],[121.305931,23.692238],[121.305924,23.69278],[121.305826,23.692779],[121.30582,23.69323],[121.305917,23.693322],[121.306114,23.693234],[121.306118,23.692963]]],[[[121.303927,23.695557],[121.304123,23.69556],[121.304122,23.69565],[121.304417,23.695563],[121.304616,23.695384],[121.304719,23.695024],[121.304916,23.694936],[121.304918,23.694756],[121.305609,23.694402],[121.305513,23.69422],[121.305809,23.694133],[121.305816,23.693592],[121.305914,23.693593],[121.305818,23.693411],[121.305621,23.693499],[121.305518,23.693859],[121.305026,23.694034],[121.304727,23.694392],[121.304531,23.69439],[121.304035,23.694836],[121.303933,23.695106],[121.303737,23.695104],[121.303738,23.695014],[121.303541,23.695102],[121.303735,23.695284],[121.30373,23.695646],[121.303532,23.695824],[121.303627,23.696006],[121.303923,23.695919],[121.303927,23.695557]]]]}},{"type":"Feature","properties":{"kind":"water","month":"2019-03","area_ha":0.15},"geometry":{"type":"Polygon","coordinates":[[[121.30027,23.697775],[121.300176,23.697503],[121.300765,23.697419],[121.300664,23.697689],[121.30027,23.697775]]]}}]}