{"type":"FeatureCollection","features":[{"type":"Feature","properties":{"kind":"bare_slide","month":"2019-11","area_ha":41.86},"geometry":{"type":"MultiPolygon","coordinates":[[[[121.292983,23.715213],[121.293082,23.715123],[121.293085,23.714943],[121.293476,23.715037],[121.293576,23.714858],[121.293674,23.714859],[121.293769,23.715131],[121.294063,23.715134],[121.294758,23.71451],[121.29476,23.714329],[121.294957,23.714241],[121.294961,23.71397],[121.295157,23.713972],[121.295356,23.713704],[121.29575,23.713618],[121.295752,23.713437],[121.296149,23.71308],[121.296255,23.712449],[121.296158,23.712358],[121.295961,23.712446],[121.295958,23.712717],[121.29556,23.713164],[121.295068,23.713249],[121.29487,23.713427],[121.294675,23.713335],[121.294476,23.713513],[121.294474,23.713694],[121.294176,23.713962],[121.293881,23.714049],[121.293778,23.714409],[121.29348,23.714676],[121.293284,23.714674],[121.293184,23.714854],[121.292794,23.714669],[121.29269,23.715119],[121.292787,23.71521],[121.292983,23.715213]],[[121.294168,23.714594],[121.294166,23.714774],[121.29397,23.714772],[121.293973,23.714501],[121.294168,23.714594]]],[[[121.292689,23.715209],[121.292495,23.715027],[121.292395,23.715206],[121.29259,23.715299],[121.292689,23.715209]]],[[[121.287983,23.715067],[121.287886,23.714976],[121.287689,23.715064],[121.287784,23.715336],[121.287981,23.715248],[121.287983,23.715067]]],[[[121.29081,23.716362],[121.291604,23.715649],[121.291607,23.715468],[121.291804,23.71538],[121.291708,23.715199],[121.291414,23.715195],[121.291315,23.715284],[121.291409,23.715556],[121.291211,23.715735],[121.290917,23.715732],[121.290419,23.716268],[121.29081,23.716362]]],[[[121.288272,23.715522],[121.288269,23.715702],[121.288171,23.715701],[121.288078,23.715339],[121.287782,23.715426],[121.287976,23.715609],[121.287872,23.716059],[121.287676,23.716057],[121.287582,23.715785],[121.287384,23.715873],[121.286998,23.715417],[121.286799,23.715596],[121.287285,23.715962],[121.28728,23.716323],[121.287572,23.716507],[121.287469,23.716867],[121.28776,23.717141],[121.288153,23.717055],[121.288248,23.717327],[121.288539,23.717602],[121.288834,23.717515],[121.289123,23.717879],[121.289418,23.717882],[121.289414,23.718153],[121.289609,23.718245],[121.289713,23.717795],[121.289811,23.717796],[121.289817,23.717345],[121.290113,23.717167],[121.29002,23.716805],[121.290314,23.716809],[121.290513,23.71663],[121.290418,23.716358],[121.290319,23.716447],[121.289829,23.716442],[121.289831,23.716261],[121.290223,23.716266],[121.290324,23.716086],[121.290129,23.715994],[121.29023,23.715724],[121.290035,23.715632],[121.289837,23.71581],[121.289742,23.715538],[121.290139,23.715181],[121.290335,23.715183],[121.290437,23.714914],[121.290243,23.714731],[121.289949,23.714728],[121.289849,23.714907],[121.289752,23.714816],[121.289262,23.71481],[121.289161,23.71499],[121.288768,23.715076],[121.288863,23.715257],[121.288566,23.715525],[121.288469,23.715434],[121.288272,23.715522]],[[121.289849,23.714907],[121.289946,23.714998],[121.289848,23.714997],[121.289849,23.714907]],[[121.288863,23.715257],[121.28896,23.715349],[121.288862,23.715348],[121.288863,23.715257]],[[121.288959,23.715439],[121.28906,23.71526],[121.289256,23.715262],[121.289251,23.715623],[121.289446,23.715715],[121.289441,23.716076],[121.289243,23.716255],[121.289634,23.716349],[121.289631,23.71653],[121.289534,23.716439],[121.289239,23.716526],[121.289241,23.716345],[121.288951,23.716071],[121.288654,23.716248],[121.288658,23.715977],[121.289051,23.715892],[121.289057,23.71544],[121.288959,23.715439]],[[121.288566,23.715525],[121.288663,23.715616],[121.288565,23.715615],[121.288566,23.715525]],[[121.289325,23.71743],[121.289129,23.717427],[121.289132,23.717247],[121.28923,23.717248],[121.289325,23.71743]],[[121.289627,23.716891],[121.289726,23.716802],[121.289725,23.716892],[121.289627,23.716891]],[[121.288745,23.716791],[121.288845,23.716702],[121.288843,23.716792],[121.288745,23.716791]],[[121.28806,23.716693],[121.287766,23.71669],[121.287767,23.7166],[121.288062,23.716513],[121.28806,23.716693]],[[121.288266,23.715973],[121.288365,23.715884],[121.288364,23.715974],[121.288266,23.715973]],[[121.289452,23.715264],[121.289551,23.715175],[121.28955,23.715265],[121.289452,23.715264]]],[[[121.292359,23.717915],[121.293251,23.717202],[121.293254,23.717022],[121.292961,23.716928],[121.292762,23.717106],[121.292759,23.717377],[121.292563,23.717375],[121.292472,23.716832],[121.292277,23.71674],[121.291975,23.717278],[121.292267,23.717462],[121.292359,23.717915]]],[[[121.290873,23.719072],[121.291072,23.718894],[121.291074,23.718713],[121.291367,23.718807],[121.291566,23.718628],[121.291469,23.718537],[121.291471,23.718356],[121.291569,23.718357],[121.291475,23.718086],[121.291673,23.717907],[121.291478,23.717815],[121.291384,23.717543],[121.291186,23.717631],[121.29128,23.717993],[121.291083,23.717991],[121.291085,23.717901],[121.290789,23.717988],[121.290692,23.717896],[121.290493,23.718165],[121.29,23.71834],[121.290193,23.718613],[121.290389,23.718615],[121.290385,23.718886],[121.290579,23.719069],[121.290678,23.71898],[121.290873,23.719072]],[[121.290683,23.718619],[121.290781,23.71862],[121.290778,23.71889],[121.290679,23.718889],[121.290683,23.718619]],[[121.290787,23.718168],[121.290688,23.718257],[121.290689,23.718167],[121.290787,23.718168]],[[121.290787,23.718168],[121.290886,23.718079],[121.290885,23.718169],[121.290787,23.718168]]],[[[121.282812,23.720518],[121.28282,23.719886],[121.283016,23.719888],[121.283014,23.720069],[121.283209,23.720161],[121.283408,23.719983],[121.28341,23.719802],[121.283607,23.719714],[121.283511,23.719532],[121.283216,23.719619],[121.28322,23.719349],[121.283318,23.71935],[121.283222,23.719168],[121.282925,23.719345],[121.282824,23.719615],[121.282628,23.719613],[121.282428,23.719882],[121.281839,23.719965],[121.281737,23.720235],[121.281639,23.720234],[121.281636,23.720415],[121.281927,23.720689],[121.282417,23.720694],[121.282419,23.720604],[121.282812,23.720518]]],[[[121.28978,23.720144],[121.289778,23.720324],[121.289973,23.720417],[121.289871,23.720686],[121.289969,23.720688],[121.290063,23.72105],[121.290258,23.721142],[121.290461,23.720603],[121.290364,23.720511],[121.290167,23.720599],[121.290071,23.720418],[121.290464,23.720332],[121.29037,23.72006],[121.290272,23.720059],[121.290371,23.71997],[121.290373,23.719789],[121.290275,23.719788],[121.290375,23.719699],[121.290382,23.719157],[121.29048,23.719158],[121.290384,23.718976],[121.290285,23.719066],[121.289992,23.718972],[121.289893,23.719061],[121.289987,23.719333],[121.289496,23.719418],[121.289687,23.719781],[121.290078,23.719876],[121.28978,23.720144]],[[121.290077,23.719966],[121.290174,23.720058],[121.290076,23.720057],[121.290077,23.719966]]],[[[121.296638,23.720761],[121.29723,23.720497],[121.297232,23.720316],[121.297038,23.720133],[121.297137,23.720044],[121.297143,23.719593],[121.296948,23.7195],[121.29675,23.719679],[121.296746,23.71995],[121.296648,23.719949],[121.296742,23.720311],[121.296546,23.720309],[121.296445,23.720488],[121.296543,23.720489],[121.296638,23.720761]]],[[[121.296338,23.721209],[121.29653,23.721482],[121.296726,23.721484],[121.296925,23.721306],[121.296927,23.721126],[121.296732,23.721033],[121.296638,23.720761],[121.29644,23.720849],[121.296436,23.72121],[121.296338,23.721209]]],[[[121.296335,23.72139],[121.296143,23.721117],[121.295945,23.721205],[121.296138,23.721478],[121.296335,23.72139]]],[[[121.293375,23.722802],[121.293772,23.722445],[121.293679,23.721993],[121.293001,23.721353],[121.292915,23.720449],[121.29272,23.720357],[121.292521,23.720535],[121.292416,23.721076],[121.292121,23.721163],[121.292117,23.721434],[121.29192,23.721522],[121.291917,23.721793],[121.292015,23.721794],[121.292108,23.722156],[121.2925,23.72216],[121.292496,23.722521],[121.292691,23.722614],[121.292688,23.722794],[121.29259,23.722793],[121.292686,23.722975],[121.292884,23.722797],[121.293375,23.722802]],[[121.292608,23.721439],[121.29251,23.721438],[121.29241,23.721527],[121.292512,23.721257],[121.29261,23.721259],[121.292608,23.721439]]],[[[121.293749,23.724161],[121.293651,23.72416],[121.293649,23.72434],[121.293747,23.724341],[121.293645,23.724611],[121.293839,23.724794],[121.294329,23.724799],[121.294431,23.724529],[121.294628,23.724441],[121.294631,23.724261],[121.294927,23.724083],[121.294833,23.723811],[121.294638,23.723719],[121.294641,23.723448],[121.294543,23.723447],[121.294547,23.723176],[121.294646,23.723087],[121.294841,23.723179],[121.294942,23.72291],[121.295041,23.722911],[121.295043,23.72273],[121.294849,23.722547],[121.294551,23.722815],[121.294256,23.722902],[121.294253,23.723173],[121.294056,23.723171],[121.293961,23.722989],[121.293666,23.722986],[121.293668,23.722896],[121.29347,23.722984],[121.293664,23.723166],[121.293561,23.723526],[121.293952,23.723621],[121.293749,23.724161]],[[121.293952,23.723621],[121.294052,23.723532],[121.294051,23.723622],[121.293952,23.723621]],[[121.294052,23.723532],[121.29425,23.723353],[121.294346,23.723535],[121.294052,23.723532]],[[121.294243,23.723895],[121.294342,23.723806],[121.294341,23.723896],[121.294243,23.723895]]],[[[121.296863,23.726091],[121.296768,23.725819],[121.29667,23.725818],[121.296676,23.725367],[121.296383,23.725273],[121.296386,23.725002],[121.296583,23.725005],[121.29658,23.725185],[121.296775,23.725278],[121.296974,23.725099],[121.296976,23.724919],[121.297173,23.72483],[121.29727,23.724922],[121.297169,23.725192],[121.297364,23.725284],[121.297463,23.725195],[121.297368,23.724923],[121.297863,23.724567],[121.297869,23.724116],[121.297674,23.724023],[121.297573,23.724293],[121.297176,23.72465],[121.296684,23.724735],[121.296783,23.724646],[121.29669,23.724283],[121.296987,23.724106],[121.296989,23.723925],[121.297187,23.723747],[121.296894,23.723654],[121.296604,23.723379],[121.296505,23.723469],[121.296597,23.723921],[121.296398,23.7241],[121.295807,23.724274],[121.295706,23.724543],[121.295315,23.724449],[121.295314,23.724539],[121.295018,23.724626],[121.294824,23.724443],[121.294724,23.724623],[121.294822,23.724624],[121.295012,23.725078],[121.295502,23.725173],[121.295303,23.725352],[121.295301,23.725532],[121.295398,23.725624],[121.295595,23.725535],[121.295593,23.725716],[121.295886,23.72581],[121.29598,23.726082],[121.296179,23.725903],[121.296472,23.725997],[121.296372,23.726086],[121.296468,23.726267],[121.296863,23.726091]]],[[[121.299096,23.705166],[121.299194,23.705168],[121.299199,23.704806],[121.299396,23.704718],[121.299605,23.703727],[121.29912,23.70327],[121.299126,23.702819],[121.299028,23.702818],[121.299032,23.702547],[121.298934,23.702546],[121.299047,23.701373],[121.298753,23.70137],[121.298657,23.701188],[121.298069,23.701182],[121.298065,23.701453],[121.298259,23.701636],[121.298157,23.701905],[121.298352,23.701998],[121.298154,23.702176],[121.29834,23.702991],[121.298533,23.703174],[121.29853,23.703445],[121.299113,23.703812],[121.299104,23.704534],[121.299006,23.704533],[121.298799,23.705344],[121.298994,23.705436],[121.299096,23.705166]],[[121.298733,23.702905],[121.298735,23.702724],[121.298833,23.702725],[121.298831,23.702906],[121.298733,23.702905]]],[[[121.29909,23.705618],[121.298896,23.705435],[121.298504,23.705431],[121.298404,23.70561],[121.297912,23.705695],[121.297713,23.705964],[121.297906,23.706147],[121.298395,23.706242],[121.298489,23.706605],[121.298684,23.706697],[121.298786,23.706337],[121.298985,23.706159],[121.298889,23.705977],[121.299086,23.705889],[121.29909,23.705618]],[[121.298889,23.705977],[121.298792,23.705885],[121.29889,23.705887],[121.298889,23.705977]],[[121.298694,23.705884],[121.298697,23.705704],[121.298795,23.705705],[121.298792,23.705885],[121.298694,23.705884]]],[[[121.300431,23.708071],[121.30014,23.707797],[121.299845,23.707884],[121.299843,23.708064],[121.300133,23.708338],[121.300431,23.708071]]],[[[121.30131,23.708351],[121.301312,23.708171],[121.301022,23.707897],[121.300728,23.707893],[121.300729,23.707803],[121.300433,23.70789],[121.300529,23.708072],[121.30092,23.708166],[121.301014,23.708529],[121.30131,23.708351]]],[[[121.29817,23.708497],[121.298074,23.708316],[121.297878,23.708314],[121.297679,23.708582],[121.29797,23.708766],[121.298072,23.708496],[121.29817,23.708497]]],[[[121.29924,23.709141],[121.299042,23.70932],[121.299334,23.709503],[121.299434,23.709324],[121.29924,23.709141]]],[[[121.299331,23.709684],[121.299912,23.710322],[121.300108,23.710325],[121.3003,23.710598],[121.300593,23.710691],[121.30059,23.710962],[121.300784,23.711145],[121.30098,23.711147],[121.300979,23.711237],[121.301176,23.711149],[121.301081,23.710877],[121.300014,23.709962],[121.300018,23.709692],[121.299824,23.709509],[121.299433,23.709414],[121.299331,23.709684]]],[[[121.297928,23.712016],[121.298031,23.711656],[121.298327,23.711479],[121.298236,23.710936],[121.298335,23.710937],[121.29844,23.710397],[121.298052,23.710031],[121.297863,23.709487],[121.297472,23.709393],[121.297478,23.708941],[121.297676,23.708763],[121.297679,23.708582],[121.297484,23.70849],[121.297382,23.70876],[121.297185,23.708848],[121.297181,23.709119],[121.296985,23.709116],[121.296884,23.709386],[121.297174,23.70966],[121.29737,23.709662],[121.297367,23.709933],[121.297948,23.710481],[121.29794,23.711113],[121.297842,23.711112],[121.297838,23.711383],[121.29774,23.711382],[121.297638,23.711742],[121.297538,23.711831],[121.297245,23.711738],[121.297145,23.711917],[121.297633,23.712103],[121.297632,23.712194],[121.297928,23.712016]]],[[[121.301525,23.714494],[121.301733,23.713593],[121.30193,23.713505],[121.301932,23.713325],[121.30223,23.713057],[121.302035,23.712964],[121.302038,23.712694],[121.301745,23.7126],[121.301261,23.712143],[121.30126,23.712234],[121.300964,23.712321],[121.300854,23.713313],[121.300952,23.713314],[121.300949,23.713494],[121.301239,23.713859],[121.301234,23.71422],[121.301136,23.714219],[121.301033,23.714579],[121.301522,23.714675],[121.301622,23.714585],[121.301525,23.714494]]],[[[121.29838,23.715001],[121.298186,23.714818],[121.298292,23.714188],[121.297614,23.713548],[121.297417,23.713636],[121.297309,23.714357],[121.296618,23.714711],[121.296811,23.714984],[121.297009,23.714805],[121.297304,23.714809],[121.297305,23.714718],[121.297696,23.714813],[121.297986,23.715087],[121.298281,23.71509],[121.29838,23.715001]]],[[[121.302121,23.721454],[121.301936,23.720639],[121.302133,23.720551],[121.302136,23.72028],[121.302234,23.720281],[121.302141,23.719919],[121.301745,23.720185],[121.301839,23.720547],[121.301541,23.720815],[121.301633,23.721268],[121.301924,23.721542],[121.302121,23.721454]]],[[[121.304523,23.725363],[121.304232,23.725089],[121.30414,23.724636],[121.303751,23.724361],[121.303457,23.724358],[121.303459,23.724177],[121.303361,23.724176],[121.303363,23.723996],[121.303461,23.723997],[121.303367,23.723725],[121.303465,23.723726],[121.303468,23.723455],[121.303566,23.723456],[121.303474,23.723003],[121.30377,23.722916],[121.303675,23.722644],[121.303973,23.722377],[121.303092,23.722187],[121.302991,23.722456],[121.302893,23.722455],[121.302984,23.722998],[121.302788,23.722996],[121.302595,23.722723],[121.302398,23.722811],[121.302393,23.723172],[121.302196,23.72326],[121.302188,23.723892],[121.302576,23.724167],[121.302669,23.72462],[121.302866,23.724532],[121.302873,23.72399],[121.302971,23.723991],[121.303257,23.724626],[121.303453,23.724629],[121.303452,23.724719],[121.303649,23.724631],[121.30384,23.725084],[121.304033,23.725267],[121.30423,23.725269],[121.304325,23.725451],[121.304523,23.725363]]],[[[121.301867,23.725966],[121.302165,23.725608],[121.302461,23.725521],[121.302465,23.72516],[121.302762,23.724982],[121.302569,23.724709],[121.302272,23.724977],[121.301977,23.724974],[121.301875,23.725334],[121.301578,23.725511],[121.301867,23.725966]],[[121.30197,23.725515],[121.30207,23.725426],[121.302069,23.725516],[121.30197,23.725515]]],[[[121.306252,23.728181],[121.306155,23.72809],[121.305959,23.728087],[121.305769,23.727544],[121.305381,23.727268],[121.305286,23.726996],[121.304992,23.726993],[121.304891,23.727173],[121.304598,23.727079],[121.304601,23.726899],[121.304699,23.7269],[121.304701,23.726719],[121.304603,23.726718],[121.304713,23.725816],[121.304324,23.725541],[121.30412,23.726171],[121.304218,23.726172],[121.304212,23.726624],[121.30431,23.726625],[121.304403,23.726987],[121.304206,23.727075],[121.304203,23.727346],[121.304495,23.72753],[121.304792,23.727262],[121.305374,23.72781],[121.305368,23.728262],[121.305466,23.728263],[121.30556,23.728535],[121.306051,23.72854],[121.306148,23.728631],[121.306247,23.728542],[121.306252,23.728181]]],[[[121.303115,23.728056],[121.303214,23.727967],[121.303118,23.727785],[121.302532,23.727598],[121.30273,23.72742],[121.302635,23.727238],[121.302339,23.727325],[121.301952,23.72696],[121.301656,23.727047],[121.301752,23.727229],[121.301948,23.727231],[121.301944,23.727592],[121.301746,23.72768],[121.301842,23.727862],[121.302136,23.727865],[121.302232,23.728047],[121.302918,23.728054],[121.30292,23.727964],[121.303115,23.728056]]]]}},{"type":"Feature","properties":{"kind":"bare_dam","month":"2019-11","area_ha":15.11},"geometry":{"type":"MultiPolygon","coordinates":[[[[121.303191,23.691847],[121.303488,23.691579],[121.303195,23.691486],[121.303197,23.691396],[121.302705,23.691481],[121.302609,23.691299],[121.30251,23.691388],[121.302021,23.691292],[121.301927,23.691021],[121.301728,23.691199],[121.301532,23.691197],[121.30134,23.690924],[121.300749,23.691098],[121.300653,23.690916],[121.30026,23.691002],[121.300164,23.690821],[121.29987,23.690817],[121.299871,23.690727],[121.299577,23.690724],[121.299578,23.690634],[121.299381,23.690722],[121.299383,23.690541],[121.299189,23.690449],[121.299388,23.69018],[121.299194,23.689997],[121.298997,23.690085],[121.29909,23.690448],[121.298798,23.690354],[121.298801,23.690083],[121.298998,23.689995],[121.298901,23.689904],[121.299002,23.689724],[121.298708,23.689721],[121.298607,23.6899],[121.298215,23.689896],[121.298213,23.690077],[121.298311,23.690078],[121.298209,23.690348],[121.298016,23.690165],[121.297819,23.690163],[121.297522,23.69043],[121.297615,23.690793],[121.297809,23.690975],[121.298103,23.690979],[121.298203,23.690799],[121.298596,23.690803],[121.298594,23.690894],[121.298988,23.690808],[121.298885,23.691168],[121.299174,23.691532],[121.299568,23.691446],[121.299671,23.691086],[121.299867,23.691088],[121.300059,23.691361],[121.300356,23.691184],[121.300354,23.691274],[121.300747,23.691278],[121.300745,23.691369],[121.301432,23.691376],[121.301527,23.691558],[121.301823,23.691471],[121.301822,23.691561],[121.302801,23.691662],[121.3028,23.691752],[121.303192,23.691757],[121.303191,23.691847]]],[[[121.298481,23.692066],[121.298286,23.691974],[121.298186,23.692153],[121.298381,23.692246],[121.298481,23.692066]]],[[[121.300526,23.693172],[121.300331,23.69308],[121.300434,23.69272],[121.30024,23.692537],[121.300044,23.692535],[121.299948,23.692353],[121.299751,23.692441],[121.299944,23.692714],[121.299647,23.692892],[121.299455,23.692619],[121.299258,23.692617],[121.299065,23.692434],[121.299166,23.692164],[121.298876,23.69189],[121.29848,23.692157],[121.298577,23.692248],[121.298473,23.692698],[121.298571,23.692699],[121.298664,23.693062],[121.298859,23.693154],[121.298857,23.693335],[121.299051,23.693517],[121.299346,23.69343],[121.299244,23.6937],[121.299146,23.693699],[121.299241,23.693971],[121.299731,23.693976],[121.299732,23.693886],[121.300025,23.69398],[121.300124,23.69389],[121.300029,23.693709],[121.300225,23.693711],[121.300319,23.693983],[121.300615,23.693896],[121.300807,23.694169],[121.301003,23.694171],[121.301103,23.694082],[121.301007,23.6939],[121.301205,23.693722],[121.300912,23.693628],[121.300622,23.693354],[121.300324,23.693622],[121.300328,23.693351],[121.300526,23.693172]],[[121.300328,23.693351],[121.300231,23.693259],[121.300329,23.69326],[121.300328,23.693351]],[[121.299932,23.693617],[121.29993,23.693798],[121.299733,23.693796],[121.299735,23.693705],[121.299932,23.693617]],[[121.299637,23.693704],[121.29954,23.693613],[121.299638,23.693614],[121.299637,23.693704]]],[[[121.298719,23.696403],[121.298821,23.696133],[121.298919,23.696135],[121.298922,23.695864],[121.298727,23.695771],[121.298828,23.695592],[121.298633,23.695499],[121.298334,23.695857],[121.298237,23.695766],[121.29804,23.695854],[121.298036,23.696125],[121.29823,23.696308],[121.298427,23.696219],[121.298523,23.696401],[121.298719,23.696403]],[[121.298525,23.696221],[121.298332,23.696038],[121.298627,23.695951],[121.298525,23.696221]]],[[[121.298612,23.697124],[121.298807,23.697217],[121.299009,23.696768],[121.298912,23.696676],[121.298714,23.696764],[121.298619,23.696583],[121.298323,23.69667],[121.29813,23.696487],[121.298028,23.696757],[121.298319,23.697031],[121.298316,23.697212],[121.298511,23.697304],[121.298612,23.697124]]],[[[121.300951,23.698234],[121.301446,23.697878],[121.301448,23.697697],[121.301157,23.697423],[121.30096,23.697511],[121.301056,23.697693],[121.300857,23.697872],[121.300366,23.697956],[121.300559,23.698229],[121.300951,23.698234]]],[[[121.300068,23.698224],[121.300168,23.698135],[121.300072,23.697953],[121.299679,23.698039],[121.299774,23.698221],[121.300068,23.698224]]],[[[121.299188,23.698034],[121.299088,23.698213],[121.298893,23.698121],[121.298595,23.698388],[121.298593,23.698569],[121.298298,23.698656],[121.298588,23.69893],[121.298585,23.699201],[121.298386,23.699379],[121.297995,23.699285],[121.297896,23.699374],[121.297992,23.699556],[121.297698,23.699553],[121.297699,23.699462],[121.297502,23.69955],[121.297596,23.699822],[121.29789,23.699826],[121.297883,23.700367],[121.29798,23.700459],[121.298764,23.700467],[121.298669,23.700286],[121.298965,23.700108],[121.298871,23.699836],[121.298773,23.699835],[121.298779,23.699384],[121.299077,23.699026],[121.299082,23.698665],[121.299279,23.698577],[121.299282,23.698396],[121.299676,23.69822],[121.29958,23.698038],[121.299188,23.698034]]],[[[121.312558,23.687796],[121.312757,23.687617],[121.312465,23.687433],[121.312566,23.687164],[121.312179,23.686798],[121.31188,23.687156],[121.312075,23.687249],[121.312273,23.68707],[121.312368,23.687342],[121.312169,23.687521],[121.312267,23.687522],[121.312362,23.687794],[121.312461,23.687704],[121.312558,23.687796]]],[[[121.31138,23.687873],[121.311876,23.687427],[121.311586,23.687153],[121.311389,23.687241],[121.311483,23.687513],[121.311287,23.687511],[121.311186,23.687781],[121.31138,23.687873]]],[[[121.310636,23.69238],[121.311331,23.691755],[121.31104,23.691481],[121.310745,23.691568],[121.31026,23.691112],[121.309477,23.691013],[121.309376,23.691283],[121.309081,23.691279],[121.308987,23.691008],[121.308692,23.691095],[121.308694,23.690914],[121.308499,23.690822],[121.308397,23.691091],[121.308101,23.691269],[121.308197,23.69145],[121.308394,23.691362],[121.30849,23.691544],[121.308981,23.691459],[121.309077,23.691641],[121.309273,23.691643],[121.309563,23.691917],[121.309858,23.69192],[121.309953,23.692102],[121.310445,23.692017],[121.310442,23.692197],[121.310636,23.69238]],[[121.308591,23.691274],[121.308494,23.691183],[121.308592,23.691184],[121.308591,23.691274]]],[[[121.304759,23.691864],[121.304564,23.691772],[121.304464,23.691951],[121.304659,23.692044],[121.304759,23.691864]]],[[[121.303774,23.692215],[121.304364,23.692131],[121.304464,23.691951],[121.304367,23.69186],[121.303779,23.691854],[121.303778,23.691944],[121.303289,23.691848],[121.30319,23.691937],[121.303285,23.692119],[121.303481,23.692121],[121.30348,23.692211],[121.303775,23.692124],[121.303774,23.692215]]],[[[121.306516,23.692516],[121.306418,23.692515],[121.306421,23.692244],[121.306323,23.692243],[121.306229,23.691971],[121.30613,23.69206],[121.305936,23.691877],[121.305739,23.691965],[121.305928,23.692509],[121.306125,23.692421],[121.30622,23.692693],[121.306416,23.692695],[121.306516,23.692516]]],[[[121.304417,23.695563],[121.304715,23.695295],[121.304717,23.695115],[121.304228,23.695019],[121.304129,23.695108],[121.304323,23.695291],[121.304223,23.69547],[121.304417,23.695563]]],[[[121.303335,23.695822],[121.303042,23.695728],[121.302844,23.695907],[121.302842,23.696087],[121.302646,23.696085],[121.302249,23.696442],[121.302146,23.696802],[121.301749,23.697159],[121.301845,23.697341],[121.302041,23.697343],[121.302042,23.697252],[121.302436,23.697166],[121.302635,23.696898],[121.303028,23.696812],[121.302739,23.696447],[121.302838,23.696358],[121.303033,23.696451],[121.303232,23.696272],[121.303136,23.696091],[121.303333,23.696002],[121.303335,23.695822]],[[121.302738,23.696538],[121.302639,23.696627],[121.30264,23.696537],[121.302738,23.696538]],[[121.303136,23.696091],[121.303039,23.695999],[121.303137,23.696],[121.303136,23.696091]]]]}},{"type":"Feature","properties":{"kind":"water","month":"2019-11","area_ha":0.69},"geometry":{"type":"MultiPolygon","coordinates":[[[[121.308891,23.690826],[121.308697,23.690643],[121.308703,23.690192],[121.308509,23.690009],[121.308692,23.691095],[121.308888,23.691097],[121.308891,23.690826]]],[[[121.308394,23.691362],[121.308295,23.691451],[121.308099,23.691449],[121.308096,23.69163],[121.30839,23.691633],[121.308394,23.691362]]],[[[121.307801,23.691717],[121.307799,23.691898],[121.308094,23.69181],[121.308096,23.69163],[121.307801,23.691717]]],[[[121.306614,23.692517],[121.306814,23.692248],[121.307206,23.692252],[121.307014,23.691889],[121.306716,23.692247],[121.306522,23.692064],[121.306326,23.692062],[121.306418,23.692515],[121.306614,23.692517]]],[[[121.304323,23.695291],[121.304224,23.69538],[121.304322,23.695381],[121.304323,23.695291]]],[[[121.304025,23.695559],[121.303926,23.695648],[121.30373,23.695646],[121.303826,23.695827],[121.304122,23.69565],[121.304224,23.69538],[121.304028,23.695378],[121.304025,23.695559]]]]}}]}