{"type":"FeatureCollection","features":[{"type":"Feature","properties":{"kind":"bare_slide","month":"2020-05","area_ha":53.5},"geometry":{"type":"MultiPolygon","coordinates":[[[[121.28396,23.715203],[121.284356,23.714937],[121.284359,23.714756],[121.283971,23.71439],[121.283773,23.714569],[121.283285,23.714383],[121.282987,23.71465],[121.283079,23.715103],[121.283572,23.714928],[121.283569,23.715108],[121.283667,23.71511],[121.283469,23.715288],[121.283563,23.71556],[121.283858,23.715563],[121.28396,23.715203]]],[[[121.289139,23.716705],[121.289829,23.716442],[121.290118,23.716806],[121.29051,23.716811],[121.290611,23.716631],[121.290905,23.716634],[121.291401,23.716188],[121.291405,23.715918],[121.291602,23.715829],[121.291705,23.715469],[121.291901,23.715472],[121.292001,23.715292],[121.292295,23.715295],[121.292297,23.715205],[121.292883,23.715392],[121.292985,23.715032],[121.293183,23.714944],[121.293192,23.714222],[121.292997,23.714129],[121.293002,23.713768],[121.292905,23.713677],[121.292315,23.71376],[121.292018,23.714028],[121.291921,23.713937],[121.291822,23.714026],[121.291038,23.713927],[121.290741,23.714195],[121.290348,23.71419],[121.290248,23.71437],[121.289954,23.714366],[121.289655,23.714724],[121.289362,23.714631],[121.289063,23.714989],[121.288573,23.714983],[121.28847,23.715343],[121.28798,23.715338],[121.287983,23.715067],[121.288081,23.715068],[121.287986,23.714886],[121.287787,23.715065],[121.287101,23.715057],[121.286902,23.715236],[121.286999,23.715327],[121.2869,23.715416],[121.286896,23.715687],[121.286994,23.715688],[121.286893,23.715958],[121.28699,23.716049],[121.287187,23.715961],[121.287478,23.716235],[121.287571,23.716598],[121.28865,23.716609],[121.288842,23.716883],[121.289038,23.716885],[121.289139,23.716705]],[[121.288951,23.716071],[121.289051,23.715892],[121.289445,23.715806],[121.289442,23.715986],[121.289244,23.716165],[121.289048,23.716162],[121.288951,23.716071]],[[121.290425,23.715816],[121.290232,23.715634],[121.289741,23.715628],[121.289742,23.715538],[121.289941,23.71536],[121.290137,23.715362],[121.290237,23.715182],[121.290434,23.715184],[121.290633,23.714916],[121.291025,23.71492],[121.291024,23.71501],[121.291415,23.715105],[121.291313,23.715465],[121.291114,23.715643],[121.290918,23.715641],[121.290619,23.715999],[121.290423,23.715997],[121.290425,23.715816]],[[121.287188,23.715871],[121.287091,23.71578],[121.287189,23.715781],[121.287188,23.715871]],[[121.288465,23.715704],[121.288468,23.715524],[121.288666,23.715345],[121.288862,23.715348],[121.289056,23.71553],[121.289054,23.715711],[121.288855,23.715889],[121.288659,23.715887],[121.288465,23.715704]],[[121.291613,23.715017],[121.291806,23.7152],[121.29161,23.715197],[121.291613,23.715017]],[[121.289552,23.715084],[121.289555,23.714904],[121.289458,23.714812],[121.289751,23.714906],[121.289552,23.715084]],[[121.289751,23.714906],[121.28985,23.714817],[121.289849,23.714907],[121.289751,23.714906]],[[121.290144,23.71482],[121.290145,23.71473],[121.290341,23.714732],[121.29034,23.714822],[121.290144,23.71482]]],[[[121.285025,23.716298],[121.28522,23.716391],[121.285321,23.716121],[121.285619,23.715854],[121.285815,23.715856],[121.286015,23.715587],[121.285918,23.715496],[121.285525,23.715582],[121.285523,23.715672],[121.285327,23.71567],[121.285227,23.715849],[121.284834,23.715935],[121.284536,23.716203],[121.284728,23.716476],[121.284925,23.716478],[121.285025,23.716298]]],[[[121.289309,23.718694],[121.289411,23.718424],[121.289806,23.718157],[121.289811,23.717796],[121.289909,23.717797],[121.289817,23.717345],[121.290113,23.717167],[121.29002,23.716805],[121.289822,23.716984],[121.289527,23.71698],[121.28923,23.717248],[121.289227,23.717429],[121.289616,23.717704],[121.289614,23.717884],[121.288821,23.718508],[121.288819,23.718688],[121.289012,23.718871],[121.289309,23.718694]]],[[[121.283706,23.719625],[121.283903,23.719627],[121.284102,23.719358],[121.284297,23.719451],[121.284497,23.719182],[121.284693,23.719184],[121.284789,23.719366],[121.285084,23.719279],[121.284991,23.718917],[121.284498,23.719092],[121.28411,23.718726],[121.284309,23.718548],[121.284115,23.718365],[121.28412,23.718004],[121.284416,23.717827],[121.284223,23.717644],[121.284322,23.717555],[121.28433,23.716923],[121.284233,23.716831],[121.283741,23.717007],[121.283443,23.717274],[121.28334,23.717634],[121.283242,23.717633],[121.283239,23.717904],[121.283434,23.717996],[121.283334,23.718086],[121.283424,23.718719],[121.283128,23.718896],[121.283124,23.719167],[121.283221,23.719258],[121.283614,23.719172],[121.283706,23.719625]],[[121.284102,23.719358],[121.284005,23.719267],[121.284103,23.719268],[121.284102,23.719358]],[[121.283434,23.717996],[121.283533,23.717907],[121.283532,23.717998],[121.283434,23.717996]],[[121.283711,23.719264],[121.28381,23.719175],[121.283809,23.719265],[121.283711,23.719264]]],[[[121.282712,23.720697],[121.283606,23.719804],[121.283608,23.719624],[121.283217,23.719529],[121.283122,23.719347],[121.282824,23.719615],[121.282628,23.719613],[121.282428,23.719882],[121.281938,23.719876],[121.281937,23.719966],[121.281641,23.720053],[121.281636,23.720415],[121.282024,23.72078],[121.282416,23.720784],[121.282417,23.720694],[121.282712,23.720697]]],[[[121.284665,23.721351],[121.284362,23.72198],[121.284066,23.722157],[121.284063,23.722338],[121.284355,23.722522],[121.284459,23.722071],[121.284655,23.722073],[121.284656,23.721983],[121.284949,23.722077],[121.285051,23.721807],[121.285149,23.721808],[121.285153,23.721537],[121.285351,23.721359],[121.285843,23.721274],[121.285741,23.721544],[121.285643,23.721543],[121.285639,23.721813],[121.285442,23.721902],[121.28544,23.722082],[121.285241,23.722261],[121.285436,23.722353],[121.285626,23.722807],[121.285822,23.722809],[121.285924,23.722539],[121.28612,23.722541],[121.286418,23.722274],[121.286511,23.722636],[121.286215,23.722813],[121.28631,23.722995],[121.286802,23.72291],[121.286901,23.722821],[121.286805,23.722639],[121.287399,23.722284],[121.287205,23.722102],[121.287104,23.722281],[121.286909,23.722189],[121.286808,23.722459],[121.28671,23.722457],[121.286622,23.721644],[121.286919,23.721466],[121.286915,23.721737],[121.287305,23.721922],[121.287407,23.721652],[121.287702,23.721565],[121.287992,23.72193],[121.288482,23.721935],[121.288682,23.721667],[121.288389,23.721573],[121.288391,23.721392],[121.288688,23.721215],[121.288792,23.720765],[121.288988,23.720767],[121.289083,23.720949],[121.289183,23.720859],[121.289672,23.720955],[121.289668,23.721226],[121.28957,23.721225],[121.289663,23.721587],[121.290448,23.721596],[121.290747,23.721238],[121.290454,23.721144],[121.290379,23.719338],[121.290477,23.719339],[121.290579,23.719069],[121.290774,23.719161],[121.290775,23.719071],[121.291071,23.718984],[121.290976,23.718712],[121.291367,23.718807],[121.291566,23.718628],[121.291469,23.718537],[121.291471,23.718356],[121.291569,23.718357],[121.291475,23.718086],[121.291772,23.717818],[121.291285,23.717542],[121.291186,23.717631],[121.29128,23.717993],[121.291083,23.717991],[121.29089,23.717808],[121.290493,23.718165],[121.290297,23.718163],[121.290097,23.718431],[121.290195,23.718433],[121.290191,23.718703],[121.290386,23.718796],[121.290384,23.718976],[121.289895,23.718881],[121.289796,23.71897],[121.289989,23.719153],[121.289889,23.719332],[121.289103,23.719414],[121.28901,23.719052],[121.288814,23.719049],[121.288615,23.719228],[121.289097,23.719865],[121.28998,23.719875],[121.289978,23.720056],[121.289682,23.720143],[121.289582,23.720322],[121.28919,23.720318],[121.288991,23.720496],[121.287421,23.720569],[121.287422,23.720479],[121.287129,23.720385],[121.287132,23.720205],[121.287328,23.720207],[121.287526,23.720028],[121.287432,23.719756],[121.287334,23.719755],[121.287434,23.719576],[121.287337,23.719485],[121.287238,23.719574],[121.286749,23.719478],[121.286648,23.719657],[121.286354,23.719654],[121.285858,23.7201],[121.285952,23.720372],[121.286345,23.720377],[121.286444,23.720287],[121.286351,23.719925],[121.286547,23.719927],[121.286544,23.720108],[121.286739,23.7202],[121.286634,23.720741],[121.286436,23.720919],[121.285847,23.720913],[121.28546,23.720547],[121.285462,23.720367],[121.285659,23.720279],[121.285466,23.720096],[121.285464,23.720186],[121.285169,23.720273],[121.285167,23.720454],[121.285069,23.720453],[121.285164,23.720634],[121.284968,23.720632],[121.284671,23.7209],[121.284864,23.721082],[121.284862,23.721263],[121.284665,23.721351]],[[121.286807,23.722549],[121.286706,23.722728],[121.286608,23.722727],[121.286611,23.722547],[121.286807,23.722549]],[[121.284864,23.721082],[121.284964,23.720993],[121.284962,23.721084],[121.284864,23.721082]],[[121.284964,23.720993],[121.285063,23.720904],[121.285062,23.720994],[121.284964,23.720993]],[[121.289965,23.721049],[121.290064,23.720959],[121.290063,23.72105],[121.289965,23.721049]],[[121.289868,23.720957],[121.28987,23.720777],[121.289968,23.720778],[121.289966,23.720958],[121.289868,23.720957]],[[121.290265,23.720601],[121.290168,23.720509],[121.290266,23.72051],[121.290265,23.720601]],[[121.286941,23.719751],[121.286844,23.71966],[121.286942,23.719661],[121.286941,23.719751]],[[121.290885,23.718169],[121.290788,23.718078],[121.290886,23.718079],[121.290885,23.718169]]],[[[121.294317,23.725792],[121.294218,23.725791],[121.294417,23.725613],[121.294322,23.725341],[121.29452,23.725253],[121.294425,23.724981],[121.294327,23.72498],[121.294431,23.724529],[121.29473,23.724171],[121.295025,23.724084],[121.294833,23.723811],[121.294635,23.7239],[121.294547,23.723176],[121.294941,23.723],[121.295044,23.72264],[121.294751,23.722546],[121.294651,23.722726],[121.294455,23.722724],[121.294256,23.722902],[121.294253,23.723173],[121.293961,23.722989],[121.293871,23.722356],[121.293676,23.722264],[121.293679,23.721993],[121.293484,23.7219],[121.293487,23.72172],[121.293001,23.721353],[121.292915,23.720449],[121.29272,23.720357],[121.292521,23.720535],[121.292416,23.721076],[121.29222,23.721074],[121.292121,23.721163],[121.292217,23.721344],[121.292021,23.721342],[121.291821,23.721611],[121.292016,23.721703],[121.292012,23.721974],[121.292206,23.722157],[121.2925,23.72216],[121.292497,23.722431],[121.292789,23.722615],[121.29259,23.722793],[121.292588,23.722974],[121.292686,23.722975],[121.292587,23.723064],[121.292584,23.723245],[121.292682,23.723246],[121.292581,23.723516],[121.292774,23.723698],[121.292771,23.723969],[121.292965,23.724152],[121.293161,23.724154],[121.293159,23.724335],[121.293352,23.724517],[121.293646,23.724521],[121.29384,23.724703],[121.293833,23.725245],[121.294125,23.725429],[121.294123,23.72561],[121.29363,23.725785],[121.293723,23.726147],[121.29392,23.726149],[121.293922,23.725969],[121.294314,23.725973],[121.294317,23.725792]]],[[[121.292082,23.724142],[121.291993,23.723419],[121.291799,23.723326],[121.291699,23.723416],[121.291696,23.723686],[121.291794,23.723688],[121.291787,23.724229],[121.291688,23.724318],[121.291882,23.724411],[121.291984,23.724141],[121.292082,23.724142]]],[[[121.296863,23.726091],[121.296865,23.725911],[121.29667,23.725818],[121.296676,23.725367],[121.296383,23.725273],[121.296386,23.725002],[121.296583,23.725005],[121.29658,23.725185],[121.296775,23.725278],[121.297073,23.72501],[121.297075,23.724829],[121.297466,23.724924],[121.297863,23.724567],[121.297869,23.724116],[121.297674,23.724023],[121.297573,23.724293],[121.297176,23.72465],[121.296684,23.724735],[121.29669,23.724283],[121.296987,23.724106],[121.296989,23.723925],[121.297187,23.723747],[121.296894,23.723654],[121.296799,23.723472],[121.296603,23.72347],[121.296503,23.723559],[121.296596,23.724011],[121.296202,23.724097],[121.296102,23.724277],[121.295807,23.724274],[121.295707,23.724453],[121.295217,23.724448],[121.295116,23.724627],[121.294824,23.724443],[121.294724,23.724623],[121.29511,23.725079],[121.295502,23.725173],[121.2955,23.725264],[121.295205,23.725351],[121.295203,23.725531],[121.295105,23.72553],[121.2952,23.725712],[121.2953,23.725623],[121.295691,23.725717],[121.296078,23.726083],[121.296277,23.725904],[121.296473,23.725906],[121.29647,23.726087],[121.296372,23.726086],[121.296468,23.726267],[121.296863,23.726091]]],[[[121.291379,23.725399],[121.291281,23.725398],[121.291286,23.725036],[121.291579,23.72513],[121.29158,23.72504],[121.291875,23.724953],[121.291879,23.724682],[121.291781,23.724681],[121.291881,23.724501],[121.291784,23.72441],[121.290999,23.724491],[121.2908,23.72467],[121.290897,23.724761],[121.290891,23.725213],[121.291086,23.725305],[121.290985,23.725575],[121.291178,23.725758],[121.291376,23.72567],[121.291379,23.725399]]],[[[121.298645,23.702091],[121.298547,23.70209],[121.298647,23.702001],[121.298554,23.701549],[121.298948,23.701463],[121.298949,23.701372],[121.298753,23.70137],[121.298657,23.701188],[121.298069,23.701182],[121.298161,23.701634],[121.298356,23.701727],[121.298154,23.702176],[121.298348,23.702359],[121.298544,23.702361],[121.298645,23.702091]]],[[[121.298993,23.705526],[121.29939,23.70517],[121.299295,23.704898],[121.299,23.704985],[121.2989,23.705164],[121.298705,23.705072],[121.29861,23.7048],[121.298314,23.704977],[121.298309,23.705338],[121.298503,23.705521],[121.298993,23.705526]]],[[[121.303479,23.707472],[121.303679,23.707203],[121.303973,23.707207],[121.304469,23.70676],[121.304179,23.706396],[121.303982,23.706484],[121.30398,23.706665],[121.303782,23.706753],[121.303681,23.707023],[121.303387,23.70702],[121.303188,23.707198],[121.303283,23.70747],[121.303479,23.707472]]],[[[121.301984,23.709352],[121.302083,23.709263],[121.302089,23.708811],[121.302286,23.708723],[121.302096,23.70827],[121.302294,23.708091],[121.302588,23.708094],[121.302886,23.707827],[121.302889,23.707556],[121.302988,23.707557],[121.302697,23.707283],[121.3027,23.707012],[121.302507,23.706829],[121.302212,23.706826],[121.302117,23.706644],[121.301921,23.706642],[121.301722,23.706821],[121.301814,23.707273],[121.301616,23.707452],[121.301612,23.707722],[121.301711,23.707724],[121.301706,23.708085],[121.301804,23.708086],[121.301898,23.708358],[121.301602,23.708535],[121.301694,23.708988],[121.301497,23.709076],[121.301394,23.709436],[121.301491,23.709527],[121.301981,23.709532],[121.302081,23.709443],[121.301984,23.709352]]],[[[121.305061,23.714081],[121.305454,23.713995],[121.305362,23.713543],[121.305559,23.713455],[121.305562,23.713274],[121.304979,23.712816],[121.304879,23.712996],[121.30517,23.713179],[121.305168,23.71336],[121.304971,23.713448],[121.304965,23.7139],[121.304768,23.713988],[121.304765,23.714168],[121.30496,23.714261],[121.305061,23.714081]]],[[[121.305718,23.716346],[121.305622,23.716164],[121.30572,23.716165],[121.305724,23.715894],[121.305921,23.715806],[121.305923,23.715626],[121.305728,23.715533],[121.305731,23.715353],[121.305928,23.715265],[121.305935,23.714723],[121.305741,23.71454],[121.305545,23.714538],[121.305544,23.714628],[121.30525,23.714625],[121.305148,23.714895],[121.305537,23.71517],[121.30563,23.715532],[121.305333,23.7158],[121.305329,23.716071],[121.305033,23.716248],[121.30503,23.716429],[121.305516,23.716795],[121.30562,23.716345],[121.305718,23.716346]]],[[[121.303554,23.724449],[121.303459,23.724177],[121.303361,23.724176],[121.303475,23.722913],[121.303185,23.722639],[121.302982,23.723179],[121.302785,23.723176],[121.302592,23.722994],[121.302294,23.723261],[121.302188,23.723892],[121.302481,23.723986],[121.302672,23.724349],[121.302869,23.724261],[121.302874,23.7239],[121.30307,23.723902],[121.303161,23.724445],[121.303454,23.724538],[121.303554,23.724449]]],[[[121.302067,23.725607],[121.301969,23.725606],[121.302071,23.725336],[121.302169,23.725337],[121.302263,23.725609],[121.302461,23.725521],[121.302364,23.725429],[121.302465,23.72516],[121.302564,23.725161],[121.302469,23.724889],[121.302076,23.724975],[121.301877,23.725153],[121.301875,23.725334],[121.301578,23.725511],[121.301867,23.725966],[121.302064,23.725878],[121.302067,23.725607]]],[[[121.306051,23.72854],[121.30625,23.728271],[121.306055,23.728179],[121.305857,23.728357],[121.30596,23.727997],[121.305766,23.727814],[121.305771,23.727453],[121.305286,23.726996],[121.30509,23.726994],[121.304994,23.726813],[121.304798,23.726811],[121.304604,23.726628],[121.304712,23.725907],[121.30442,23.725723],[121.304221,23.725901],[121.304212,23.726624],[121.304503,23.726898],[121.304207,23.726985],[121.304203,23.727346],[121.304396,23.727529],[121.304889,23.727353],[121.305471,23.727902],[121.305367,23.728352],[121.30566,23.728445],[121.305659,23.728536],[121.305855,23.728538],[121.305856,23.728448],[121.306051,23.72854]]],[[[121.303213,23.728057],[121.303312,23.727968],[121.303216,23.727786],[121.30263,23.727599],[121.302632,23.727419],[121.30283,23.727331],[121.302734,23.727149],[121.302535,23.727328],[121.302144,23.727233],[121.301952,23.72696],[121.301756,23.726958],[121.301557,23.727136],[121.301652,23.727408],[121.30185,23.72723],[121.302044,23.727412],[121.302042,23.727593],[121.301746,23.72768],[121.301842,23.727862],[121.302136,23.727865],[121.30233,23.728048],[121.302624,23.728051],[121.302625,23.727961],[121.303213,23.728057]],[[121.302335,23.727687],[121.302434,23.727597],[121.302433,23.727688],[121.302335,23.727687]]]]}},{"type":"Feature","properties":{"kind":"bare_dam","month":"2020-05","area_ha":18.19},"geometry":{"type":"MultiPolygon","coordinates":[[[[121.298398,23.690891],[121.298495,23.690983],[121.298596,23.690803],[121.298207,23.690528],[121.298214,23.689986],[121.298313,23.689897],[121.298117,23.689895],[121.297819,23.690163],[121.297817,23.690343],[121.29762,23.690431],[121.297616,23.690702],[121.297714,23.690703],[121.297809,23.690975],[121.298398,23.690891]]],[[[121.303871,23.692306],[121.304165,23.692309],[121.304266,23.69213],[121.303781,23.691673],[121.303585,23.691671],[121.303489,23.691489],[121.303195,23.691486],[121.303197,23.691396],[121.302803,23.691482],[121.302707,23.6913],[121.302218,23.691204],[121.30222,23.691114],[121.302514,23.691117],[121.302513,23.691208],[121.302808,23.69112],[121.302615,23.690847],[121.302419,23.690845],[121.302422,23.690665],[121.30252,23.690666],[121.302522,23.690485],[121.303207,23.690583],[121.303306,23.690494],[121.303112,23.690311],[121.303214,23.690041],[121.30302,23.689859],[121.302334,23.689851],[121.302335,23.689761],[121.302138,23.689849],[121.302136,23.69003],[121.302039,23.689938],[121.301549,23.689933],[121.301937,23.690208],[121.301836,23.690478],[121.302129,23.690571],[121.302224,23.690753],[121.302028,23.690751],[121.301929,23.69084],[121.302025,23.691022],[121.301829,23.691019],[121.301728,23.691199],[121.30163,23.691198],[121.301634,23.690927],[121.30144,23.690744],[121.301244,23.690742],[121.301145,23.690831],[121.301142,23.691012],[121.301337,23.691104],[121.301236,23.691374],[121.301526,23.691648],[121.301722,23.69165],[121.301724,23.69156],[121.302115,23.691655],[121.302214,23.691565],[121.302408,23.691748],[121.302507,23.691659],[121.302996,23.691755],[121.303285,23.692119],[121.303481,23.692121],[121.303577,23.692303],[121.303676,23.692214],[121.303872,23.692216],[121.303871,23.692306]]],[[[121.299481,23.690542],[121.299381,23.690722],[121.298891,23.690716],[121.298593,23.690984],[121.298787,23.691167],[121.298785,23.691347],[121.29898,23.69144],[121.298976,23.691711],[121.298782,23.691528],[121.298389,23.691614],[121.29858,23.691977],[121.299364,23.692076],[121.299562,23.691898],[121.299467,23.691626],[121.299958,23.691631],[121.299959,23.691541],[121.300253,23.691544],[121.300254,23.691454],[121.300547,23.691547],[121.300745,23.691369],[121.300749,23.691098],[121.301045,23.690921],[121.300852,23.690738],[121.300856,23.690377],[121.300663,23.690194],[121.30027,23.69019],[121.299973,23.690457],[121.299971,23.690638],[121.299874,23.690546],[121.299481,23.690542]],[[121.299971,23.690638],[121.300067,23.690729],[121.299969,23.690728],[121.299971,23.690638]]],[[[121.303772,23.692395],[121.303673,23.692484],[121.30377,23.692576],[121.303666,23.693026],[121.303859,23.693209],[121.304154,23.693212],[121.304249,23.693394],[121.304448,23.693215],[121.304643,23.693308],[121.304742,23.693219],[121.304645,23.693127],[121.304748,23.692767],[121.304455,23.692674],[121.304456,23.692583],[121.304063,23.692669],[121.304064,23.692579],[121.303772,23.692395]],[[121.303966,23.692578],[121.303866,23.692667],[121.303868,23.692577],[121.303966,23.692578]],[[121.304351,23.693124],[121.304353,23.692943],[121.304549,23.692946],[121.304547,23.693126],[121.304351,23.693124]],[[121.303962,23.692849],[121.303865,23.692757],[121.303963,23.692759],[121.303962,23.692849]]],[[[121.299535,23.693974],[121.299828,23.694068],[121.299829,23.693977],[121.300024,23.69407],[121.300124,23.69389],[121.300028,23.693799],[121.29983,23.693887],[121.299444,23.693431],[121.298953,23.693516],[121.299054,23.693246],[121.298956,23.693245],[121.29896,23.692975],[121.298765,23.692882],[121.298666,23.692971],[121.298663,23.693152],[121.298857,23.693335],[121.298754,23.693695],[121.299047,23.693788],[121.299142,23.69406],[121.299534,23.694064],[121.299535,23.693974]]],[[[121.304717,23.695115],[121.304916,23.694936],[121.304431,23.694479],[121.303939,23.694655],[121.303934,23.695016],[121.304128,23.695198],[121.304423,23.695111],[121.304517,23.695474],[121.304714,23.695385],[121.304717,23.695115]]],[[[121.299062,23.7002],[121.298867,23.700107],[121.298777,23.699474],[121.299076,23.699116],[121.299081,23.698755],[121.299676,23.69822],[121.299383,23.698126],[121.299283,23.698306],[121.298695,23.698299],[121.298501,23.698117],[121.298503,23.697936],[121.298702,23.697758],[121.299095,23.697672],[121.299,23.6974],[121.299098,23.697401],[121.299102,23.69713],[121.2992,23.697131],[121.299205,23.69677],[121.298914,23.696496],[121.299024,23.695594],[121.298829,23.695501],[121.298831,23.695321],[121.298636,23.695228],[121.298542,23.694957],[121.298245,23.695134],[121.298148,23.695042],[121.298249,23.694863],[121.297956,23.694769],[121.297854,23.695039],[121.297657,23.695127],[121.297754,23.695219],[121.297646,23.69594],[121.29784,23.696123],[121.298036,23.696125],[121.298034,23.696305],[121.297936,23.696304],[121.298028,23.696757],[121.298126,23.696758],[121.298123,23.697029],[121.298318,23.697121],[121.298315,23.697302],[121.29851,23.697394],[121.298508,23.697575],[121.29841,23.697574],[121.298406,23.697845],[121.298308,23.697844],[121.298403,23.698115],[121.298205,23.698204],[121.298202,23.698474],[121.298004,23.698653],[121.298197,23.698836],[121.298195,23.699016],[121.298097,23.699015],[121.298095,23.699196],[121.297898,23.699194],[121.2977,23.699372],[121.297698,23.699553],[121.297499,23.699731],[121.297889,23.699916],[121.297883,23.700367],[121.29798,23.700459],[121.299157,23.700472],[121.299062,23.7002]],[[121.298389,23.699199],[121.298292,23.699108],[121.29839,23.699109],[121.298389,23.699199]]],[[[121.311591,23.686792],[121.311404,23.686067],[121.311209,23.685975],[121.31111,23.686064],[121.311201,23.686607],[121.311299,23.686608],[121.311393,23.68688],[121.311591,23.686792]]],[[[121.311479,23.687874],[121.311677,23.687696],[121.31168,23.687425],[121.311389,23.687241],[121.311289,23.68733],[121.311284,23.687782],[121.311479,23.687874]]],[[[121.312754,23.687798],[121.312852,23.687799],[121.312857,23.687438],[121.312663,23.687255],[121.312467,23.687253],[121.312269,23.687431],[121.312266,23.687612],[121.312461,23.687704],[121.312458,23.687975],[121.312653,23.688068],[121.312754,23.687798]]],[[[121.305345,23.692051],[121.305841,23.691605],[121.305748,23.691243],[121.30555,23.691421],[121.305353,23.691419],[121.305252,23.691689],[121.305055,23.691777],[121.305149,23.692049],[121.305345,23.692051]]],[[[121.310636,23.69238],[121.311331,23.691755],[121.311137,23.691573],[121.31055,23.691476],[121.310162,23.691111],[121.309379,23.691012],[121.309276,23.691372],[121.30908,23.69137],[121.308985,23.691188],[121.308787,23.691276],[121.308882,23.691548],[121.309078,23.69155],[121.30927,23.691823],[121.309467,23.691825],[121.309465,23.691916],[121.309662,23.691918],[121.31005,23.692193],[121.310442,23.692197],[121.310636,23.69238]]],[[[121.306616,23.692336],[121.306816,23.692067],[121.307109,23.692161],[121.307308,23.691892],[121.306917,23.691798],[121.306421,23.692244],[121.306616,23.692336]]],[[[121.305237,23.692863],[121.305434,23.692775],[121.305436,23.692594],[121.305338,23.692593],[121.305341,23.692412],[121.305538,23.692324],[121.305442,23.692143],[121.305246,23.69214],[121.304948,23.692408],[121.305045,23.692499],[121.304944,23.692769],[121.305041,23.692861],[121.305238,23.692773],[121.305237,23.692863]]]]}},{"type":"Feature","properties":{"kind":"water","month":"2020-05","area_ha":0.34},"geometry":{"type":"Polygon","coordinates":[[[121.303728,23.695826],[121.303834,23.695195],[121.304129,23.695108],[121.304126,23.695379],[121.304224,23.69538],[121.304226,23.6952],[121.304423,23.695111],[121.304419,23.695473],[121.304223,23.69547],[121.304022,23.695829],[121.303728,23.695826]]]}}]}