{"type":"FeatureCollection","features":[{"type":"Feature","properties":{"kind":"bare_slide","month":"2020-04","area_ha":13.95},"geometry":{"type":"MultiPolygon","coordinates":[[[[121.298637,23.702723],[121.298638,23.702633],[121.299032,23.702547],[121.298941,23.702004],[121.299039,23.702005],[121.299145,23.701374],[121.298753,23.70137],[121.298657,23.701188],[121.298069,23.701182],[121.298065,23.701453],[121.298259,23.701636],[121.298256,23.701906],[121.298058,23.701995],[121.298245,23.702719],[121.298342,23.70281],[121.298637,23.702723]]],[[[121.299188,23.705619],[121.299095,23.705257],[121.299193,23.705258],[121.299196,23.704987],[121.299494,23.704719],[121.2995,23.704268],[121.299598,23.704269],[121.299601,23.703998],[121.299699,23.703999],[121.299702,23.703819],[121.299411,23.703545],[121.299115,23.703722],[121.299202,23.704536],[121.299104,23.704534],[121.299,23.704985],[121.298902,23.704984],[121.298995,23.705346],[121.298798,23.705434],[121.298893,23.705706],[121.299188,23.705619]]],[[[121.297474,23.709212],[121.297774,23.708764],[121.298168,23.708678],[121.298176,23.708046],[121.298078,23.708045],[121.298085,23.707503],[121.297988,23.707412],[121.297497,23.707497],[121.297396,23.707676],[121.297101,23.707763],[121.297293,23.708036],[121.297883,23.707952],[121.297877,23.708404],[121.297484,23.70849],[121.297381,23.70885],[121.297184,23.708938],[121.29728,23.709029],[121.29718,23.709209],[121.297277,23.7093],[121.297474,23.709212]]],[[[121.298137,23.711025],[121.298434,23.710848],[121.29844,23.710397],[121.298342,23.710395],[121.298248,23.710033],[121.298053,23.709941],[121.298056,23.70976],[121.297861,23.709668],[121.297766,23.709396],[121.297667,23.709485],[121.297374,23.709392],[121.297174,23.70966],[121.297467,23.709754],[121.297464,23.710025],[121.297659,23.710117],[121.297655,23.710388],[121.297947,23.710572],[121.297943,23.710843],[121.298137,23.711025]]],[[[121.301368,23.711422],[121.301175,23.711239],[121.301177,23.711059],[121.300982,23.710966],[121.300984,23.710786],[121.30011,23.710144],[121.300114,23.709873],[121.29992,23.70969],[121.299626,23.709687],[121.299526,23.709776],[121.29962,23.710139],[121.299913,23.710232],[121.300299,23.710688],[121.300495,23.71069],[121.300689,23.710873],[121.300782,23.711235],[121.300979,23.711237],[121.301171,23.71151],[121.301368,23.711422]]],[[[121.301424,23.714673],[121.301423,23.714764],[121.30162,23.714676],[121.301527,23.714313],[121.301625,23.714314],[121.30173,23.713774],[121.301928,23.713686],[121.301931,23.713415],[121.302226,23.713328],[121.302229,23.713147],[121.302034,23.713055],[121.302135,23.712785],[121.301842,23.712691],[121.301747,23.71251],[121.30155,23.712508],[121.301555,23.712146],[121.30136,23.712054],[121.301259,23.712324],[121.300962,23.712501],[121.301057,23.712773],[121.300859,23.712861],[121.300857,23.713042],[121.300955,23.713043],[121.300949,23.713494],[121.301047,23.713495],[121.301141,23.713858],[121.301336,23.71395],[121.301332,23.714221],[121.301033,23.714579],[121.301227,23.714762],[121.301424,23.714673]]],[[[121.294059,23.715405],[121.293964,23.715223],[121.294955,23.714422],[121.294957,23.714241],[121.295255,23.713973],[121.295747,23.713798],[121.29585,23.713438],[121.296247,23.713081],[121.296252,23.71272],[121.296847,23.712185],[121.296944,23.712276],[121.297043,23.712187],[121.297632,23.712194],[121.297729,23.712285],[121.298026,23.712017],[121.298128,23.711748],[121.297934,23.711565],[121.297738,23.711563],[121.297538,23.711831],[121.296755,23.711733],[121.296651,23.712183],[121.296258,23.712269],[121.295862,23.712535],[121.295957,23.712807],[121.295662,23.712804],[121.295265,23.713161],[121.294774,23.713246],[121.294475,23.713604],[121.294181,23.7136],[121.294082,23.71369],[121.294176,23.713962],[121.293978,23.71414],[121.293782,23.714138],[121.293493,23.713683],[121.293296,23.713771],[121.293389,23.714133],[121.292994,23.7144],[121.29299,23.714671],[121.292792,23.714849],[121.292889,23.714941],[121.29338,23.714856],[121.293768,23.715221],[121.293862,23.715493],[121.294059,23.715405]]],[[[121.298381,23.714911],[121.298186,23.714818],[121.298285,23.714729],[121.298188,23.714638],[121.298292,23.714188],[121.297807,23.713821],[121.297712,23.713549],[121.297515,23.713637],[121.297407,23.714358],[121.29711,23.714626],[121.296617,23.714801],[121.296908,23.715075],[121.297105,23.714987],[121.297107,23.714807],[121.297696,23.714813],[121.298083,23.715179],[121.298279,23.715181],[121.298381,23.714911]]],[[[121.282415,23.720875],[121.282713,23.720607],[121.282035,23.719968],[121.28164,23.720144],[121.281636,23.720415],[121.281735,23.720416],[121.281829,23.720688],[121.282025,23.72069],[121.282219,23.720873],[121.282415,23.720875]]]]}},{"type":"Feature","properties":{"kind":"bare_dam","month":"2020-04","area_ha":26.41},"geometry":{"type":"MultiPolygon","coordinates":[[[[121.302522,23.690485],[121.302523,23.690395],[121.302718,23.690487],[121.302818,23.690308],[121.302721,23.690217],[121.302622,23.690306],[121.302231,23.690211],[121.30223,23.690301],[121.301935,23.690389],[121.302031,23.69057],[121.302522,23.690485]]],[[[121.298004,23.691068],[121.2983,23.69089],[121.298207,23.690528],[121.298503,23.690351],[121.298506,23.69017],[121.298408,23.690169],[121.298509,23.689899],[121.298117,23.689895],[121.297919,23.690074],[121.298013,23.690345],[121.297616,23.690702],[121.297808,23.691066],[121.298004,23.691068]]],[[[121.302122,23.691113],[121.301829,23.691019],[121.30163,23.691198],[121.301439,23.690835],[121.301143,23.690922],[121.301247,23.690471],[121.300758,23.690376],[121.300663,23.690194],[121.300467,23.690192],[121.300366,23.690371],[121.29919,23.690358],[121.29909,23.690448],[121.299185,23.69072],[121.298689,23.691166],[121.298787,23.691167],[121.298783,23.691438],[121.299076,23.691531],[121.299172,23.691713],[121.299371,23.691534],[121.299958,23.691631],[121.299959,23.691541],[121.300351,23.691545],[121.300352,23.691455],[121.300449,23.691546],[121.301333,23.691466],[121.301623,23.69174],[121.30192,23.691562],[121.301918,23.691653],[121.303093,23.691846],[121.303479,23.692302],[121.303774,23.692215],[121.303966,23.692578],[121.304162,23.69258],[121.304557,23.692314],[121.304366,23.69195],[121.303974,23.691946],[121.303878,23.691764],[121.303682,23.691762],[121.303586,23.691581],[121.30339,23.691578],[121.303197,23.691396],[121.302803,23.691482],[121.302707,23.6913],[121.302217,23.691295],[121.302122,23.691113]],[[121.302217,23.691295],[121.302118,23.691384],[121.302119,23.691294],[121.302217,23.691295]],[[121.299863,23.691359],[121.299766,23.691268],[121.299864,23.691269],[121.299863,23.691359]]],[[[121.30169,23.694178],[121.301495,23.694086],[121.301497,23.693905],[121.301303,23.693723],[121.301107,23.693721],[121.301013,23.693449],[121.300525,23.693263],[121.300527,23.693082],[121.300333,23.692899],[121.300434,23.69272],[121.30024,23.692537],[121.299946,23.692534],[121.299558,23.692168],[121.299165,23.692254],[121.299068,23.692163],[121.299169,23.691984],[121.298876,23.69189],[121.298684,23.691527],[121.298487,23.691615],[121.298677,23.692068],[121.298383,23.692065],[121.298096,23.69152],[121.297899,23.691608],[121.298089,23.692062],[121.298187,23.692063],[121.298184,23.692334],[121.29828,23.692425],[121.298576,23.692338],[121.298472,23.692789],[121.298667,23.692881],[121.298663,23.693152],[121.299052,23.693427],[121.298852,23.693696],[121.299337,23.694153],[121.29963,23.694246],[121.29973,23.694067],[121.300024,23.69407],[121.300023,23.69416],[121.300414,23.694255],[121.300516,23.693985],[121.300614,23.693986],[121.300805,23.694349],[121.301197,23.694354],[121.301391,23.694536],[121.301686,23.694449],[121.30169,23.694178]],[[121.301298,23.694174],[121.301201,23.694083],[121.301299,23.694084],[121.301298,23.694174]],[[121.299444,23.693431],[121.299442,23.693612],[121.299246,23.69361],[121.299247,23.693519],[121.299444,23.693431]]],[[[121.304644,23.693217],[121.304546,23.693216],[121.30445,23.693035],[121.304253,23.693123],[121.304445,23.693396],[121.304644,23.693217]]],[[[121.302534,23.697168],[121.303027,23.696902],[121.302934,23.69654],[121.303031,23.696631],[121.303228,23.696543],[121.303232,23.696272],[121.303038,23.696089],[121.302644,23.696175],[121.302047,23.696891],[121.302143,23.697073],[121.302438,23.696986],[121.302534,23.697168]]],[[[121.299062,23.7002],[121.298964,23.700199],[121.298775,23.699655],[121.298873,23.699656],[121.298877,23.699385],[121.299075,23.699206],[121.299081,23.698755],[121.299278,23.698667],[121.29928,23.698486],[121.299477,23.698488],[121.299675,23.69831],[121.29987,23.698402],[121.300168,23.698135],[121.300462,23.698138],[121.300557,23.69832],[121.301048,23.698325],[121.301545,23.697789],[121.30135,23.697696],[121.30145,23.697517],[121.301157,23.697423],[121.301057,23.697603],[121.300666,23.697508],[121.300268,23.697955],[121.299191,23.697853],[121.299189,23.697944],[121.298894,23.698031],[121.298798,23.697849],[121.298996,23.697761],[121.298999,23.69749],[121.299198,23.697312],[121.299101,23.69722],[121.299205,23.69677],[121.298913,23.696586],[121.299024,23.695594],[121.298635,23.695319],[121.298541,23.695047],[121.298244,23.695224],[121.297953,23.69495],[121.297755,23.695128],[121.297746,23.695851],[121.297646,23.69594],[121.29784,23.696123],[121.298036,23.696125],[121.298123,23.697029],[121.29851,23.697394],[121.298505,23.697755],[121.298307,23.697934],[121.298698,23.698028],[121.298696,23.698209],[121.298399,23.698386],[121.298496,23.698478],[121.298395,23.698747],[121.298201,23.698565],[121.298004,23.698653],[121.298197,23.698836],[121.298195,23.699016],[121.297302,23.699819],[121.297399,23.69991],[121.297889,23.699916],[121.297883,23.700367],[121.29798,23.700459],[121.299157,23.700472],[121.299062,23.7002]]],[[[121.312266,23.687612],[121.312461,23.687704],[121.312458,23.687975],[121.312653,23.688068],[121.312754,23.687798],[121.312852,23.687799],[121.31276,23.687346],[121.312468,23.687163],[121.312278,23.686709],[121.311984,23.686706],[121.311983,23.686796],[121.311687,23.686883],[121.31169,23.686703],[121.3114,23.686338],[121.311404,23.686067],[121.311209,23.685975],[121.311106,23.686335],[121.311204,23.686336],[121.311294,23.686969],[121.311392,23.68697],[121.311284,23.687782],[121.311479,23.687874],[121.311875,23.687517],[121.311781,23.687245],[121.311977,23.687248],[121.312266,23.687612]],[[121.312171,23.68743],[121.31227,23.687341],[121.312269,23.687431],[121.312171,23.68743]]],[[[121.310684,23.688678],[121.310979,23.688591],[121.311177,23.688413],[121.311083,23.688141],[121.310589,23.688406],[121.310587,23.688587],[121.310684,23.688678]]],[[[121.31049,23.688496],[121.310292,23.688674],[121.310487,23.688766],[121.310587,23.688587],[121.31049,23.688496]]],[[[121.308989,23.690827],[121.309088,23.690738],[121.309091,23.690557],[121.308897,23.690374],[121.308701,23.690372],[121.308502,23.690551],[121.308596,23.690913],[121.308989,23.690827]]],[[[121.310734,23.692381],[121.311331,23.691755],[121.311137,23.691573],[121.310452,23.691475],[121.310162,23.691111],[121.309868,23.691107],[121.309867,23.691198],[121.309378,23.691102],[121.309279,23.691191],[121.309374,23.691373],[121.30908,23.69137],[121.308986,23.691098],[121.308788,23.691186],[121.308693,23.691004],[121.308497,23.691002],[121.308395,23.691272],[121.308198,23.69136],[121.30839,23.691633],[121.30898,23.691549],[121.309367,23.691915],[121.309563,23.691917],[121.309562,23.692007],[121.309758,23.692009],[121.310147,23.692284],[121.310734,23.692381]]],[[[121.304843,23.692949],[121.305432,23.692955],[121.305531,23.692866],[121.305436,23.692594],[121.305338,23.692593],[121.305341,23.692412],[121.305538,23.692324],[121.305344,23.692142],[121.305346,23.691961],[121.305834,23.692147],[121.305829,23.692598],[121.305925,23.69269],[121.306418,23.692515],[121.306224,23.692332],[121.306424,23.692063],[121.305936,23.691877],[121.305747,23.691333],[121.305452,23.69142],[121.305253,23.691599],[121.305251,23.691779],[121.304954,23.691957],[121.305148,23.692139],[121.305146,23.69232],[121.304948,23.692408],[121.305043,23.69268],[121.304452,23.692854],[121.304547,23.693126],[121.304743,23.693128],[121.304843,23.692949]]],[[[121.304121,23.69574],[121.304614,23.695565],[121.304715,23.695295],[121.304813,23.695296],[121.304817,23.695025],[121.305213,23.694669],[121.305509,23.694581],[121.305414,23.69431],[121.30581,23.694043],[121.305716,23.693681],[121.30532,23.694038],[121.30463,23.694301],[121.304331,23.694659],[121.303938,23.694745],[121.304032,23.695017],[121.303737,23.695104],[121.303637,23.695283],[121.303735,23.695284],[121.30373,23.695646],[121.303827,23.695737],[121.304122,23.69565],[121.304121,23.69574]],[[121.305314,23.694489],[121.305217,23.694398],[121.305315,23.694399],[121.305314,23.694489]]]]}},{"type":"Feature","properties":{"kind":"water","month":"2020-04","area_ha":0.42},"geometry":{"type":"Polygon","coordinates":[[[121.290078,23.697301],[121.289888,23.696848],[121.289111,23.696297],[121.289114,23.696026],[121.288918,23.696024],[121.289019,23.695845],[121.289215,23.695847],[121.289408,23.69603],[121.28921,23.696208],[121.289406,23.69621],[121.289792,23.696666],[121.290085,23.69676],[121.290083,23.69694],[121.290278,23.697033],[121.290275,23.697213],[121.290078,23.697301]]]}}]}