{"type":"FeatureCollection","features":[{"type":"Feature","properties":{"kind":"bare_slide","month":"2020-12","area_ha":15.42},"geometry":{"type":"MultiPolygon","coordinates":[[[[121.297147,23.711737],[121.29675,23.712094],[121.296847,23.712185],[121.297241,23.712099],[121.297239,23.712189],[121.297729,23.712285],[121.298426,23.71148],[121.298436,23.710667],[121.298338,23.710666],[121.298441,23.710306],[121.29805,23.710212],[121.297857,23.709939],[121.297562,23.710026],[121.297751,23.71057],[121.297946,23.710662],[121.297943,23.710843],[121.297746,23.710931],[121.297837,23.711474],[121.297538,23.711831],[121.297147,23.711737]],[[121.297538,23.711831],[121.297635,23.711923],[121.297537,23.711922],[121.297538,23.711831]],[[121.298033,23.711476],[121.297935,23.711475],[121.297938,23.711294],[121.298036,23.711295],[121.298033,23.711476]],[[121.29824,23.710665],[121.298142,23.710664],[121.298144,23.710484],[121.298242,23.710485],[121.29824,23.710665]]],[[[121.295649,23.713797],[121.295946,23.71362],[121.296051,23.713079],[121.296248,23.712991],[121.296252,23.71272],[121.29635,23.712721],[121.296257,23.712359],[121.295961,23.712446],[121.29586,23.712716],[121.295664,23.712714],[121.295465,23.712892],[121.295558,23.713254],[121.295361,23.713343],[121.295359,23.713523],[121.295649,23.713797]],[[121.295755,23.713257],[121.295658,23.713165],[121.295756,23.713166],[121.295755,23.713257]]],[[[121.289162,23.714899],[121.289856,23.714365],[121.28976,23.714184],[121.289562,23.714362],[121.289269,23.714269],[121.289267,23.714359],[121.288581,23.714351],[121.288482,23.71444],[121.288868,23.714896],[121.288967,23.714807],[121.289163,23.714809],[121.289162,23.714899]]],[[[121.288442,23.71751],[121.288441,23.7176],[121.288637,23.717603],[121.289233,23.716977],[121.290214,23.716988],[121.290311,23.717079],[121.29041,23.71699],[121.290417,23.716448],[121.290814,23.716092],[121.290717,23.716],[121.290618,23.716089],[121.29003,23.716083],[121.289643,23.715627],[121.289349,23.715624],[121.289249,23.715803],[121.289542,23.715897],[121.28954,23.715987],[121.289044,23.716433],[121.288652,23.716429],[121.288557,23.716157],[121.288261,23.716334],[121.288256,23.716695],[121.288451,23.716788],[121.288449,23.716968],[121.288251,23.717057],[121.288248,23.717327],[121.288049,23.717506],[121.288146,23.717597],[121.288442,23.71751]],[[121.289928,23.716353],[121.289732,23.716351],[121.289734,23.71617],[121.28993,23.716172],[121.289928,23.716353]]],[[[121.291764,23.71845],[121.292261,23.717914],[121.292457,23.717916],[121.292656,23.717737],[121.292949,23.717831],[121.293049,23.717651],[121.292856,23.717469],[121.292463,23.717464],[121.292271,23.717191],[121.292075,23.717189],[121.291975,23.717278],[121.291967,23.71791],[121.291571,23.718177],[121.291569,23.718357],[121.291764,23.71845]]],[[[121.290967,23.719434],[121.291263,23.719257],[121.291171,23.718805],[121.290975,23.718802],[121.290976,23.718712],[121.290583,23.718798],[121.290587,23.718437],[121.290785,23.718349],[121.290787,23.718168],[121.290592,23.718076],[121.290591,23.718166],[121.290197,23.718252],[121.290097,23.718431],[121.290292,23.718524],[121.290288,23.718795],[121.290482,23.718978],[121.290282,23.719246],[121.290379,23.719338],[121.290577,23.719249],[121.29077,23.719432],[121.290967,23.719434]]],[[[121.298556,23.701458],[121.299041,23.701825],[121.299243,23.701375],[121.298753,23.70137],[121.298657,23.701188],[121.298363,23.701185],[121.298362,23.701275],[121.298167,23.701183],[121.298068,23.701272],[121.298064,23.701543],[121.298259,23.701636],[121.298155,23.702086],[121.29835,23.702178],[121.298246,23.702629],[121.298441,23.702721],[121.29834,23.702991],[121.298533,23.703174],[121.298625,23.703626],[121.299112,23.703902],[121.299106,23.704354],[121.299204,23.704355],[121.299102,23.704715],[121.299395,23.704809],[121.299593,23.70463],[121.299597,23.704359],[121.299695,23.70436],[121.299701,23.703909],[121.299314,23.703453],[121.299019,23.70354],[121.299025,23.703089],[121.298732,23.702995],[121.298538,23.702813],[121.298638,23.702633],[121.298443,23.702541],[121.298445,23.70245],[121.298641,23.702452],[121.298736,23.702634],[121.299032,23.702547],[121.298935,23.702456],[121.299038,23.702096],[121.298747,23.701822],[121.298454,23.701728],[121.298556,23.701458]],[[121.298556,23.701458],[121.298459,23.701367],[121.298557,23.701368],[121.298556,23.701458]],[[121.299406,23.703906],[121.299307,23.703995],[121.299308,23.703905],[121.299406,23.703906]]],[[[121.29879,23.706066],[121.298595,23.705974],[121.298793,23.705795],[121.2987,23.705433],[121.298504,23.705431],[121.298306,23.705609],[121.298303,23.70579],[121.298206,23.705698],[121.297813,23.705784],[121.297907,23.706056],[121.298104,23.706059],[121.298492,23.706334],[121.298688,23.706336],[121.29879,23.706066]]],[[[121.301529,23.714133],[121.301728,23.713954],[121.301731,23.713684],[121.302128,23.713327],[121.302131,23.713146],[121.301936,23.713054],[121.301939,23.712783],[121.30126,23.712234],[121.301061,23.712412],[121.301057,23.712773],[121.300959,23.712772],[121.300949,23.713494],[121.301239,23.713859],[121.301232,23.7144],[121.301134,23.714399],[121.301228,23.714671],[121.301524,23.714584],[121.301529,23.714133]]],[[[121.29771,23.71373],[121.297513,23.713818],[121.297608,23.713999],[121.297411,23.714088],[121.297409,23.714268],[121.297211,23.714356],[121.29711,23.714626],[121.297501,23.714721],[121.2975,23.714811],[121.297794,23.714814],[121.29789,23.714996],[121.298086,23.714998],[121.298279,23.715181],[121.298381,23.714911],[121.298088,23.714817],[121.298291,23.714278],[121.29771,23.71373]],[[121.297806,23.713911],[121.297706,23.714],[121.297707,23.71391],[121.297806,23.713911]]],[[[121.302871,23.724171],[121.302972,23.723901],[121.303167,23.723993],[121.303366,23.723815],[121.303371,23.723364],[121.303176,23.723271],[121.303376,23.723002],[121.303083,23.722909],[121.302984,23.722998],[121.303078,23.72327],[121.302881,23.723358],[121.302788,23.722996],[121.302496,23.722812],[121.302393,23.723172],[121.302097,23.72335],[121.302094,23.72353],[121.302192,23.723531],[121.302091,23.723801],[121.302381,23.724075],[121.302578,23.724077],[121.302673,23.724259],[121.302871,23.724171]]],[[[121.305863,23.727906],[121.305572,23.727632],[121.305576,23.727361],[121.305091,23.726904],[121.3047,23.726809],[121.304702,23.726629],[121.304604,23.726628],[121.304709,23.726087],[121.304417,23.725903],[121.304218,23.726172],[121.304316,23.726173],[121.304309,23.726715],[121.304504,23.726807],[121.304502,23.726988],[121.304304,23.727076],[121.304203,23.727346],[121.304594,23.72744],[121.304695,23.727171],[121.304793,23.727172],[121.304792,23.727262],[121.304988,23.727264],[121.305082,23.727626],[121.305471,23.727902],[121.305565,23.728173],[121.305761,23.728176],[121.305863,23.727906]]]]}},{"type":"Feature","properties":{"kind":"bare_dam","month":"2020-12","area_ha":3.19},"geometry":{"type":"MultiPolygon","coordinates":[[[[121.29811,23.690437],[121.298308,23.690258],[121.298503,23.690351],[121.298702,23.690172],[121.299192,23.690178],[121.299289,23.690269],[121.299492,23.68973],[121.298904,23.689723],[121.298903,23.689813],[121.298708,23.689721],[121.298607,23.6899],[121.298411,23.689898],[121.298311,23.690078],[121.298016,23.690165],[121.298013,23.690345],[121.29811,23.690437]]],[[[121.310636,23.69238],[121.31123,23.691935],[121.311233,23.691754],[121.310938,23.691751],[121.310542,23.692108],[121.310636,23.69238]]],[[[121.307304,23.692253],[121.307306,23.692073],[121.307112,23.69189],[121.306818,23.691887],[121.306819,23.691797],[121.306622,23.691885],[121.307009,23.69234],[121.307304,23.692253]]],[[[121.306515,23.692606],[121.306619,23.692156],[121.306424,23.692063],[121.306323,23.692243],[121.306127,23.69224],[121.305929,23.692419],[121.305922,23.692961],[121.306117,23.693053],[121.306315,23.692875],[121.306318,23.692694],[121.306515,23.692606]],[[121.306318,23.692694],[121.306221,23.692603],[121.306319,23.692604],[121.306318,23.692694]]],[[[121.305213,23.694669],[121.30512,23.694306],[121.305414,23.69431],[121.305613,23.694131],[121.305517,23.693949],[121.305321,23.693947],[121.30522,23.694127],[121.305024,23.694125],[121.304826,23.694303],[121.304822,23.694574],[121.305016,23.694757],[121.305213,23.694669]]],[[[121.299871,23.698312],[121.30007,23.698134],[121.301049,23.698235],[121.301645,23.697609],[121.301452,23.697427],[121.301157,23.697423],[121.301056,23.697693],[121.300861,23.697601],[121.300761,23.69778],[121.300664,23.697689],[121.30027,23.697775],[121.299775,23.698131],[121.299871,23.698312]],[[121.301055,23.697783],[121.300955,23.697873],[121.300957,23.697782],[121.301055,23.697783]]],[[[121.298373,23.700373],[121.298671,23.700105],[121.29838,23.699831],[121.298383,23.69965],[121.298286,23.699559],[121.297992,23.699556],[121.297991,23.699646],[121.2976,23.699551],[121.2975,23.699641],[121.297596,23.699822],[121.29789,23.699826],[121.297891,23.699735],[121.298184,23.699829],[121.298181,23.7001],[121.297986,23.700007],[121.297883,23.700367],[121.29798,23.700459],[121.29847,23.700464],[121.298373,23.700373]]]]}},{"type":"Feature","properties":{"kind":"water","month":"2020-12","area_ha":3.82},"geometry":{"type":"MultiPolygon","coordinates":[[[[121.304128,23.695198],[121.304225,23.69529],[121.304226,23.6952],[121.304128,23.695198]]],[[[121.303925,23.695738],[121.303729,23.695736],[121.303627,23.696006],[121.303823,23.696008],[121.303826,23.695827],[121.30412,23.69583],[121.304123,23.69556],[121.304221,23.695561],[121.304127,23.695289],[121.304029,23.695288],[121.303925,23.695738]]],[[[121.303033,23.696451],[121.303232,23.696272],[121.303235,23.696001],[121.303038,23.696089],[121.303034,23.69636],[121.302737,23.696628],[121.302734,23.696809],[121.30303,23.696721],[121.303033,23.696451]]],[[[121.302238,23.697255],[121.302634,23.696988],[121.302637,23.696717],[121.30234,23.696985],[121.302144,23.696983],[121.302042,23.697252],[121.302238,23.697255]]],[[[121.299285,23.698125],[121.299089,23.698123],[121.299087,23.698304],[121.299185,23.698305],[121.299285,23.698125]]],[[[121.299091,23.697942],[121.299679,23.698039],[121.299877,23.697861],[121.300269,23.697865],[121.30027,23.697775],[121.300564,23.697778],[121.300566,23.697688],[121.300761,23.69778],[121.300862,23.69751],[121.300372,23.697505],[121.300371,23.697595],[121.299882,23.6975],[121.299486,23.697766],[121.298405,23.697935],[121.298302,23.698295],[121.298204,23.698294],[121.298201,23.698565],[121.298002,23.698743],[121.298296,23.698746],[121.298586,23.699111],[121.298881,23.699024],[121.298879,23.699204],[121.298977,23.699205],[121.298982,23.698844],[121.298787,23.698752],[121.298789,23.698571],[121.298983,23.698754],[121.29918,23.698666],[121.299087,23.698304],[121.298989,23.698303],[121.299091,23.697942]],[[121.298887,23.698572],[121.298986,23.698483],[121.298985,23.698573],[121.298887,23.698572]],[[121.298493,23.698749],[121.298396,23.698657],[121.298494,23.698658],[121.298493,23.698749]],[[121.298793,23.6983],[121.298892,23.698211],[121.298891,23.698301],[121.298793,23.6983]],[[121.298794,23.69821],[121.298697,23.698119],[121.298795,23.69812],[121.298794,23.69821]],[[121.299484,23.697947],[121.299387,23.697855],[121.299485,23.697856],[121.299484,23.697947]]],[[[121.298781,23.699203],[121.298878,23.699295],[121.298879,23.699204],[121.298781,23.699203]]],[[[121.298859,23.700739],[121.298764,23.700467],[121.299057,23.700561],[121.29906,23.70038],[121.298866,23.700197],[121.29887,23.699927],[121.298676,23.699744],[121.298777,23.699474],[121.298584,23.699291],[121.298388,23.699289],[121.298386,23.699379],[121.298191,23.699287],[121.298091,23.699467],[121.297799,23.699283],[121.297698,23.699553],[121.298384,23.69956],[121.29838,23.699831],[121.298477,23.699922],[121.298675,23.699834],[121.298768,23.700196],[121.298474,23.700193],[121.298371,23.700553],[121.298469,23.700554],[121.298565,23.700736],[121.298859,23.700739]],[[121.298386,23.699379],[121.298483,23.699471],[121.298385,23.69947],[121.298386,23.699379]]],[[[121.298466,23.700825],[121.298468,23.700645],[121.29837,23.700643],[121.29827,23.700823],[121.298466,23.700825]]],[[[121.311586,23.687153],[121.311384,23.687602],[121.311581,23.687514],[121.311584,23.687334],[121.312172,23.68734],[121.311978,23.687157],[121.311586,23.687153]]],[[[121.312366,23.687523],[121.312368,23.687342],[121.312172,23.68734],[121.312171,23.68743],[121.312366,23.687523]]],[[[121.311083,23.688141],[121.310886,23.688229],[121.310883,23.68841],[121.311081,23.688321],[121.311083,23.688141]]],[[[121.310391,23.688585],[121.310685,23.688588],[121.310883,23.68841],[121.310491,23.688405],[121.310391,23.688585]]],[[[121.30829,23.691813],[121.308687,23.691456],[121.308889,23.691006],[121.308693,23.691004],[121.308591,23.691274],[121.308393,23.691453],[121.308197,23.69145],[121.308095,23.69172],[121.307899,23.691718],[121.307798,23.691988],[121.308092,23.691991],[121.308094,23.69181],[121.30829,23.691813]]],[[[121.306515,23.692606],[121.307009,23.69234],[121.30701,23.69225],[121.306814,23.692248],[121.306816,23.692067],[121.306718,23.692066],[121.306716,23.692247],[121.306519,23.692245],[121.306515,23.692606]]],[[[121.305412,23.69449],[121.305708,23.694313],[121.305816,23.693592],[121.305718,23.69359],[121.305613,23.694131],[121.305414,23.69431],[121.30512,23.694306],[121.305118,23.694487],[121.305412,23.69449]]],[[[121.304422,23.695202],[121.304722,23.694753],[121.304918,23.694756],[121.30492,23.694575],[121.304527,23.694661],[121.304525,23.694842],[121.304427,23.694841],[121.304424,23.695021],[121.304228,23.695019],[121.304226,23.6952],[121.304422,23.695202]]],[[[121.304224,23.69538],[121.304323,23.695291],[121.304225,23.69529],[121.304224,23.69538]]]]}}]}