{"type":"FeatureCollection","features":[{"type":"Feature","properties":{"kind":"bare_slide","month":"2020-08","area_ha":38.0},"geometry":{"type":"MultiPolygon","coordinates":[[[[121.294377,23.713603],[121.294181,23.7136],[121.293982,23.713779],[121.293492,23.713773],[121.293095,23.71413],[121.2929,23.714038],[121.293,23.713949],[121.292904,23.713767],[121.292705,23.713945],[121.292412,23.713852],[121.292312,23.714031],[121.292409,23.714123],[121.292704,23.714036],[121.293091,23.714491],[121.293288,23.714403],[121.293183,23.714944],[121.293574,23.715039],[121.293571,23.715219],[121.293863,23.715403],[121.293965,23.715133],[121.294063,23.715134],[121.29387,23.714861],[121.294066,23.714863],[121.294065,23.714954],[121.294459,23.714868],[121.294857,23.714421],[121.294761,23.714239],[121.294957,23.714241],[121.295256,23.713883],[121.295749,23.713708],[121.295751,23.713527],[121.295849,23.713529],[121.295952,23.713168],[121.296149,23.71308],[121.296153,23.712809],[121.296251,23.712811],[121.296453,23.712361],[121.296356,23.71227],[121.295962,23.712356],[121.295764,23.712534],[121.295762,23.712715],[121.295265,23.713161],[121.294774,23.713246],[121.294377,23.713603]],[[121.294674,23.713425],[121.29477,23.713517],[121.294672,23.713516],[121.294674,23.713425]],[[121.293873,23.714681],[121.293776,23.714589],[121.293874,23.71459],[121.293873,23.714681]],[[121.294365,23.714505],[121.294363,23.714686],[121.294265,23.714685],[121.294169,23.714503],[121.294365,23.714505]],[[121.294072,23.714412],[121.293975,23.714321],[121.294073,23.714322],[121.294072,23.714412]],[[121.293586,23.714136],[121.293682,23.714227],[121.293584,23.714226],[121.293586,23.714136]],[[121.293684,23.714137],[121.293783,23.714048],[121.293782,23.714138],[121.293684,23.714137]],[[121.294272,23.714143],[121.294175,23.714052],[121.294273,23.714053],[121.294272,23.714143]],[[121.294664,23.714148],[121.294567,23.714056],[121.294665,23.714057],[121.294664,23.714148]]],[[[121.28936,23.714811],[121.289062,23.715079],[121.288572,23.715074],[121.288472,23.715163],[121.288469,23.715434],[121.287973,23.71588],[121.28797,23.71606],[121.288068,23.716061],[121.288066,23.716242],[121.287869,23.71633],[121.287964,23.716512],[121.288461,23.716066],[121.288657,23.716068],[121.28885,23.716251],[121.288848,23.716431],[121.289043,23.716524],[121.289145,23.716254],[121.288951,23.716071],[121.289249,23.715803],[121.289445,23.715806],[121.289442,23.715986],[121.289245,23.716074],[121.289341,23.716256],[121.289537,23.716258],[121.289637,23.716079],[121.289931,23.716082],[121.29013,23.715903],[121.290034,23.715722],[121.28974,23.715719],[121.289742,23.715538],[121.29004,23.71527],[121.289943,23.715179],[121.289355,23.715173],[121.289454,23.715083],[121.28936,23.714811]],[[121.289355,23.715173],[121.289256,23.715262],[121.289257,23.715171],[121.289355,23.715173]],[[121.288858,23.715709],[121.288758,23.715798],[121.288759,23.715708],[121.288858,23.715709]],[[121.288858,23.715709],[121.288957,23.71562],[121.288956,23.71571],[121.288858,23.715709]],[[121.288957,23.71562],[121.289056,23.71553],[121.289055,23.715621],[121.288957,23.71562]]],[[[121.290009,23.717618],[121.290014,23.717257],[121.290211,23.717169],[121.290116,23.716987],[121.289724,23.716983],[121.289623,23.717162],[121.289231,23.717158],[121.28923,23.717248],[121.289036,23.717065],[121.288839,23.717153],[121.288933,23.717425],[121.289229,23.717338],[121.289126,23.717698],[121.289028,23.717697],[121.289123,23.717879],[121.28932,23.717881],[121.289518,23.717703],[121.289523,23.717342],[121.289621,23.717343],[121.289513,23.718064],[121.289707,23.718247],[121.289904,23.718158],[121.289911,23.717617],[121.290009,23.717618]]],[[[121.283423,23.718809],[121.283126,23.718986],[121.28322,23.719349],[121.283711,23.719264],[121.283712,23.719173],[121.284005,23.719267],[121.284106,23.719088],[121.284203,23.719179],[121.2844,23.719091],[121.284109,23.718817],[121.284112,23.718636],[121.28431,23.718458],[121.284115,23.718365],[121.284121,23.717914],[121.283926,23.717821],[121.28393,23.71755],[121.283832,23.717549],[121.283833,23.717459],[121.284128,23.717372],[121.284132,23.717101],[121.28423,23.717102],[121.284134,23.716921],[121.283839,23.717008],[121.283341,23.717544],[121.283339,23.717725],[121.283728,23.718],[121.283724,23.718271],[121.283429,23.718358],[121.283423,23.718809]],[[121.284106,23.719088],[121.284009,23.718996],[121.284107,23.718997],[121.284106,23.719088]],[[121.283833,23.717459],[121.283736,23.717368],[121.283834,23.717369],[121.283833,23.717459]],[[121.283724,23.718271],[121.283821,23.718362],[121.283723,23.718361],[121.283724,23.718271]]],[[[121.29079,23.717897],[121.290492,23.718255],[121.29,23.71834],[121.290194,23.718523],[121.29019,23.718794],[121.290385,23.718886],[121.290383,23.719067],[121.289992,23.718972],[121.289893,23.719061],[121.289987,23.719333],[121.289888,23.719422],[121.289595,23.719329],[121.289296,23.719687],[121.289587,23.719961],[121.28998,23.719875],[121.289977,23.720146],[121.289878,23.720145],[121.289971,23.720597],[121.289476,23.720953],[121.289568,23.721405],[121.28947,23.721404],[121.289467,23.721585],[121.28937,23.721494],[121.289173,23.721582],[121.289269,23.721763],[121.289368,23.721674],[121.289465,23.721766],[121.289956,23.721681],[121.289958,23.72159],[121.290447,23.721686],[121.290745,23.721418],[121.290649,23.721237],[121.290453,23.721235],[121.290379,23.719338],[121.290578,23.719159],[121.290872,23.719162],[121.291071,23.718984],[121.290976,23.718712],[121.29127,23.718715],[121.291372,23.718446],[121.291569,23.718357],[121.291473,23.718176],[121.291771,23.717908],[121.291478,23.717815],[121.291479,23.717724],[121.291675,23.717727],[121.291677,23.717636],[121.291871,23.717729],[121.292071,23.71746],[121.292267,23.717462],[121.292361,23.717824],[121.292754,23.717738],[121.29256,23.717556],[121.29247,23.716923],[121.292275,23.71683],[121.292174,23.7171],[121.291977,23.717188],[121.291974,23.717369],[121.291776,23.717547],[121.291483,23.717454],[121.291185,23.717721],[121.291183,23.717902],[121.291086,23.71781],[121.29079,23.717897]],[[121.290379,23.719338],[121.290282,23.719246],[121.290381,23.719247],[121.290379,23.719338]],[[121.291281,23.717903],[121.291278,23.718083],[121.291082,23.718081],[121.291083,23.717991],[121.291281,23.717903]],[[121.290166,23.72069],[121.290265,23.720601],[121.290264,23.720691],[121.290166,23.72069]]],[[[121.282712,23.720697],[121.282814,23.720337],[121.282912,23.720338],[121.282819,23.719976],[121.283015,23.719978],[121.283013,23.720159],[121.283208,23.720251],[121.283406,23.720073],[121.283409,23.719892],[121.283606,23.719804],[121.28351,23.719623],[121.283215,23.71971],[121.28312,23.719438],[121.282823,23.719705],[121.282627,23.719703],[121.282427,23.719972],[121.282035,23.719968],[121.282033,23.720058],[121.281738,23.720145],[121.281732,23.720596],[121.282023,23.72087],[121.282317,23.720874],[121.282417,23.720694],[121.282712,23.720697]]],[[[121.288482,23.721935],[121.28868,23.721757],[121.288585,23.721575],[121.288389,23.721573],[121.28849,23.721303],[121.288688,23.721215],[121.288693,23.720764],[121.2885,23.720581],[121.288302,23.720669],[121.288395,23.721122],[121.288097,23.721389],[121.288,23.721298],[121.287705,23.721385],[121.287609,23.721203],[121.287807,23.721025],[121.287514,23.720931],[121.287018,23.721377],[121.287015,23.721648],[121.286917,23.721647],[121.287011,23.721919],[121.28711,23.72183],[121.287305,23.721922],[121.287504,23.721744],[121.287506,23.721563],[121.287702,23.721565],[121.288089,23.722021],[121.288482,23.721935]]],[[[121.284854,23.721895],[121.284852,23.721985],[121.285049,23.721988],[121.285252,23.721448],[121.285546,23.721451],[121.285547,23.721361],[121.28604,23.721186],[121.286042,23.721005],[121.285752,23.720731],[121.285262,23.720635],[121.285261,23.720726],[121.284966,23.720813],[121.285059,23.721175],[121.284663,23.721441],[121.284661,23.721622],[121.284464,23.72171],[121.284362,23.72198],[121.284655,23.722073],[121.284854,23.721895]]],[[[121.29442,23.725342],[121.294424,23.725071],[121.294326,23.72507],[121.29443,23.72462],[121.294729,23.724262],[121.295024,23.724175],[121.294832,23.723902],[121.294635,23.7239],[121.294546,23.723266],[121.295039,23.723001],[121.295043,23.72273],[121.29475,23.722637],[121.294649,23.722816],[121.294453,23.722814],[121.294255,23.722992],[121.294352,23.723084],[121.294251,23.723263],[121.293959,23.723079],[121.293868,23.722537],[121.293575,23.722443],[121.293578,23.722262],[121.29348,23.722261],[121.293581,23.721992],[121.293,23.721443],[121.292915,23.720449],[121.29272,23.720357],[121.292618,23.720627],[121.29252,23.720625],[121.292415,23.721166],[121.29212,23.721253],[121.292215,23.721435],[121.29192,23.721522],[121.291917,23.721793],[121.292015,23.721794],[121.292011,23.722065],[121.292402,23.722159],[121.292691,23.722614],[121.293279,23.72262],[121.293473,23.722803],[121.293469,23.723074],[121.293858,23.723349],[121.29385,23.723981],[121.294045,23.724074],[121.29404,23.724435],[121.293743,23.724612],[121.293832,23.725335],[121.294125,23.725429],[121.294124,23.725519],[121.29442,23.725342]],[[121.294249,23.723444],[121.294347,23.723445],[121.294345,23.723625],[121.294247,23.723624],[121.294249,23.723444]]],[[[121.291992,23.723509],[121.291895,23.723418],[121.291698,23.723506],[121.291793,23.723778],[121.29199,23.72369],[121.291992,23.723509]]],[[[121.292082,23.724142],[121.292086,23.723871],[121.291891,23.723779],[121.291686,23.724409],[121.291881,23.724501],[121.291984,23.724141],[121.292082,23.724142]]],[[[121.291486,23.724768],[121.291482,23.725039],[121.291677,23.725131],[121.291875,23.724953],[121.291878,23.724772],[121.29178,23.724771],[121.29188,23.724592],[121.291489,23.724497],[121.29139,23.724586],[121.291387,23.724767],[121.291486,23.724768]]],[[[121.296864,23.726001],[121.296669,23.725909],[121.296672,23.725638],[121.296574,23.725637],[121.296675,23.725457],[121.296382,23.725364],[121.296286,23.725182],[121.29668,23.725096],[121.296579,23.725275],[121.296774,23.725368],[121.297074,23.72492],[121.297465,23.725014],[121.297862,23.724657],[121.297868,23.724206],[121.297673,23.724114],[121.297274,23.724651],[121.296781,23.724826],[121.296689,23.724374],[121.296985,23.724196],[121.297088,23.723836],[121.296699,23.723561],[121.2966,23.72365],[121.296594,23.724102],[121.296201,23.724188],[121.295804,23.724544],[121.295216,23.724538],[121.295214,23.724628],[121.294823,23.724534],[121.294723,23.724713],[121.295109,23.725169],[121.2956,23.725174],[121.2954,23.725443],[121.295693,23.725537],[121.295691,23.725717],[121.295884,23.7259],[121.296472,23.725997],[121.296566,23.726269],[121.296762,23.726271],[121.296864,23.726001]],[[121.296093,23.724909],[121.295997,23.724818],[121.296095,23.724819],[121.296093,23.724909]]],[[[121.301312,23.708171],[121.301022,23.707897],[121.300728,23.707893],[121.300729,23.707803],[121.30053,23.707981],[121.300041,23.707886],[121.300042,23.707796],[121.299845,23.707884],[121.299843,23.708064],[121.300133,23.708338],[121.300529,23.708072],[121.300528,23.708162],[121.300919,23.708257],[121.301015,23.708438],[121.301211,23.70844],[121.30131,23.708351],[121.301312,23.708171]]],[[[121.301368,23.711422],[121.301177,23.711059],[121.300885,23.710875],[121.300887,23.710694],[121.300694,23.710512],[121.300498,23.710509],[121.30011,23.710144],[121.300112,23.709963],[121.299628,23.709507],[121.299432,23.709504],[121.299337,23.709233],[121.299142,23.70914],[121.299042,23.70932],[121.299623,23.709868],[121.29962,23.710139],[121.299913,23.710232],[121.300397,23.710689],[121.300593,23.710691],[121.300782,23.711235],[121.300979,23.711237],[121.301171,23.71151],[121.301368,23.711422]]],[[[121.297729,23.712285],[121.298127,23.711838],[121.298031,23.711656],[121.298229,23.711478],[121.298235,23.711026],[121.298433,23.710938],[121.29824,23.710665],[121.298338,23.710666],[121.29844,23.710397],[121.298342,23.710395],[121.298247,23.710124],[121.29795,23.710301],[121.297953,23.71012],[121.298151,23.709942],[121.297956,23.709849],[121.297959,23.709669],[121.297765,23.709486],[121.297472,23.709393],[121.29737,23.709662],[121.297272,23.709661],[121.297366,23.710024],[121.297561,23.710116],[121.297654,23.710478],[121.297946,23.710662],[121.297943,23.710843],[121.297746,23.710931],[121.297741,23.711292],[121.297935,23.711475],[121.29754,23.711741],[121.297733,23.711924],[121.297534,23.712193],[121.297729,23.712285]],[[121.29766,23.710027],[121.297661,23.709937],[121.297857,23.709939],[121.297856,23.710029],[121.29766,23.710027]]],[[[121.301524,23.714584],[121.301731,23.713684],[121.301929,23.713595],[121.301932,23.713325],[121.302129,23.713236],[121.302132,23.713056],[121.302034,23.713055],[121.302038,23.712694],[121.301942,23.712602],[121.301744,23.71269],[121.30126,23.712234],[121.300962,23.712501],[121.300854,23.713313],[121.30095,23.713404],[121.301246,23.713317],[121.30144,23.7135],[121.301437,23.71368],[121.301141,23.713858],[121.301238,23.713949],[121.301232,23.7144],[121.301033,23.714579],[121.301227,23.714762],[121.301524,23.714584]]],[[[121.29838,23.715001],[121.298186,23.714818],[121.298292,23.714188],[121.29771,23.71373],[121.297413,23.713907],[121.297409,23.714268],[121.296715,23.714802],[121.296811,23.714984],[121.297007,23.714986],[121.297107,23.714807],[121.297501,23.714721],[121.297986,23.715087],[121.298281,23.71509],[121.29838,23.715001]]],[[[121.302122,23.721363],[121.302024,23.721362],[121.301933,23.720819],[121.302232,23.720461],[121.302237,23.7201],[121.302042,23.720008],[121.301744,23.720275],[121.301837,23.720638],[121.301541,23.720815],[121.301537,23.721086],[121.301636,23.721087],[121.301632,23.721358],[121.301826,23.721541],[121.302022,23.721543],[121.302122,23.721363]]],[[[121.296531,23.721392],[121.296628,23.721483],[121.29673,23.721214],[121.296828,23.721215],[121.296735,23.720852],[121.297129,23.720676],[121.297135,23.720225],[121.296842,23.720131],[121.296843,23.720041],[121.296446,23.720398],[121.296444,23.720578],[121.296542,23.720579],[121.296436,23.72121],[121.296042,23.721296],[121.296235,23.721569],[121.296531,23.721392]]],[[[121.303555,23.724359],[121.30336,23.724266],[121.303472,23.723184],[121.30377,23.722916],[121.303674,23.722735],[121.30407,23.722468],[121.303974,23.722287],[121.303875,23.722376],[121.303091,23.722277],[121.302893,23.722455],[121.302983,23.723088],[121.302692,23.722814],[121.302496,23.722812],[121.302392,23.723262],[121.302195,23.723351],[121.302192,23.723531],[121.30229,23.723532],[121.302186,23.723983],[121.302283,23.724074],[121.30248,23.724076],[121.30277,23.72435],[121.302873,23.72399],[121.303069,23.723992],[121.303064,23.724353],[121.303162,23.724355],[121.303257,23.724626],[121.303552,23.724539],[121.303555,23.724359]]],[[[121.301968,23.725696],[121.30207,23.725426],[121.302359,23.72579],[121.302557,23.725702],[121.302363,23.72552],[121.302464,23.72525],[121.302662,23.725162],[121.302566,23.72498],[121.30237,23.724978],[121.302369,23.725068],[121.301977,23.724974],[121.301878,23.725063],[121.301874,23.725424],[121.301577,23.725601],[121.301865,23.726056],[121.302063,23.725968],[121.302066,23.725697],[121.301968,23.725696]]],[[[121.305956,23.728268],[121.30596,23.727997],[121.305668,23.727813],[121.305576,23.727361],[121.305188,23.726995],[121.304992,23.726993],[121.304603,23.726718],[121.304712,23.725907],[121.304419,23.725813],[121.30422,23.725992],[121.304211,23.726714],[121.304502,23.726988],[121.304205,23.727165],[121.304203,23.727346],[121.304594,23.72744],[121.304694,23.727261],[121.30489,23.727263],[121.305081,23.727717],[121.305469,23.727992],[121.305465,23.728353],[121.305757,23.728537],[121.305858,23.728267],[121.305956,23.728268]]],[[[121.30292,23.727964],[121.302824,23.727782],[121.30243,23.727868],[121.302333,23.727777],[121.302436,23.727417],[121.302143,23.727323],[121.301951,23.72705],[121.301753,23.727138],[121.302043,23.727503],[121.30204,23.727683],[121.301745,23.72777],[121.301841,23.727952],[121.302234,23.727866],[121.302427,23.728139],[121.30292,23.727964]]],[[[121.30625,23.728271],[121.306154,23.72818],[121.305956,23.728268],[121.306051,23.72854],[121.306248,23.728452],[121.30625,23.728271]]]]}},{"type":"Feature","properties":{"kind":"bare_dam","month":"2020-08","area_ha":15.98},"geometry":{"type":"MultiPolygon","coordinates":[[[[121.299469,23.691535],[121.299666,23.691447],[121.299575,23.690904],[121.299871,23.690727],[121.299874,23.690546],[121.299583,23.690272],[121.299385,23.690451],[121.299191,23.690268],[121.299092,23.690357],[121.298896,23.690355],[121.298897,23.690265],[121.298405,23.69035],[121.298213,23.690077],[121.297919,23.690074],[121.297522,23.69043],[121.297615,23.690793],[121.297809,23.690975],[121.298103,23.690979],[121.298203,23.690799],[121.298498,23.690802],[121.298593,23.690984],[121.298791,23.690896],[121.298788,23.691076],[121.298886,23.691077],[121.298785,23.691347],[121.299078,23.691441],[121.299076,23.691531],[121.299273,23.691533],[121.299274,23.691443],[121.29947,23.691445],[121.299469,23.691535]]],[[[121.303871,23.692306],[121.304165,23.692309],[121.304267,23.692039],[121.30417,23.691948],[121.303973,23.692036],[121.303586,23.691581],[121.30339,23.691578],[121.303197,23.691396],[121.302705,23.691481],[121.302609,23.691299],[121.30251,23.691388],[121.302413,23.691297],[121.30202,23.691383],[121.301927,23.691021],[121.301629,23.691288],[121.301631,23.691108],[121.301438,23.690925],[121.301242,23.690923],[121.301043,23.691101],[121.301045,23.690921],[121.300752,23.690827],[121.300757,23.690466],[121.300659,23.690465],[121.30076,23.690285],[121.300663,23.690194],[121.300369,23.690191],[121.30017,23.690369],[121.300165,23.69073],[121.300067,23.690729],[121.300161,23.691091],[121.299963,23.69118],[121.300156,23.691453],[121.300255,23.691363],[121.300451,23.691366],[121.30045,23.691456],[121.300942,23.691371],[121.30094,23.691461],[121.301431,23.691467],[121.301526,23.691648],[121.301722,23.69165],[121.301724,23.69156],[121.302703,23.691661],[121.302702,23.691751],[121.302996,23.691755],[121.303577,23.692303],[121.303676,23.692214],[121.303872,23.692216],[121.303871,23.692306]]],[[[121.298957,23.693155],[121.299156,23.692977],[121.299164,23.692345],[121.299263,23.692255],[121.298488,23.691525],[121.298388,23.691704],[121.29868,23.691888],[121.298677,23.692068],[121.298286,23.691974],[121.298186,23.692153],[121.298479,23.692247],[121.298472,23.692789],[121.298667,23.692881],[121.298664,23.693062],[121.298957,23.693155]]],[[[121.299731,23.693976],[121.299832,23.693797],[121.299539,23.693703],[121.299443,23.693522],[121.299146,23.693699],[121.299338,23.694062],[121.299731,23.693976]]],[[[121.301002,23.694261],[121.30149,23.694447],[121.30168,23.694901],[121.302172,23.694816],[121.301882,23.694451],[121.301686,23.694449],[121.301689,23.694269],[121.30159,23.694268],[121.301593,23.694087],[121.301303,23.693723],[121.301106,23.693811],[121.301201,23.694083],[121.301002,23.694261]],[[121.301201,23.694083],[121.301298,23.694174],[121.301199,23.694173],[121.301201,23.694083]]],[[[121.298502,23.698026],[121.299094,23.697762],[121.299,23.6974],[121.299098,23.697401],[121.299203,23.69686],[121.298914,23.696496],[121.298925,23.695683],[121.299024,23.695594],[121.298443,23.695046],[121.298245,23.695134],[121.298151,23.694862],[121.297956,23.694769],[121.297854,23.695039],[121.297756,23.695038],[121.297747,23.69576],[121.297648,23.69585],[121.298036,23.696125],[121.298123,23.697029],[121.298511,23.697304],[121.298508,23.697575],[121.29841,23.697574],[121.298406,23.697845],[121.298209,23.697933],[121.298207,23.698113],[121.298402,23.698206],[121.298502,23.698026]]],[[[121.29938,23.698397],[121.299675,23.69831],[121.299679,23.698039],[121.299386,23.697946],[121.299387,23.697855],[121.298895,23.69794],[121.2985,23.698207],[121.298594,23.698479],[121.299279,23.698577],[121.29938,23.698397]]],[[[121.296722,23.699181],[121.29643,23.698997],[121.296432,23.698816],[121.296239,23.698633],[121.295846,23.698629],[121.295845,23.698719],[121.29555,23.698806],[121.295743,23.699079],[121.295941,23.698901],[121.296038,23.698992],[121.296235,23.698904],[121.296233,23.699085],[121.296523,23.699359],[121.296722,23.699181]]],[[[121.295347,23.699346],[121.295645,23.699078],[121.295549,23.698897],[121.295353,23.698895],[121.295252,23.699074],[121.295056,23.699072],[121.294668,23.698797],[121.29447,23.698885],[121.29476,23.699249],[121.295347,23.699346]]],[[[121.312172,23.68734],[121.312271,23.687251],[121.312269,23.687431],[121.312171,23.68743],[121.312265,23.687702],[121.312654,23.687977],[121.312753,23.687888],[121.31276,23.687346],[121.312371,23.687071],[121.312375,23.6868],[121.311984,23.686706],[121.311983,23.686796],[121.311687,23.686883],[121.311593,23.686611],[121.311495,23.68661],[121.311403,23.686158],[121.311208,23.686065],[121.311106,23.686335],[121.311204,23.686336],[121.311288,23.687421],[121.311386,23.687422],[121.311186,23.687781],[121.311282,23.687872],[121.311578,23.687785],[121.311678,23.687605],[121.311484,23.687423],[121.311777,23.687516],[121.311876,23.687427],[121.311781,23.687245],[121.311977,23.687248],[121.311976,23.687338],[121.312172,23.68734]],[[121.311781,23.687245],[121.311684,23.687154],[121.311782,23.687155],[121.311781,23.687245]],[[121.311683,23.687244],[121.311584,23.687334],[121.311585,23.687243],[121.311683,23.687244]]],[[[121.308793,23.690825],[121.30899,23.690737],[121.308993,23.690556],[121.308701,23.690372],[121.308502,23.690551],[121.3085,23.690731],[121.308597,23.690823],[121.308794,23.690735],[121.308793,23.690825]]],[[[121.303793,23.69077],[121.303599,23.690587],[121.303208,23.690493],[121.303209,23.690402],[121.303012,23.690491],[121.303302,23.690855],[121.303693,23.69095],[121.303793,23.69077]]],[[[121.30839,23.691633],[121.308883,23.691458],[121.309084,23.691099],[121.308889,23.691006],[121.30869,23.691185],[121.308694,23.690914],[121.308499,23.690822],[121.308296,23.691361],[121.308099,23.691449],[121.308194,23.691631],[121.308294,23.691542],[121.30839,23.691633]]],[[[121.310636,23.69238],[121.31123,23.691935],[121.311234,23.691664],[121.311137,23.691573],[121.310743,23.691659],[121.310259,23.691202],[121.309476,23.691103],[121.309374,23.691373],[121.308981,23.691459],[121.30927,23.691823],[121.309565,23.691827],[121.30966,23.692008],[121.309954,23.692011],[121.31005,23.692193],[121.310442,23.692197],[121.310636,23.69238]],[[121.309664,23.691737],[121.309666,23.691557],[121.309764,23.691558],[121.309762,23.691738],[121.309664,23.691737]]],[[[121.306034,23.691878],[121.305839,23.691786],[121.305747,23.691333],[121.305551,23.691331],[121.305154,23.691688],[121.305248,23.69196],[121.305737,23.692056],[121.305736,23.692146],[121.305932,23.692148],[121.306034,23.691878]]],[[[121.304714,23.695385],[121.30423,23.694929],[121.304232,23.694748],[121.304037,23.694656],[121.303934,23.695016],[121.304419,23.695473],[121.304615,23.695475],[121.304714,23.695385]]],[[[121.302439,23.696896],[121.302535,23.697077],[121.302928,23.696991],[121.30303,23.696721],[121.303128,23.696723],[121.303131,23.696452],[121.302838,23.696358],[121.302839,23.696268],[121.302446,23.696354],[121.302046,23.696982],[121.302241,23.697074],[121.302439,23.696896]]]]}},{"type":"Feature","properties":{"kind":"water","month":"2020-08","area_ha":0.71},"geometry":{"type":"MultiPolygon","coordinates":[[[[121.298598,23.698208],[121.298895,23.69794],[121.299189,23.697944],[121.299191,23.697853],[121.299484,23.697947],[121.299486,23.697766],[121.298996,23.697761],[121.298995,23.697851],[121.298601,23.697937],[121.298403,23.698115],[121.298402,23.698206],[121.298598,23.698208]]],[[[121.298678,23.699563],[121.29858,23.699562],[121.298585,23.699201],[121.29839,23.699109],[121.29849,23.698929],[121.2981,23.698744],[121.298098,23.698925],[121.297902,23.698923],[121.297895,23.699464],[121.29809,23.699557],[121.298092,23.699376],[121.298486,23.69929],[121.298386,23.699379],[121.298477,23.699922],[121.298575,23.699923],[121.298573,23.700104],[121.298867,23.700107],[121.298678,23.699563]],[[121.298676,23.699744],[121.298577,23.699833],[121.298578,23.699743],[121.298676,23.699744]]]]}}]}