{"type":"FeatureCollection","features":[{"type":"Feature","properties":{"kind":"bare_slide","month":"2020-11","area_ha":69.81},"geometry":{"type":"MultiPolygon","coordinates":[[[[121.293984,23.713689],[121.293789,23.713596],[121.293688,23.713776],[121.293883,23.713868],[121.293984,23.713689]]],[[[121.284061,23.715024],[121.284357,23.714846],[121.284067,23.714572],[121.28407,23.714301],[121.284369,23.713943],[121.284274,23.713762],[121.284077,23.71376],[121.283779,23.714117],[121.283582,23.714115],[121.283086,23.714561],[121.283178,23.715014],[121.283377,23.714835],[121.28367,23.714929],[121.283665,23.71529],[121.283567,23.715289],[121.283663,23.715471],[121.284056,23.715385],[121.284061,23.715024]]],[[[121.294971,23.713158],[121.294678,23.713064],[121.294577,23.713334],[121.294083,23.713599],[121.294179,23.713781],[121.293982,23.713779],[121.293684,23.714137],[121.293586,23.714136],[121.293688,23.713776],[121.293493,23.713683],[121.293295,23.713862],[121.293293,23.714042],[121.293196,23.713951],[121.2929,23.714038],[121.292805,23.713856],[121.292215,23.71394],[121.292116,23.714029],[121.292112,23.7143],[121.29221,23.714301],[121.29211,23.714481],[121.292012,23.714479],[121.291919,23.714117],[121.291135,23.714018],[121.291035,23.714198],[121.29123,23.71429],[121.291227,23.714471],[121.290932,23.714558],[121.290933,23.714468],[121.290639,23.714464],[121.290445,23.714282],[121.290345,23.714461],[121.290051,23.714458],[121.289753,23.714725],[121.289263,23.71472],[121.289163,23.714809],[121.289257,23.715171],[121.289061,23.715169],[121.28906,23.71526],[121.288668,23.715165],[121.288568,23.715344],[121.288176,23.71534],[121.288177,23.71525],[121.287981,23.715248],[121.28808,23.715158],[121.287984,23.714977],[121.287885,23.715066],[121.287199,23.715058],[121.287,23.715237],[121.286998,23.715417],[121.286801,23.715505],[121.286896,23.715687],[121.287092,23.715689],[121.287087,23.716141],[121.286694,23.716136],[121.286495,23.716405],[121.286006,23.716309],[121.285509,23.716755],[121.285215,23.716752],[121.285119,23.71657],[121.284923,23.716568],[121.284926,23.716388],[121.285221,23.716301],[121.285222,23.71621],[121.285418,23.716213],[121.285612,23.716395],[121.285714,23.716125],[121.28601,23.715948],[121.286014,23.715677],[121.286112,23.715678],[121.286017,23.715406],[121.285918,23.715496],[121.285428,23.71549],[121.285229,23.715669],[121.285227,23.715849],[121.284933,23.715846],[121.284635,23.716114],[121.284439,23.716111],[121.28424,23.71629],[121.284333,23.716742],[121.28384,23.716917],[121.283242,23.717633],[121.283339,23.717725],[121.283234,23.718265],[121.283429,23.718358],[121.283424,23.718719],[121.283227,23.718807],[121.283124,23.719167],[121.283319,23.719259],[121.283419,23.71908],[121.283714,23.719083],[121.283715,23.718993],[121.283911,23.718995],[121.28391,23.719085],[121.284303,23.718999],[121.284014,23.718635],[121.284016,23.718454],[121.28431,23.718458],[121.284309,23.718548],[121.284506,23.71846],[121.284509,23.718279],[121.284314,23.718187],[121.284317,23.717916],[121.284219,23.717915],[121.284321,23.717645],[121.284713,23.717649],[121.284809,23.717831],[121.285299,23.717837],[121.28588,23.718385],[121.285873,23.718927],[121.28518,23.719461],[121.285373,23.719643],[121.28537,23.719914],[121.285468,23.719915],[121.285561,23.720278],[121.285262,23.720635],[121.284967,23.720722],[121.285062,23.720994],[121.284964,23.720993],[121.284961,23.721174],[121.284666,23.721261],[121.284363,23.72189],[121.284558,23.721982],[121.284857,23.721624],[121.285251,23.721538],[121.285154,23.721447],[121.285254,23.721267],[121.285746,23.721183],[121.285643,23.721543],[121.285446,23.721631],[121.285441,23.721992],[121.285143,23.722259],[121.285436,23.722353],[121.285626,23.722807],[121.285822,23.722809],[121.286123,23.722361],[121.286417,23.722364],[121.286714,23.722096],[121.286619,23.721915],[121.286816,23.721827],[121.286818,23.721646],[121.28672,23.721645],[121.286822,23.721375],[121.287308,23.721742],[121.287409,23.721472],[121.287805,23.721205],[121.287702,23.721565],[121.287993,23.72184],[121.288189,23.721842],[121.28819,23.721751],[121.288483,23.721845],[121.288683,23.721576],[121.28839,23.721483],[121.288391,23.721392],[121.288787,23.721126],[121.28869,23.721035],[121.288794,23.720584],[121.288697,23.720493],[121.288011,23.720485],[121.288012,23.720395],[121.287814,23.720483],[121.28772,23.720211],[121.287521,23.72039],[121.28713,23.720295],[121.287132,23.720205],[121.287624,23.720029],[121.287627,23.719849],[121.287336,23.719575],[121.287632,23.719397],[121.287631,23.719488],[121.288022,23.719582],[121.28802,23.719763],[121.288215,23.719855],[121.288314,23.719766],[121.288222,23.719314],[121.28852,23.719046],[121.288716,23.719048],[121.288615,23.719228],[121.288908,23.719321],[121.288905,23.719592],[121.289099,23.719775],[121.289883,23.719784],[121.289982,23.719694],[121.289878,23.720145],[121.289682,23.720143],[121.289582,23.720322],[121.289289,23.720229],[121.289188,23.720408],[121.288893,23.720495],[121.288891,23.720676],[121.288989,23.720677],[121.288885,23.721127],[121.28908,23.721219],[121.289183,23.720859],[121.289476,23.720953],[121.28947,23.721404],[121.289272,23.721493],[121.289368,23.721674],[121.289567,23.721496],[121.289763,23.721498],[121.289762,23.721588],[121.289861,23.721499],[121.290449,23.721506],[121.290648,23.721327],[121.290358,23.720963],[121.290461,23.720603],[121.290364,23.720511],[121.290167,23.720599],[121.290171,23.720238],[121.290268,23.72033],[121.290466,23.720242],[121.290369,23.72015],[121.290381,23.719247],[121.290479,23.719248],[121.290481,23.719068],[121.29009,23.718973],[121.289889,23.719332],[121.289497,23.719328],[121.289298,23.719506],[121.289008,23.719232],[121.289014,23.718781],[121.289409,23.718514],[121.289511,23.718244],[121.289806,23.718157],[121.289916,23.717256],[121.290213,23.717078],[121.290216,23.716807],[121.290608,23.716812],[121.29071,23.716542],[121.291204,23.716277],[121.291206,23.716096],[121.291404,23.716008],[121.291406,23.715827],[121.291603,23.715739],[121.291606,23.715559],[121.291903,23.715291],[121.292099,23.715293],[121.292101,23.715203],[121.292982,23.715303],[121.292983,23.715213],[121.293277,23.715216],[121.293278,23.715126],[121.293375,23.715217],[121.293573,23.715129],[121.293766,23.715312],[121.294858,23.71433],[121.29486,23.71415],[121.295059,23.713971],[121.295353,23.713975],[121.295553,23.713706],[121.295848,23.713619],[121.29585,23.713438],[121.296049,23.71326],[121.296052,23.712989],[121.29625,23.712901],[121.296355,23.71236],[121.296258,23.712269],[121.295962,23.712356],[121.295167,23.71316],[121.29507,23.713068],[121.294971,23.713158]],[[121.287707,23.721204],[121.28761,23.721113],[121.287708,23.721114],[121.287707,23.721204]],[[121.295265,23.713161],[121.295263,23.713341],[121.295067,23.713339],[121.295068,23.713249],[121.295265,23.713161]],[[121.285941,23.721275],[121.285844,23.721184],[121.285942,23.721185],[121.285941,23.721275]],[[121.286041,23.721096],[121.286438,23.720739],[121.286731,23.720832],[121.286729,23.721013],[121.286431,23.72128],[121.286039,23.721276],[121.286041,23.721096]],[[121.286245,23.720466],[121.286444,23.720287],[121.286351,23.719925],[121.286646,23.719838],[121.286641,23.720199],[121.286739,23.7202],[121.286636,23.72056],[121.286439,23.720648],[121.286245,23.720466]],[[121.287544,23.718674],[121.287742,23.718496],[121.288035,23.718589],[121.288033,23.71877],[121.287834,23.718948],[121.287541,23.718855],[121.287544,23.718674]],[[121.288231,23.718591],[121.287941,23.718317],[121.288042,23.718048],[121.288239,23.71805],[121.288529,23.718324],[121.288428,23.718594],[121.288231,23.718591]],[[121.283919,23.718363],[121.283822,23.718272],[121.28392,23.718273],[121.283919,23.718363]],[[121.283724,23.718271],[121.283627,23.718179],[121.283725,23.71818],[121.283724,23.718271]],[[121.288726,23.718236],[121.28863,23.718144],[121.288728,23.718145],[121.288726,23.718236]],[[121.287064,23.717856],[121.287066,23.717676],[121.287361,23.717679],[121.28726,23.717858],[121.287064,23.717856]],[[121.287361,23.717679],[121.28746,23.71759],[121.287459,23.71768],[121.287361,23.717679]],[[121.287754,23.717593],[121.287856,23.717323],[121.287953,23.717414],[121.288444,23.71733],[121.288638,23.717512],[121.288635,23.717693],[121.288439,23.717691],[121.288438,23.717781],[121.288145,23.717687],[121.288045,23.717867],[121.287751,23.717864],[121.287654,23.717772],[121.287656,23.717592],[121.287754,23.717593]],[[121.288832,23.717695],[121.288834,23.717515],[121.288932,23.717516],[121.28893,23.717696],[121.288832,23.717695]],[[121.28952,23.717522],[121.289523,23.717342],[121.289621,23.717343],[121.289618,23.717523],[121.28952,23.717522]],[[121.287662,23.71714],[121.287565,23.717049],[121.287663,23.71705],[121.287662,23.71714]],[[121.289334,23.716798],[121.289233,23.716977],[121.289038,23.716885],[121.289039,23.716794],[121.289334,23.716798]],[[121.289725,23.716892],[121.289628,23.716801],[121.289726,23.716802],[121.289725,23.716892]],[[121.288745,23.716791],[121.288648,23.7167],[121.288746,23.716701],[121.288745,23.716791]],[[121.289634,23.716349],[121.289533,23.716529],[121.289337,23.716527],[121.289438,23.716347],[121.289634,23.716349]],[[121.291125,23.714831],[121.29122,23.715013],[121.291712,23.714928],[121.291806,23.7152],[121.291513,23.715106],[121.291315,23.715284],[121.291311,23.715555],[121.291115,23.715553],[121.291015,23.715733],[121.290819,23.71573],[121.290422,23.716087],[121.290514,23.71654],[121.290417,23.716448],[121.290122,23.716535],[121.290027,23.716264],[121.290423,23.715997],[121.290425,23.715816],[121.290327,23.715815],[121.290233,23.715543],[121.290034,23.715722],[121.289838,23.71572],[121.289942,23.715269],[121.290435,23.715094],[121.290633,23.714916],[121.290636,23.714735],[121.291125,23.714831]],[[121.290636,23.714735],[121.290539,23.714644],[121.290637,23.714645],[121.290636,23.714735]],[[121.288458,23.716246],[121.288461,23.716066],[121.288559,23.716067],[121.288556,23.716247],[121.288458,23.716246]],[[121.288953,23.71589],[121.28925,23.715713],[121.289543,23.715807],[121.289243,23.716255],[121.289047,23.716253],[121.289049,23.716072],[121.288951,23.716071],[121.288953,23.71589]],[[121.287877,23.715698],[121.287875,23.715879],[121.287776,23.715877],[121.287681,23.715696],[121.287877,23.715698]],[[121.293378,23.715036],[121.293281,23.714945],[121.293379,23.714946],[121.293378,23.715036]],[[121.293574,23.715039],[121.293477,23.714947],[121.293575,23.714948],[121.293574,23.715039]],[[121.290241,23.714911],[121.290144,23.71482],[121.290242,23.714821],[121.290241,23.714911]],[[121.291713,23.714837],[121.291616,23.714746],[121.291714,23.714747],[121.291713,23.714837]],[[121.293871,23.714771],[121.293875,23.7145],[121.293973,23.714501],[121.29397,23.714772],[121.293871,23.714771]],[[121.292697,23.714577],[121.2925,23.714665],[121.292404,23.714484],[121.292699,23.714397],[121.292697,23.714577]],[[121.292404,23.714484],[121.292307,23.714392],[121.292405,23.714394],[121.292404,23.714484]],[[121.29358,23.714587],[121.293483,23.714496],[121.293581,23.714497],[121.29358,23.714587]],[[121.294072,23.714412],[121.294075,23.714231],[121.294371,23.714054],[121.294268,23.714414],[121.294072,23.714412]],[[121.294371,23.714054],[121.29447,23.713965],[121.294469,23.714055],[121.294371,23.714054]],[[121.29497,23.713248],[121.294968,23.713429],[121.294772,23.713426],[121.294773,23.713336],[121.29497,23.713248]]],[[[121.290971,23.719073],[121.291071,23.718984],[121.290977,23.718622],[121.291368,23.718716],[121.291467,23.718627],[121.291476,23.717995],[121.291771,23.717908],[121.291384,23.717543],[121.291186,23.717631],[121.29138,23.717814],[121.29128,23.717993],[121.291083,23.717991],[121.290988,23.717809],[121.29079,23.717897],[121.290884,23.71826],[121.290688,23.718257],[121.290592,23.718076],[121.290099,23.718251],[121.290293,23.718434],[121.29029,23.718705],[121.290484,23.718797],[121.290482,23.718978],[121.290971,23.719073]]],[[[121.283309,23.719982],[121.283116,23.719799],[121.283015,23.719978],[121.28321,23.720071],[121.283309,23.719982]]],[[[121.282419,23.720604],[121.282812,23.720518],[121.282915,23.720158],[121.282721,23.719975],[121.28292,23.719797],[121.283116,23.719799],[121.283117,23.719709],[121.28341,23.719802],[121.283509,23.719713],[121.283413,23.719531],[121.283217,23.719529],[121.283123,23.719257],[121.282726,23.719614],[121.28253,23.719612],[121.28233,23.71988],[121.282036,23.719877],[121.282035,23.719968],[121.281739,23.720055],[121.281733,23.720506],[121.28183,23.720597],[121.282026,23.7206],[121.282122,23.720781],[121.282417,23.720694],[121.282419,23.720604]]],[[[121.294157,23.722991],[121.293865,23.722807],[121.293868,23.722537],[121.293481,23.722171],[121.293486,23.72181],[121.292807,23.72117],[121.292913,23.72063],[121.292718,23.720537],[121.292419,23.720895],[121.292514,23.721077],[121.292317,23.721165],[121.292315,23.721346],[121.292019,23.721433],[121.292112,23.721885],[121.292305,23.722068],[121.292501,23.72207],[121.292499,23.722251],[121.292597,23.722252],[121.292589,23.722884],[121.292687,23.722885],[121.29258,23.723606],[121.292678,23.723607],[121.292771,23.723969],[121.293064,23.724063],[121.293159,23.724335],[121.293841,23.724613],[121.293834,23.725155],[121.294223,23.72543],[121.294325,23.72516],[121.294423,23.725161],[121.294331,23.724709],[121.294628,23.724441],[121.294632,23.72417],[121.294928,23.723993],[121.294638,23.723719],[121.294548,23.723086],[121.294843,23.722999],[121.295044,23.72264],[121.294751,23.722546],[121.294551,23.722815],[121.294257,23.722812],[121.294157,23.722991]],[[121.294255,23.722992],[121.294254,23.723083],[121.294156,23.723082],[121.294157,23.722991],[121.294255,23.722992]]],[[[121.292089,23.723601],[121.291991,23.723599],[121.291995,23.723329],[121.2918,23.723236],[121.291698,23.723506],[121.291796,23.723507],[121.291888,23.72396],[121.292086,23.723871],[121.292089,23.723601]]],[[[121.290899,23.724581],[121.290892,23.725122],[121.291183,23.725396],[121.291379,23.725399],[121.291678,23.725041],[121.291973,23.724954],[121.291879,23.724682],[121.291781,23.724681],[121.291783,23.7245],[121.291982,23.724322],[121.291985,23.724051],[121.29179,23.723958],[121.29149,23.724407],[121.291098,23.724402],[121.290899,23.724581]],[[121.29149,23.724407],[121.291587,23.724498],[121.291489,23.724497],[121.29149,23.724407]]],[[[121.296864,23.726001],[121.296578,23.725366],[121.296285,23.725272],[121.296287,23.725092],[121.296189,23.725091],[121.296487,23.724823],[121.296683,23.724825],[121.296778,23.725097],[121.296975,23.725009],[121.296977,23.724828],[121.296588,23.724553],[121.296591,23.724373],[121.296988,23.724016],[121.297089,23.723746],[121.296701,23.723471],[121.296496,23.724101],[121.296202,23.724097],[121.296102,23.724277],[121.295807,23.724274],[121.295707,23.724453],[121.295316,23.724359],[121.295315,23.724449],[121.295019,23.724536],[121.294826,23.724353],[121.294725,23.724533],[121.294823,23.724534],[121.295014,23.724987],[121.295602,23.724994],[121.295598,23.725265],[121.295891,23.725358],[121.295792,23.725447],[121.295886,23.72581],[121.296376,23.725815],[121.296569,23.726088],[121.296765,23.72609],[121.296864,23.726001]],[[121.295998,23.724727],[121.296097,23.724638],[121.296096,23.724728],[121.295998,23.724727]]],[[[121.29894,23.702095],[121.299145,23.701374],[121.298753,23.70137],[121.298657,23.701188],[121.298069,23.701182],[121.298065,23.701453],[121.298355,23.701817],[121.29835,23.702178],[121.298153,23.702266],[121.298245,23.702719],[121.298343,23.70272],[121.29834,23.702991],[121.298533,23.703174],[121.29853,23.703445],[121.298724,23.703627],[121.29892,23.703629],[121.299014,23.703901],[121.299112,23.703902],[121.299104,23.704534],[121.299005,23.704624],[121.299297,23.704807],[121.299398,23.704538],[121.299595,23.70445],[121.299602,23.703908],[121.299702,23.703819],[121.299604,23.703818],[121.299606,23.703637],[121.299217,23.703362],[121.29922,23.703181],[121.299025,23.703089],[121.299223,23.70291],[121.299225,23.70273],[121.298934,23.702546],[121.299033,23.702457],[121.299038,23.702096],[121.29894,23.702095]],[[121.299314,23.703453],[121.299215,23.703542],[121.299216,23.703452],[121.299314,23.703453]],[[121.298934,23.702546],[121.298834,23.702635],[121.298836,23.702545],[121.298934,23.702546]],[[121.29854,23.702632],[121.298543,23.702451],[121.298641,23.702452],[121.298638,23.702633],[121.29854,23.702632]],[[121.298459,23.701367],[121.298362,23.701275],[121.29846,23.701277],[121.298459,23.701367]]],[[[121.298406,23.70543],[121.298306,23.705609],[121.297814,23.705694],[121.297714,23.705874],[121.297812,23.705875],[121.297906,23.706147],[121.298006,23.706057],[121.298202,23.70606],[121.298297,23.706241],[121.298495,23.706153],[121.298488,23.706695],[121.298192,23.706782],[121.297993,23.707051],[121.29809,23.707142],[121.298385,23.707055],[121.298676,23.707329],[121.298775,23.70724],[121.298678,23.707148],[121.298684,23.706697],[121.298782,23.706698],[121.298786,23.706337],[121.299083,23.70616],[121.299088,23.705798],[121.298893,23.705706],[121.298694,23.705884],[121.298699,23.705523],[121.298406,23.70543]],[[121.298694,23.705884],[121.298595,23.705974],[121.298596,23.705883],[121.298694,23.705884]]],[[[121.300597,23.71042],[121.300111,23.710054],[121.300114,23.709873],[121.299726,23.709508],[121.29953,23.709506],[121.299434,23.709324],[121.299237,23.709412],[121.299624,23.709778],[121.299718,23.71014],[121.299914,23.710142],[121.300398,23.710599],[121.300597,23.71042]]],[[[121.297928,23.712016],[121.29803,23.711747],[121.298326,23.711569],[121.298332,23.711118],[121.298235,23.711026],[121.298433,23.710938],[121.298442,23.710216],[121.298247,23.710124],[121.298049,23.710302],[121.297758,23.710028],[121.297863,23.709487],[121.297766,23.709396],[121.297569,23.709484],[121.297478,23.708941],[121.297283,23.708849],[121.297181,23.709119],[121.296985,23.709116],[121.296885,23.709296],[121.297174,23.70966],[121.29737,23.709662],[121.29727,23.709842],[121.297659,23.710117],[121.297655,23.710388],[121.29785,23.71048],[121.297738,23.711563],[121.297247,23.711648],[121.297245,23.711738],[121.296755,23.711733],[121.296653,23.712002],[121.29675,23.712094],[121.297633,23.712103],[121.297632,23.712194],[121.297928,23.712016]]],[[[121.301628,23.714134],[121.301733,23.713593],[121.30193,23.713505],[121.302132,23.713056],[121.302034,23.713055],[121.302037,23.712784],[121.301261,23.712143],[121.301063,23.712322],[121.301058,23.712683],[121.300859,23.712861],[121.300956,23.712953],[121.30095,23.713404],[121.30124,23.713768],[121.301133,23.71449],[121.301426,23.714583],[121.301529,23.714133],[121.301628,23.714134]]],[[[121.298382,23.714821],[121.298187,23.714728],[121.298291,23.714278],[121.298193,23.714277],[121.2981,23.713914],[121.297711,23.713639],[121.297514,23.713727],[121.297409,23.714268],[121.297111,23.714536],[121.296618,23.714711],[121.296714,23.714893],[121.297008,23.714896],[121.297109,23.714716],[121.297502,23.71463],[121.297501,23.714721],[121.297795,23.714724],[121.298084,23.715088],[121.298281,23.71509],[121.298382,23.714821]]],[[[121.296835,23.720673],[121.29713,23.720586],[121.297135,23.720225],[121.297037,23.720224],[121.297143,23.719593],[121.297046,23.719501],[121.296651,23.719768],[121.296644,23.72031],[121.296546,23.720309],[121.296542,23.720579],[121.29664,23.720581],[121.29654,23.72076],[121.296735,23.720852],[121.296835,23.720673]]],[[[121.302123,23.721273],[121.302025,23.721272],[121.301934,23.720729],[121.302133,23.720551],[121.302238,23.72001],[121.302043,23.719918],[121.301845,23.720096],[121.301839,23.720547],[121.301641,23.720636],[121.301634,23.721177],[121.301925,23.721451],[121.302123,23.721273]]],[[[121.303556,23.724269],[121.303264,23.724085],[121.303363,23.723996],[121.30337,23.723454],[121.303468,23.723455],[121.303374,23.723183],[121.303472,23.723184],[121.303477,23.722823],[121.303674,23.722735],[121.303676,23.722554],[121.303875,23.722376],[121.303092,23.722187],[121.302991,23.722456],[121.302893,23.722455],[121.30299,23.722547],[121.302984,23.722998],[121.302788,23.722996],[121.302497,23.722722],[121.302394,23.723082],[121.302099,23.723169],[121.302095,23.72344],[121.302193,23.723441],[121.302092,23.723711],[121.302286,23.723893],[121.302482,23.723896],[121.302674,23.724169],[121.302872,23.72408],[121.302875,23.72381],[121.302973,23.723811],[121.303167,23.723993],[121.303067,23.724173],[121.303165,23.724174],[121.303258,23.724536],[121.303554,23.724449],[121.303556,23.724269]]],[[[121.305766,23.727814],[121.305671,23.727543],[121.305573,23.727541],[121.305577,23.727271],[121.305092,23.726814],[121.304604,23.726628],[121.304713,23.725816],[121.30442,23.725723],[121.304318,23.725993],[121.30422,23.725992],[121.304213,23.726533],[121.304505,23.726717],[121.304503,23.726898],[121.304206,23.727075],[121.304204,23.727256],[121.304595,23.72735],[121.304695,23.727171],[121.304891,23.727173],[121.305085,23.727355],[121.305083,23.727536],[121.305472,23.727811],[121.305662,23.728265],[121.305859,23.728177],[121.305864,23.727816],[121.305766,23.727814]]]]}},{"type":"Feature","properties":{"kind":"bare_dam","month":"2020-11","area_ha":12.74},"geometry":{"type":"MultiPolygon","coordinates":[[[[121.300174,23.690098],[121.30037,23.6901],[121.300371,23.69001],[121.30086,23.690106],[121.30096,23.689926],[121.300767,23.689744],[121.300374,23.689739],[121.300373,23.68983],[121.299982,23.689735],[121.299685,23.690003],[121.29978,23.690184],[121.300172,23.690189],[121.300174,23.690098]]],[[[121.29949,23.68991],[121.299099,23.689816],[121.2991,23.689725],[121.298708,23.689721],[121.298607,23.6899],[121.298313,23.689897],[121.298213,23.690077],[121.297819,23.690163],[121.297719,23.690342],[121.298013,23.690345],[121.298107,23.690708],[121.298303,23.69071],[121.298304,23.69062],[121.298695,23.690714],[121.298696,23.690624],[121.299089,23.690538],[121.298994,23.690356],[121.298798,23.690354],[121.298703,23.690082],[121.298997,23.690085],[121.299191,23.690268],[121.299583,23.690272],[121.299683,23.690093],[121.29949,23.68991]]],[[[121.299479,23.690723],[121.299379,23.690902],[121.299574,23.690995],[121.299674,23.690815],[121.299479,23.690723]]],[[[121.299672,23.690996],[121.300158,23.691272],[121.300747,23.691278],[121.300846,23.691189],[121.300942,23.691371],[121.301334,23.691375],[121.301335,23.691285],[121.301628,23.691378],[121.301627,23.691469],[121.30202,23.691383],[121.301924,23.691201],[121.301532,23.691197],[121.301533,23.691107],[121.301336,23.691195],[121.301337,23.691104],[121.301043,23.691101],[121.301044,23.691011],[121.300749,23.691098],[121.30075,23.691008],[121.300358,23.691003],[121.300164,23.690821],[121.300065,23.69091],[121.299772,23.690816],[121.299672,23.690996]]],[[[121.301104,23.693991],[121.30091,23.693809],[121.30101,23.693629],[121.300623,23.693264],[121.300424,23.693442],[121.300132,23.693349],[121.300429,23.693081],[121.30024,23.692537],[121.299653,23.69244],[121.299557,23.692259],[121.299067,23.692253],[121.298875,23.69198],[121.298677,23.692068],[121.298674,23.692339],[121.298576,23.692338],[121.298474,23.692608],[121.299053,23.693337],[121.299543,23.693342],[121.299444,23.693431],[121.29954,23.693613],[121.300128,23.693619],[121.300419,23.693894],[121.300713,23.693897],[121.300905,23.69417],[121.301104,23.693991]],[[121.299744,23.692983],[121.299743,23.693073],[121.299449,23.69307],[121.299647,23.692892],[121.299941,23.692895],[121.300036,23.693167],[121.299744,23.692983]]],[[[121.298416,23.697122],[121.298712,23.696945],[121.298621,23.696402],[121.298918,23.696225],[121.298821,23.696133],[121.298925,23.695683],[121.298632,23.69559],[121.298633,23.695499],[121.298339,23.695496],[121.298041,23.695764],[121.298138,23.695855],[121.298039,23.695944],[121.298035,23.696215],[121.298133,23.696216],[121.298029,23.696667],[121.298416,23.697122]],[[121.298428,23.696129],[121.298332,23.696038],[121.29843,23.696039],[121.298428,23.696129]]],[[[121.30105,23.698145],[121.302239,23.697164],[121.302144,23.696983],[121.302342,23.696804],[121.302538,23.696806],[121.302539,23.696716],[121.302733,23.696899],[121.30293,23.696811],[121.302837,23.696448],[121.303232,23.696272],[121.303235,23.696001],[121.303333,23.696002],[121.303239,23.69573],[121.302943,23.695818],[121.302841,23.696178],[121.302348,23.696353],[121.302346,23.696533],[121.302148,23.696622],[121.302146,23.696802],[121.30185,23.696979],[121.301847,23.69716],[121.301649,23.697338],[121.301255,23.697424],[121.301351,23.697606],[121.301057,23.697603],[121.300957,23.697782],[121.300566,23.697688],[121.300367,23.697866],[121.300657,23.698231],[121.30105,23.698145]]],[[[121.299079,23.698936],[121.29898,23.698935],[121.298983,23.698754],[121.299279,23.698577],[121.299282,23.698396],[121.29948,23.698218],[121.29997,23.698223],[121.300169,23.698045],[121.300073,23.697863],[121.299877,23.697861],[121.299876,23.697951],[121.299485,23.697856],[121.298891,23.698301],[121.298888,23.698482],[121.298691,23.69857],[121.298885,23.698753],[121.298783,23.699023],[121.298978,23.699115],[121.299079,23.698936]]],[[[121.298568,23.700465],[121.298863,23.700468],[121.298768,23.700196],[121.29867,23.700195],[121.298677,23.699654],[121.298775,23.699655],[121.298878,23.699295],[121.298683,23.699202],[121.298786,23.698842],[121.298592,23.698659],[121.298693,23.69839],[121.298498,23.698297],[121.2982,23.698655],[121.298587,23.69902],[121.29839,23.699109],[121.298388,23.699289],[121.298189,23.699468],[121.297896,23.699374],[121.297698,23.699553],[121.297694,23.699823],[121.297889,23.699916],[121.297883,23.700367],[121.29798,23.700459],[121.29847,23.700464],[121.298473,23.700283],[121.298571,23.700284],[121.298568,23.700465]]],[[[121.312757,23.687617],[121.312658,23.687616],[121.312662,23.687345],[121.312467,23.687253],[121.312374,23.686891],[121.312082,23.686707],[121.311883,23.686885],[121.311881,23.687066],[121.312075,23.687249],[121.312272,23.68716],[121.31227,23.687341],[121.312368,23.687342],[121.312267,23.687522],[121.312366,23.687523],[121.31246,23.687795],[121.312656,23.687797],[121.312757,23.687617]]],[[[121.311481,23.687694],[121.31178,23.687336],[121.311391,23.687061],[121.311292,23.68715],[121.311286,23.687601],[121.311481,23.687694]]],[[[121.308493,23.691273],[121.308884,23.691368],[121.308986,23.691098],[121.308889,23.691006],[121.308692,23.691095],[121.308498,23.690912],[121.308198,23.69136],[121.308393,23.691453],[121.308493,23.691273]]],[[[121.310448,23.691746],[121.310648,23.691477],[121.310355,23.691384],[121.310356,23.691293],[121.309865,23.691378],[121.309862,23.691559],[121.310253,23.691653],[121.310252,23.691744],[121.310448,23.691746]]],[[[121.307503,23.691985],[121.307603,23.691895],[121.307507,23.691714],[121.307017,23.691708],[121.306817,23.691977],[121.30711,23.692071],[121.307111,23.69198],[121.307503,23.691985]]],[[[121.310833,23.692292],[121.311329,23.691846],[121.311137,23.691573],[121.31074,23.69193],[121.310445,23.692017],[121.310637,23.69229],[121.310833,23.692292]]],[[[121.306228,23.692061],[121.305742,23.691694],[121.305642,23.691874],[121.305932,23.692148],[121.305927,23.692599],[121.306121,23.692692],[121.306517,23.692425],[121.30662,23.692065],[121.306523,23.691974],[121.306228,23.692061]],[[121.306228,23.692061],[121.306128,23.69215],[121.30613,23.69206],[121.306228,23.692061]]],[[[121.303924,23.695828],[121.303828,23.695647],[121.303926,23.695648],[121.304029,23.695288],[121.304126,23.695379],[121.304617,23.695294],[121.304719,23.695024],[121.304524,23.694932],[121.304526,23.694751],[121.304818,23.694935],[121.305215,23.694578],[121.305121,23.694216],[121.305613,23.694131],[121.305518,23.693859],[121.305026,23.694034],[121.304925,23.694214],[121.304729,23.694212],[121.304331,23.694659],[121.304135,23.694657],[121.304136,23.694566],[121.303939,23.694655],[121.304131,23.694928],[121.303736,23.695194],[121.303731,23.695555],[121.303633,23.695554],[121.30353,23.695914],[121.303725,23.696007],[121.303924,23.695828]],[[121.304625,23.694662],[121.304724,23.694573],[121.304723,23.694663],[121.304625,23.694662]]]]}},{"type":"Feature","properties":{"kind":"water","month":"2020-11","area_ha":0.9},"geometry":{"type":"MultiPolygon","coordinates":[[[[121.30889,23.690916],[121.308704,23.690101],[121.308508,23.690099],[121.308692,23.691095],[121.30889,23.690916]]],[[[121.308591,23.691274],[121.308492,23.691363],[121.30859,23.691364],[121.308591,23.691274]]],[[[121.308492,23.691363],[121.308393,23.691453],[121.308491,23.691454],[121.308492,23.691363]]],[[[121.308097,23.69154],[121.308096,23.69163],[121.3079,23.691628],[121.307897,23.691899],[121.308393,23.691453],[121.308097,23.69154]]],[[[121.30701,23.69225],[121.307011,23.69216],[121.307207,23.692162],[121.307209,23.691981],[121.30711,23.692071],[121.306914,23.692068],[121.306915,23.691978],[121.30662,23.692065],[121.306518,23.692335],[121.306713,23.692427],[121.306716,23.692247],[121.30701,23.69225]]],[[[121.305119,23.694397],[121.30571,23.694222],[121.305715,23.693771],[121.305617,23.69377],[121.305613,23.694131],[121.305121,23.694216],[121.305119,23.694397]]],[[[121.298002,23.698743],[121.298497,23.698387],[121.298403,23.698115],[121.298305,23.698114],[121.298202,23.698474],[121.298005,23.698563],[121.298002,23.698743]]],[[[121.298963,23.700289],[121.298965,23.700108],[121.298772,23.699926],[121.298775,23.699655],[121.298677,23.699654],[121.29867,23.700195],[121.298768,23.700196],[121.298766,23.700377],[121.299059,23.70047],[121.299061,23.70029],[121.298963,23.700289]]]]}}]}