{"type":"FeatureCollection","features":[{"type":"Feature","properties":{"kind":"bare_slide","month":"2020-10","area_ha":1.16},"geometry":{"type":"MultiPolygon","coordinates":[[[[121.299554,23.70761],[121.299265,23.707245],[121.298872,23.707331],[121.298586,23.706696],[121.298289,23.706873],[121.298479,23.707327],[121.299061,23.707875],[121.299257,23.707877],[121.299554,23.70761]],[[121.299361,23.707427],[121.299261,23.707516],[121.299263,23.707426],[121.299361,23.707427]]],[[[121.283012,23.720249],[121.283607,23.719714],[121.283511,23.719532],[121.283216,23.719619],[121.283122,23.719347],[121.282824,23.719615],[121.282528,23.719702],[121.282623,23.719974],[121.283016,23.719888],[121.283014,23.720069],[121.282916,23.720068],[121.283012,23.720249]]],[[[121.282818,23.720067],[121.282621,23.720155],[121.282716,23.720336],[121.282914,23.720248],[121.282818,23.720067]]]]}},{"type":"Feature","properties":{"kind":"bare_dam","month":"2020-10","area_ha":1.45},"geometry":{"type":"MultiPolygon","coordinates":[[[[121.300255,23.691363],[121.300256,23.691273],[121.301236,23.691374],[121.301336,23.691195],[121.301043,23.691101],[121.301044,23.691011],[121.300749,23.691098],[121.300555,23.690915],[121.300358,23.691003],[121.300164,23.690821],[121.299772,23.690816],[121.299287,23.69045],[121.298991,23.690537],[121.299184,23.69081],[121.300063,23.69109],[121.30006,23.691271],[121.300255,23.691363]]],[[[121.305545,23.691783],[121.306037,23.691607],[121.305749,23.691153],[121.305454,23.69124],[121.305156,23.691507],[121.305154,23.691688],[121.305348,23.691871],[121.305544,23.691873],[121.305545,23.691783]]],[[[121.304044,23.694114],[121.304141,23.694205],[121.304337,23.694207],[121.304338,23.694117],[121.304729,23.694212],[121.304831,23.693942],[121.304538,23.693848],[121.304437,23.694028],[121.30434,23.693937],[121.304045,23.694024],[121.303851,23.693841],[121.303751,23.69402],[121.303945,23.694203],[121.304044,23.694114]]]]}},{"type":"Feature","properties":{"kind":"water","month":"2020-10","area_ha":0.59},"geometry":{"type":"MultiPolygon","coordinates":[[[[121.308096,23.69163],[121.308196,23.691541],[121.308589,23.691455],[121.308591,23.691274],[121.308884,23.691368],[121.308886,23.691187],[121.308788,23.691186],[121.308892,23.690736],[121.308795,23.690644],[121.308599,23.690642],[121.308596,23.690913],[121.308498,23.690912],[121.308594,23.691094],[121.308396,23.691182],[121.308394,23.691362],[121.308099,23.691449],[121.308096,23.69163]]],[[[121.30086,23.697691],[121.300959,23.697602],[121.300864,23.69733],[121.300276,23.697323],[121.300274,23.697504],[121.300176,23.697503],[121.300271,23.697685],[121.30086,23.697691]]]]}}]}