{"type":"FeatureCollection","features":[{"type":"Feature","properties":{"kind":"bare_slide","month":"2020-01","area_ha":61.52},"geometry":{"type":"MultiPolygon","coordinates":[[[[121.288438,23.717781],[121.288533,23.718053],[121.288828,23.717966],[121.288826,23.718147],[121.289021,23.718239],[121.28892,23.718418],[121.289309,23.718694],[121.289411,23.718424],[121.289805,23.718248],[121.289916,23.717256],[121.290213,23.717078],[121.290118,23.716806],[121.290509,23.716901],[121.290808,23.716543],[121.291396,23.71655],[121.291694,23.716282],[121.291603,23.715739],[121.291902,23.715381],[121.292196,23.715385],[121.292197,23.715294],[121.292492,23.715297],[121.29249,23.715388],[121.29259,23.715299],[121.292687,23.71539],[121.293079,23.715394],[121.29308,23.715304],[121.293961,23.715404],[121.294063,23.715134],[121.29426,23.715046],[121.294263,23.714866],[121.294558,23.714778],[121.295255,23.713973],[121.295549,23.713977],[121.295747,23.713798],[121.29585,23.713438],[121.296247,23.713081],[121.296252,23.71272],[121.296748,23.712274],[121.297338,23.71219],[121.297339,23.7121],[121.297535,23.712102],[121.297729,23.712285],[121.298026,23.712017],[121.297833,23.711835],[121.297835,23.711654],[121.298029,23.711837],[121.298325,23.711659],[121.298234,23.711117],[121.298332,23.711118],[121.298337,23.710757],[121.298435,23.710758],[121.298441,23.710306],[121.298149,23.710122],[121.297863,23.709487],[121.297473,23.709302],[121.297577,23.708852],[121.297775,23.708674],[121.297872,23.708765],[121.29807,23.708677],[121.298075,23.708225],[121.297979,23.708134],[121.297781,23.708222],[121.297779,23.708403],[121.297481,23.70867],[121.297186,23.708757],[121.297083,23.709117],[121.29669,23.709203],[121.297173,23.709751],[121.297369,23.709753],[121.297655,23.710388],[121.297947,23.710572],[121.297942,23.710933],[121.297745,23.711021],[121.297738,23.711563],[121.29754,23.711741],[121.296853,23.711734],[121.296756,23.711642],[121.296653,23.712002],[121.296356,23.71227],[121.295962,23.712356],[121.295267,23.713071],[121.294972,23.713067],[121.294773,23.713336],[121.294578,23.713244],[121.294181,23.7136],[121.294277,23.713782],[121.293785,23.713867],[121.293784,23.713957],[121.293686,23.713956],[121.293496,23.713503],[121.293297,23.713681],[121.292612,23.713583],[121.292613,23.713493],[121.291728,23.713664],[121.291729,23.713573],[121.291338,23.713479],[121.291237,23.713749],[121.290547,23.714012],[121.290247,23.71446],[121.289657,23.714544],[121.289557,23.714723],[121.289166,23.714629],[121.288963,23.715168],[121.288765,23.715256],[121.28886,23.715528],[121.288663,23.715616],[121.28866,23.715797],[121.288562,23.715796],[121.288665,23.715436],[121.288567,23.715435],[121.288475,23.714982],[121.288277,23.71507],[121.288275,23.715251],[121.287883,23.715247],[121.287787,23.715065],[121.287003,23.715056],[121.286903,23.715145],[121.286998,23.715417],[121.286799,23.715596],[121.286993,23.715778],[121.287189,23.715781],[121.287089,23.71596],[121.287284,23.716053],[121.287283,23.716143],[121.286988,23.71614],[121.286888,23.716319],[121.287179,23.716593],[121.287473,23.716596],[121.287667,23.716779],[121.287663,23.71705],[121.288051,23.717416],[121.288443,23.71742],[121.288637,23.717603],[121.288438,23.717781]],[[121.294362,23.714776],[121.294265,23.714685],[121.294363,23.714686],[121.294362,23.714776]],[[121.298149,23.710122],[121.29805,23.710212],[121.298051,23.710121],[121.298149,23.710122]],[[121.294773,23.713336],[121.29487,23.713427],[121.294772,23.713426],[121.294773,23.713336]],[[121.288638,23.717512],[121.288933,23.717425],[121.289126,23.717698],[121.28883,23.717785],[121.288638,23.717512]],[[121.289138,23.716795],[121.289428,23.71707],[121.289133,23.717157],[121.289138,23.716795]],[[121.289334,23.716798],[121.289043,23.716524],[121.288847,23.716521],[121.288654,23.716248],[121.288948,23.716252],[121.289148,23.715983],[121.289441,23.716076],[121.289542,23.715897],[121.289638,23.715988],[121.289836,23.7159],[121.289831,23.716261],[121.289145,23.716254],[121.289045,23.716343],[121.289238,23.716616],[121.289434,23.716618],[121.289334,23.716798]],[[121.287872,23.716059],[121.287875,23.715879],[121.287973,23.71588],[121.28797,23.71606],[121.287872,23.716059]],[[121.290235,23.715363],[121.290633,23.714916],[121.290927,23.714919],[121.290929,23.714829],[121.291027,23.71483],[121.291121,23.715102],[121.291317,23.715104],[121.291314,23.715375],[121.291116,23.715463],[121.291114,23.715643],[121.290819,23.71573],[121.290619,23.715999],[121.290423,23.715997],[121.290522,23.715908],[121.290426,23.715726],[121.289939,23.71554],[121.28994,23.71545],[121.290235,23.715363]],[[121.289939,23.71554],[121.289839,23.715629],[121.28984,23.715539],[121.289939,23.71554]],[[121.287488,23.715423],[121.287391,23.715331],[121.287489,23.715332],[121.287488,23.715423]],[[121.287684,23.715425],[121.287587,23.715334],[121.287686,23.715335],[121.287684,23.715425]],[[121.293475,23.715128],[121.293378,23.715036],[121.293476,23.715037],[121.293475,23.715128]],[[121.293672,23.71504],[121.293575,23.714948],[121.293673,23.714949],[121.293672,23.71504]],[[121.294266,23.714595],[121.294169,23.714503],[121.294267,23.714504],[121.294266,23.714595]],[[121.290739,23.714285],[121.290643,23.714193],[121.290741,23.714195],[121.290739,23.714285]]],[[[121.292088,23.716196],[121.291895,23.715923],[121.291698,23.716011],[121.29189,23.716284],[121.292088,23.716196]]],[[[121.283927,23.717731],[121.283929,23.717641],[121.28442,23.717556],[121.284233,23.716831],[121.283838,23.717098],[121.283543,23.717095],[121.283441,23.717455],[121.283343,23.717454],[121.283339,23.717725],[121.283533,23.717907],[121.283731,23.717729],[121.283927,23.717731]]],[[[121.290975,23.718802],[121.290977,23.718622],[121.291173,23.718624],[121.291172,23.718714],[121.291566,23.718628],[121.291469,23.718537],[121.291471,23.718356],[121.291569,23.718357],[121.291475,23.718086],[121.29177,23.717998],[121.291772,23.717818],[121.292069,23.717641],[121.292071,23.71746],[121.292267,23.717462],[121.292264,23.717733],[121.292556,23.717917],[121.29325,23.717292],[121.293255,23.716931],[121.29306,23.716839],[121.29296,23.717018],[121.292566,23.717104],[121.292472,23.716832],[121.292277,23.71674],[121.291777,23.717457],[121.291385,23.717452],[121.291186,23.717631],[121.291184,23.717811],[121.291282,23.717812],[121.291179,23.718173],[121.290687,23.718348],[121.290689,23.718167],[121.290886,23.718079],[121.290692,23.717896],[121.290393,23.718254],[121.290297,23.718163],[121.290001,23.71825],[121.290194,23.718523],[121.290684,23.718528],[121.290781,23.71862],[121.290779,23.7188],[121.290483,23.718887],[121.290579,23.719069],[121.290971,23.719073],[121.291071,23.718984],[121.291073,23.718803],[121.290975,23.718802]],[[121.292761,23.717197],[121.292563,23.717375],[121.292565,23.717195],[121.292761,23.717197]]],[[[121.284003,23.719448],[121.284005,23.719267],[121.284201,23.719269],[121.284203,23.719179],[121.284497,23.719182],[121.284496,23.719272],[121.284693,23.719184],[121.284789,23.719366],[121.284985,23.719368],[121.285085,23.719189],[121.284795,23.718915],[121.284695,23.719004],[121.284304,23.718909],[121.284113,23.718546],[121.283524,23.718539],[121.283424,23.718719],[121.283716,23.718903],[121.283712,23.719173],[121.28381,23.719175],[121.28361,23.719534],[121.283804,23.719626],[121.284003,23.719448]]],[[[121.288812,23.71923],[121.288613,23.719408],[121.288808,23.719501],[121.288908,23.719321],[121.288812,23.71923]]],[[[121.289097,23.719865],[121.289392,23.719868],[121.289393,23.719778],[121.290078,23.719876],[121.289681,23.720233],[121.289679,23.720413],[121.289874,23.720506],[121.290073,23.720237],[121.290268,23.72033],[121.290368,23.72024],[121.290379,23.719338],[121.290477,23.719339],[121.29048,23.719158],[121.290089,23.719063],[121.289889,23.719332],[121.289594,23.719419],[121.289591,23.7196],[121.289006,23.719322],[121.288904,23.719682],[121.289097,23.719865]]],[[[121.282713,23.720607],[121.283008,23.72052],[121.283606,23.719804],[121.283608,23.719624],[121.283315,23.71953],[121.283222,23.719168],[121.283025,23.719256],[121.283022,23.719437],[121.282824,23.719615],[121.282528,23.719702],[121.282526,23.719883],[121.282721,23.719975],[121.282719,23.720156],[121.28252,23.720334],[121.282324,23.720332],[121.282036,23.719877],[121.281641,23.720053],[121.281636,23.720415],[121.282024,23.72078],[121.282416,23.720784],[121.282417,23.720694],[121.282712,23.720697],[121.282713,23.720607]],[[121.283016,23.719888],[121.283014,23.720069],[121.282818,23.720067],[121.282819,23.719976],[121.283016,23.719888]]],[[[121.285747,23.721092],[121.285947,23.720824],[121.286338,23.720918],[121.286438,23.720739],[121.287419,23.72075],[121.287612,23.720932],[121.28761,23.721113],[121.287213,23.72147],[121.286918,23.721557],[121.286915,23.721737],[121.287207,23.721921],[121.287108,23.72201],[121.287201,23.722373],[121.287499,23.722105],[121.287403,23.721923],[121.287501,23.721924],[121.287604,23.721564],[121.287798,23.721747],[121.287994,23.721749],[121.28809,23.721931],[121.288387,23.721663],[121.287806,23.721115],[121.287809,23.720935],[121.288007,23.720756],[121.288301,23.720759],[121.288402,23.72058],[121.288305,23.720489],[121.287814,23.720483],[121.28772,23.720211],[121.287622,23.72021],[121.287625,23.719939],[121.287141,23.719482],[121.286749,23.719478],[121.285854,23.720371],[121.285658,23.720369],[121.285563,23.720187],[121.285267,23.720274],[121.285164,23.720634],[121.284671,23.7209],[121.284766,23.721081],[121.285062,23.720994],[121.285063,23.720904],[121.285259,23.720906],[121.285258,23.720997],[121.285455,23.720908],[121.285551,23.72109],[121.285747,23.721092]],[[121.285455,23.720908],[121.285554,23.720819],[121.285553,23.72091],[121.285455,23.720908]],[[121.285456,23.720818],[121.285359,23.720727],[121.285457,23.720728],[121.285456,23.720818]],[[121.286444,23.720287],[121.28664,23.720289],[121.286638,23.72047],[121.286442,23.720468],[121.286444,23.720287]],[[121.287325,23.720387],[121.287425,23.720298],[121.287423,23.720388],[121.287325,23.720387]]],[[[121.293962,23.722899],[121.294061,23.72281],[121.293867,23.722627],[121.293969,23.722357],[121.293677,23.722173],[121.293585,23.721721],[121.293002,23.721263],[121.293005,23.721082],[121.292907,23.721081],[121.292913,23.72063],[121.293012,23.720541],[121.292721,23.720266],[121.29262,23.720536],[121.292521,23.720535],[121.292416,23.721076],[121.292318,23.721075],[121.292412,23.721437],[121.292217,23.721344],[121.292215,23.721435],[121.29192,23.721522],[121.292015,23.721794],[121.292113,23.721795],[121.292012,23.721974],[121.2925,23.72216],[121.292595,23.722432],[121.292791,23.722434],[121.292891,23.722255],[121.293284,23.722259],[121.293477,23.722442],[121.293472,23.722893],[121.293859,23.723259],[121.294056,23.723171],[121.29406,23.7229],[121.293962,23.722899]],[[121.293188,23.722078],[121.293287,23.721988],[121.293286,23.722079],[121.293188,23.722078]]],[[[121.294356,23.722723],[121.294163,23.72254],[121.294062,23.722719],[121.294257,23.722812],[121.294356,23.722723]]],[[[121.294439,23.723897],[121.294242,23.723985],[121.29424,23.724166],[121.294433,23.724349],[121.29463,23.724351],[121.29473,23.724171],[121.295025,23.724084],[121.294735,23.72381],[121.294737,23.72363],[121.294542,23.723537],[121.294646,23.723087],[121.294842,23.723089],[121.294944,23.722819],[121.295042,23.72282],[121.294947,23.722548],[121.294354,23.722903],[121.294351,23.723174],[121.294055,23.723261],[121.294249,23.723444],[121.294247,23.723624],[121.294442,23.723717],[121.294439,23.723897]],[[121.294249,23.723444],[121.294348,23.723355],[121.294347,23.723445],[121.294249,23.723444]]],[[[121.296701,23.723471],[121.296503,23.723559],[121.296599,23.723741],[121.296796,23.723652],[121.296701,23.723471]]],[[[121.296398,23.7241],[121.296202,23.724097],[121.296102,23.724277],[121.295807,23.724274],[121.295706,23.724543],[121.295217,23.724448],[121.295018,23.724626],[121.294824,23.724443],[121.294724,23.724623],[121.294822,23.724624],[121.295012,23.725078],[121.295502,23.725173],[121.2955,23.725264],[121.295205,23.725351],[121.295398,23.725624],[121.295693,23.725537],[121.295691,23.725717],[121.295981,23.725991],[121.296473,23.725906],[121.29647,23.726087],[121.296764,23.72618],[121.296864,23.726001],[121.296669,23.725909],[121.296676,23.725367],[121.296383,23.725273],[121.296386,23.725002],[121.296681,23.725006],[121.29658,23.725185],[121.296873,23.725279],[121.297075,23.724829],[121.297466,23.724924],[121.297863,23.724567],[121.297868,23.724206],[121.297673,23.724114],[121.297176,23.72465],[121.296684,23.724735],[121.29659,23.724463],[121.296987,23.724106],[121.296989,23.723925],[121.296697,23.723742],[121.296596,23.724011],[121.296399,23.724009],[121.296398,23.7241]],[[121.295997,23.724818],[121.296096,23.724728],[121.296095,23.724819],[121.295997,23.724818]]],[[[121.298157,23.701905],[121.298152,23.702357],[121.29825,23.702358],[121.29853,23.703445],[121.299113,23.703812],[121.299103,23.704625],[121.299005,23.704624],[121.299001,23.704894],[121.298903,23.704893],[121.298997,23.705256],[121.298798,23.705434],[121.298504,23.705431],[121.298404,23.70561],[121.297814,23.705694],[121.29771,23.706144],[121.297807,23.706236],[121.2982,23.70615],[121.2981,23.706329],[121.298197,23.706421],[121.298492,23.706334],[121.298489,23.706605],[121.298684,23.706697],[121.298786,23.706337],[121.299085,23.705979],[121.299091,23.705528],[121.299189,23.705529],[121.299096,23.705166],[121.299194,23.705168],[121.299197,23.704897],[121.299496,23.704539],[121.299605,23.703727],[121.29912,23.70327],[121.299126,23.702819],[121.299028,23.702818],[121.299032,23.702547],[121.298934,23.702546],[121.298945,23.701643],[121.299043,23.701644],[121.299145,23.701374],[121.298753,23.70137],[121.298657,23.701188],[121.298069,23.701182],[121.298065,23.701453],[121.298357,23.701637],[121.298256,23.701906],[121.298157,23.701905]],[[121.298357,23.701637],[121.298456,23.701547],[121.298455,23.701638],[121.298357,23.701637]],[[121.298733,23.702905],[121.298735,23.702724],[121.298833,23.702725],[121.298831,23.702906],[121.298733,23.702905]]],[[[121.298087,23.707323],[121.297892,23.70723],[121.297792,23.70741],[121.297498,23.707406],[121.297397,23.707586],[121.297102,23.707673],[121.2971,23.707853],[121.297197,23.707945],[121.297687,23.70795],[121.297786,23.707861],[121.29798,23.708044],[121.298079,23.707955],[121.298087,23.707323]]],[[[121.30131,23.708351],[121.301312,23.708171],[121.301022,23.707897],[121.300728,23.707893],[121.300729,23.707803],[121.300533,23.707801],[121.300432,23.70798],[121.300042,23.707796],[121.299844,23.707974],[121.300133,23.708338],[121.300331,23.70825],[121.300333,23.70807],[121.30092,23.708166],[121.301014,23.708529],[121.30131,23.708351]]],[[[121.301274,23.71115],[121.300111,23.710054],[121.300114,23.709873],[121.299824,23.709509],[121.299335,23.709413],[121.29924,23.709141],[121.299043,23.709229],[121.29914,23.709321],[121.29904,23.7095],[121.299333,23.709594],[121.299623,23.709868],[121.299715,23.71032],[121.299913,23.710232],[121.300299,23.710688],[121.300495,23.71069],[121.300589,23.711052],[121.300782,23.711235],[121.300979,23.711237],[121.301171,23.71151],[121.301368,23.711422],[121.301274,23.71115]]],[[[121.301266,23.711782],[121.301463,23.711694],[121.301367,23.711512],[121.30117,23.7116],[121.301266,23.711782]]],[[[121.301622,23.714585],[121.301527,23.714313],[121.301625,23.714314],[121.301731,23.713684],[121.302228,23.713237],[121.30223,23.713057],[121.302132,23.713056],[121.302038,23.712694],[121.301745,23.7126],[121.301552,23.712417],[121.301554,23.712237],[121.301262,23.712053],[121.300865,23.71241],[121.30096,23.712682],[121.300761,23.71286],[121.300859,23.712861],[121.300852,23.713403],[121.30095,23.713404],[121.300948,23.713585],[121.301238,23.713949],[121.301234,23.71422],[121.301136,23.714219],[121.301033,23.714579],[121.301227,23.714762],[121.301622,23.714585]]],[[[121.297096,23.715709],[121.2972,23.715259],[121.297102,23.715258],[121.297009,23.714805],[121.297501,23.714721],[121.297888,23.715086],[121.29838,23.715001],[121.298292,23.714188],[121.298,23.714004],[121.297715,23.713368],[121.297517,23.713457],[121.29741,23.714178],[121.296914,23.714624],[121.29652,23.71471],[121.296615,23.714982],[121.296812,23.714894],[121.296903,23.715436],[121.296707,23.715434],[121.296612,23.715162],[121.296316,23.71534],[121.296314,23.71552],[121.296507,23.715703],[121.296703,23.715705],[121.296705,23.715615],[121.297096,23.715709]]],[[[121.29864,23.717623],[121.298342,23.71789],[121.29834,23.718071],[121.298043,23.718248],[121.298041,23.718429],[121.297645,23.718695],[121.297739,23.719058],[121.298131,23.719062],[121.298132,23.718972],[121.298327,23.719064],[121.298428,23.718885],[121.298622,23.718977],[121.298821,23.718799],[121.298826,23.718437],[121.298924,23.718439],[121.299126,23.717989],[121.299029,23.717898],[121.298831,23.717986],[121.298835,23.717715],[121.29864,23.717623]],[[121.298829,23.718167],[121.298731,23.718165],[121.298628,23.718526],[121.298133,23.718881],[121.298238,23.718341],[121.298437,23.718162],[121.298633,23.718164],[121.298733,23.717985],[121.298831,23.717986],[121.298829,23.718167]]],[[[121.297129,23.720676],[121.297329,23.720408],[121.297134,23.720315],[121.297143,23.719593],[121.296948,23.7195],[121.296551,23.719857],[121.296645,23.720219],[121.296448,23.720308],[121.296445,23.720488],[121.296639,23.720671],[121.296738,23.720582],[121.297129,23.720676]]],[[[121.302218,23.721545],[121.301933,23.720819],[121.302031,23.72082],[121.302135,23.72037],[121.302233,23.720371],[121.30224,23.719829],[121.302338,23.719831],[121.302244,23.719559],[121.302046,23.719647],[121.301943,23.720097],[121.301745,23.720185],[121.301739,23.720637],[121.301542,23.720725],[121.301632,23.721358],[121.301925,23.721451],[121.302021,23.721633],[121.302218,23.721545]]],[[[121.302506,23.722],[121.302313,23.721817],[121.302212,23.721996],[121.30231,23.721997],[121.302308,23.722178],[121.302597,23.722542],[121.302697,23.722453],[121.302892,23.722546],[121.302984,23.722998],[121.302788,23.722996],[121.30279,23.722815],[121.302497,23.722722],[121.302393,23.723172],[121.302097,23.72335],[121.302193,23.723441],[121.302186,23.723983],[121.30248,23.724076],[121.30247,23.724798],[121.302372,23.724797],[121.30237,23.724978],[121.301979,23.724883],[121.301875,23.725334],[121.301479,23.7256],[121.301767,23.726055],[121.302163,23.725788],[121.302165,23.725608],[121.302359,23.72579],[121.302557,23.725702],[121.302464,23.72525],[121.302662,23.725162],[121.302664,23.724981],[121.302862,23.724803],[121.302766,23.724711],[121.302873,23.72399],[121.302971,23.723991],[121.303257,23.724626],[121.303453,23.724629],[121.303452,23.724719],[121.303649,23.724631],[121.303935,23.725266],[121.30433,23.72509],[121.304332,23.724909],[121.304039,23.724816],[121.30414,23.724636],[121.303751,23.724361],[121.303457,23.724358],[121.303459,23.724177],[121.303361,23.724176],[121.303466,23.723635],[121.303564,23.723637],[121.303472,23.723184],[121.30357,23.723185],[121.303572,23.723005],[121.303868,23.722917],[121.303773,23.722646],[121.304071,23.722378],[121.303974,23.722287],[121.303287,23.722279],[121.303289,23.722189],[121.302797,23.722274],[121.302799,23.722093],[121.302506,23.722]],[[121.302797,23.722274],[121.302698,23.722363],[121.302699,23.722273],[121.302797,23.722274]]],[[[121.304422,23.725542],[121.304524,23.725272],[121.304329,23.72518],[121.304225,23.72563],[121.30442,23.725723],[121.304519,23.725634],[121.304422,23.725542]]],[[[121.306252,23.728181],[121.30596,23.727997],[121.305962,23.727817],[121.305767,23.727724],[121.305769,23.727544],[121.305574,23.727451],[121.305577,23.727271],[121.305092,23.726814],[121.304798,23.726811],[121.304604,23.726628],[121.304713,23.725816],[121.30442,23.725723],[121.304121,23.726081],[121.304212,23.726624],[121.304406,23.726806],[121.304403,23.726987],[121.304206,23.727075],[121.304201,23.727436],[121.304593,23.727531],[121.304791,23.727352],[121.304887,23.727534],[121.305083,23.727536],[121.305081,23.727717],[121.305372,23.7279],[121.305368,23.728262],[121.305466,23.728263],[121.30556,23.728535],[121.306148,23.728631],[121.306247,23.728542],[121.306252,23.728181]]],[[[121.302531,23.727689],[121.30283,23.727331],[121.302734,23.727149],[121.302535,23.727328],[121.302339,23.727325],[121.301952,23.72696],[121.301656,23.727047],[121.301654,23.727228],[121.301751,23.727319],[121.301948,23.727231],[121.301946,23.727411],[121.302044,23.727412],[121.302042,23.727593],[121.301845,23.727591],[121.301745,23.72777],[121.301939,23.727953],[121.302233,23.727956],[121.302232,23.728047],[121.302526,23.72805],[121.302725,23.727871],[121.303018,23.727965],[121.303016,23.728055],[121.303214,23.727967],[121.302923,23.727693],[121.302824,23.727782],[121.302531,23.727689]],[[121.302531,23.727689],[121.302432,23.727778],[121.302433,23.727688],[121.302531,23.727689]]]]}},{"type":"Feature","properties":{"kind":"bare_dam","month":"2020-01","area_ha":18.31},"geometry":{"type":"MultiPolygon","coordinates":[[[[121.302523,23.690395],[121.302427,23.690213],[121.301937,23.690208],[121.301938,23.690118],[121.301546,23.690113],[121.301547,23.690023],[121.30135,23.690111],[121.301158,23.689838],[121.300667,23.689833],[121.300568,23.689922],[121.300565,23.690193],[121.300758,23.690376],[121.301151,23.69038],[121.301349,23.690201],[121.301837,23.690387],[121.301836,23.690478],[121.302424,23.690484],[121.302523,23.690395]]],[[[121.302509,23.691478],[121.302216,23.691385],[121.302217,23.691295],[121.301923,23.691291],[121.301924,23.691201],[121.301629,23.691288],[121.301436,23.691015],[121.30124,23.691013],[121.301239,23.691103],[121.301043,23.691101],[121.301044,23.691011],[121.300749,23.691098],[121.300653,23.690916],[121.300358,23.691003],[121.300263,23.690731],[121.300556,23.690825],[121.300656,23.690736],[121.300561,23.690464],[121.300267,23.690461],[121.300069,23.690639],[121.300163,23.690911],[121.29987,23.690817],[121.299871,23.690727],[121.299675,23.690725],[121.299674,23.690815],[121.299381,23.690722],[121.299189,23.690449],[121.298798,23.690354],[121.2988,23.690173],[121.298997,23.690085],[121.298803,23.689903],[121.298904,23.689723],[121.298708,23.689721],[121.298607,23.6899],[121.298215,23.689896],[121.298115,23.690076],[121.297919,23.690074],[121.297621,23.690341],[121.297615,23.690793],[121.297809,23.690975],[121.298202,23.690889],[121.298203,23.690799],[121.298498,23.690802],[121.298496,23.690893],[121.29889,23.690807],[121.298884,23.691258],[121.299078,23.691441],[121.29947,23.691445],[121.299668,23.691267],[121.299671,23.691086],[121.299963,23.69118],[121.300059,23.691361],[121.300255,23.691363],[121.300256,23.691273],[121.300353,23.691364],[121.301334,23.691375],[121.301429,23.691557],[121.302312,23.691567],[121.302409,23.691658],[121.302509,23.691478]]],[[[121.301105,23.693901],[121.3013,23.693994],[121.3014,23.693814],[121.301107,23.693721],[121.301012,23.693539],[121.300912,23.693628],[121.300717,23.693536],[121.300617,23.693715],[121.300422,23.693623],[121.300623,23.693264],[121.300235,23.692898],[121.300335,23.692809],[121.30024,23.692537],[121.300044,23.692535],[121.300045,23.692445],[121.299849,23.692443],[121.29985,23.692352],[121.299654,23.69235],[121.299266,23.692075],[121.29897,23.692162],[121.298876,23.69189],[121.29868,23.691888],[121.298579,23.692067],[121.298482,23.691976],[121.298187,23.692063],[121.298283,23.692245],[121.298577,23.692248],[121.298473,23.692698],[121.298668,23.692791],[121.298664,23.693062],[121.298859,23.693154],[121.298857,23.693335],[121.298954,23.693426],[121.299444,23.693431],[121.299344,23.693611],[121.299048,23.693698],[121.299241,23.693971],[121.299634,23.693885],[121.29954,23.693613],[121.299637,23.693704],[121.299932,23.693617],[121.300321,23.693892],[121.300615,23.693896],[121.301002,23.694261],[121.301105,23.693901]],[[121.30091,23.693809],[121.300813,23.693717],[121.300911,23.693718],[121.30091,23.693809]],[[121.300328,23.693351],[121.300231,23.693259],[121.300329,23.69326],[121.300328,23.693351]],[[121.299645,23.693072],[121.299548,23.692981],[121.299646,23.692982],[121.299645,23.693072]]],[[[121.298807,23.697217],[121.298911,23.696767],[121.298618,23.696673],[121.29862,23.696492],[121.298718,23.696494],[121.298622,23.696312],[121.29882,23.696224],[121.298823,23.695953],[121.298725,23.695952],[121.298825,23.695772],[121.29863,23.69568],[121.298527,23.69613],[121.298132,23.696307],[121.298029,23.696667],[121.298127,23.696668],[121.298124,23.696939],[121.298319,23.697031],[121.298413,23.697303],[121.298807,23.697217]]],[[[121.30214,23.697254],[121.302336,23.697256],[121.302536,23.696987],[121.303028,23.696812],[121.302835,23.696629],[121.302837,23.696448],[121.303032,23.696541],[121.30323,23.696362],[121.303334,23.695912],[121.303141,23.695729],[121.302845,23.695816],[121.302842,23.696087],[121.302646,23.696085],[121.302249,23.696442],[121.302046,23.696982],[121.301749,23.697159],[121.301844,23.697431],[121.30204,23.697433],[121.30214,23.697254]]],[[[121.300951,23.698234],[121.301545,23.697789],[121.301547,23.697608],[121.301353,23.697425],[121.300961,23.697421],[121.300862,23.69751],[121.300958,23.697692],[121.300859,23.697781],[121.300664,23.697689],[121.300366,23.697956],[121.300559,23.698229],[121.300951,23.698234]]],[[[121.29906,23.70038],[121.298966,23.700018],[121.298773,23.699835],[121.298779,23.699384],[121.299076,23.699116],[121.299082,23.698665],[121.299479,23.698308],[121.300068,23.698224],[121.300168,23.698135],[121.300072,23.697953],[121.299876,23.697951],[121.299875,23.698041],[121.299484,23.697947],[121.299482,23.698037],[121.299188,23.698034],[121.298793,23.6983],[121.298598,23.698208],[121.298397,23.698567],[121.298104,23.698473],[121.298002,23.698743],[121.298196,23.698926],[121.298393,23.698838],[121.298586,23.699111],[121.298388,23.699289],[121.298191,23.699287],[121.298193,23.699197],[121.297994,23.699375],[121.297799,23.699283],[121.297502,23.69955],[121.297889,23.699916],[121.297883,23.700367],[121.29798,23.700459],[121.298961,23.700469],[121.29906,23.70038]]],[[[121.312754,23.687798],[121.31256,23.687615],[121.31266,23.687526],[121.312565,23.687254],[121.312081,23.686797],[121.311882,23.686976],[121.311976,23.687338],[121.312364,23.687613],[121.312362,23.687794],[121.312556,23.687976],[121.312754,23.687798]]],[[[121.31138,23.687873],[121.311778,23.687426],[121.311781,23.687245],[121.311587,23.687063],[121.311292,23.68715],[121.311285,23.687692],[121.311186,23.687781],[121.31138,23.687873]]],[[[121.308882,23.691548],[121.309079,23.69146],[121.309465,23.691916],[121.309662,23.691918],[121.31005,23.692193],[121.310442,23.692197],[121.310636,23.69238],[121.311329,23.691846],[121.31104,23.691481],[121.310647,23.691567],[121.310162,23.691111],[121.309477,23.691013],[121.309178,23.691371],[121.308982,23.691369],[121.308986,23.691098],[121.308889,23.691006],[121.308692,23.691095],[121.308597,23.690823],[121.3084,23.690911],[121.308396,23.691182],[121.308001,23.691448],[121.307997,23.691719],[121.30829,23.691813],[121.308392,23.691543],[121.308588,23.691545],[121.308589,23.691455],[121.308883,23.691458],[121.308882,23.691548]],[[121.308392,23.691543],[121.308295,23.691451],[121.308393,23.691453],[121.308392,23.691543]]],[[[121.303091,23.691936],[121.30348,23.692211],[121.30397,23.692217],[121.30407,23.692128],[121.303974,23.691946],[121.303387,23.691849],[121.303488,23.691579],[121.303295,23.691397],[121.302803,23.691482],[121.302703,23.691661],[121.303094,23.691756],[121.303091,23.691936]],[[121.303094,23.691756],[121.303193,23.691667],[121.303192,23.691757],[121.303094,23.691756]]],[[[121.303349,23.694738],[121.303156,23.694556],[121.302665,23.69455],[121.302566,23.69464],[121.302662,23.694821],[121.303152,23.694827],[121.303151,23.694917],[121.303349,23.694738]]],[[[121.303827,23.695737],[121.304122,23.69565],[121.304123,23.69556],[121.304417,23.695563],[121.304715,23.695295],[121.305017,23.694666],[121.305313,23.694579],[121.30571,23.694222],[121.305812,23.693862],[121.305618,23.69368],[121.305321,23.693947],[121.305125,23.693945],[121.304826,23.694303],[121.30463,23.694301],[121.304331,23.694659],[121.303938,23.694745],[121.304032,23.695017],[121.303736,23.695194],[121.30373,23.695646],[121.303533,23.695734],[121.30353,23.695914],[121.303725,23.696007],[121.303827,23.695737]]]]}},{"type":"Feature","properties":{"kind":"water","month":"2020-01","area_ha":0.52},"geometry":{"type":"MultiPolygon","coordinates":[[[[121.30047,23.689921],[121.300569,23.689832],[121.300471,23.689831],[121.30047,23.689921]]],[[[121.299292,23.689998],[121.299389,23.69009],[121.299488,23.69],[121.300076,23.690097],[121.300077,23.690007],[121.300469,23.690011],[121.30047,23.689921],[121.29998,23.689916],[121.299981,23.689825],[121.299687,23.689822],[121.299688,23.689732],[121.298904,23.689723],[121.298805,23.689812],[121.299095,23.690086],[121.299291,23.690089],[121.299292,23.689998]]],[[[121.306616,23.692336],[121.306812,23.692338],[121.306817,23.691977],[121.306719,23.691976],[121.306717,23.692157],[121.306519,23.692245],[121.306418,23.692515],[121.306614,23.692517],[121.306616,23.692336]]]]}}]}