{"type":"FeatureCollection","features":[{"type":"Feature","properties":{"kind":"bare_slide","month":"2020-03","area_ha":62.64},"geometry":{"type":"MultiPolygon","coordinates":[[[[121.292492,23.715297],[121.29249,23.715388],[121.293276,23.715306],[121.293275,23.715396],[121.293765,23.715402],[121.293862,23.715493],[121.294061,23.715315],[121.294063,23.715134],[121.294955,23.714422],[121.294957,23.714241],[121.295255,23.713973],[121.295451,23.713976],[121.295847,23.713709],[121.29585,23.713438],[121.296247,23.713081],[121.296252,23.71272],[121.296847,23.712185],[121.297436,23.712192],[121.297437,23.712101],[121.297828,23.712196],[121.298126,23.711928],[121.298128,23.711748],[121.298325,23.711659],[121.298441,23.710306],[121.298343,23.710305],[121.298249,23.709943],[121.297958,23.709759],[121.297864,23.709397],[121.297767,23.709306],[121.29757,23.709394],[121.297676,23.708763],[121.29807,23.708677],[121.297975,23.708405],[121.297484,23.70849],[121.297382,23.70876],[121.297284,23.708758],[121.29728,23.709029],[121.296788,23.709205],[121.297079,23.709479],[121.297173,23.709751],[121.297467,23.709754],[121.297367,23.709933],[121.297948,23.710481],[121.298039,23.711024],[121.297842,23.711112],[121.297836,23.711564],[121.297638,23.711742],[121.296756,23.711642],[121.296652,23.712093],[121.296454,23.712271],[121.295863,23.712445],[121.295958,23.712717],[121.295564,23.712803],[121.295365,23.713072],[121.295169,23.71307],[121.29497,23.713248],[121.294676,23.713245],[121.29418,23.713691],[121.293886,23.713687],[121.293887,23.713597],[121.293298,23.713591],[121.293297,23.713681],[121.293003,23.713678],[121.293004,23.713587],[121.292513,23.713672],[121.292416,23.713581],[121.292317,23.71367],[121.29222,23.713579],[121.292021,23.713757],[121.292012,23.714479],[121.291815,23.714568],[121.291804,23.71538],[121.291999,23.715473],[121.292197,23.715294],[121.292492,23.715297]],[[121.293376,23.715127],[121.293476,23.715037],[121.293475,23.715128],[121.293376,23.715127]],[[121.293574,23.715039],[121.293673,23.714949],[121.293672,23.71504],[121.293574,23.715039]],[[121.294168,23.714594],[121.294267,23.714504],[121.294266,23.714595],[121.294168,23.714594]],[[121.293197,23.71386],[121.293393,23.713863],[121.293392,23.713953],[121.293196,23.713951],[121.293197,23.71386]]],[[[121.288555,23.716338],[121.288941,23.716793],[121.289334,23.716798],[121.29003,23.716083],[121.290521,23.715998],[121.290232,23.715634],[121.289838,23.71572],[121.290235,23.715363],[121.290139,23.715181],[121.289943,23.715179],[121.289843,23.715359],[121.289451,23.715354],[121.289257,23.715171],[121.289459,23.714722],[121.289166,23.714629],[121.289065,23.714808],[121.288771,23.714805],[121.288671,23.714984],[121.287986,23.714886],[121.287787,23.715065],[121.287101,23.715057],[121.286902,23.715236],[121.286997,23.715508],[121.286601,23.715774],[121.286695,23.716046],[121.28699,23.716049],[121.287092,23.715689],[121.287291,23.715511],[121.287487,23.715513],[121.287681,23.715696],[121.287774,23.716058],[121.288162,23.716423],[121.288555,23.716338]],[[121.288653,23.716339],[121.288362,23.716065],[121.288559,23.716067],[121.288659,23.715887],[121.289149,23.715893],[121.289147,23.716073],[121.289245,23.716074],[121.289243,23.716255],[121.289047,23.716253],[121.289048,23.716162],[121.288852,23.71616],[121.288653,23.716339]],[[121.288862,23.715348],[121.289058,23.71535],[121.289252,23.715533],[121.28925,23.715713],[121.289054,23.715711],[121.28886,23.715528],[121.288862,23.715348]],[[121.288276,23.715161],[121.288176,23.71534],[121.28798,23.715338],[121.28808,23.715158],[121.288276,23.715161]],[[121.288374,23.715162],[121.288472,23.715163],[121.28847,23.715343],[121.288372,23.715342],[121.288374,23.715162]]],[[[121.295816,23.716057],[121.295722,23.715785],[121.295526,23.715782],[121.29543,23.715601],[121.295234,23.715599],[121.295139,23.715327],[121.294845,23.715323],[121.294846,23.715233],[121.294159,23.715316],[121.294059,23.715405],[121.294155,23.715587],[121.293859,23.715764],[121.294052,23.715947],[121.294449,23.71559],[121.294745,23.715503],[121.294743,23.715593],[121.295329,23.71578],[121.295424,23.716052],[121.295715,23.716326],[121.295912,23.716238],[121.295914,23.716058],[121.295816,23.716057]]],[[[121.285711,23.716306],[121.286208,23.71586],[121.286111,23.715769],[121.286309,23.71559],[121.286213,23.715409],[121.286017,23.715406],[121.285917,23.715586],[121.285427,23.715581],[121.285227,23.715849],[121.285031,23.715847],[121.284635,23.716114],[121.284925,23.716478],[121.285711,23.716306]]],[[[121.291296,23.716729],[121.291693,23.716372],[121.291987,23.716375],[121.292089,23.716106],[121.292187,23.716107],[121.291994,23.715834],[121.291797,23.715922],[121.291702,23.71565],[121.291207,23.716006],[121.291301,23.716368],[121.291103,23.716456],[121.291101,23.716637],[121.291296,23.716729]]],[[[121.28384,23.716917],[121.283842,23.716737],[121.283939,23.716828],[121.284136,23.71674],[121.283944,23.716467],[121.283449,23.716823],[121.283447,23.717003],[121.283641,23.717096],[121.28384,23.716917]]],[[[121.29079,23.717897],[121.290591,23.718166],[121.289902,23.718339],[121.290096,23.718522],[121.290093,23.718702],[121.290288,23.718795],[121.290286,23.718975],[121.289796,23.71897],[121.289699,23.718879],[121.289598,23.719058],[121.289792,23.719241],[121.290085,23.719334],[121.290186,23.719155],[121.290382,23.719157],[121.290381,23.719247],[121.29097,23.719164],[121.29117,23.718895],[121.291464,23.718898],[121.291564,23.718719],[121.29176,23.718721],[121.291953,23.718994],[121.292149,23.718996],[121.29225,23.718816],[121.291957,23.718723],[121.291764,23.71845],[121.291568,23.718448],[121.291573,23.718087],[121.292068,23.717731],[121.292169,23.717461],[121.292267,23.717462],[121.292264,23.717733],[121.292556,23.717917],[121.292954,23.71747],[121.29315,23.717472],[121.293348,23.717294],[121.293352,23.717023],[121.293059,23.716929],[121.29286,23.717108],[121.292758,23.717468],[121.292561,23.717465],[121.292664,23.717105],[121.292566,23.717104],[121.292571,23.716743],[121.292376,23.716651],[121.291776,23.717547],[121.291483,23.717454],[121.291185,23.717721],[121.291183,23.717902],[121.291086,23.71781],[121.29079,23.717897]],[[121.291568,23.718448],[121.291469,23.718537],[121.29147,23.718447],[121.291568,23.718448]],[[121.291281,23.717903],[121.291278,23.718083],[121.291082,23.718081],[121.291083,23.717991],[121.291281,23.717903]],[[121.291675,23.717727],[121.291576,23.717816],[121.291577,23.717725],[121.291675,23.717727]],[[121.291675,23.717727],[121.291775,23.717637],[121.291773,23.717728],[121.291675,23.717727]]],[[[121.283007,23.72061],[121.283305,23.720343],[121.283307,23.720162],[121.283604,23.719985],[121.283706,23.719625],[121.283903,23.719627],[121.284203,23.719179],[121.284497,23.719182],[121.284496,23.719272],[121.28479,23.719276],[121.284789,23.719366],[121.285085,23.719189],[121.284991,23.718917],[121.284499,23.719002],[121.284403,23.71882],[121.284207,23.718818],[121.28421,23.718637],[121.284601,23.718732],[121.284799,23.718553],[121.284704,23.718372],[121.284507,23.71837],[121.284314,23.718187],[121.284316,23.718006],[121.284613,23.717829],[121.284517,23.717647],[121.284222,23.717734],[121.28433,23.716923],[121.284428,23.716924],[121.284333,23.716742],[121.284035,23.71701],[121.283839,23.717008],[121.283443,23.717274],[121.283438,23.717635],[121.283241,23.717723],[121.283338,23.717815],[121.283332,23.718266],[121.28343,23.718267],[121.283424,23.718719],[121.283128,23.718896],[121.283222,23.719168],[121.283025,23.719256],[121.283022,23.719437],[121.282727,23.719524],[121.282527,23.719792],[121.281938,23.719876],[121.281937,23.719966],[121.281641,23.720053],[121.281638,23.720324],[121.282122,23.720781],[121.282514,23.720786],[121.282515,23.720695],[121.283007,23.72061]],[[121.283612,23.719353],[121.28371,23.719354],[121.28361,23.719534],[121.283315,23.71953],[121.283418,23.71917],[121.283614,23.719172],[121.283612,23.719353]],[[121.28382,23.718452],[121.283919,23.718363],[121.283918,23.718453],[121.28382,23.718452]],[[121.283825,23.718091],[121.283924,23.718002],[121.283923,23.718092],[121.283825,23.718091]]],[[[121.284874,23.72036],[121.285271,23.720003],[121.285565,23.720007],[121.285864,23.719649],[121.285669,23.719556],[121.285371,23.719824],[121.284289,23.720083],[121.28409,23.720261],[121.284087,23.720532],[121.284184,23.720623],[121.284772,23.72063],[121.284874,23.72036]]],[[[121.289956,23.721681],[121.290057,23.721501],[121.289765,23.721317],[121.289767,23.721137],[121.289966,23.720958],[121.290162,23.720961],[121.290356,23.721143],[121.290558,23.720694],[121.290656,23.720695],[121.290368,23.72024],[121.289773,23.720685],[121.28977,23.720956],[121.289572,23.721044],[121.289668,23.721226],[121.289471,23.721314],[121.289467,23.721585],[121.289174,23.721491],[121.288975,23.72176],[121.289072,23.721851],[121.289562,23.721857],[121.289662,23.721677],[121.289956,23.721681]]],[[[121.2926,23.722071],[121.292504,23.721889],[121.292308,23.721887],[121.292114,23.721705],[121.292116,23.721524],[121.292214,23.721525],[121.292126,23.720802],[121.292225,23.720712],[121.292127,23.720711],[121.29213,23.720441],[121.291935,23.720348],[121.291737,23.720526],[121.29173,23.721068],[121.291828,23.721069],[121.291823,23.72143],[121.291921,23.721431],[121.291822,23.721521],[121.291913,23.722063],[121.292107,23.722246],[121.292401,23.722249],[121.2926,23.722071]]],[[[121.289274,23.721402],[121.289081,23.721129],[121.288884,23.721217],[121.288978,23.721489],[121.289174,23.721491],[121.289274,23.721402]]],[[[121.287305,23.721922],[121.287702,23.721565],[121.28809,23.721931],[121.28858,23.721936],[121.28888,23.721488],[121.288783,23.721397],[121.288488,23.721484],[121.288003,23.721027],[121.287807,23.721025],[121.287409,23.721472],[121.287213,23.72147],[121.287117,23.721288],[121.286822,23.721375],[121.287016,23.721558],[121.287013,23.721738],[121.286915,23.721737],[121.287011,23.721919],[121.28711,23.72183],[121.287305,23.721922]]],[[[121.285639,23.721813],[121.285144,23.722169],[121.285141,23.72244],[121.285043,23.722439],[121.285138,23.722621],[121.285435,23.722443],[121.285433,23.722624],[121.285626,23.722807],[121.285822,23.722809],[121.286418,23.722274],[121.286416,23.722454],[121.286709,23.722548],[121.286706,23.722728],[121.286511,23.722636],[121.286312,23.722905],[121.286605,23.722998],[121.286699,23.72327],[121.286896,23.723182],[121.286802,23.72291],[121.2869,23.722911],[121.287102,23.722462],[121.2872,23.722463],[121.287098,23.722733],[121.287195,23.722824],[121.287393,23.722736],[121.287296,23.722645],[121.287298,23.722464],[121.287495,23.722376],[121.287403,23.721923],[121.287305,23.721922],[121.287206,23.722011],[121.287204,23.722192],[121.287008,23.72219],[121.286809,23.722368],[121.286521,23.721914],[121.286225,23.722001],[121.286032,23.721818],[121.286034,23.721637],[121.286132,23.721638],[121.286039,23.721276],[121.286732,23.720742],[121.286636,23.72056],[121.286343,23.720467],[121.286346,23.720286],[121.286444,23.720287],[121.286349,23.720015],[121.286153,23.720013],[121.285955,23.720192],[121.285952,23.720372],[121.286244,23.720556],[121.286242,23.720737],[121.286043,23.720915],[121.285847,23.720913],[121.285653,23.72073],[121.285756,23.72037],[121.285563,23.720187],[121.285169,23.720273],[121.285164,23.720634],[121.284968,23.720632],[121.28477,23.720811],[121.284767,23.720991],[121.284669,23.72099],[121.284764,23.721262],[121.284666,23.721261],[121.284362,23.72198],[121.284066,23.722157],[121.284062,23.722428],[121.284256,23.722611],[121.284452,23.722613],[121.284551,23.722524],[121.284557,23.722072],[121.284753,23.722075],[121.284947,23.722257],[121.285246,23.721899],[121.285153,23.721537],[121.285448,23.72145],[121.285449,23.72136],[121.285841,23.721364],[121.285639,23.721813]],[[121.285841,23.721364],[121.285941,23.721275],[121.285939,23.721365],[121.285841,23.721364]],[[121.284965,23.720903],[121.285063,23.720904],[121.28506,23.721085],[121.284962,23.721084],[121.284965,23.720903]]],[[[121.291973,23.724954],[121.291882,23.724411],[121.29208,23.724323],[121.292184,23.723872],[121.292086,23.723871],[121.291993,23.723419],[121.291799,23.723326],[121.291695,23.723777],[121.291793,23.723778],[121.291887,23.72405],[121.291789,23.724049],[121.291686,23.724409],[121.291489,23.724497],[121.291487,23.724677],[121.291682,23.72477],[121.291679,23.72495],[121.291581,23.724949],[121.291677,23.725131],[121.291973,23.724954]]],[[[121.294317,23.725792],[121.294415,23.725793],[121.294422,23.725252],[121.294619,23.725164],[121.294425,23.724981],[121.294528,23.724621],[121.294821,23.724714],[121.294917,23.724896],[121.295114,23.724808],[121.295116,23.724627],[121.294824,23.724443],[121.294827,23.724263],[121.295023,23.724265],[121.295123,23.724086],[121.29493,23.723903],[121.294733,23.723901],[121.294932,23.723722],[121.294935,23.723451],[121.294642,23.723358],[121.294645,23.723177],[121.294841,23.723179],[121.295039,23.723001],[121.295044,23.72264],[121.294849,23.722547],[121.294649,23.722816],[121.294355,23.722813],[121.294554,23.722634],[121.29446,23.722272],[121.294263,23.72236],[121.29426,23.722631],[121.294062,23.722719],[121.294256,23.722902],[121.294253,23.723173],[121.293962,23.722899],[121.293765,23.722987],[121.293857,23.723439],[121.293955,23.723441],[121.293852,23.723801],[121.294047,23.723893],[121.293845,23.724342],[121.29404,23.724435],[121.294038,23.724615],[121.29384,23.724703],[121.293833,23.725245],[121.293637,23.725243],[121.293537,23.725422],[121.293634,23.725514],[121.294027,23.725428],[121.294123,23.72561],[121.293927,23.725607],[121.29343,23.726053],[121.293329,23.726323],[121.293525,23.726325],[121.293527,23.726145],[121.29392,23.726149],[121.293922,23.725969],[121.294314,23.725973],[121.294317,23.725792]]],[[[121.296865,23.725911],[121.296767,23.72591],[121.296675,23.725457],[121.296971,23.72528],[121.296974,23.725099],[121.297172,23.724921],[121.29727,23.724922],[121.297267,23.725193],[121.297462,23.725285],[121.297566,23.724835],[121.297862,23.724657],[121.297964,23.724388],[121.297866,23.724387],[121.297869,23.724116],[121.297674,23.724023],[121.297472,23.724473],[121.297079,23.724559],[121.296886,23.724286],[121.297084,23.724197],[121.297087,23.723927],[121.297286,23.723748],[121.296603,23.72347],[121.296503,23.723559],[121.296596,23.724011],[121.296202,23.724097],[121.296102,23.724277],[121.295906,23.724275],[121.295707,23.724453],[121.295705,23.724634],[121.295997,23.724818],[121.295992,23.725179],[121.295793,23.725357],[121.295401,23.725353],[121.295102,23.725711],[121.295199,23.725802],[121.295593,23.725716],[121.29598,23.726082],[121.296472,23.725997],[121.296566,23.726269],[121.29696,23.726183],[121.296865,23.725911]],[[121.296581,23.725095],[121.296579,23.725275],[121.296481,23.725274],[121.296483,23.725094],[121.296581,23.725095]]],[[[121.299145,23.701374],[121.298753,23.70137],[121.298657,23.701188],[121.298167,23.701183],[121.298162,23.701544],[121.298356,23.701727],[121.298157,23.701905],[121.298152,23.702357],[121.29825,23.702358],[121.298344,23.70263],[121.298642,23.702362],[121.298836,23.702545],[121.299033,23.702457],[121.299045,23.701554],[121.299143,23.701555],[121.299145,23.701374]]],[[[121.298435,23.703173],[121.29863,23.703265],[121.298724,23.703627],[121.299115,23.703722],[121.299202,23.704536],[121.299104,23.704534],[121.299101,23.704805],[121.299002,23.704804],[121.298997,23.705256],[121.298798,23.705434],[121.298504,23.705431],[121.298404,23.70561],[121.297912,23.705695],[121.29771,23.706144],[121.297807,23.706236],[121.2982,23.70615],[121.298296,23.706332],[121.298492,23.706334],[121.298783,23.706608],[121.298985,23.706159],[121.299083,23.70616],[121.29899,23.705797],[121.299187,23.705709],[121.29919,23.705438],[121.299288,23.705439],[121.299194,23.705168],[121.299292,23.705169],[121.299297,23.704807],[121.299494,23.704719],[121.2995,23.704268],[121.299598,23.704269],[121.299703,23.703728],[121.299217,23.703362],[121.299221,23.703091],[121.299123,23.70309],[121.299223,23.70291],[121.299125,23.702909],[121.299032,23.702547],[121.298734,23.702815],[121.29854,23.702632],[121.298343,23.70272],[121.298435,23.703173]],[[121.298792,23.705885],[121.298892,23.705796],[121.29889,23.705887],[121.298792,23.705885]]],[[[121.298183,23.707504],[121.297989,23.707321],[121.297498,23.707406],[121.297397,23.707586],[121.297102,23.707673],[121.2971,23.707853],[121.297197,23.707945],[121.297687,23.70795],[121.297688,23.70786],[121.297981,23.707953],[121.298183,23.707504]]],[[[121.297975,23.708405],[121.298172,23.708317],[121.298079,23.707955],[121.297882,23.708043],[121.297975,23.708405]]],[[[121.301468,23.711333],[121.301176,23.711149],[121.301178,23.710968],[121.300886,23.710785],[121.300889,23.710604],[121.300111,23.710054],[121.300115,23.709783],[121.299824,23.709509],[121.299628,23.709507],[121.299239,23.709231],[121.299138,23.709501],[121.299624,23.709778],[121.29962,23.710139],[121.299913,23.710232],[121.300397,23.710689],[121.300593,23.710691],[121.300686,23.711144],[121.301077,23.711238],[121.301268,23.711602],[121.301465,23.711513],[121.301468,23.711333]]],[[[121.305181,23.712367],[121.305579,23.71192],[121.305775,23.711922],[121.305969,23.712105],[121.305967,23.712285],[121.306162,23.712378],[121.306459,23.71211],[121.306462,23.711929],[121.306073,23.711654],[121.305978,23.711382],[121.305684,23.711379],[121.30499,23.712004],[121.305181,23.712367]]],[[[121.301525,23.714494],[121.301629,23.714044],[121.301827,23.713865],[121.301831,23.713594],[121.302226,23.713328],[121.30223,23.713057],[121.302132,23.713056],[121.302136,23.712695],[121.301649,23.712509],[121.301555,23.712146],[121.30136,23.712054],[121.300963,23.712411],[121.300858,23.712952],[121.300956,23.712953],[121.301045,23.713676],[121.301336,23.71395],[121.301233,23.71431],[121.301034,23.714489],[121.301228,23.714671],[121.301522,23.714675],[121.301622,23.714585],[121.301525,23.714494]]],[[[121.297006,23.715076],[121.297107,23.714807],[121.297794,23.714814],[121.297986,23.715087],[121.29838,23.715001],[121.298383,23.71473],[121.298285,23.714729],[121.298388,23.714369],[121.297712,23.713549],[121.297515,23.713637],[121.297509,23.714089],[121.297211,23.714356],[121.297209,23.714537],[121.297013,23.714535],[121.296912,23.714714],[121.296617,23.714801],[121.296713,23.714983],[121.296909,23.714985],[121.29681,23.715074],[121.296905,23.715256],[121.297103,23.715168],[121.297006,23.715076]]],[[[121.297198,23.715349],[121.297003,23.715257],[121.296805,23.715435],[121.2969,23.715707],[121.297195,23.71562],[121.297198,23.715349]]],[[[121.298524,23.718976],[121.298526,23.718886],[121.298721,23.718978],[121.298919,23.7188],[121.298822,23.718708],[121.298923,23.718529],[121.298728,23.718436],[121.298726,23.718527],[121.298431,23.718614],[121.298429,23.718794],[121.298135,23.718791],[121.298237,23.718431],[121.298335,23.718432],[121.29824,23.71825],[121.297644,23.718786],[121.297642,23.718966],[121.297935,23.71906],[121.297934,23.71915],[121.298524,23.718976]]],[[[121.302122,23.721363],[121.302032,23.72073],[121.302231,23.720552],[121.302237,23.7201],[121.302335,23.720101],[121.302339,23.71974],[121.302438,23.719741],[121.302342,23.71956],[121.302145,23.719648],[121.301941,23.720187],[121.301744,23.720275],[121.301837,23.720638],[121.30164,23.720726],[121.301633,23.721268],[121.302021,23.721633],[121.302218,23.721545],[121.30222,23.721364],[121.302122,23.721363]]],[[[121.296821,23.721756],[121.296726,23.721484],[121.296923,23.721487],[121.297023,23.721307],[121.296828,23.721215],[121.296735,23.720852],[121.296834,23.720763],[121.297128,23.720767],[121.297224,23.720948],[121.297421,23.72086],[121.297324,23.720769],[121.297427,23.720409],[121.297135,23.720225],[121.29714,23.719864],[121.297238,23.719865],[121.297145,23.719503],[121.296651,23.719768],[121.296744,23.72013],[121.296446,23.720398],[121.29664,23.720581],[121.296537,23.720941],[121.296439,23.72094],[121.296534,23.721211],[121.296042,23.721296],[121.296234,23.72166],[121.296432,23.721481],[121.296627,23.721574],[121.296527,23.721753],[121.296625,23.721754],[121.296719,23.722026],[121.296917,23.721938],[121.296919,23.721758],[121.296821,23.721756]]],[[[121.302703,23.722002],[121.302509,23.721819],[121.302311,23.721907],[121.302406,23.722179],[121.302504,23.72218],[121.302596,23.722633],[121.302992,23.722366],[121.302896,23.722184],[121.3027,23.722182],[121.302703,23.722002]]],[[[121.302788,23.722996],[121.302594,23.722813],[121.302395,23.722992],[121.302392,23.723262],[121.302195,23.723351],[121.302192,23.723531],[121.30229,23.723532],[121.302186,23.723983],[121.302576,23.724167],[121.302569,23.724709],[121.302271,23.725067],[121.301977,23.724974],[121.301874,23.725424],[121.301677,23.725422],[121.301479,23.7256],[121.301575,23.725782],[121.301771,23.725784],[121.301865,23.726056],[121.302162,23.725879],[121.302165,23.725608],[121.302359,23.72579],[121.302557,23.725702],[121.302463,23.72534],[121.30276,23.725163],[121.302763,23.724892],[121.302861,23.724893],[121.302872,23.72408],[121.303069,23.723992],[121.303066,23.724263],[121.303164,23.724264],[121.303257,23.724626],[121.303552,23.724539],[121.303455,23.724448],[121.303465,23.723726],[121.303663,23.723547],[121.303571,23.723095],[121.303866,23.723008],[121.303773,23.722646],[121.303969,23.722648],[121.30407,23.722468],[121.303678,23.722374],[121.30368,23.722283],[121.303091,23.722277],[121.30309,23.722367],[121.302893,23.722455],[121.302984,23.722998],[121.302788,23.722996]],[[121.302067,23.725607],[121.30207,23.725426],[121.302168,23.725427],[121.302165,23.725608],[121.302067,23.725607]]],[[[121.297347,23.726548],[121.29745,23.726188],[121.297158,23.726004],[121.296859,23.726362],[121.296856,23.726633],[121.297149,23.726726],[121.297347,23.726548]]],[[[121.306253,23.728091],[121.30596,23.727997],[121.305866,23.727635],[121.305671,23.727543],[121.305674,23.727362],[121.305286,23.726996],[121.304895,23.726902],[121.304604,23.726628],[121.304607,23.726447],[121.304705,23.726448],[121.304713,23.725816],[121.304519,23.725634],[121.304621,23.725364],[121.304329,23.72518],[121.304238,23.724637],[121.303652,23.72445],[121.303552,23.724539],[121.303647,23.724811],[121.303939,23.724995],[121.304033,23.725267],[121.304326,23.725361],[121.304213,23.726533],[121.304504,23.726807],[121.304502,23.726988],[121.304206,23.727075],[121.304203,23.727346],[121.304396,23.727529],[121.304889,23.727353],[121.305083,23.727536],[121.305081,23.727717],[121.305374,23.72781],[121.305371,23.727991],[121.305469,23.727992],[121.305368,23.728262],[121.305466,23.728263],[121.30556,23.728535],[121.306246,23.728632],[121.306345,23.728543],[121.306352,23.728001],[121.306253,23.728091]]],[[[121.303215,23.727877],[121.30263,23.727599],[121.302829,23.727421],[121.302735,23.727059],[121.302538,23.727147],[121.302535,23.727328],[121.302047,23.727142],[121.30205,23.726961],[121.302344,23.726964],[121.302343,23.727054],[121.302638,23.726967],[121.302545,23.726605],[121.302253,23.726421],[121.301655,23.727137],[121.302043,23.727503],[121.301745,23.72777],[121.301939,23.727953],[121.302233,23.727956],[121.302232,23.728047],[121.302526,23.72805],[121.302525,23.72814],[121.303115,23.728056],[121.303215,23.727877]]]]}},{"type":"Feature","properties":{"kind":"bare_dam","month":"2020-03","area_ha":26.07},"geometry":{"type":"MultiPolygon","coordinates":[[[[121.302916,23.690309],[121.30282,23.690218],[121.301937,23.690208],[121.301938,23.690118],[121.301546,23.690113],[121.301547,23.690023],[121.30135,23.690111],[121.301543,23.690384],[121.301935,23.690389],[121.301934,23.690479],[121.302816,23.690488],[121.302916,23.690309]]],[[[121.302898,23.691754],[121.303577,23.692303],[121.303676,23.692214],[121.304165,23.692309],[121.304166,23.692219],[121.304756,23.692135],[121.30485,23.692407],[121.305047,23.692409],[121.305045,23.692499],[121.305341,23.692412],[121.305438,23.692504],[121.305539,23.692234],[121.305345,23.692051],[121.305641,23.691964],[121.305639,23.692054],[121.30603,23.692149],[121.306132,23.691879],[121.305839,23.691786],[121.305747,23.691333],[121.305551,23.691331],[121.305352,23.69151],[121.30535,23.69169],[121.305055,23.691777],[121.304954,23.691957],[121.304663,23.691773],[121.304762,23.691684],[121.304666,23.691502],[121.304469,23.69159],[121.304563,23.691862],[121.304072,23.691947],[121.303489,23.691489],[121.303195,23.691486],[121.303197,23.691396],[121.302705,23.691481],[121.302609,23.691299],[121.302315,23.691296],[121.302025,23.691022],[121.301829,23.691019],[121.30163,23.691198],[121.301439,23.690835],[121.301142,23.691012],[121.300658,23.690555],[121.300956,23.690287],[121.30086,23.690106],[121.301058,23.689927],[121.300667,23.689833],[121.300668,23.689743],[121.300074,23.690187],[121.300268,23.69037],[121.300265,23.690641],[121.300066,23.69082],[121.29987,23.690817],[121.299969,23.690728],[121.299872,23.690637],[121.299976,23.690186],[121.299879,23.690095],[121.299192,23.690178],[121.298901,23.689904],[121.298904,23.689723],[121.298708,23.689721],[121.298607,23.6899],[121.298117,23.689895],[121.297522,23.69043],[121.297615,23.690793],[121.297809,23.690975],[121.298201,23.69098],[121.298301,23.6908],[121.298692,23.690895],[121.298785,23.691347],[121.299078,23.691441],[121.299076,23.691531],[121.299371,23.691534],[121.299372,23.691444],[121.299665,23.691537],[121.299764,23.691448],[121.299669,23.691176],[121.299867,23.691088],[121.300155,23.691543],[121.300254,23.691454],[121.300842,23.69146],[121.300841,23.69155],[121.301431,23.691467],[121.301526,23.691648],[121.30192,23.691562],[121.301918,23.691653],[121.302898,23.691754]],[[121.303093,23.691846],[121.303192,23.691757],[121.303191,23.691847],[121.303093,23.691846]],[[121.300456,23.691004],[121.300359,23.690913],[121.300457,23.690914],[121.300456,23.691004]]],[[[121.301202,23.693992],[121.30091,23.693809],[121.301009,23.693719],[121.300914,23.693538],[121.300715,23.693716],[121.300423,23.693532],[121.300622,23.693354],[121.300624,23.693173],[121.300526,23.693172],[121.300435,23.69263],[121.300241,23.692447],[121.299751,23.692441],[121.299657,23.692169],[121.299166,23.692164],[121.299169,23.691984],[121.298975,23.691801],[121.298779,23.691799],[121.298684,23.691527],[121.298389,23.691614],[121.298678,23.691978],[121.298384,23.691975],[121.298194,23.691521],[121.298,23.691339],[121.297803,23.691427],[121.297997,23.691609],[121.29809,23.691972],[121.298381,23.692246],[121.298577,23.692248],[121.298473,23.692698],[121.298668,23.692791],[121.298664,23.693062],[121.299052,23.693427],[121.29895,23.693697],[121.299243,23.69379],[121.299241,23.693971],[121.299435,23.694154],[121.299633,23.693975],[121.300122,23.694071],[121.300221,23.693982],[121.300126,23.6938],[121.300322,23.693802],[121.300417,23.693984],[121.300712,23.693987],[121.300904,23.69426],[121.3011,23.694262],[121.301202,23.693992]],[[121.299537,23.693794],[121.299539,23.693703],[121.299735,23.693705],[121.299733,23.693796],[121.299537,23.693794]],[[121.299247,23.693519],[121.299344,23.693611],[121.299246,23.69361],[121.299247,23.693519]],[[121.299346,23.69343],[121.299542,23.693432],[121.299541,23.693523],[121.299345,23.693521],[121.299346,23.69343]],[[121.300234,23.692989],[121.300137,23.692897],[121.300235,23.692898],[121.300234,23.692989]]],[[[121.301394,23.694265],[121.301295,23.694355],[121.301683,23.69472],[121.301977,23.694723],[121.301976,23.694814],[121.302173,23.694725],[121.301883,23.694361],[121.301687,23.694359],[121.301594,23.693997],[121.301302,23.693813],[121.301202,23.693992],[121.3013,23.693994],[121.301394,23.694265]]],[[[121.2989,23.697579],[121.299198,23.697312],[121.299102,23.69713],[121.2993,23.696951],[121.299202,23.69695],[121.299109,23.696588],[121.298914,23.696496],[121.298921,23.695954],[121.298824,23.695863],[121.298627,23.695951],[121.298336,23.695677],[121.298339,23.695496],[121.298736,23.695139],[121.298541,23.695047],[121.298342,23.695225],[121.298246,23.695044],[121.297854,23.695039],[121.297755,23.695128],[121.297753,23.695309],[121.297851,23.69531],[121.297745,23.695941],[121.298036,23.696125],[121.298124,23.696939],[121.298511,23.697304],[121.298505,23.697755],[121.298602,23.697847],[121.298798,23.697849],[121.2989,23.697579]],[[121.298525,23.696221],[121.29862,23.696492],[121.298326,23.696489],[121.29833,23.696128],[121.298525,23.696221]]],[[[121.29653,23.698817],[121.296142,23.698542],[121.295747,23.698718],[121.295843,23.6989],[121.296235,23.698904],[121.296331,23.699086],[121.296528,23.698998],[121.29653,23.698817]]],[[[121.298304,23.698205],[121.298202,23.698474],[121.298104,23.698473],[121.298102,23.698654],[121.298296,23.698746],[121.298197,23.698836],[121.298292,23.699108],[121.298093,23.699286],[121.297898,23.699194],[121.2977,23.699372],[121.297698,23.699553],[121.297404,23.699549],[121.297303,23.699729],[121.297987,23.699917],[121.297985,23.700097],[121.297887,23.700096],[121.29798,23.700459],[121.298961,23.700469],[121.299063,23.700109],[121.29887,23.699927],[121.298777,23.699474],[121.299075,23.699206],[121.299081,23.698755],[121.299377,23.698578],[121.29938,23.698397],[121.300067,23.698314],[121.300267,23.698046],[121.300463,23.698048],[121.300559,23.698229],[121.301049,23.698235],[121.301644,23.6977],[121.301449,23.697607],[121.30155,23.697428],[121.301257,23.697334],[121.301057,23.697603],[121.300763,23.6976],[121.300464,23.697958],[121.300268,23.697955],[121.300269,23.697865],[121.299975,23.697862],[121.299875,23.698041],[121.299778,23.69795],[121.299582,23.697948],[121.29958,23.698038],[121.299288,23.697945],[121.298889,23.698392],[121.298793,23.6983],[121.298497,23.698387],[121.298304,23.698205]],[[121.301156,23.697514],[121.301253,23.697605],[121.301155,23.697604],[121.301156,23.697514]],[[121.298495,23.698568],[121.298397,23.698567],[121.298399,23.698386],[121.298497,23.698387],[121.298495,23.698568]]],[[[121.299158,23.700381],[121.299059,23.70047],[121.299157,23.700472],[121.299158,23.700381]]],[[[121.312754,23.687798],[121.312852,23.687799],[121.312856,23.687528],[121.312468,23.687163],[121.312375,23.6868],[121.312278,23.686709],[121.311591,23.686792],[121.311404,23.686067],[121.311209,23.685975],[121.311107,23.686245],[121.311205,23.686246],[121.311201,23.686607],[121.311299,23.686608],[121.311294,23.686969],[121.311392,23.68697],[121.311284,23.687782],[121.311479,23.687874],[121.311776,23.687607],[121.311879,23.687246],[121.312269,23.687431],[121.312555,23.688067],[121.312752,23.687978],[121.312754,23.687798]],[[121.311581,23.687514],[121.311484,23.687423],[121.311582,23.687424],[121.311581,23.687514]]],[[[121.30331,23.690223],[121.303507,23.690135],[121.303411,23.689953],[121.303312,23.690042],[121.303118,23.68986],[121.302922,23.689858],[121.302921,23.689948],[121.30253,23.689853],[121.302431,23.689942],[121.302527,23.690124],[121.30292,23.690038],[121.303016,23.69022],[121.303115,23.690131],[121.303311,23.690133],[121.30331,23.690223]]],[[[121.308891,23.690826],[121.309088,23.690738],[121.309091,23.690557],[121.308897,23.690374],[121.308701,23.690372],[121.308502,23.690551],[121.3085,23.690731],[121.308597,23.690823],[121.308892,23.690736],[121.308891,23.690826]]],[[[121.310636,23.69238],[121.311331,23.691755],[121.311137,23.691573],[121.31055,23.691476],[121.31026,23.691112],[121.309574,23.691104],[121.309275,23.691462],[121.308988,23.690917],[121.30879,23.691096],[121.308498,23.690912],[121.308395,23.691272],[121.308099,23.691449],[121.308194,23.691631],[121.308294,23.691542],[121.308587,23.691635],[121.308588,23.691545],[121.308981,23.691459],[121.309369,23.691824],[121.309663,23.691828],[121.309758,23.692009],[121.309954,23.692011],[121.31005,23.692193],[121.310442,23.692197],[121.310636,23.69238]]],[[[121.305415,23.694219],[121.305614,23.694041],[121.305616,23.69386],[121.305421,23.693768],[121.305223,23.693946],[121.30522,23.694127],[121.305415,23.694219]]],[[[121.303053,23.694916],[121.303347,23.694919],[121.303447,23.694739],[121.303254,23.694557],[121.302567,23.694549],[121.302566,23.69464],[121.302271,23.694727],[121.302367,23.694908],[121.302759,23.694913],[121.30276,23.694822],[121.303054,23.694825],[121.303053,23.694916]]],[[[121.304122,23.69565],[121.304515,23.695564],[121.304813,23.695296],[121.304817,23.695025],[121.305113,23.694848],[121.305115,23.694667],[121.305411,23.69458],[121.305217,23.694398],[121.305124,23.694035],[121.304728,23.694302],[121.304533,23.69421],[121.304434,23.694299],[121.304529,23.69448],[121.304331,23.694659],[121.304234,23.694567],[121.303939,23.694655],[121.304032,23.695017],[121.303639,23.695103],[121.303731,23.695555],[121.303828,23.695647],[121.304123,23.69556],[121.304122,23.69565]],[[121.304124,23.695469],[121.304028,23.695378],[121.304126,23.695379],[121.304124,23.695469]]],[[[121.303233,23.696182],[121.303331,23.696183],[121.303433,23.695823],[121.303042,23.695728],[121.302941,23.695998],[121.302546,23.696174],[121.302544,23.696355],[121.302248,23.696532],[121.302145,23.696892],[121.301748,23.697249],[121.30204,23.697433],[121.30214,23.697254],[121.302434,23.697257],[121.302733,23.696899],[121.303027,23.696902],[121.303127,23.696813],[121.303031,23.696631],[121.303228,23.696543],[121.303233,23.696182]],[[121.303031,23.696631],[121.302934,23.69654],[121.303032,23.696541],[121.303031,23.696631]]]]}},{"type":"Feature","properties":{"kind":"water","month":"2020-03","area_ha":0.26},"geometry":{"type":"MultiPolygon","coordinates":[[[[121.305511,23.694401],[121.305512,23.694311],[121.305708,23.694313],[121.305714,23.693861],[121.305616,23.69386],[121.305513,23.69422],[121.30522,23.694127],[121.305217,23.694398],[121.305511,23.694401]]],[[[121.300762,23.69769],[121.300763,23.6976],[121.301057,23.697603],[121.301058,23.697513],[121.300471,23.697416],[121.300566,23.697688],[121.300762,23.69769]]]]}}]}