{"type":"FeatureCollection","features":[{"type":"Feature","properties":{"kind":"bare_slide","month":"2020-02","area_ha":65.46},"geometry":{"type":"MultiPolygon","coordinates":[[[[121.287668,23.716689],[121.288057,23.716964],[121.288052,23.717325],[121.288638,23.717512],[121.288536,23.717782],[121.288828,23.717966],[121.288826,23.718147],[121.288728,23.718145],[121.288821,23.718508],[121.28921,23.718783],[121.289507,23.718515],[121.28951,23.718335],[121.289706,23.718337],[121.289807,23.718067],[121.289906,23.718068],[121.289713,23.717795],[121.28991,23.717707],[121.289916,23.717256],[121.290213,23.717078],[121.290118,23.716806],[121.290607,23.716902],[121.290709,23.716632],[121.290905,23.716634],[121.291005,23.716455],[121.291396,23.71655],[121.291695,23.716192],[121.291698,23.716011],[121.2916,23.71601],[121.291705,23.715469],[121.291901,23.715472],[121.292001,23.715292],[121.292295,23.715295],[121.292297,23.715205],[121.292786,23.715301],[121.292785,23.715391],[121.292981,23.715393],[121.292982,23.715303],[121.294059,23.715405],[121.294159,23.715316],[121.294064,23.715044],[121.29456,23.714598],[121.294856,23.714511],[121.294958,23.714151],[121.295157,23.713972],[121.295747,23.713798],[121.295851,23.713348],[121.296247,23.713081],[121.296253,23.71263],[121.296847,23.712185],[121.297338,23.71219],[121.297339,23.7121],[121.297828,23.712196],[121.298026,23.712017],[121.298129,23.711657],[121.298326,23.711569],[121.298235,23.711026],[121.298333,23.711027],[121.298337,23.710757],[121.298435,23.710758],[121.298441,23.710306],[121.298343,23.710305],[121.298249,23.709943],[121.297958,23.709759],[121.297864,23.709397],[121.297474,23.709212],[121.297677,23.708672],[121.297874,23.708675],[121.297872,23.708765],[121.29807,23.708677],[121.298175,23.708136],[121.29798,23.708044],[121.297779,23.708403],[121.297485,23.708399],[121.297382,23.70876],[121.297185,23.708848],[121.297083,23.709117],[121.296887,23.709115],[121.296888,23.709025],[121.296691,23.709113],[121.297174,23.70966],[121.29737,23.709662],[121.297367,23.709933],[121.297948,23.710481],[121.297941,23.711023],[121.297744,23.711111],[121.297838,23.711383],[121.29774,23.711382],[121.297639,23.711652],[121.297147,23.711737],[121.297148,23.711647],[121.296757,23.711552],[121.296653,23.712002],[121.296356,23.71227],[121.296062,23.712267],[121.295863,23.712445],[121.29586,23.712716],[121.295466,23.712802],[121.295267,23.713071],[121.294677,23.713154],[121.294575,23.713424],[121.294379,23.713422],[121.294181,23.7136],[121.293495,23.713593],[121.293496,23.713503],[121.293297,23.713681],[121.293101,23.713679],[121.293102,23.713589],[121.292612,23.713583],[121.292611,23.713673],[121.291631,23.713572],[121.291432,23.713841],[121.29104,23.713837],[121.291038,23.713927],[121.290645,23.714013],[121.290545,23.714192],[121.29035,23.7141],[121.29015,23.714369],[121.289955,23.714276],[121.289755,23.714545],[121.289461,23.714542],[121.289263,23.71472],[121.289357,23.714992],[121.289161,23.71499],[121.289162,23.714899],[121.28828,23.71489],[121.288279,23.71498],[121.287888,23.714885],[121.287787,23.715065],[121.287395,23.715061],[121.287396,23.71497],[121.287003,23.715056],[121.286903,23.715145],[121.287097,23.715328],[121.287092,23.715689],[121.286994,23.715688],[121.287088,23.71605],[121.286988,23.71614],[121.287673,23.716328],[121.287668,23.716689]],[[121.289713,23.717795],[121.289616,23.717704],[121.289714,23.717705],[121.289713,23.717795]],[[121.287673,23.716328],[121.287772,23.716239],[121.287771,23.716329],[121.287673,23.716328]],[[121.287772,23.716239],[121.287871,23.716149],[121.28787,23.71624],[121.287772,23.716239]],[[121.288835,23.717424],[121.28923,23.717248],[121.289226,23.717519],[121.288833,23.717605],[121.288835,23.717424]],[[121.289331,23.716978],[121.28963,23.71662],[121.290024,23.716534],[121.290126,23.716174],[121.290324,23.716086],[121.29022,23.716537],[121.290021,23.716715],[121.289727,23.716712],[121.289329,23.717159],[121.289133,23.717157],[121.289136,23.716886],[121.289331,23.716978]],[[121.288744,23.716881],[121.288647,23.71679],[121.288745,23.716791],[121.288744,23.716881]],[[121.289536,23.716348],[121.289533,23.716529],[121.289239,23.716526],[121.28924,23.716435],[121.289536,23.716348]],[[121.288067,23.716152],[121.288069,23.715971],[121.288168,23.715972],[121.288165,23.716153],[121.288067,23.716152]],[[121.288557,23.716157],[121.288461,23.716066],[121.288559,23.716067],[121.288557,23.716157]],[[121.289048,23.716162],[121.28905,23.715982],[121.289246,23.715984],[121.289244,23.716165],[121.289048,23.716162]],[[121.290235,23.715363],[121.290633,23.714916],[121.291025,23.71492],[121.291024,23.71501],[121.291415,23.715105],[121.291413,23.715286],[121.291116,23.715463],[121.291114,23.715643],[121.290918,23.715641],[121.290619,23.715999],[121.290423,23.715997],[121.290523,23.715818],[121.29033,23.715635],[121.289939,23.71554],[121.290039,23.715361],[121.290235,23.715363]],[[121.289939,23.71554],[121.289839,23.715629],[121.28984,23.715539],[121.289939,23.71554]],[[121.288957,23.71562],[121.288757,23.715888],[121.288561,23.715886],[121.288665,23.715436],[121.288957,23.71562]],[[121.288957,23.71562],[121.289056,23.71553],[121.289055,23.715621],[121.288957,23.71562]],[[121.288367,23.715703],[121.28827,23.715612],[121.288368,23.715613],[121.288367,23.715703]],[[121.288277,23.71507],[121.288276,23.715161],[121.28857,23.715164],[121.288569,23.715254],[121.287981,23.715248],[121.288081,23.715068],[121.288277,23.71507]],[[121.289455,23.714993],[121.289556,23.714814],[121.289751,23.714906],[121.289649,23.715176],[121.289453,23.715174],[121.289552,23.715084],[121.289455,23.714993]],[[121.291808,23.715109],[121.291711,23.715018],[121.291809,23.715019],[121.291808,23.715109]],[[121.290045,23.714909],[121.290142,23.715001],[121.290044,23.715],[121.290045,23.714909]],[[121.290143,23.71491],[121.290244,23.714641],[121.290539,23.714644],[121.290241,23.714911],[121.290143,23.71491]],[[121.29054,23.714554],[121.290736,23.714556],[121.290735,23.714646],[121.290539,23.714644],[121.29054,23.714554]],[[121.291422,23.714563],[121.291325,23.714472],[121.291424,23.714473],[121.291422,23.714563]],[[121.293295,23.713862],[121.293198,23.71377],[121.293296,23.713771],[121.293295,23.713862]]],[[[121.285514,23.716394],[121.286109,23.715859],[121.286113,23.715588],[121.28631,23.7155],[121.286215,23.715318],[121.286019,23.715316],[121.285721,23.715584],[121.285427,23.715581],[121.285326,23.71576],[121.28513,23.715758],[121.284734,23.716024],[121.284927,23.716297],[121.285123,23.7163],[121.285122,23.71639],[121.285417,23.716303],[121.285514,23.716394]]],[[[121.291992,23.716014],[121.291798,23.715832],[121.291698,23.716011],[121.291893,23.716104],[121.291992,23.716014]]],[[[121.284042,23.716468],[121.283847,23.716376],[121.28335,23.716912],[121.283643,23.717006],[121.283743,23.716826],[121.284037,23.716829],[121.284136,23.71674],[121.284042,23.716468]]],[[[121.283441,23.717455],[121.283828,23.71782],[121.284122,23.717824],[121.284121,23.717914],[121.284317,23.717916],[121.284516,23.717738],[121.284322,23.717555],[121.28433,23.716923],[121.284233,23.716831],[121.283643,23.717006],[121.283444,23.717184],[121.283441,23.717455]],[[121.284322,23.717555],[121.284223,23.717644],[121.284224,23.717554],[121.284322,23.717555]]],[[[121.291772,23.717818],[121.291578,23.717635],[121.291678,23.717546],[121.291971,23.717639],[121.292072,23.71737],[121.292268,23.717372],[121.292264,23.717733],[121.292557,23.717827],[121.292856,23.717469],[121.293052,23.717471],[121.29325,23.717292],[121.293255,23.716931],[121.29306,23.716839],[121.292861,23.717017],[121.292859,23.717198],[121.292563,23.717375],[121.292567,23.717014],[121.292277,23.71674],[121.292075,23.717189],[121.291777,23.717457],[121.291582,23.717364],[121.291186,23.717631],[121.29128,23.717993],[121.290792,23.717807],[121.290592,23.718076],[121.290002,23.71816],[121.289902,23.718339],[121.290194,23.718523],[121.290384,23.718976],[121.289993,23.718882],[121.289891,23.719152],[121.289988,23.719243],[121.290184,23.719245],[121.290186,23.719155],[121.290479,23.719248],[121.290579,23.719069],[121.290971,23.719073],[121.29117,23.718895],[121.291172,23.718714],[121.291465,23.718808],[121.291566,23.718628],[121.291762,23.71863],[121.291862,23.718451],[121.291569,23.718357],[121.291574,23.717996],[121.291772,23.717818]],[[121.291172,23.718714],[121.291075,23.718623],[121.291173,23.718624],[121.291172,23.718714]],[[121.291569,23.718357],[121.29147,23.718447],[121.291471,23.718356],[121.291569,23.718357]]],[[[121.290176,23.719877],[121.290277,23.719698],[121.289694,23.71924],[121.289498,23.719238],[121.289398,23.719417],[121.289201,23.719415],[121.289106,23.719233],[121.288614,23.719318],[121.289196,23.719866],[121.289392,23.719868],[121.289393,23.719778],[121.28949,23.71987],[121.290176,23.719877]]],[[[121.284002,23.719538],[121.284497,23.719182],[121.284499,23.719002],[121.284015,23.718545],[121.283524,23.718539],[121.283424,23.718719],[121.283716,23.718903],[121.283611,23.719443],[121.283317,23.71944],[121.28332,23.719169],[121.283125,23.719077],[121.283024,23.719346],[121.282528,23.719702],[121.282526,23.719883],[121.282721,23.719975],[121.282719,23.720156],[121.282521,23.720244],[121.282518,23.720515],[121.282322,23.720512],[121.282128,23.72033],[121.282133,23.719969],[121.282231,23.71997],[121.282135,23.719788],[121.281939,23.719786],[121.281641,23.720053],[121.281733,23.720506],[121.281927,23.720689],[121.282221,23.720692],[121.28222,23.720782],[121.282909,23.720609],[121.283207,23.720342],[121.283209,23.720161],[121.283504,23.720074],[121.283608,23.719624],[121.284002,23.719538]],[[121.284102,23.719358],[121.284005,23.719267],[121.284103,23.719268],[121.284102,23.719358]]],[[[121.284873,23.72045],[121.284875,23.72027],[121.285271,23.720003],[121.285175,23.719822],[121.284388,23.719994],[121.283992,23.72026],[121.28399,23.720441],[121.284283,23.720534],[121.284282,23.720625],[121.284674,23.720629],[121.284873,23.72045]]],[[[121.285058,23.721265],[121.285154,23.721447],[121.28535,23.721449],[121.285351,23.721359],[121.285645,23.721362],[121.286042,23.721005],[121.285852,23.720552],[121.285951,23.720462],[121.286147,23.720465],[121.286146,23.720555],[121.286442,23.720468],[121.286345,23.720377],[121.286543,23.720198],[121.286449,23.719926],[121.286742,23.72002],[121.286842,23.71984],[121.287234,23.719845],[121.287427,23.720118],[121.287625,23.719939],[121.287141,23.719482],[121.286942,23.719661],[121.286354,23.719654],[121.286056,23.719922],[121.286053,23.720193],[121.285854,23.720371],[121.285658,23.720369],[121.285563,23.720187],[121.285463,23.720276],[121.285268,23.720184],[121.28507,23.720362],[121.285066,23.720633],[121.28487,23.720631],[121.284672,23.720809],[121.284666,23.721261],[121.284567,23.72135],[121.284761,23.721443],[121.284862,23.721263],[121.285058,23.721265]],[[121.284964,23.720993],[121.285063,23.720904],[121.285062,23.720994],[121.284964,23.720993]]],[[[121.289873,23.720596],[121.289967,23.720868],[121.290065,23.720869],[121.289961,23.72132],[121.289863,23.721318],[121.289966,23.720958],[121.289772,23.720776],[121.289576,23.720773],[121.289577,23.720683],[121.289282,23.72077],[121.289378,23.720952],[121.289672,23.720955],[121.289568,23.721405],[121.28947,23.721404],[121.289564,23.721676],[121.289663,23.721587],[121.28976,23.721679],[121.28986,23.721589],[121.289956,23.721681],[121.290546,23.721597],[121.290844,23.721329],[121.290748,23.721148],[121.290454,23.721144],[121.290461,23.720603],[121.290363,23.720602],[121.290464,23.720332],[121.290368,23.72024],[121.29017,23.720329],[121.290168,23.720509],[121.289873,23.720596]],[[121.290168,23.720509],[121.290265,23.720601],[121.290167,23.720599],[121.290168,23.720509]]],[[[121.288384,23.721934],[121.288385,23.721844],[121.28868,23.721757],[121.288782,23.721487],[121.288978,23.721489],[121.289177,23.721311],[121.289083,23.720949],[121.288885,23.721127],[121.288592,23.721033],[121.288393,23.721212],[121.288586,23.721485],[121.288292,23.721482],[121.288191,23.721661],[121.287995,23.721659],[121.287801,23.721476],[121.287804,23.721296],[121.288001,23.721208],[121.287905,23.721026],[121.287409,23.721472],[121.287213,23.72147],[121.287214,23.721379],[121.286919,23.721466],[121.287012,23.721829],[121.287111,23.721739],[121.287306,23.721832],[121.287407,23.721652],[121.287702,23.721565],[121.287992,23.72193],[121.288188,23.721932],[121.288189,23.721842],[121.288384,23.721934]],[[121.288688,23.721215],[121.288884,23.721217],[121.288883,23.721308],[121.288686,23.721305],[121.288688,23.721215]]],[[[121.289466,23.721675],[121.289176,23.721401],[121.288976,23.72167],[121.289367,23.721764],[121.289466,23.721675]]],[[[121.286705,23.722819],[121.286611,23.722547],[121.286904,23.72264],[121.287004,23.722461],[121.2872,23.722463],[121.287399,23.722284],[121.287401,23.722104],[121.287499,23.722105],[121.287404,23.721833],[121.287207,23.721921],[121.287204,23.722192],[121.286911,23.722098],[121.286809,23.722368],[121.286615,23.722185],[121.286419,23.722183],[121.286418,23.722274],[121.286027,23.722179],[121.285928,23.722268],[121.286023,23.72245],[121.286417,23.722364],[121.286511,23.722636],[121.286214,23.722903],[121.286507,23.722997],[121.286601,23.723269],[121.286798,23.723181],[121.286803,23.72282],[121.286705,23.722819]]],[[[121.290317,23.724123],[121.29071,23.724037],[121.290714,23.723766],[121.290519,23.723673],[121.290521,23.723493],[121.290717,23.723495],[121.290813,23.723677],[121.29101,23.723589],[121.29082,23.723135],[121.290526,23.723132],[121.290426,23.723311],[121.290231,23.723219],[121.290032,23.723397],[121.29003,23.723578],[121.290225,23.72367],[121.29022,23.724031],[121.290022,23.72421],[121.290217,23.724302],[121.290317,23.724123]]],[[[121.298883,23.706428],[121.298887,23.706157],[121.299084,23.706069],[121.29909,23.705618],[121.298992,23.705617],[121.29919,23.705438],[121.299096,23.705166],[121.299194,23.705168],[121.299197,23.704897],[121.299495,23.704629],[121.299501,23.704178],[121.299599,23.704179],[121.299702,23.703819],[121.299217,23.703362],[121.299127,23.702729],[121.299029,23.702728],[121.298943,23.701824],[121.299041,23.701825],[121.299145,23.701374],[121.298753,23.70137],[121.298657,23.701188],[121.298069,23.701182],[121.298066,23.701363],[121.29826,23.701545],[121.298153,23.702266],[121.298251,23.702268],[121.298247,23.702538],[121.298345,23.70254],[121.298341,23.702901],[121.298534,23.703083],[121.29853,23.703445],[121.298724,23.703627],[121.299115,23.703722],[121.299203,23.704445],[121.299005,23.704624],[121.298899,23.705255],[121.298406,23.70543],[121.298306,23.705609],[121.297814,23.705694],[121.29771,23.706144],[121.297807,23.706236],[121.2982,23.70615],[121.298296,23.706332],[121.298492,23.706334],[121.298587,23.706606],[121.298883,23.706428]]],[[[121.30131,23.708351],[121.301314,23.70808],[121.30112,23.707898],[121.300826,23.707894],[121.30073,23.707713],[121.300631,23.707802],[121.300042,23.707796],[121.300044,23.707705],[121.299846,23.707793],[121.299943,23.707885],[121.299843,23.708064],[121.300133,23.708338],[121.30033,23.70834],[121.300431,23.708071],[121.30092,23.708166],[121.301014,23.708529],[121.30131,23.708351]]],[[[121.301465,23.711513],[121.301082,23.710787],[121.300111,23.710054],[121.300115,23.709783],[121.299824,23.709509],[121.299628,23.709507],[121.299239,23.709231],[121.29904,23.7095],[121.299137,23.709592],[121.299334,23.709503],[121.299624,23.709778],[121.29962,23.710139],[121.299913,23.710232],[121.300008,23.710414],[121.300205,23.710416],[121.3003,23.710598],[121.300496,23.7106],[121.30059,23.710962],[121.300784,23.711145],[121.30098,23.711147],[121.301268,23.711602],[121.301465,23.711513]]],[[[121.301622,23.714585],[121.301527,23.714313],[121.301625,23.714314],[121.301731,23.713684],[121.301929,23.713595],[121.301932,23.713325],[121.302228,23.713237],[121.30223,23.713057],[121.302035,23.712964],[121.302134,23.712875],[121.30204,23.712603],[121.301552,23.712417],[121.301555,23.712146],[121.301262,23.712053],[121.300865,23.71241],[121.300863,23.71259],[121.300961,23.712591],[121.300862,23.712681],[121.300855,23.713222],[121.300953,23.713223],[121.300949,23.713494],[121.301239,23.713859],[121.301234,23.71422],[121.301036,23.714398],[121.30113,23.71467],[121.301325,23.714763],[121.301326,23.714672],[121.301622,23.714585]]],[[[121.297097,23.715619],[121.297196,23.71553],[121.2972,23.715259],[121.297102,23.715258],[121.297105,23.714987],[121.297007,23.714986],[121.297109,23.714716],[121.297205,23.714808],[121.297599,23.714722],[121.297986,23.715087],[121.29838,23.715001],[121.298382,23.714821],[121.298187,23.714728],[121.298289,23.714458],[121.298387,23.714459],[121.298294,23.714097],[121.298002,23.713913],[121.298004,23.713733],[121.297715,23.713368],[121.297517,23.713457],[121.29741,23.714178],[121.296914,23.714624],[121.29652,23.71471],[121.296616,23.714891],[121.29691,23.714895],[121.296811,23.714984],[121.296904,23.715346],[121.296609,23.715433],[121.296708,23.715344],[121.296612,23.715162],[121.296316,23.71534],[121.29641,23.715612],[121.296607,23.715614],[121.296608,23.715523],[121.297097,23.715619]]],[[[121.294251,23.715768],[121.294548,23.715501],[121.294843,23.715504],[121.295231,23.715779],[121.29543,23.715601],[121.295139,23.715327],[121.294845,23.715323],[121.294749,23.715142],[121.29465,23.715231],[121.294357,23.715137],[121.294159,23.715316],[121.294155,23.715587],[121.293959,23.715585],[121.293759,23.715853],[121.293954,23.715946],[121.294055,23.715766],[121.294251,23.715768]]],[[[121.298624,23.718887],[121.298622,23.718977],[121.29882,23.718889],[121.298826,23.718437],[121.298925,23.718348],[121.29873,23.718256],[121.298628,23.718526],[121.298331,23.718793],[121.298135,23.718791],[121.298138,23.71852],[121.298336,23.718342],[121.298241,23.71816],[121.297546,23.718785],[121.297739,23.719058],[121.298229,23.719063],[121.29823,23.718973],[121.298624,23.718887]]],[[[121.302027,23.721182],[121.302034,23.72064],[121.302231,23.720552],[121.30224,23.719829],[121.302338,23.719831],[121.302244,23.719559],[121.302046,23.719647],[121.302043,23.719918],[121.301745,23.720185],[121.301839,23.720547],[121.301542,23.720725],[121.301633,23.721268],[121.301924,23.721542],[121.302121,23.721454],[121.302125,23.721183],[121.302027,23.721182]]],[[[121.296719,23.722026],[121.296918,23.721848],[121.29692,23.721667],[121.296726,23.721484],[121.297022,23.721397],[121.296736,23.720762],[121.296835,23.720673],[121.297129,23.720676],[121.297128,23.720767],[121.297325,23.720678],[121.297228,23.720587],[121.29733,23.720317],[121.297135,23.720225],[121.297143,23.719593],[121.297241,23.719594],[121.297146,23.719412],[121.296551,23.719857],[121.296645,23.720219],[121.296448,23.720308],[121.296445,23.720488],[121.296543,23.720489],[121.296436,23.72121],[121.29624,23.721208],[121.296241,23.721118],[121.296044,23.721206],[121.296235,23.721569],[121.296433,23.721391],[121.296628,23.721483],[121.296529,23.721573],[121.296526,23.721843],[121.296624,23.721845],[121.296521,23.722205],[121.296618,23.722296],[121.296815,23.722208],[121.296817,23.722027],[121.296719,23.722026]]],[[[121.292789,23.722615],[121.293286,23.722079],[121.293482,23.722081],[121.293578,23.722262],[121.293776,23.722084],[121.293678,23.722083],[121.293682,23.721812],[121.293002,23.721263],[121.293006,23.720992],[121.292714,23.720808],[121.292715,23.720718],[121.293011,23.720631],[121.292916,23.720359],[121.292721,23.720266],[121.292318,23.721075],[121.292122,23.721073],[121.292124,23.720892],[121.291931,23.720709],[121.291733,23.720797],[121.291731,23.720978],[121.291829,23.720979],[121.292012,23.721974],[121.2925,23.72216],[121.292592,23.722613],[121.292789,23.722615]]],[[[121.303551,23.72463],[121.304033,23.725267],[121.30433,23.72509],[121.304238,23.724637],[121.304044,23.724454],[121.303848,23.724452],[121.303752,23.724271],[121.303653,23.72436],[121.303458,23.724267],[121.303466,23.723635],[121.303664,23.723457],[121.303572,23.723005],[121.303866,23.723008],[121.303967,23.722828],[121.303676,23.722554],[121.303284,23.72255],[121.303286,23.722369],[121.303384,23.72237],[121.303289,23.722189],[121.303092,23.722187],[121.303094,23.722096],[121.302798,23.722183],[121.302411,23.721818],[121.302309,23.722088],[121.302504,23.72218],[121.302501,23.722451],[121.302597,23.722542],[121.302893,23.722455],[121.30289,23.722636],[121.302989,23.722637],[121.302985,23.722908],[121.302497,23.722722],[121.302393,23.723172],[121.302196,23.72326],[121.302193,23.723441],[121.302292,23.723442],[121.302186,23.723983],[121.302576,23.724167],[121.302571,23.724619],[121.302272,23.724977],[121.301979,23.724883],[121.301875,23.725334],[121.301679,23.725332],[121.301479,23.7256],[121.301867,23.725966],[121.302163,23.725788],[121.302167,23.725517],[121.30236,23.7257],[121.302558,23.725612],[121.302464,23.72525],[121.302761,23.725073],[121.302764,23.724802],[121.302862,23.724803],[121.302873,23.72399],[121.303069,23.723992],[121.303064,23.724353],[121.303355,23.724628],[121.303551,23.72463]],[[121.302167,23.725517],[121.30207,23.725426],[121.302168,23.725427],[121.302167,23.725517]],[[121.303551,23.72463],[121.30365,23.72454],[121.303649,23.724631],[121.303551,23.72463]],[[121.302796,23.722364],[121.302895,23.722275],[121.302894,23.722365],[121.302796,23.722364]]],[[[121.294726,23.724442],[121.294915,23.724986],[121.295307,23.725081],[121.295301,23.725532],[121.295692,23.725627],[121.296078,23.726083],[121.296277,23.725904],[121.296473,23.725906],[121.296371,23.726176],[121.296566,23.726269],[121.296567,23.726178],[121.296863,23.726091],[121.296866,23.72582],[121.296671,23.725728],[121.296776,23.725187],[121.297173,23.72483],[121.297271,23.724832],[121.297269,23.725012],[121.297171,23.725011],[121.297266,23.725283],[121.297562,23.725106],[121.297468,23.724834],[121.297863,23.724567],[121.29787,23.724025],[121.297675,23.723933],[121.297574,23.724203],[121.297276,23.72447],[121.296787,23.724375],[121.297287,23.723658],[121.296604,23.723379],[121.296505,23.723469],[121.296501,23.723739],[121.296599,23.723741],[121.296497,23.72401],[121.296203,23.724007],[121.296103,23.724187],[121.295809,23.724183],[121.295707,23.724453],[121.295218,23.724357],[121.295219,23.724267],[121.295021,23.724446],[121.294924,23.724354],[121.294726,23.724442]],[[121.295021,23.724446],[121.295117,23.724537],[121.295019,23.724536],[121.295021,23.724446]],[[121.29658,23.725185],[121.296482,23.725184],[121.296383,23.725273],[121.296485,23.725003],[121.296583,23.725005],[121.29658,23.725185]],[[121.296783,23.724646],[121.296883,23.724556],[121.296882,23.724647],[121.296783,23.724646]]],[[[121.306252,23.728181],[121.30596,23.727997],[121.305867,23.727545],[121.305576,23.727361],[121.305578,23.72718],[121.305384,23.726998],[121.305188,23.726995],[121.305092,23.726814],[121.304701,23.726719],[121.304703,23.726539],[121.304605,23.726538],[121.304714,23.725726],[121.304519,23.725634],[121.304622,23.725274],[121.304329,23.72518],[121.30423,23.725269],[121.304325,23.725451],[121.304128,23.725539],[121.304126,23.72572],[121.304224,23.725721],[121.304213,23.726533],[121.304503,23.726898],[121.304207,23.726985],[121.304203,23.727346],[121.304594,23.72744],[121.304694,23.727261],[121.30489,23.727263],[121.304888,23.727444],[121.305374,23.72781],[121.305369,23.728171],[121.305659,23.728536],[121.306149,23.728541],[121.306248,23.728452],[121.306252,23.728181]]],[[[121.303115,23.728056],[121.303314,23.727788],[121.30263,23.727599],[121.302632,23.727419],[121.30283,23.727331],[121.302735,23.727059],[121.302537,23.727237],[121.302146,23.727143],[121.301953,23.72687],[121.301656,23.727047],[121.302044,23.727412],[121.301746,23.72768],[121.301842,23.727862],[121.302136,23.727865],[121.30233,23.728048],[121.30282,23.728053],[121.302821,23.727963],[121.303115,23.728056]]]]}},{"type":"Feature","properties":{"kind":"bare_dam","month":"2020-02","area_ha":22.74},"geometry":{"type":"MultiPolygon","coordinates":[[[[121.302899,23.691663],[121.30348,23.692211],[121.303775,23.692124],[121.303774,23.692215],[121.304263,23.69231],[121.304462,23.692132],[121.304367,23.69186],[121.303975,23.691856],[121.303976,23.691765],[121.303485,23.69185],[121.303586,23.691581],[121.303393,23.691398],[121.303098,23.691395],[121.3031,23.691304],[121.303,23.691393],[121.302706,23.69139],[121.302707,23.6913],[121.302412,23.691387],[121.302316,23.691205],[121.302021,23.691292],[121.30212,23.691203],[121.302025,23.691022],[121.301631,23.691108],[121.301438,23.690925],[121.300946,23.69101],[121.300949,23.690829],[121.300754,23.690737],[121.300663,23.690194],[121.30037,23.6901],[121.300371,23.69001],[121.300076,23.690097],[121.300269,23.69028],[121.300066,23.69082],[121.299774,23.690636],[121.299874,23.690546],[121.299778,23.690365],[121.299581,23.690453],[121.299682,23.690183],[121.299488,23.69],[121.299194,23.689997],[121.299002,23.689724],[121.298708,23.689721],[121.298607,23.6899],[121.298215,23.689896],[121.297621,23.690341],[121.297616,23.690702],[121.297714,23.690703],[121.297809,23.690975],[121.298202,23.690889],[121.298303,23.69071],[121.298596,23.690803],[121.298594,23.690894],[121.298792,23.690806],[121.298889,23.690897],[121.298786,23.691257],[121.29898,23.69144],[121.299666,23.691447],[121.299765,23.691358],[121.299671,23.691086],[121.299867,23.691088],[121.300156,23.691453],[121.300255,23.691363],[121.301334,23.691375],[121.301429,23.691557],[121.301921,23.691472],[121.30192,23.691562],[121.302899,23.691663]],[[121.299483,23.690452],[121.299678,23.690544],[121.299676,23.690635],[121.29948,23.690632],[121.299483,23.690452]],[[121.303094,23.691756],[121.303193,23.691667],[121.303192,23.691757],[121.303094,23.691756]],[[121.300458,23.690824],[121.300362,23.690732],[121.30046,23.690734],[121.300458,23.690824]],[[121.29909,23.690448],[121.29919,23.690358],[121.299189,23.690449],[121.29909,23.690448]],[[121.299092,23.690357],[121.298995,23.690266],[121.298799,23.690264],[121.2988,23.690173],[121.299094,23.690177],[121.299092,23.690357]]],[[[121.301201,23.694083],[121.300813,23.693717],[121.300915,23.693448],[121.300333,23.692899],[121.300336,23.692719],[121.300434,23.69272],[121.300338,23.692538],[121.299752,23.692351],[121.299462,23.692077],[121.299166,23.692164],[121.298975,23.691801],[121.298779,23.691799],[121.298678,23.691978],[121.298384,23.691975],[121.298194,23.691521],[121.298097,23.69143],[121.2979,23.691518],[121.298186,23.692153],[121.298577,23.692248],[121.298473,23.692698],[121.298668,23.692791],[121.298664,23.693062],[121.299053,23.693337],[121.299051,23.693517],[121.298953,23.693516],[121.299047,23.693788],[121.299243,23.69379],[121.299339,23.693972],[121.299535,23.693974],[121.299536,23.693884],[121.299829,23.693977],[121.300225,23.693711],[121.300321,23.693892],[121.300615,23.693896],[121.301002,23.694261],[121.301201,23.694083]],[[121.299637,23.693704],[121.29954,23.693613],[121.299638,23.693614],[121.299637,23.693704]],[[121.299247,23.693519],[121.299249,23.693339],[121.299445,23.693341],[121.299443,23.693522],[121.299247,23.693519]]],[[[121.30169,23.694178],[121.301495,23.694086],[121.3014,23.693814],[121.301203,23.693902],[121.3013,23.693994],[121.301198,23.694263],[121.301392,23.694446],[121.301588,23.694448],[121.30169,23.694178]]],[[[121.2987,23.697848],[121.298998,23.69758],[121.299004,23.697129],[121.298907,23.697037],[121.299104,23.696949],[121.299011,23.696587],[121.298718,23.696494],[121.29882,23.696224],[121.298918,23.696225],[121.298923,23.695773],[121.298728,23.695681],[121.29853,23.695859],[121.298144,23.695404],[121.297851,23.69531],[121.297752,23.695399],[121.297847,23.695581],[121.297749,23.69558],[121.297648,23.69585],[121.298134,23.696126],[121.298029,23.696667],[121.298127,23.696668],[121.298124,23.696939],[121.298512,23.697214],[121.298507,23.697665],[121.298407,23.697754],[121.2987,23.697848]],[[121.298426,23.69631],[121.298329,23.696218],[121.298427,23.696219],[121.298426,23.69631]]],[[[121.300951,23.698234],[121.301545,23.697789],[121.301547,23.697608],[121.301449,23.697607],[121.30155,23.697428],[121.30067,23.697237],[121.300569,23.697417],[121.300763,23.6976],[121.300567,23.697597],[121.300268,23.697955],[121.300559,23.698229],[121.300951,23.698234]]],[[[121.295942,23.698811],[121.296138,23.698813],[121.296234,23.698995],[121.296431,23.698906],[121.296434,23.698726],[121.29624,23.698543],[121.29575,23.698538],[121.295551,23.698716],[121.295744,23.698989],[121.295942,23.698811]]],[[[121.294864,23.698799],[121.294665,23.698977],[121.294859,23.69916],[121.295153,23.699163],[121.295254,23.698984],[121.294863,23.698889],[121.294864,23.698799]]],[[[121.295447,23.699167],[121.295646,23.698988],[121.295354,23.698804],[121.295254,23.698984],[121.295447,23.699167]]],[[[121.299063,23.700109],[121.298774,23.699745],[121.298777,23.699474],[121.299076,23.699116],[121.299082,23.698665],[121.299578,23.698219],[121.300068,23.698224],[121.300168,23.698135],[121.300073,23.697863],[121.299877,23.697861],[121.299876,23.697951],[121.299681,23.697859],[121.29958,23.698038],[121.299189,23.697944],[121.298891,23.698301],[121.298695,23.698299],[121.298696,23.698209],[121.2984,23.698296],[121.298304,23.698205],[121.298005,23.698563],[121.298002,23.698743],[121.298294,23.698927],[121.298292,23.699108],[121.297994,23.699375],[121.297799,23.699283],[121.2976,23.699551],[121.297304,23.699638],[121.2974,23.69982],[121.297499,23.699731],[121.29789,23.699826],[121.29798,23.700459],[121.298961,23.700469],[121.299063,23.700109]],[[121.298496,23.698478],[121.298399,23.698386],[121.298497,23.698387],[121.298496,23.698478]]],[[[121.31227,23.687341],[121.312172,23.68734],[121.312266,23.687612],[121.312654,23.687977],[121.312753,23.687888],[121.312664,23.687165],[121.312469,23.687072],[121.312472,23.686892],[121.312181,23.686618],[121.311887,23.686614],[121.311784,23.686975],[121.311586,23.687153],[121.311489,23.687062],[121.311292,23.68715],[121.311289,23.68733],[121.311387,23.687331],[121.311285,23.687692],[121.31148,23.687784],[121.312174,23.687159],[121.312272,23.68716],[121.31227,23.687341]],[[121.311977,23.687248],[121.31188,23.687156],[121.311978,23.687157],[121.311977,23.687248]],[[121.311582,23.687424],[121.311486,23.687332],[121.311584,23.687334],[121.311582,23.687424]]],[[[121.310685,23.688588],[121.311079,23.688412],[121.310985,23.68814],[121.31059,23.688316],[121.310588,23.688497],[121.310685,23.688588]]],[[[121.310491,23.688405],[121.310293,23.688584],[121.310488,23.688676],[121.310588,23.688497],[121.310491,23.688405]]],[[[121.302326,23.690483],[121.302622,23.690306],[121.302527,23.690124],[121.302232,23.690121],[121.302231,23.690211],[121.301742,23.690116],[121.301743,23.690025],[121.301252,23.69011],[121.301348,23.690292],[121.30174,23.690296],[121.301739,23.690386],[121.302033,23.69039],[121.302032,23.69048],[121.302326,23.690483]]],[[[121.309078,23.69155],[121.309274,23.691552],[121.309467,23.691825],[121.309858,23.69192],[121.309953,23.692102],[121.31054,23.692198],[121.310539,23.692289],[121.310833,23.692292],[121.311329,23.691846],[121.31104,23.691481],[121.310745,23.691568],[121.31026,23.691112],[121.309575,23.691014],[121.309377,23.691192],[121.309374,23.691373],[121.309178,23.691371],[121.309085,23.691009],[121.30889,23.690916],[121.308692,23.691095],[121.308597,23.690823],[121.3084,23.690911],[121.308396,23.691182],[121.3079,23.691628],[121.30829,23.691813],[121.308392,23.691543],[121.308588,23.691545],[121.308589,23.691455],[121.309079,23.69146],[121.309078,23.69155]],[[121.308392,23.691543],[121.308295,23.691451],[121.308393,23.691453],[121.308392,23.691543]]],[[[121.306227,23.692151],[121.306128,23.69215],[121.306229,23.691971],[121.306035,23.691788],[121.305839,23.691786],[121.305744,23.691514],[121.305253,23.691599],[121.305251,23.691779],[121.305445,23.691962],[121.305739,23.691965],[121.306028,23.69233],[121.306227,23.692151]]],[[[121.304417,23.695563],[121.304715,23.695295],[121.304818,23.694935],[121.305313,23.694579],[121.305315,23.694399],[121.305024,23.694125],[121.304729,23.694212],[121.304529,23.69448],[121.304038,23.694565],[121.303939,23.694655],[121.304032,23.695017],[121.303639,23.695103],[121.303829,23.695556],[121.303928,23.695467],[121.304417,23.695563]]],[[[121.302436,23.697166],[121.302635,23.696898],[121.303028,23.696812],[121.303031,23.696631],[121.302837,23.696448],[121.30323,23.696362],[121.303234,23.696092],[121.303332,23.696093],[121.30324,23.69564],[121.302844,23.695907],[121.302842,23.696087],[121.302745,23.695996],[121.302548,23.696084],[121.302545,23.696265],[121.302348,23.696353],[121.302346,23.696533],[121.302148,23.696622],[121.302146,23.696802],[121.30185,23.696979],[121.301748,23.697249],[121.302041,23.697343],[121.302042,23.697252],[121.302436,23.697166]]]]}}]}