{"type":"FeatureCollection","features":[{"type":"Feature","properties":{"kind":"bare_slide","month":"2020-09","area_ha":61.06},"geometry":{"type":"MultiPolygon","coordinates":[[[[121.287572,23.716507],[121.287764,23.716871],[121.288058,23.716874],[121.288059,23.716784],[121.288646,23.71688],[121.288746,23.716701],[121.289334,23.716798],[121.289433,23.716708],[121.289239,23.716526],[121.28934,23.716346],[121.289634,23.716349],[121.289532,23.716619],[121.289727,23.716712],[121.289826,23.716623],[121.289732,23.716351],[121.290423,23.715997],[121.290425,23.715816],[121.290232,23.715634],[121.28974,23.715719],[121.289744,23.715448],[121.290137,23.715362],[121.290633,23.714916],[121.291025,23.71492],[121.291121,23.715102],[121.291415,23.715105],[121.291212,23.715645],[121.290917,23.715732],[121.29052,23.716088],[121.290616,23.71627],[121.291012,23.715913],[121.291209,23.715915],[121.291309,23.715736],[121.291602,23.715829],[121.291704,23.71556],[121.292099,23.715293],[121.292981,23.715393],[121.292982,23.715303],[121.293374,23.715307],[121.293473,23.715218],[121.293378,23.715036],[121.293574,23.715039],[121.293571,23.715219],[121.293863,23.715403],[121.293962,23.715314],[121.293867,23.715132],[121.294063,23.715134],[121.294361,23.714867],[121.294167,23.714684],[121.294169,23.714503],[121.294657,23.714689],[121.294759,23.714419],[121.294956,23.714331],[121.294958,23.714151],[121.295256,23.713883],[121.29555,23.713886],[121.295749,23.713708],[121.295751,23.713527],[121.296049,23.71326],[121.296453,23.712361],[121.296356,23.71227],[121.295962,23.712356],[121.295167,23.71316],[121.294774,23.713246],[121.294871,23.713337],[121.29477,23.713517],[121.294477,23.713423],[121.294277,23.713782],[121.293788,23.713686],[121.293786,23.713777],[121.293492,23.713773],[121.293293,23.714042],[121.2929,23.714038],[121.292805,23.713856],[121.292314,23.713851],[121.292116,23.714029],[121.292112,23.7143],[121.291919,23.714117],[121.291525,23.714203],[121.291331,23.71402],[121.291037,23.714017],[121.290937,23.714197],[121.290347,23.71428],[121.290247,23.71446],[121.289954,23.714366],[121.289655,23.714724],[121.289262,23.71481],[121.289356,23.715082],[121.288965,23.714988],[121.288964,23.715078],[121.288472,23.715163],[121.288569,23.715254],[121.288469,23.715434],[121.288663,23.715616],[121.288859,23.715619],[121.288961,23.715258],[121.289158,23.715261],[121.289054,23.715711],[121.288858,23.715709],[121.28856,23.715976],[121.288456,23.716427],[121.288358,23.716426],[121.288362,23.716065],[121.288661,23.715707],[121.288368,23.715613],[121.288176,23.71534],[121.288077,23.715429],[121.287882,23.715337],[121.288081,23.715068],[121.287984,23.714977],[121.287786,23.715155],[121.287101,23.715057],[121.286902,23.715236],[121.286997,23.715508],[121.286799,23.715596],[121.286993,23.715778],[121.286791,23.716228],[121.28718,23.716503],[121.287671,23.716418],[121.287572,23.716507]],[[121.289744,23.715448],[121.289647,23.715356],[121.289745,23.715357],[121.289744,23.715448]],[[121.293574,23.715039],[121.293673,23.714949],[121.293672,23.71504],[121.293574,23.715039]],[[121.289159,23.71517],[121.289355,23.715173],[121.289353,23.715353],[121.289254,23.715352],[121.289159,23.71517]],[[121.289353,23.715353],[121.289449,23.715444],[121.289351,23.715443],[121.289353,23.715353]],[[121.288358,23.716426],[121.288259,23.716515],[121.28826,23.716425],[121.288358,23.716426]],[[121.288368,23.715613],[121.288269,23.715702],[121.28827,23.715612],[121.288368,23.715613]],[[121.287671,23.716418],[121.287771,23.716329],[121.287769,23.716419],[121.287671,23.716418]],[[121.288066,23.716242],[121.28787,23.71624],[121.287871,23.716149],[121.288068,23.716061],[121.288066,23.716242]],[[121.289051,23.715892],[121.289445,23.715806],[121.289243,23.716255],[121.28895,23.716161],[121.289051,23.715892]],[[121.287089,23.71596],[121.287188,23.715871],[121.287187,23.715961],[121.287089,23.71596]],[[121.287678,23.715876],[121.287778,23.715787],[121.287776,23.715877],[121.287678,23.715876]],[[121.287387,23.715693],[121.287483,23.715784],[121.287385,23.715783],[121.287387,23.715693]],[[121.287289,23.715691],[121.287193,23.71551],[121.287391,23.715331],[121.287785,23.715245],[121.287683,23.715515],[121.287487,23.715513],[121.287289,23.715691]],[[121.291611,23.715107],[121.291808,23.715109],[121.291806,23.7152],[121.29161,23.715197],[121.291611,23.715107]],[[121.290045,23.714909],[121.290141,23.715091],[121.289944,23.715089],[121.289849,23.714907],[121.290045,23.714909]],[[121.29024,23.715002],[121.290339,23.714912],[121.290338,23.715003],[121.29024,23.715002]],[[121.29279,23.71494],[121.29289,23.71485],[121.292889,23.714941],[121.29279,23.71494]],[[121.293869,23.714951],[121.293968,23.714862],[121.293967,23.714953],[121.293869,23.714951]],[[121.292301,23.714844],[121.2926,23.714486],[121.293288,23.714403],[121.293285,23.714584],[121.292991,23.714581],[121.292891,23.71476],[121.292696,23.714668],[121.292695,23.714758],[121.292301,23.714844]],[[121.290441,23.714643],[121.29054,23.714554],[121.290539,23.714644],[121.290441,23.714643]],[[121.293874,23.71459],[121.293776,23.714589],[121.293677,23.714678],[121.293778,23.714409],[121.293876,23.71441],[121.293874,23.71459]],[[121.29152,23.714564],[121.29162,23.714475],[121.291618,23.714565],[121.29152,23.714564]],[[121.292012,23.714479],[121.292111,23.71439],[121.29211,23.714481],[121.292012,23.714479]],[[121.293486,23.714225],[121.293784,23.713957],[121.293782,23.714138],[121.293486,23.714225]],[[121.294273,23.714053],[121.294075,23.714231],[121.294077,23.714051],[121.294273,23.714053]],[[121.294566,23.714146],[121.294665,23.714057],[121.294664,23.714148],[121.294566,23.714146]]],[[[121.284056,23.715385],[121.28396,23.715203],[121.284059,23.715204],[121.28416,23.714934],[121.284063,23.714843],[121.283768,23.71493],[121.283574,23.714747],[121.283578,23.714476],[121.283285,23.714383],[121.282987,23.71465],[121.282982,23.715012],[121.283275,23.715105],[121.283376,23.714926],[121.283572,23.714928],[121.283569,23.715108],[121.283667,23.71511],[121.283665,23.71529],[121.283468,23.715378],[121.283563,23.71556],[121.283858,23.715563],[121.284056,23.715385]]],[[[121.286798,23.715686],[121.286701,23.715595],[121.286504,23.715683],[121.286599,23.715955],[121.286796,23.715867],[121.286798,23.715686]]],[[[121.285603,23.717118],[121.285902,23.71676],[121.286,23.716761],[121.286094,23.717033],[121.28639,23.716946],[121.286887,23.716409],[121.286693,23.716227],[121.286497,23.716224],[121.286397,23.716404],[121.286004,23.7164],[121.286003,23.71649],[121.28571,23.716396],[121.285607,23.716756],[121.285215,23.716752],[121.285116,23.716841],[121.285212,23.717023],[121.285013,23.717201],[121.285208,23.717294],[121.285308,23.717114],[121.285603,23.717118]]],[[[121.283925,23.717912],[121.283929,23.717641],[121.284324,23.717374],[121.284327,23.717194],[121.284622,23.717107],[121.284526,23.716925],[121.28502,23.71666],[121.284926,23.716388],[121.285122,23.71639],[121.285321,23.716121],[121.285613,23.716305],[121.285911,23.716037],[121.285815,23.715856],[121.286211,23.715589],[121.286115,23.715408],[121.285624,23.715492],[121.285623,23.715583],[121.28533,23.715489],[121.285131,23.715668],[121.285129,23.715848],[121.284635,23.716114],[121.284727,23.716566],[121.284529,23.716744],[121.284333,23.716742],[121.284232,23.716922],[121.284037,23.716829],[121.283838,23.717098],[121.283641,23.717096],[121.283344,23.717363],[121.28324,23.717814],[121.283533,23.717907],[121.283627,23.718179],[121.283925,23.717912]]],[[[121.289031,23.717426],[121.289133,23.717157],[121.288938,23.717064],[121.289037,23.716975],[121.288941,23.716793],[121.288645,23.716971],[121.288643,23.717151],[121.288446,23.717149],[121.288254,23.716876],[121.287957,23.717053],[121.288148,23.717507],[121.288443,23.71742],[121.288539,23.717602],[121.288735,23.717604],[121.288736,23.717513],[121.289031,23.717426]]],[[[121.288711,23.719409],[121.288907,23.719412],[121.288906,23.719502],[121.289103,23.719414],[121.289012,23.718871],[121.289408,23.718604],[121.289411,23.718424],[121.289607,23.718426],[121.289904,23.718158],[121.289911,23.717617],[121.290009,23.717618],[121.289914,23.717436],[121.290111,23.717348],[121.290313,23.716899],[121.290606,23.716992],[121.290708,23.716723],[121.291005,23.716455],[121.291301,23.716368],[121.291206,23.716096],[121.290911,23.716183],[121.290412,23.71681],[121.290021,23.716715],[121.289921,23.716894],[121.289627,23.716891],[121.289526,23.717071],[121.28933,23.717069],[121.289132,23.717247],[121.289229,23.717338],[121.28903,23.717517],[121.289123,23.717879],[121.28883,23.717785],[121.288731,23.717875],[121.288826,23.718147],[121.288529,23.718324],[121.288527,23.718504],[121.288625,23.718505],[121.288523,23.718775],[121.288718,23.718868],[121.288716,23.719048],[121.288618,23.719047],[121.288711,23.719409]],[[121.289211,23.718693],[121.289114,23.718601],[121.289212,23.718602],[121.289211,23.718693]],[[121.288718,23.718868],[121.288817,23.718779],[121.288816,23.718869],[121.288718,23.718868]],[[121.289023,23.718058],[121.289122,23.717969],[121.289121,23.718059],[121.289023,23.718058]],[[121.289524,23.717251],[121.28972,23.717253],[121.289621,23.717343],[121.289615,23.717794],[121.28932,23.717881],[121.289518,23.717703],[121.289524,23.717251]]],[[[121.291569,23.718357],[121.291475,23.718086],[121.29177,23.717998],[121.291674,23.717817],[121.291478,23.717815],[121.291578,23.717635],[121.29197,23.71773],[121.292071,23.71746],[121.292267,23.717462],[121.292359,23.717915],[121.292556,23.717917],[121.292754,23.717738],[121.29256,23.717556],[121.292564,23.717285],[121.292466,23.717284],[121.292566,23.717104],[121.292468,23.717103],[121.292374,23.716831],[121.292176,23.716919],[121.292174,23.7171],[121.291977,23.717188],[121.291974,23.717369],[121.291776,23.717547],[121.291483,23.717454],[121.291087,23.71772],[121.291281,23.717903],[121.29118,23.718082],[121.290987,23.7179],[121.29079,23.717897],[121.290591,23.718166],[121.290099,23.718251],[121.289999,23.71843],[121.290386,23.718796],[121.290383,23.719067],[121.289992,23.718972],[121.289888,23.719422],[121.289497,23.719328],[121.289001,23.719774],[121.289097,23.719865],[121.290078,23.719876],[121.290079,23.719786],[121.290274,23.719878],[121.290375,23.719699],[121.290082,23.719605],[121.29028,23.719427],[121.290284,23.719156],[121.290381,23.719247],[121.290872,23.719162],[121.291071,23.718984],[121.290976,23.718712],[121.291465,23.718808],[121.291564,23.718719],[121.291371,23.718536],[121.291569,23.718357]],[[121.291371,23.718536],[121.291271,23.718625],[121.291273,23.718535],[121.291371,23.718536]],[[121.291277,23.718174],[121.291374,23.718265],[121.291276,23.718264],[121.291277,23.718174]]],[[[121.284201,23.719269],[121.284105,23.719178],[121.284301,23.71918],[121.284402,23.71891],[121.284109,23.718817],[121.284112,23.718636],[121.283918,23.718453],[121.28343,23.718267],[121.283331,23.718357],[121.283328,23.718537],[121.283426,23.718538],[121.283325,23.718808],[121.283519,23.718991],[121.283226,23.718897],[121.283124,23.719167],[121.283221,23.719258],[121.283908,23.719176],[121.28371,23.719354],[121.283806,23.719536],[121.284002,23.719538],[121.284201,23.719269]]],[[[121.288419,23.719226],[121.288129,23.718951],[121.28823,23.718682],[121.288035,23.718589],[121.287936,23.718678],[121.288032,23.71886],[121.287834,23.718948],[121.287832,23.719129],[121.288223,23.719223],[121.288222,23.719314],[121.288419,23.719226]]],[[[121.287439,23.719215],[121.287339,23.719304],[121.287434,23.719576],[121.287731,23.719399],[121.287826,23.71958],[121.288022,23.719582],[121.28802,23.719763],[121.288214,23.719946],[121.288411,23.719858],[121.288124,23.719313],[121.287928,23.71931],[121.287929,23.71922],[121.287536,23.719306],[121.287439,23.719215]]],[[[121.28547,23.719735],[121.285664,23.719917],[121.285765,23.719738],[121.28557,23.719646],[121.28547,23.719735]]],[[[121.286056,23.719922],[121.285856,23.720281],[121.286049,23.720464],[121.286245,23.720466],[121.286444,23.720287],[121.286351,23.719925],[121.286646,23.719838],[121.286746,23.719659],[121.286551,23.719566],[121.286156,23.719833],[121.285768,23.719467],[121.285668,23.719647],[121.286056,23.719922]]],[[[121.28281,23.720699],[121.283012,23.720249],[121.283602,23.720075],[121.283506,23.719984],[121.283607,23.719714],[121.283216,23.719619],[121.283122,23.719347],[121.282824,23.719615],[121.282628,23.719613],[121.282428,23.719882],[121.282134,23.719878],[121.282133,23.719969],[121.281739,23.720055],[121.281732,23.720596],[121.281926,23.720779],[121.282317,23.720874],[121.282515,23.720695],[121.28281,23.720699]],[[121.283016,23.719888],[121.282818,23.720067],[121.28282,23.719886],[121.283016,23.719888]],[[121.283114,23.719889],[121.283214,23.7198],[121.283213,23.71989],[121.283114,23.719889]]],[[[121.290448,23.721596],[121.290548,23.721416],[121.290645,23.721508],[121.290843,23.72142],[121.290747,23.721238],[121.290551,23.721236],[121.290357,23.721053],[121.290361,23.720782],[121.290459,23.720783],[121.290366,23.720331],[121.290466,23.720242],[121.290272,23.720059],[121.290173,23.720148],[121.289978,23.720056],[121.289779,23.720234],[121.289876,23.720325],[121.289776,23.720505],[121.289288,23.720319],[121.289188,23.720408],[121.289382,23.720591],[121.289279,23.720951],[121.289571,23.721135],[121.289568,23.721405],[121.289272,23.721493],[121.289172,23.721672],[121.289465,23.721766],[121.289565,23.721586],[121.290448,23.721596]],[[121.289863,23.721318],[121.289962,23.721229],[121.289961,23.72132],[121.289863,23.721318]],[[121.290167,23.720599],[121.290266,23.72051],[121.290265,23.720601],[121.290167,23.720599]],[[121.290169,23.720419],[121.290268,23.72033],[121.290267,23.72042],[121.290169,23.720419]]],[[[121.284751,23.722255],[121.285148,23.721898],[121.285154,23.721447],[121.285645,23.721362],[121.285646,23.721272],[121.285941,23.721275],[121.285938,23.721456],[121.285642,23.721633],[121.285639,23.721813],[121.285143,23.722259],[121.285239,23.722441],[121.285435,23.722443],[121.285433,23.722624],[121.285626,23.722807],[121.285924,23.722539],[121.28612,23.722541],[121.286222,23.722271],[121.286418,23.722274],[121.286512,23.722546],[121.28671,23.722457],[121.286616,23.722095],[121.286518,23.722094],[121.286618,23.722005],[121.286523,23.721733],[121.28672,23.721645],[121.286822,23.721375],[121.287018,23.721377],[121.286919,23.721466],[121.287012,23.721829],[121.287111,23.721739],[121.287306,23.721832],[121.287605,23.721474],[121.287992,23.72193],[121.288384,23.721934],[121.288582,23.721756],[121.288389,23.721573],[121.288391,23.721392],[121.288688,23.721215],[121.288793,23.720675],[121.288696,23.720583],[121.2884,23.72067],[121.288305,23.720489],[121.288109,23.720486],[121.288008,23.720666],[121.287911,23.720574],[121.287812,23.720664],[121.287225,23.720567],[121.28713,23.720295],[121.287525,23.720119],[121.287527,23.719938],[121.287332,23.719846],[121.287238,23.719574],[121.28694,23.719841],[121.286547,23.719927],[121.286544,23.720108],[121.286739,23.7202],[121.286733,23.720652],[121.286634,23.720741],[121.287123,23.720837],[121.287122,23.720927],[121.286632,23.720921],[121.286633,23.720831],[121.286043,23.720915],[121.285655,23.72064],[121.285755,23.72046],[121.285561,23.720278],[121.285267,23.720274],[121.285168,23.720363],[121.285262,23.720635],[121.284967,23.720722],[121.28506,23.721085],[121.284465,23.72162],[121.284463,23.7218],[121.284364,23.721799],[121.284262,23.722159],[121.284064,23.722248],[121.284062,23.722428],[121.284355,23.722522],[121.284459,23.722071],[121.284655,23.722073],[121.284751,23.722255]],[[121.288398,23.720851],[121.2883,23.72085],[121.288302,23.720669],[121.2884,23.72067],[121.288398,23.720851]],[[121.28723,23.720206],[121.287133,23.720114],[121.287231,23.720115],[121.28723,23.720206]],[[121.284655,23.722073],[121.284754,23.721984],[121.284753,23.722075],[121.284655,23.722073]],[[121.285932,23.721907],[121.28603,23.721908],[121.286028,23.722089],[121.28593,23.722088],[121.285932,23.721907]],[[121.284756,23.721894],[121.284855,23.721805],[121.284854,23.721895],[121.284756,23.721894]],[[121.286327,23.721731],[121.286425,23.721732],[121.286423,23.721912],[121.286325,23.721911],[121.286327,23.721731]],[[121.288003,23.721027],[121.288102,23.721028],[121.288099,23.721209],[121.288001,23.721208],[121.288003,23.721027]],[[121.287908,23.720845],[121.288007,23.720756],[121.288006,23.720846],[121.287908,23.720845]]],[[[121.287103,23.722371],[121.286908,23.722279],[121.286709,23.722548],[121.286904,23.72264],[121.287103,23.722371]]],[[[121.291383,23.725128],[121.291875,23.724953],[121.291879,23.724682],[121.291781,23.724681],[121.291686,23.724409],[121.291488,23.724587],[121.290998,23.724582],[121.290898,23.724671],[121.290896,23.724852],[121.290994,23.724853],[121.29089,23.725303],[121.291084,23.725486],[121.291281,23.725398],[121.291286,23.725036],[121.291383,23.725128]]],[[[121.298154,23.702176],[121.298054,23.702356],[121.298248,23.702448],[121.298244,23.702809],[121.298342,23.70281],[121.298338,23.703081],[121.298532,23.703264],[121.298529,23.703535],[121.299211,23.703813],[121.299411,23.703545],[121.299217,23.703362],[121.298922,23.703449],[121.298728,23.703266],[121.298928,23.702997],[121.298635,23.702904],[121.298637,23.702723],[121.298539,23.702722],[121.298543,23.702451],[121.29874,23.702363],[121.298449,23.702089],[121.298657,23.701188],[121.298069,23.701182],[121.298065,23.701453],[121.298259,23.701636],[121.298254,23.701997],[121.298057,23.702085],[121.298154,23.702176]],[[121.298254,23.701997],[121.298351,23.702088],[121.298253,23.702087],[121.298254,23.701997]]],[[[121.298883,23.706428],[121.298789,23.706156],[121.298691,23.706155],[121.298889,23.705977],[121.298695,23.705794],[121.298698,23.705614],[121.298796,23.705615],[121.2987,23.705433],[121.298504,23.705431],[121.298404,23.70561],[121.298109,23.705607],[121.297714,23.705874],[121.297905,23.706237],[121.2982,23.70615],[121.298198,23.70633],[121.298491,23.706424],[121.298584,23.706786],[121.298782,23.706698],[121.298785,23.706427],[121.298883,23.706428]]],[[[121.297662,23.709846],[121.297955,23.70994],[121.298056,23.70976],[121.297861,23.709668],[121.297766,23.709396],[121.297472,23.709393],[121.297576,23.708942],[121.297382,23.70876],[121.297185,23.708848],[121.297181,23.709119],[121.29669,23.709203],[121.296786,23.709385],[121.296982,23.709387],[121.296979,23.709568],[121.297173,23.709751],[121.297369,23.709753],[121.297269,23.709932],[121.297463,23.710115],[121.29766,23.710027],[121.297662,23.709846]]],[[[121.301464,23.711604],[121.30137,23.711332],[121.301175,23.711239],[121.300984,23.710786],[121.300694,23.710512],[121.300498,23.710509],[121.30011,23.710144],[121.300017,23.709782],[121.299726,23.709508],[121.299335,23.709413],[121.299337,23.709233],[121.299142,23.70914],[121.299042,23.70932],[121.299623,23.709868],[121.29962,23.710139],[121.299913,23.710232],[121.300202,23.710597],[121.300593,23.710691],[121.300686,23.711144],[121.300979,23.711237],[121.301267,23.711692],[121.301464,23.711604]]],[[[121.301628,23.714134],[121.301731,23.713684],[121.301929,23.713595],[121.301931,23.713415],[121.302229,23.713147],[121.302034,23.713055],[121.302038,23.712694],[121.30155,23.712508],[121.301553,23.712327],[121.301261,23.712143],[121.301063,23.712322],[121.300957,23.712862],[121.300859,23.712861],[121.300854,23.713313],[121.301047,23.713495],[121.301044,23.713766],[121.301239,23.713859],[121.301233,23.71431],[121.301036,23.714398],[121.301033,23.714579],[121.301424,23.714673],[121.301524,23.714584],[121.301529,23.714133],[121.301628,23.714134]]],[[[121.29838,23.715001],[121.298186,23.714818],[121.298292,23.714188],[121.297711,23.713639],[121.297515,23.713637],[121.297416,23.713726],[121.297409,23.714268],[121.297012,23.714625],[121.296816,23.714623],[121.296714,23.714893],[121.297007,23.714986],[121.297305,23.714718],[121.297696,23.714813],[121.297986,23.715087],[121.298281,23.71509],[121.29838,23.715001]]],[[[121.298138,23.71852],[121.298437,23.718162],[121.298633,23.718164],[121.298831,23.717986],[121.298738,23.717624],[121.298043,23.718248],[121.298041,23.718429],[121.297645,23.718695],[121.297739,23.719058],[121.29823,23.718973],[121.298138,23.71852]]],[[[121.298626,23.718706],[121.298431,23.718614],[121.298231,23.718882],[121.298426,23.718975],[121.298626,23.718706]]],[[[121.296627,23.721574],[121.296826,23.721395],[121.296729,23.721304],[121.296828,23.721215],[121.296735,23.720852],[121.297129,23.720676],[121.297132,23.720496],[121.297034,23.720495],[121.297133,23.720405],[121.297135,23.720225],[121.297037,23.720224],[121.297136,23.720135],[121.297143,23.719593],[121.297046,23.719501],[121.296551,23.719857],[121.296645,23.720219],[121.296348,23.720397],[121.296542,23.720579],[121.296436,23.72121],[121.296042,23.721296],[121.296235,23.721569],[121.296334,23.72148],[121.296627,23.721574]],[[121.296839,23.720402],[121.296935,23.720494],[121.296837,23.720492],[121.296839,23.720402]]],[[[121.302121,23.721454],[121.301934,23.720729],[121.302132,23.720641],[121.302135,23.72037],[121.302233,23.720371],[121.302141,23.719919],[121.301845,23.720096],[121.301842,23.720277],[121.301744,23.720275],[121.301839,23.720547],[121.301541,23.720815],[121.301633,23.721268],[121.301924,23.721542],[121.302121,23.721454]]],[[[121.295042,23.72282],[121.294848,23.722638],[121.294748,23.722817],[121.294942,23.72291],[121.295042,23.72282]]],[[[121.293004,23.721173],[121.292905,23.721171],[121.292914,23.720539],[121.292719,23.720447],[121.29252,23.720625],[121.292415,23.721166],[121.29192,23.721522],[121.291917,23.721793],[121.292206,23.722157],[121.2925,23.72216],[121.292497,23.722431],[121.292789,23.722615],[121.292786,23.722796],[121.292589,23.722884],[121.292587,23.723064],[121.292685,23.723065],[121.29258,23.723606],[121.292774,23.723698],[121.292771,23.723969],[121.293062,23.724243],[121.293258,23.724246],[121.293352,23.724517],[121.29384,23.724703],[121.293832,23.725335],[121.294222,23.72552],[121.29442,23.725342],[121.294329,23.724799],[121.294528,23.724621],[121.294531,23.72435],[121.294927,23.724083],[121.294637,23.723809],[121.294547,23.723176],[121.294646,23.723087],[121.294841,23.723179],[121.294941,23.723],[121.294844,23.722909],[121.294647,23.722997],[121.294551,23.722815],[121.294355,23.722813],[121.294256,23.722902],[121.294351,23.723174],[121.294153,23.723262],[121.293863,23.722988],[121.293868,23.722537],[121.29348,23.722261],[121.293581,23.721992],[121.293386,23.721899],[121.29339,23.721628],[121.292999,23.721534],[121.293098,23.721444],[121.293004,23.721173]],[[121.292999,23.721534],[121.2929,23.721623],[121.292901,23.721533],[121.292999,23.721534]],[[121.293362,23.723795],[121.293166,23.723793],[121.293168,23.723612],[121.293266,23.723614],[121.293362,23.723795]],[[121.294342,23.723806],[121.294442,23.723717],[121.29444,23.723807],[121.294342,23.723806]],[[121.294249,23.723444],[121.294347,23.723445],[121.294345,23.723625],[121.294247,23.723624],[121.294249,23.723444]],[[121.293171,23.723342],[121.292975,23.723339],[121.292978,23.723159],[121.293174,23.723161],[121.293171,23.723342]],[[121.293174,23.723161],[121.293273,23.723072],[121.293272,23.723162],[121.293174,23.723161]],[[121.293281,23.72244],[121.293381,23.722351],[121.293379,23.722441],[121.293281,23.72244]],[[121.293189,23.721987],[121.293287,23.721988],[121.293285,23.722169],[121.293187,23.722168],[121.293189,23.721987]],[[121.292406,23.721888],[121.292505,23.721799],[121.292504,23.721889],[121.292406,23.721888]],[[121.29251,23.721438],[121.29241,23.721527],[121.292412,23.721437],[121.29251,23.721438]],[[121.29251,23.721438],[121.292609,23.721349],[121.292608,23.721439],[121.29251,23.721438]]],[[[121.303069,23.723992],[121.303063,23.724444],[121.303257,23.724626],[121.303453,23.724629],[121.303555,23.724359],[121.303361,23.724176],[121.303363,23.723996],[121.303461,23.723997],[121.303368,23.723634],[121.303466,23.723635],[121.303473,23.723094],[121.30377,23.722916],[121.303674,23.722735],[121.30397,23.722557],[121.303876,23.722285],[121.303777,23.722375],[121.303091,23.722277],[121.302893,23.722455],[121.302984,23.722998],[121.302788,23.722996],[121.302692,23.722814],[121.302397,23.722901],[121.302392,23.723262],[121.302195,23.723351],[121.302192,23.723531],[121.30229,23.723532],[121.302186,23.723983],[121.302576,23.724167],[121.302571,23.724619],[121.302667,23.72471],[121.302865,23.724622],[121.302873,23.72399],[121.303069,23.723992]]],[[[121.304135,23.724997],[121.304042,23.724635],[121.303652,23.72445],[121.303551,23.72463],[121.303649,23.724631],[121.303647,23.724811],[121.303842,23.724904],[121.30384,23.725084],[121.304033,23.725267],[121.304231,23.725179],[121.304233,23.724998],[121.304135,23.724997]]],[[[121.296767,23.72591],[121.296672,23.725638],[121.296574,23.725637],[121.296676,23.725367],[121.296579,23.725275],[121.296382,23.725364],[121.296287,23.725092],[121.296583,23.725005],[121.29658,23.725185],[121.296775,23.725278],[121.297074,23.72492],[121.297367,23.725013],[121.297468,23.724834],[121.297763,23.724747],[121.297868,23.724206],[121.297673,23.724114],[121.297176,23.72465],[121.296782,23.724736],[121.29669,23.724283],[121.296987,23.724106],[121.296989,23.723925],[121.297187,23.723747],[121.296603,23.72347],[121.296503,23.723559],[121.296596,23.724011],[121.296202,23.724097],[121.296102,23.724277],[121.295807,23.724274],[121.295706,23.724543],[121.295315,23.724449],[121.295314,23.724539],[121.295018,23.724626],[121.294824,23.724443],[121.294724,23.724623],[121.294822,23.724624],[121.294819,23.724895],[121.295012,23.725078],[121.295502,23.725173],[121.2954,23.725443],[121.295884,23.7259],[121.296081,23.725902],[121.296079,23.725992],[121.296375,23.725905],[121.296567,23.726178],[121.296863,23.726091],[121.296865,23.725911],[121.296767,23.72591]]],[[[121.302163,23.725788],[121.301969,23.725606],[121.30207,23.725426],[121.302359,23.72579],[121.302557,23.725702],[121.302363,23.72552],[121.302464,23.72525],[121.302662,23.725162],[121.302469,23.724889],[121.302271,23.725067],[121.301977,23.724974],[121.301875,23.725334],[121.301578,23.725511],[121.301576,23.725692],[121.301771,23.725784],[121.301865,23.726056],[121.302163,23.725788]]],[[[121.306155,23.72809],[121.305959,23.728087],[121.305961,23.727907],[121.305766,23.727814],[121.305769,23.727544],[121.304994,23.726813],[121.304603,23.726718],[121.304712,23.725907],[121.304421,23.725633],[121.304319,23.725902],[121.304221,23.725901],[121.304211,23.726714],[121.304406,23.726806],[121.304403,23.726987],[121.304206,23.727075],[121.304203,23.727346],[121.304594,23.72744],[121.304694,23.727261],[121.30489,23.727263],[121.305081,23.727717],[121.305374,23.72781],[121.305466,23.728263],[121.305564,23.728264],[121.305659,23.728536],[121.306149,23.728541],[121.306248,23.728452],[121.306155,23.72809]]],[[[121.302241,23.727324],[121.301952,23.72696],[121.301754,23.727048],[121.301948,23.727231],[121.301944,23.727592],[121.301746,23.72768],[121.301841,23.727952],[121.302233,23.727956],[121.302232,23.728047],[121.303115,23.728056],[121.303214,23.727967],[121.303118,23.727785],[121.302824,23.727782],[121.302825,23.727692],[121.302434,23.727597],[121.302534,23.727418],[121.302241,23.727324]],[[121.302434,23.727597],[121.302335,23.727687],[121.302336,23.727596],[121.302434,23.727597]]]]}},{"type":"Feature","properties":{"kind":"bare_dam","month":"2020-09","area_ha":23.68},"geometry":{"type":"MultiPolygon","coordinates":[[[[121.30213,23.690481],[121.302816,23.690488],[121.302916,23.690309],[121.30282,23.690218],[121.302133,23.69021],[121.302034,23.690299],[121.30184,23.690117],[121.301447,23.690203],[121.301543,23.690384],[121.301837,23.690387],[121.301836,23.690478],[121.302131,23.690391],[121.30213,23.690481]]],[[[121.299469,23.691535],[121.299666,23.691447],[121.299669,23.691176],[121.299767,23.691177],[121.299575,23.690904],[121.299871,23.690727],[121.299874,23.690546],[121.299584,23.690182],[121.299485,23.690271],[121.298995,23.690266],[121.298994,23.690356],[121.2988,23.690173],[121.298604,23.690171],[121.298503,23.690351],[121.298307,23.690349],[121.298115,23.690076],[121.297919,23.690074],[121.297522,23.69043],[121.297711,23.690974],[121.298103,23.690979],[121.298203,23.690799],[121.298498,23.690802],[121.298496,23.690893],[121.298791,23.690896],[121.298787,23.691167],[121.298885,23.691168],[121.298785,23.691347],[121.298882,23.691439],[121.299078,23.691441],[121.299076,23.691531],[121.29947,23.691445],[121.299469,23.691535]]],[[[121.303871,23.692306],[121.304165,23.692309],[121.304266,23.69213],[121.303781,23.691673],[121.303585,23.691671],[121.303391,23.691488],[121.303097,23.691485],[121.303098,23.691395],[121.302999,23.691484],[121.302803,23.691482],[121.302804,23.691391],[121.302411,23.691477],[121.302412,23.691387],[121.302021,23.691292],[121.301927,23.691021],[121.301728,23.691199],[121.301438,23.690925],[121.301242,23.690923],[121.301043,23.691101],[121.301045,23.690921],[121.300752,23.690827],[121.300757,23.690466],[121.300659,23.690465],[121.30076,23.690285],[121.300369,23.690191],[121.30037,23.6901],[121.300074,23.690187],[121.300167,23.69064],[121.299968,23.690818],[121.300064,23.691],[121.299867,23.691088],[121.299961,23.69136],[121.300255,23.691363],[121.300256,23.691273],[121.300745,23.691369],[121.300744,23.691459],[121.301236,23.691374],[121.301429,23.691557],[121.302018,23.691563],[121.302017,23.691654],[121.302508,23.691569],[121.302507,23.691659],[121.302996,23.691755],[121.303577,23.692303],[121.303676,23.692214],[121.303872,23.692216],[121.303871,23.692306]],[[121.303289,23.691848],[121.30329,23.691758],[121.303486,23.69176],[121.303485,23.69185],[121.303289,23.691848]],[[121.300261,23.690912],[121.300262,23.690822],[121.300458,23.690824],[121.300457,23.690914],[121.300261,23.690912]]],[[[121.301976,23.694814],[121.302077,23.694544],[121.301784,23.69445],[121.301494,23.694176],[121.301497,23.693905],[121.301206,23.693631],[121.30101,23.693629],[121.300818,23.693356],[121.300525,23.693263],[121.300527,23.693082],[121.300332,23.69299],[121.300336,23.692719],[121.300045,23.692445],[121.299751,23.692441],[121.299558,23.692168],[121.299068,23.692163],[121.299071,23.691982],[121.298586,23.691526],[121.298389,23.691614],[121.29868,23.691888],[121.298677,23.692068],[121.29848,23.692157],[121.298286,23.691974],[121.298185,23.692244],[121.298282,23.692335],[121.298577,23.692248],[121.298478,23.692337],[121.298472,23.692789],[121.298667,23.692881],[121.298857,23.693335],[121.29915,23.693428],[121.299149,23.693518],[121.299444,23.693431],[121.299442,23.693612],[121.299146,23.693699],[121.299338,23.694062],[121.299536,23.693884],[121.299829,23.693977],[121.299928,23.693888],[121.299833,23.693707],[121.300029,23.693709],[121.300319,23.693983],[121.300712,23.693987],[121.300806,23.694259],[121.3011,23.694262],[121.301099,23.694353],[121.30149,23.694447],[121.301682,23.69481],[121.301781,23.694721],[121.301976,23.694814]],[[121.301201,23.694083],[121.301298,23.694174],[121.301199,23.694173],[121.301201,23.694083]],[[121.301103,23.694082],[121.301105,23.693901],[121.301203,23.693902],[121.301201,23.694083],[121.301103,23.694082]],[[121.299539,23.693703],[121.299735,23.693705],[121.299733,23.693796],[121.299537,23.693794],[121.299539,23.693703]],[[121.30023,23.69335],[121.300329,23.69326],[121.300328,23.693351],[121.30023,23.69335]]],[[[121.302859,23.694733],[121.302764,23.694551],[121.302567,23.694549],[121.30227,23.694817],[121.302661,23.694911],[121.302859,23.694733]]],[[[121.298502,23.698026],[121.299095,23.697672],[121.298998,23.69758],[121.299,23.6974],[121.299098,23.697401],[121.299005,23.697039],[121.299202,23.69695],[121.299108,23.696678],[121.298816,23.696495],[121.299024,23.695594],[121.298731,23.6955],[121.298733,23.69532],[121.298539,23.695137],[121.298244,23.695224],[121.298148,23.695042],[121.297855,23.694949],[121.297648,23.69585],[121.298036,23.696125],[121.298123,23.697029],[121.29851,23.697394],[121.298307,23.697934],[121.298502,23.698026]]],[[[121.298205,23.698204],[121.298302,23.698295],[121.298005,23.698563],[121.298099,23.698835],[121.298296,23.698746],[121.2983,23.698476],[121.298497,23.698387],[121.298404,23.698025],[121.298205,23.698204]]],[[[121.298679,23.699473],[121.298976,23.699296],[121.299081,23.698755],[121.299479,23.698308],[121.299969,23.698313],[121.30007,23.698134],[121.300462,23.698138],[121.300461,23.698228],[121.300852,23.698323],[121.300853,23.698233],[121.301049,23.698235],[121.301445,23.697968],[121.301646,23.697519],[121.301452,23.697427],[121.30135,23.697696],[121.300959,23.697602],[121.300958,23.697692],[121.299878,23.69777],[121.299877,23.697861],[121.29978,23.697769],[121.299584,23.697767],[121.299583,23.697858],[121.299192,23.697763],[121.298893,23.698121],[121.298599,23.698118],[121.298498,23.698297],[121.298693,23.69839],[121.29869,23.69866],[121.298296,23.698746],[121.298587,23.69902],[121.298584,23.699291],[121.29839,23.699109],[121.298191,23.699287],[121.298385,23.69947],[121.298484,23.699381],[121.29868,23.699383],[121.298679,23.699473]]],[[[121.295743,23.699079],[121.295843,23.6989],[121.296332,23.698996],[121.296434,23.698726],[121.296337,23.698635],[121.295748,23.698628],[121.295352,23.698985],[121.294959,23.698981],[121.294961,23.69889],[121.294665,23.698977],[121.294858,23.69925],[121.295446,23.699257],[121.295447,23.699167],[121.295743,23.699079]]],[[[121.298575,23.699923],[121.298479,23.699832],[121.298183,23.699919],[121.297989,23.699736],[121.297992,23.699556],[121.29809,23.699557],[121.297995,23.699285],[121.297799,23.699283],[121.297402,23.69964],[121.297498,23.699821],[121.297889,23.699916],[121.297883,23.700367],[121.29798,23.700459],[121.298666,23.700466],[121.29867,23.700195],[121.298572,23.700194],[121.298575,23.699923]],[[121.298181,23.7001],[121.29828,23.70001],[121.298279,23.700101],[121.298181,23.7001]]],[[[121.312075,23.687249],[121.312074,23.687339],[121.312271,23.687251],[121.312169,23.687521],[121.312654,23.687977],[121.312753,23.687888],[121.31276,23.687346],[121.312468,23.687163],[121.312375,23.6868],[121.312278,23.686709],[121.311591,23.686792],[121.311498,23.686339],[121.311208,23.686065],[121.311106,23.686335],[121.311204,23.686336],[121.3112,23.686697],[121.311298,23.686698],[121.311294,23.686969],[121.311392,23.68697],[121.311293,23.687059],[121.311385,23.687512],[121.311287,23.687511],[121.311186,23.687781],[121.31138,23.687873],[121.311382,23.687783],[121.311677,23.687696],[121.311483,23.687513],[121.311484,23.687423],[121.31168,23.687425],[121.311679,23.687515],[121.311876,23.687427],[121.311684,23.687154],[121.312075,23.687249]],[[121.311683,23.687244],[121.311584,23.687334],[121.311585,23.687243],[121.311683,23.687244]]],[[[121.303696,23.690679],[121.303403,23.690585],[121.303112,23.690311],[121.302915,23.690399],[121.3034,23.690856],[121.303596,23.690858],[121.303696,23.690679]]],[[[121.308993,23.690556],[121.308701,23.690372],[121.308501,23.690641],[121.30889,23.690916],[121.308989,23.690827],[121.308993,23.690556]]],[[[121.308883,23.691458],[121.309081,23.691279],[121.308988,23.690917],[121.308791,23.691005],[121.308788,23.691186],[121.308498,23.690912],[121.308396,23.691182],[121.3081,23.691359],[121.30839,23.691633],[121.308589,23.691455],[121.308883,23.691458]]],[[[121.309468,23.691735],[121.309178,23.691371],[121.308981,23.691459],[121.30927,23.691823],[121.309468,23.691735]]],[[[121.310636,23.69238],[121.311329,23.691846],[121.311137,23.691573],[121.310941,23.691571],[121.310742,23.691749],[121.310745,23.691568],[121.310452,23.691475],[121.310259,23.691202],[121.309769,23.691197],[121.30977,23.691106],[121.309574,23.691104],[121.309276,23.691372],[121.309469,23.691645],[121.309765,23.691468],[121.309762,23.691738],[121.309565,23.691827],[121.30966,23.692008],[121.309954,23.692011],[121.31005,23.692193],[121.310442,23.692197],[121.310636,23.69238]]],[[[121.305341,23.692412],[121.305539,23.692234],[121.305442,23.692143],[121.305147,23.69223],[121.305148,23.692139],[121.305246,23.69214],[121.305248,23.69196],[121.305445,23.691962],[121.305446,23.691872],[121.305641,23.691964],[121.305839,23.691786],[121.305747,23.691333],[121.305453,23.69133],[121.305254,23.691508],[121.305252,23.691689],[121.304954,23.691957],[121.304659,23.692044],[121.30485,23.692407],[121.305145,23.69241],[121.305146,23.69232],[121.305342,23.692322],[121.305341,23.692412]]],[[[121.304417,23.695563],[121.304714,23.695385],[121.304818,23.694935],[121.305115,23.694667],[121.305411,23.69458],[121.305316,23.694308],[121.305513,23.69422],[121.305516,23.69404],[121.305613,23.694131],[121.30581,23.694043],[121.305618,23.69368],[121.305222,23.694037],[121.305026,23.694034],[121.304826,23.694303],[121.30463,23.694301],[121.304529,23.69448],[121.304037,23.694656],[121.303933,23.695106],[121.303737,23.695104],[121.303738,23.695014],[121.303541,23.695102],[121.303735,23.695284],[121.303634,23.695464],[121.303828,23.695647],[121.303927,23.695557],[121.30422,23.695651],[121.304321,23.695471],[121.304417,23.695563]],[[121.304321,23.695471],[121.304224,23.69538],[121.304322,23.695381],[121.304321,23.695471]]],[[[121.303348,23.694829],[121.303253,23.694647],[121.302958,23.694644],[121.302957,23.694734],[121.302859,23.694733],[121.302858,23.694823],[121.303249,23.694918],[121.303348,23.694829]]],[[[121.302434,23.697257],[121.302634,23.696988],[121.30283,23.69699],[121.303128,23.696723],[121.303234,23.696092],[121.303432,23.695913],[121.303626,23.696096],[121.303923,23.695919],[121.30373,23.695646],[121.303532,23.695824],[121.303042,23.695728],[121.302844,23.695907],[121.302842,23.696087],[121.302646,23.696085],[121.302544,23.696355],[121.302248,23.696532],[121.302145,23.696892],[121.301749,23.697159],[121.301942,23.697432],[121.302434,23.697257]]]]}},{"type":"Feature","properties":{"kind":"water","month":"2020-09","area_ha":1.9},"geometry":{"type":"MultiPolygon","coordinates":[[[[121.2985,23.698207],[121.298893,23.698121],[121.298895,23.69794],[121.299091,23.697942],[121.299192,23.697763],[121.299289,23.697854],[121.299583,23.697858],[121.299584,23.697767],[121.299877,23.697861],[121.299878,23.69777],[121.300564,23.697778],[121.300566,23.697688],[121.300958,23.697692],[121.300959,23.697602],[121.30135,23.697696],[121.301352,23.697516],[121.300862,23.69751],[121.300668,23.697328],[121.300569,23.697417],[121.300079,23.697411],[121.300078,23.697502],[121.299784,23.697499],[121.299585,23.697677],[121.2988,23.697759],[121.298699,23.697938],[121.298404,23.698025],[121.2985,23.698207]]],[[[121.298402,23.698206],[121.298498,23.698297],[121.2985,23.698207],[121.298402,23.698206]]],[[[121.298298,23.698656],[121.29869,23.69866],[121.298693,23.69839],[121.298498,23.698297],[121.298496,23.698478],[121.2983,23.698476],[121.298298,23.698656]],[[121.298496,23.698478],[121.298593,23.698569],[121.298495,23.698568],[121.298496,23.698478]]],[[[121.297992,23.699556],[121.297989,23.699736],[121.298281,23.69992],[121.298284,23.69974],[121.297992,23.699556]]],[[[121.29848,23.699742],[121.298761,23.700738],[121.298859,23.700739],[121.298656,23.701279],[121.298949,23.701372],[121.299061,23.70029],[121.298866,23.700197],[121.29887,23.699927],[121.298579,23.699652],[121.29868,23.699383],[121.298385,23.69947],[121.298191,23.699287],[121.298292,23.699108],[121.298584,23.699291],[121.298587,23.69902],[121.298198,23.698745],[121.298197,23.698836],[121.298001,23.698833],[121.298096,23.699105],[121.297897,23.699284],[121.29819,23.699377],[121.298187,23.699648],[121.29848,23.699742]]]]}}]}