{"type":"FeatureCollection","features":[{"type":"Feature","properties":{"kind":"bare_slide","month":"2020-07","area_ha":21.44},"geometry":{"type":"MultiPolygon","coordinates":[[[[121.295751,23.713527],[121.295849,23.713529],[121.295952,23.713168],[121.296149,23.71308],[121.296153,23.712809],[121.296451,23.712452],[121.296356,23.71227],[121.296062,23.712267],[121.29606,23.712357],[121.295765,23.712444],[121.295763,23.712625],[121.295958,23.712717],[121.295955,23.712898],[121.295757,23.713076],[121.295561,23.713074],[121.295465,23.712892],[121.295169,23.71307],[121.295556,23.713435],[121.295554,23.713616],[121.295456,23.713614],[121.295551,23.713796],[121.295749,23.713708],[121.295751,23.713527]]],[[[121.288845,23.716702],[121.289336,23.716617],[121.289634,23.716349],[121.289637,23.716079],[121.289836,23.7159],[121.290327,23.715815],[121.290232,23.715634],[121.28974,23.715719],[121.289742,23.715538],[121.29004,23.71527],[121.289943,23.715179],[121.289453,23.715174],[121.28926,23.714901],[121.289064,23.714898],[121.288866,23.715077],[121.288475,23.714982],[121.288375,23.715071],[121.28847,23.715343],[121.288079,23.715249],[121.28788,23.715427],[121.287876,23.715788],[121.288071,23.715881],[121.288066,23.716242],[121.287768,23.716509],[121.288257,23.716605],[121.288256,23.716695],[121.288452,23.716698],[121.288453,23.716607],[121.288846,23.716612],[121.288845,23.716702]],[[121.288952,23.715981],[121.289151,23.715802],[121.289445,23.715806],[121.289243,23.716255],[121.28895,23.716161],[121.288952,23.715981]]],[[[121.28421,23.718637],[121.284505,23.71855],[121.284509,23.718279],[121.284218,23.718005],[121.284022,23.718003],[121.283921,23.718182],[121.283431,23.718177],[121.283332,23.718266],[121.28362,23.718721],[121.284109,23.718817],[121.28421,23.718637]]],[[[121.291071,23.718984],[121.290975,23.718802],[121.290779,23.7188],[121.290781,23.71862],[121.291078,23.718442],[121.29108,23.718262],[121.290982,23.718261],[121.291083,23.717991],[121.290692,23.717896],[121.290494,23.718075],[121.290492,23.718255],[121.290785,23.718349],[121.290783,23.718439],[121.290684,23.718528],[121.290489,23.718436],[121.290291,23.718614],[121.290287,23.718885],[121.290385,23.718886],[121.29048,23.719158],[121.290774,23.719161],[121.290775,23.719071],[121.291071,23.718984]]],[[[121.282811,23.720608],[121.28311,23.72025],[121.283306,23.720253],[121.283504,23.720074],[121.283508,23.719803],[121.283706,23.719625],[121.284297,23.719451],[121.284398,23.719271],[121.284301,23.71918],[121.283711,23.719264],[121.28361,23.719534],[121.283315,23.71953],[121.283116,23.719799],[121.282628,23.719613],[121.282429,23.719791],[121.282523,23.720154],[121.282325,23.720242],[121.282322,23.720512],[121.282123,23.720691],[121.282416,23.720784],[121.282417,23.720694],[121.282811,23.720608]]],[[[121.288384,23.721934],[121.288584,23.721665],[121.288389,23.721573],[121.288391,23.721392],[121.288686,23.721305],[121.288886,23.721037],[121.288789,23.720945],[121.288201,23.720939],[121.287814,23.720483],[121.287323,23.720568],[121.287032,23.720294],[121.287035,23.720113],[121.28684,23.720021],[121.286947,23.7193],[121.286849,23.719299],[121.286756,23.718936],[121.28646,23.719023],[121.286651,23.719477],[121.286055,23.720012],[121.285567,23.719826],[121.285468,23.719915],[121.285564,23.720097],[121.285168,23.720363],[121.28536,23.720637],[121.285066,23.720633],[121.284671,23.7209],[121.284766,23.721081],[121.285063,23.720904],[121.285059,23.721175],[121.28535,23.721449],[121.285645,23.721362],[121.285646,23.721272],[121.286037,23.721366],[121.286139,23.721097],[121.285653,23.72073],[121.285658,23.720369],[121.285956,23.720101],[121.286346,23.720286],[121.286449,23.719926],[121.286547,23.719927],[121.286737,23.720381],[121.287223,23.720747],[121.287215,23.721289],[121.286919,23.721466],[121.286915,23.721737],[121.287306,23.721832],[121.287505,23.721654],[121.287799,23.721657],[121.28809,23.721931],[121.288384,23.721934]]],[[[121.297128,23.720767],[121.297228,23.720587],[121.296841,23.720222],[121.296645,23.720219],[121.296446,23.720398],[121.296637,23.720851],[121.297128,23.720767]]],[[[121.290547,23.721507],[121.290743,23.721509],[121.290844,23.721329],[121.290357,23.721053],[121.290466,23.720242],[121.290271,23.720149],[121.290169,23.720419],[121.289972,23.720507],[121.289968,23.720778],[121.289472,23.721224],[121.289667,23.721316],[121.289668,23.721226],[121.289964,23.721139],[121.289961,23.72132],[121.289765,23.721317],[121.289665,23.721497],[121.290056,23.721591],[121.290055,23.721682],[121.290546,23.721597],[121.290547,23.721507]]],[[[121.296826,23.721395],[121.296733,23.720943],[121.296539,23.72085],[121.296337,23.7213],[121.29653,23.721482],[121.296726,23.721484],[121.296826,23.721395]]],[[[121.296388,23.724912],[121.296587,23.724643],[121.296883,23.724556],[121.296788,23.724284],[121.296886,23.724286],[121.296989,23.723925],[121.297186,23.723837],[121.296702,23.723381],[121.296505,23.723469],[121.296596,23.724011],[121.296103,23.724187],[121.2962,23.724278],[121.296197,23.724459],[121.296099,23.724457],[121.296193,23.72482],[121.296388,23.724912]]],[[[121.299026,23.702998],[121.299125,23.702909],[121.299127,23.702729],[121.299029,23.702728],[121.298936,23.702365],[121.298541,23.702542],[121.298447,23.70227],[121.298251,23.702268],[121.298252,23.702177],[121.298055,23.702265],[121.298052,23.702446],[121.298247,23.702538],[121.298244,23.702809],[121.298342,23.70281],[121.298436,23.703082],[121.299026,23.702998]]],[[[121.29955,23.707971],[121.299648,23.707972],[121.299556,23.707519],[121.299362,23.707337],[121.299068,23.707333],[121.298865,23.707873],[121.299158,23.707966],[121.29935,23.708239],[121.299547,23.708151],[121.29955,23.707971]]],[[[121.30014,23.707797],[121.299845,23.707884],[121.299842,23.708155],[121.300035,23.708337],[121.300232,23.708339],[121.300333,23.70807],[121.300431,23.708071],[121.30014,23.707797]]],[[[121.301311,23.708261],[121.301314,23.70808],[121.30112,23.707898],[121.300826,23.707894],[121.30073,23.707713],[121.300433,23.70789],[121.300626,23.708163],[121.30092,23.708166],[121.301015,23.708438],[121.301311,23.708261]]],[[[121.30193,23.713505],[121.301932,23.713325],[121.302129,23.713236],[121.302038,23.712694],[121.301745,23.7126],[121.301261,23.712143],[121.300963,23.712411],[121.300854,23.713313],[121.30095,23.713404],[121.301246,23.713317],[121.301535,23.713681],[121.301731,23.713684],[121.30193,23.713505]]],[[[121.298381,23.714911],[121.298186,23.714818],[121.298188,23.714638],[121.298286,23.714639],[121.29819,23.714548],[121.298192,23.714367],[121.29829,23.714368],[121.298195,23.714096],[121.297898,23.714364],[121.297702,23.714362],[121.297411,23.714088],[121.297213,23.714266],[121.29721,23.714446],[121.296716,23.714712],[121.296811,23.714984],[121.297109,23.714716],[121.297205,23.714808],[121.297501,23.714721],[121.297986,23.715087],[121.298281,23.71509],[121.298381,23.714911]]],[[[121.304235,23.724818],[121.30404,23.724725],[121.303947,23.724363],[121.303554,23.724449],[121.303459,23.724177],[121.303361,23.724176],[121.303473,23.723094],[121.30377,23.722916],[121.303774,23.722555],[121.30397,23.722557],[121.304071,23.722378],[121.303974,23.722287],[121.303091,23.722277],[121.302893,23.722455],[121.302984,23.722998],[121.302788,23.722996],[121.302595,23.722723],[121.302398,23.722811],[121.302392,23.723262],[121.302195,23.723351],[121.302292,23.723442],[121.302188,23.723892],[121.302673,23.724259],[121.302671,23.724439],[121.302573,23.724438],[121.302669,23.72462],[121.302866,23.724532],[121.302769,23.724441],[121.302874,23.7239],[121.30307,23.723902],[121.303064,23.724353],[121.303162,23.724355],[121.303257,23.724626],[121.30365,23.72454],[121.304035,23.725177],[121.304232,23.725089],[121.304235,23.724818]]],[[[121.302067,23.725607],[121.301969,23.725606],[121.301972,23.725425],[121.302263,23.725609],[121.302462,23.72543],[121.302464,23.72525],[121.30276,23.725163],[121.302665,23.724891],[121.301878,23.725063],[121.301875,23.725334],[121.301577,23.725601],[121.301772,23.725694],[121.301867,23.725966],[121.302064,23.725878],[121.302067,23.725607]]],[[[121.304598,23.727079],[121.304896,23.726812],[121.304506,23.726627],[121.304509,23.726446],[121.304706,23.726358],[121.304709,23.726087],[121.304419,23.725813],[121.30422,23.725992],[121.304214,23.726443],[121.304409,23.726535],[121.304309,23.726715],[121.304504,23.726807],[121.304502,23.726988],[121.304206,23.727075],[121.304203,23.727346],[121.304496,23.727439],[121.304598,23.727079]]],[[[121.306149,23.728541],[121.306252,23.728181],[121.305862,23.727996],[121.305864,23.727816],[121.305669,23.727723],[121.305769,23.727544],[121.305576,23.727361],[121.305182,23.727447],[121.305082,23.727626],[121.305374,23.72781],[121.305465,23.728353],[121.305659,23.728536],[121.305855,23.728538],[121.305856,23.728448],[121.306149,23.728541]],[[121.305857,23.728357],[121.305956,23.728268],[121.305955,23.728358],[121.305857,23.728357]]]]}},{"type":"Feature","properties":{"kind":"bare_dam","month":"2020-07","area_ha":16.54},"geometry":{"type":"MultiPolygon","coordinates":[[[[121.299469,23.691535],[121.299764,23.691448],[121.299574,23.690995],[121.299871,23.690727],[121.299875,23.690456],[121.299777,23.690455],[121.299682,23.690183],[121.299486,23.690181],[121.299386,23.690361],[121.298897,23.690265],[121.298597,23.690713],[121.298401,23.690711],[121.298207,23.690528],[121.298209,23.690348],[121.298506,23.69017],[121.298411,23.689898],[121.298117,23.689895],[121.297621,23.690341],[121.297718,23.690432],[121.297614,23.690883],[121.297808,23.691066],[121.298301,23.6908],[121.298495,23.690983],[121.298789,23.690986],[121.298785,23.691347],[121.298978,23.69153],[121.299273,23.691533],[121.299274,23.691443],[121.29947,23.691445],[121.299469,23.691535]]],[[[121.300647,23.691368],[121.300946,23.69101],[121.300949,23.690829],[121.300754,23.690737],[121.300856,23.690377],[121.300663,23.690194],[121.300172,23.690189],[121.300073,23.690278],[121.30017,23.690369],[121.300071,23.690458],[121.300168,23.69055],[121.300069,23.690639],[121.300162,23.691001],[121.299863,23.691359],[121.300254,23.691454],[121.300255,23.691363],[121.300647,23.691368]]],[[[121.30043,23.692991],[121.300235,23.692898],[121.300141,23.692626],[121.299652,23.692531],[121.299653,23.69244],[121.299456,23.692528],[121.29955,23.6928],[121.299938,23.693166],[121.30033,23.69317],[121.30043,23.692991]]],[[[121.29924,23.694061],[121.299534,23.694064],[121.299635,23.693795],[121.29915,23.693428],[121.299151,23.693338],[121.299446,23.693251],[121.299449,23.69307],[121.299352,23.692979],[121.298959,23.693065],[121.298961,23.692884],[121.299158,23.692796],[121.298964,23.692613],[121.298667,23.692881],[121.298664,23.693062],[121.299052,23.693427],[121.298853,23.693605],[121.299047,23.693788],[121.298947,23.693968],[121.299044,23.694059],[121.299241,23.693971],[121.29924,23.694061]]],[[[121.300523,23.693443],[121.300422,23.693623],[121.300226,23.693621],[121.299839,23.693255],[121.299642,23.693253],[121.299644,23.693163],[121.299446,23.693251],[121.299444,23.693431],[121.299735,23.693705],[121.300224,23.693801],[121.300318,23.694073],[121.300614,23.693986],[121.300806,23.694259],[121.3011,23.694262],[121.301099,23.694353],[121.301587,23.694538],[121.301686,23.694449],[121.301593,23.694087],[121.301205,23.693722],[121.301009,23.693719],[121.30101,23.693629],[121.300813,23.693717],[121.300815,23.693537],[121.300523,23.693443]],[[121.300813,23.693717],[121.300714,23.693806],[121.300715,23.693716],[121.300813,23.693717]]],[[[121.298797,23.697939],[121.298995,23.697851],[121.2989,23.697579],[121.299297,23.697222],[121.299206,23.69668],[121.298914,23.696496],[121.299025,23.695504],[121.298541,23.695047],[121.298245,23.695134],[121.29825,23.694773],[121.297958,23.694589],[121.297855,23.694949],[121.297657,23.695127],[121.29775,23.69549],[121.297652,23.695489],[121.29755,23.695849],[121.297937,23.696214],[121.297837,23.696394],[121.298032,23.696486],[121.298217,23.697301],[121.29851,23.697394],[121.298406,23.697845],[121.298503,23.697936],[121.298798,23.697849],[121.298797,23.697939]]],[[[121.30007,23.698134],[121.300462,23.698138],[121.300557,23.69832],[121.301049,23.698235],[121.301346,23.697967],[121.301349,23.697787],[121.301251,23.697786],[121.301352,23.697516],[121.30057,23.697327],[121.300469,23.697596],[121.300171,23.697864],[121.299878,23.69777],[121.299578,23.698219],[121.299969,23.698313],[121.30007,23.698134]],[[121.301054,23.697874],[121.300957,23.697782],[121.301055,23.697783],[121.301054,23.697874]]],[[[121.298779,23.699384],[121.298877,23.699385],[121.298982,23.698844],[121.299179,23.698756],[121.29928,23.698486],[121.299086,23.698394],[121.298591,23.69875],[121.298397,23.698567],[121.298497,23.698387],[121.298302,23.698295],[121.298104,23.698473],[121.298001,23.698833],[121.297903,23.698832],[121.297897,23.699284],[121.297799,23.699283],[121.297698,23.699553],[121.297795,23.699644],[121.298286,23.699559],[121.298285,23.699649],[121.298676,23.699744],[121.298779,23.699384]]],[[[121.312759,23.687437],[121.312371,23.687071],[121.312075,23.687249],[121.312555,23.688067],[121.312752,23.687978],[121.312759,23.687437]]],[[[121.308694,23.690914],[121.308892,23.690736],[121.308896,23.690465],[121.308605,23.690191],[121.308506,23.69028],[121.308502,23.690551],[121.3086,23.690552],[121.308499,23.690822],[121.308694,23.690914]]],[[[121.301431,23.691467],[121.301829,23.691019],[121.301732,23.690928],[121.301534,23.691016],[121.301537,23.690836],[121.301342,23.690743],[121.301143,23.690922],[121.301337,23.691104],[121.301236,23.691374],[121.301431,23.691467]]],[[[121.310734,23.692381],[121.311331,23.691755],[121.311137,23.691573],[121.310452,23.691475],[121.310064,23.69111],[121.309379,23.691012],[121.30928,23.691101],[121.309374,23.691373],[121.309178,23.691371],[121.308986,23.691098],[121.308787,23.691276],[121.308594,23.691094],[121.308297,23.691271],[121.30849,23.691544],[121.308883,23.691458],[121.308979,23.69164],[121.309175,23.691642],[121.30927,23.691823],[121.309856,23.69201],[121.309952,23.692192],[121.310246,23.692195],[121.310245,23.692285],[121.310539,23.692289],[121.310538,23.692379],[121.310734,23.692381]]],[[[121.305936,23.691877],[121.305741,23.691785],[121.305845,23.691334],[121.30565,23.691242],[121.305452,23.69142],[121.305449,23.691601],[121.305643,23.691784],[121.305252,23.691689],[121.305052,23.691958],[121.305149,23.692049],[121.305445,23.691962],[121.305443,23.692052],[121.305834,23.692147],[121.305936,23.691877]]],[[[121.304266,23.69213],[121.304072,23.691947],[121.303876,23.691945],[121.303878,23.691764],[121.303585,23.691671],[121.303586,23.691581],[121.303292,23.691577],[121.303293,23.691487],[121.302999,23.691484],[121.303,23.691393],[121.302706,23.69139],[121.302707,23.6913],[121.302315,23.691296],[121.30222,23.691114],[121.302022,23.691202],[121.302213,23.691656],[121.302703,23.691661],[121.30348,23.692211],[121.304165,23.692309],[121.304266,23.69213]]],[[[121.305436,23.692594],[121.305338,23.692593],[121.305341,23.692412],[121.305539,23.692234],[121.305246,23.69214],[121.304948,23.692408],[121.304846,23.692768],[121.305335,23.692864],[121.305436,23.692594]]],[[[121.304642,23.693398],[121.304741,23.693309],[121.304744,23.693038],[121.304842,23.693039],[121.304748,23.692767],[121.304552,23.692765],[121.304353,23.692943],[121.304449,23.693125],[121.304155,23.693122],[121.304255,23.692942],[121.304061,23.69276],[121.303765,23.692937],[121.303763,23.693118],[121.304056,23.693211],[121.304248,23.693484],[121.304642,23.693398]]]]}}]}