{"type":"FeatureCollection","features":[{"type":"Feature","properties":{"kind":"bare_slide","month":"2020-06","area_ha":55.6},"geometry":{"type":"MultiPolygon","coordinates":[[[[121.29446,23.714777],[121.295256,23.713883],[121.29555,23.713886],[121.295749,23.713708],[121.295751,23.713527],[121.296049,23.71326],[121.296252,23.71272],[121.296449,23.712632],[121.296451,23.712452],[121.296749,23.712184],[121.297632,23.712194],[121.297729,23.712285],[121.298026,23.712017],[121.298029,23.711837],[121.298325,23.711659],[121.298441,23.710306],[121.298053,23.709941],[121.297959,23.709669],[121.29776,23.709847],[121.297564,23.709845],[121.297565,23.709755],[121.29727,23.709842],[121.297366,23.710024],[121.297562,23.710026],[121.297654,23.710478],[121.297946,23.710662],[121.297844,23.710932],[121.297746,23.710931],[121.297738,23.711563],[121.29754,23.711741],[121.296853,23.711734],[121.296756,23.711642],[121.296652,23.712093],[121.296357,23.71218],[121.296356,23.71227],[121.296062,23.712267],[121.295863,23.712445],[121.295861,23.712626],[121.295563,23.712893],[121.295268,23.71298],[121.295265,23.713161],[121.294676,23.713245],[121.29418,23.713691],[121.293493,23.713683],[121.293394,23.713772],[121.293291,23.714132],[121.293485,23.714315],[121.293779,23.714318],[121.294163,23.714955],[121.29446,23.714777]],[[121.294169,23.714503],[121.294365,23.714505],[121.294364,23.714596],[121.294168,23.714594],[121.294169,23.714503]]],[[[121.291802,23.715561],[121.292099,23.715293],[121.292002,23.715202],[121.292005,23.715021],[121.292103,23.715022],[121.29201,23.71466],[121.292207,23.714572],[121.29221,23.714301],[121.292606,23.714035],[121.292512,23.713763],[121.292015,23.714209],[121.291919,23.714117],[121.291428,23.714112],[121.291429,23.714022],[121.290939,23.714016],[121.290543,23.714283],[121.290639,23.714464],[121.291127,23.71465],[121.290929,23.714829],[121.290926,23.715009],[121.291414,23.715195],[121.291212,23.715645],[121.291504,23.715828],[121.291606,23.715559],[121.291802,23.715561]],[[121.291611,23.715107],[121.291808,23.715109],[121.291806,23.7152],[121.29161,23.715197],[121.291611,23.715107]]],[[[121.285221,23.716301],[121.285223,23.71612],[121.28542,23.716122],[121.285318,23.716392],[121.285513,23.716484],[121.285911,23.716037],[121.285814,23.715946],[121.285519,23.716033],[121.285423,23.715851],[121.285227,23.715849],[121.285226,23.715939],[121.284932,23.715936],[121.284536,23.716203],[121.284728,23.716476],[121.285221,23.716301]]],[[[121.287681,23.715696],[121.28797,23.71606],[121.288362,23.716065],[121.288561,23.715886],[121.288468,23.715524],[121.288666,23.715345],[121.289058,23.71535],[121.288953,23.71589],[121.289148,23.715983],[121.289249,23.715803],[121.289445,23.715806],[121.289442,23.715986],[121.289245,23.716074],[121.289243,23.716255],[121.289047,23.716253],[121.288952,23.715981],[121.288659,23.715887],[121.28856,23.715976],[121.288657,23.716068],[121.288554,23.716428],[121.288748,23.716611],[121.289042,23.716614],[121.289135,23.716976],[121.289427,23.71716],[121.289324,23.71752],[121.289615,23.717794],[121.289811,23.717796],[121.28991,23.717707],[121.289816,23.717435],[121.290113,23.717167],[121.290116,23.716987],[121.289727,23.716712],[121.289826,23.716623],[121.289833,23.716081],[121.290032,23.715902],[121.290228,23.715905],[121.290328,23.715725],[121.290232,23.715634],[121.28974,23.715719],[121.289742,23.715538],[121.290038,23.715451],[121.290139,23.715181],[121.289946,23.714998],[121.289749,23.714996],[121.289451,23.715354],[121.289254,23.715352],[121.288965,23.714988],[121.288572,23.715074],[121.288573,23.714983],[121.288182,23.714889],[121.288081,23.715068],[121.287984,23.714977],[121.287591,23.715063],[121.287291,23.715511],[121.286998,23.715417],[121.286799,23.715596],[121.286993,23.715778],[121.286894,23.715868],[121.28699,23.716049],[121.287188,23.715871],[121.287384,23.715873],[121.287485,23.715694],[121.287681,23.715696]],[[121.288179,23.715069],[121.288178,23.715159],[121.288472,23.715163],[121.28847,23.715343],[121.28798,23.715338],[121.287982,23.715157],[121.288179,23.715069]],[[121.287188,23.715871],[121.287091,23.71578],[121.287189,23.715781],[121.287188,23.715871]]],[[[121.29079,23.717897],[121.290591,23.718166],[121.29,23.71834],[121.290194,23.718523],[121.290191,23.718703],[121.290386,23.718796],[121.290384,23.718976],[121.290089,23.719063],[121.290281,23.719337],[121.290477,23.719339],[121.290578,23.719159],[121.290872,23.719162],[121.291071,23.718984],[121.290976,23.718712],[121.291172,23.718714],[121.291171,23.718805],[121.291564,23.718719],[121.291567,23.718538],[121.291469,23.718537],[121.291571,23.718177],[121.291475,23.718086],[121.291672,23.717997],[121.291674,23.717817],[121.291576,23.717816],[121.291677,23.717636],[121.29197,23.71773],[121.292071,23.71746],[121.292267,23.717462],[121.292359,23.717915],[121.292556,23.717917],[121.292754,23.717738],[121.292756,23.717558],[121.292466,23.717284],[121.292472,23.716832],[121.292375,23.716741],[121.292177,23.716829],[121.292175,23.71701],[121.292077,23.717009],[121.292075,23.717189],[121.291776,23.717547],[121.291581,23.717455],[121.291185,23.717721],[121.291183,23.717902],[121.291086,23.71781],[121.29079,23.717897]],[[121.291183,23.717902],[121.29128,23.717993],[121.291182,23.717992],[121.291183,23.717902]]],[[[121.282515,23.720695],[121.282514,23.720786],[121.28271,23.720788],[121.283405,23.720163],[121.283607,23.719714],[121.284099,23.719629],[121.284398,23.719271],[121.284692,23.719275],[121.284787,23.719456],[121.285083,23.719369],[121.285085,23.719189],[121.284891,23.719006],[121.284596,23.719093],[121.284207,23.718818],[121.28421,23.718637],[121.284406,23.718639],[121.284506,23.71846],[121.284214,23.718276],[121.284219,23.717915],[121.283927,23.717731],[121.283933,23.71728],[121.28423,23.717102],[121.284134,23.716921],[121.283741,23.717007],[121.283443,23.717274],[121.28334,23.717634],[121.283242,23.717633],[121.283325,23.718808],[121.283128,23.718896],[121.283022,23.719437],[121.282824,23.719615],[121.282628,23.719613],[121.282428,23.719882],[121.282036,23.719877],[121.28164,23.720144],[121.281635,23.720505],[121.281928,23.720598],[121.282121,23.720871],[121.282317,23.720874],[121.282515,23.720695]],[[121.283613,23.719263],[121.283511,23.719532],[121.283217,23.719529],[121.283319,23.719259],[121.283613,23.719263]]],[[[121.285467,23.720006],[121.285371,23.719824],[121.285174,23.719912],[121.28527,23.720094],[121.285467,23.720006]]],[[[121.284584,23.719996],[121.284583,23.720086],[121.28409,23.720261],[121.284088,23.720442],[121.28399,23.720441],[121.284086,23.720622],[121.284674,23.720629],[121.285171,23.720093],[121.285076,23.719911],[121.284584,23.719996]]],[[[121.290349,23.721685],[121.29035,23.721595],[121.290743,23.721509],[121.290844,23.721329],[121.290454,23.721144],[121.290467,23.720151],[121.290369,23.72015],[121.290372,23.719879],[121.290177,23.719787],[121.289979,23.719965],[121.290169,23.720419],[121.289476,23.720953],[121.289572,23.721044],[121.289567,23.721496],[121.289467,23.721585],[121.289564,23.721676],[121.289858,23.72168],[121.28986,23.721589],[121.290349,23.721685]]],[[[121.287305,23.721922],[121.287504,23.721744],[121.287506,23.721563],[121.287702,23.721565],[121.2877,23.721746],[121.287993,23.72184],[121.287992,23.72193],[121.288482,23.721935],[121.28878,23.721668],[121.288684,23.721486],[121.288389,23.721573],[121.288688,23.721215],[121.288493,23.721123],[121.288392,23.721302],[121.288,23.721298],[121.287807,23.721025],[121.28712,23.721107],[121.287017,23.721468],[121.286919,23.721466],[121.286914,23.721828],[121.287305,23.721922]]],[[[121.284458,23.722162],[121.284849,23.722256],[121.285047,23.722078],[121.285153,23.721537],[121.285939,23.721365],[121.285843,23.721274],[121.285945,23.720914],[121.285752,23.720731],[121.285457,23.720728],[121.285265,23.720455],[121.284669,23.72099],[121.284764,23.721262],[121.284567,23.72135],[121.284563,23.721621],[121.284465,23.72162],[121.284262,23.722159],[121.284064,23.722248],[121.284062,23.722428],[121.284354,23.722612],[121.284458,23.722162]]],[[[121.286904,23.72264],[121.287399,23.722284],[121.287204,23.722192],[121.287103,23.722371],[121.286908,23.722279],[121.28671,23.722457],[121.286521,23.721914],[121.286126,23.72209],[121.286127,23.721999],[121.285833,23.721996],[121.285737,23.721815],[121.285541,23.721812],[121.28544,23.722082],[121.285242,23.72217],[121.28524,23.722351],[121.285532,23.722535],[121.285625,23.722897],[121.28632,23.722273],[121.286418,23.722274],[121.286414,23.722544],[121.286512,23.722546],[121.28651,23.722726],[121.286313,23.722814],[121.286408,23.722996],[121.286801,23.723],[121.286904,23.72264]],[[121.286611,23.722547],[121.286709,23.722548],[121.286706,23.722728],[121.286608,23.722727],[121.286611,23.722547]]],[[[121.294217,23.725881],[121.294416,23.725703],[121.294319,23.725612],[121.294418,23.725523],[121.294321,23.725431],[121.29442,23.725342],[121.294425,23.724981],[121.294327,23.72498],[121.29443,23.72462],[121.294627,23.724532],[121.294631,23.724261],[121.294827,23.724263],[121.295025,23.724084],[121.29493,23.723903],[121.294637,23.723809],[121.294646,23.723087],[121.294743,23.723178],[121.29494,23.72309],[121.295045,23.72255],[121.29485,23.722457],[121.294749,23.722727],[121.294355,23.722813],[121.294256,23.722902],[121.294352,23.723084],[121.294056,23.723171],[121.294059,23.72299],[121.293864,23.722898],[121.29387,23.722446],[121.293578,23.722262],[121.293678,23.722083],[121.29358,23.722082],[121.293487,23.72172],[121.292905,23.721171],[121.292914,23.720539],[121.292719,23.720447],[121.29252,23.720625],[121.292616,23.720807],[121.292419,23.720895],[121.292415,23.721166],[121.292023,23.721162],[121.292128,23.720621],[121.291835,23.720528],[121.291736,23.720617],[121.29173,23.721068],[121.291828,23.721069],[121.291922,23.721341],[121.292119,23.721343],[121.29192,23.721522],[121.292011,23.722065],[121.292402,23.722159],[121.292497,23.722431],[121.292692,23.722524],[121.292587,23.723064],[121.29278,23.723247],[121.293076,23.72316],[121.29327,23.723343],[121.293267,23.723523],[121.292871,23.72379],[121.292868,23.724061],[121.293255,23.724426],[121.293553,23.724158],[121.293846,23.724252],[121.293845,23.724342],[121.29355,23.724429],[121.29384,23.724703],[121.293833,23.725245],[121.293734,23.725334],[121.294125,23.725429],[121.294221,23.725611],[121.293927,23.725607],[121.293628,23.725965],[121.293726,23.725966],[121.293723,23.726147],[121.29392,23.726149],[121.293922,23.725969],[121.294314,23.725973],[121.294217,23.725881]]],[[[121.291991,23.723599],[121.291797,23.723417],[121.291697,23.723596],[121.291892,23.723689],[121.291991,23.723599]]],[[[121.291677,23.725131],[121.291975,23.724863],[121.291878,23.724772],[121.291884,23.724321],[121.292082,23.724142],[121.29199,23.72369],[121.291793,23.723778],[121.291686,23.724409],[121.291195,23.724494],[121.290996,23.724672],[121.291383,23.725128],[121.291677,23.725131]]],[[[121.296863,23.726091],[121.296676,23.725367],[121.296973,23.725189],[121.296975,23.725009],[121.297173,23.72483],[121.297466,23.724924],[121.297964,23.724388],[121.297866,23.724387],[121.297869,23.724116],[121.297674,23.724023],[121.297573,23.724293],[121.297176,23.72465],[121.296782,23.724736],[121.296785,23.724555],[121.296883,23.724556],[121.296789,23.724194],[121.296987,23.724106],[121.297089,23.723746],[121.296603,23.72347],[121.296503,23.723559],[121.296596,23.724011],[121.295906,23.724275],[121.295706,23.724543],[121.295511,23.724451],[121.29551,23.724541],[121.295018,23.724626],[121.294824,23.724443],[121.294724,23.724623],[121.294822,23.724624],[121.295012,23.725078],[121.295502,23.725173],[121.295302,23.725442],[121.295496,23.725625],[121.295693,23.725537],[121.295691,23.725717],[121.295981,23.725991],[121.296473,23.725906],[121.296567,23.726178],[121.296764,23.72618],[121.296863,23.726091]],[[121.296485,23.725003],[121.296678,23.725186],[121.296383,23.725273],[121.296385,23.725093],[121.296485,23.725003]]],[[[121.298885,23.706338],[121.298887,23.706157],[121.299085,23.705979],[121.298895,23.705525],[121.298992,23.705617],[121.299189,23.705529],[121.299096,23.705166],[121.299194,23.705168],[121.299199,23.704806],[121.299496,23.704539],[121.299401,23.704357],[121.299499,23.704358],[121.299502,23.704087],[121.2996,23.704088],[121.299605,23.703727],[121.29912,23.70327],[121.299126,23.702819],[121.299028,23.702818],[121.299032,23.702547],[121.298934,23.702546],[121.298944,23.701733],[121.299042,23.701734],[121.299145,23.701374],[121.298753,23.70137],[121.298657,23.701188],[121.298363,23.701185],[121.298164,23.701364],[121.298257,23.701816],[121.298059,23.701904],[121.298054,23.702356],[121.298248,23.702448],[121.298244,23.702809],[121.298342,23.70281],[121.298338,23.703081],[121.298436,23.703082],[121.29853,23.703445],[121.299113,23.703812],[121.299108,23.704264],[121.299204,23.704355],[121.299106,23.704354],[121.299103,23.704625],[121.299005,23.704624],[121.299001,23.704894],[121.298903,23.704893],[121.298997,23.705256],[121.298798,23.705434],[121.298406,23.70543],[121.298306,23.705609],[121.297814,23.705694],[121.29771,23.706144],[121.297807,23.706236],[121.2982,23.70615],[121.298296,23.706332],[121.298492,23.706334],[121.298586,23.706696],[121.298783,23.706608],[121.298786,23.706337],[121.298885,23.706338]],[[121.298735,23.702724],[121.298833,23.702725],[121.298831,23.702906],[121.298733,23.702905],[121.298735,23.702724]]],[[[121.298093,23.706871],[121.297993,23.707051],[121.29809,23.707142],[121.298385,23.707055],[121.298575,23.707508],[121.29887,23.707421],[121.298581,23.707057],[121.29868,23.706968],[121.298586,23.706696],[121.298093,23.706871]]],[[[121.298083,23.707684],[121.297889,23.707501],[121.298087,23.707323],[121.297892,23.70723],[121.297693,23.707499],[121.297201,23.707584],[121.2971,23.707853],[121.297197,23.707945],[121.297786,23.707861],[121.29798,23.708044],[121.298079,23.707955],[121.298083,23.707684]]],[[[121.301314,23.70808],[121.30112,23.707898],[121.300826,23.707894],[121.30073,23.707713],[121.300532,23.707891],[121.300139,23.707887],[121.30014,23.707797],[121.299845,23.707884],[121.300133,23.708338],[121.300431,23.708071],[121.300627,23.708073],[121.300626,23.708163],[121.30092,23.708166],[121.301211,23.70844],[121.30131,23.708351],[121.301314,23.70808]]],[[[121.297573,23.709123],[121.297577,23.708852],[121.297775,23.708674],[121.29797,23.708766],[121.298169,23.708588],[121.298175,23.708136],[121.298078,23.708045],[121.297185,23.708848],[121.297277,23.7093],[121.297573,23.709123]]],[[[121.301466,23.711423],[121.301175,23.711239],[121.301081,23.710877],[121.30011,23.710144],[121.300017,23.709782],[121.299142,23.70914],[121.299042,23.70932],[121.299623,23.709868],[121.29962,23.710139],[121.299913,23.710232],[121.300202,23.710597],[121.300593,23.710691],[121.30059,23.710962],[121.301172,23.71142],[121.301267,23.711692],[121.301464,23.711604],[121.301466,23.711423]]],[[[121.301622,23.714585],[121.301529,23.714133],[121.301728,23.713954],[121.301731,23.713684],[121.301929,23.713595],[121.301932,23.713325],[121.302129,23.713236],[121.302133,23.712966],[121.302035,23.712964],[121.302038,23.712694],[121.301745,23.7126],[121.301457,23.712145],[121.301261,23.712143],[121.300963,23.712411],[121.300854,23.713313],[121.300952,23.713314],[121.301044,23.713766],[121.301239,23.713859],[121.301233,23.71431],[121.301036,23.714398],[121.30113,23.71467],[121.301325,23.714763],[121.301326,23.714672],[121.301622,23.714585]]],[[[121.297006,23.715076],[121.297107,23.714807],[121.297304,23.714809],[121.297305,23.714718],[121.297696,23.714813],[121.297986,23.715087],[121.29838,23.715001],[121.298186,23.714818],[121.298292,23.714188],[121.297711,23.713639],[121.297416,23.713726],[121.297513,23.713818],[121.297409,23.714268],[121.296716,23.714712],[121.296714,23.714893],[121.296909,23.714985],[121.29681,23.715074],[121.296905,23.715256],[121.297103,23.715168],[121.297006,23.715076]]],[[[121.297196,23.71553],[121.297198,23.715349],[121.297003,23.715257],[121.296705,23.715615],[121.296998,23.715708],[121.297196,23.71553]]],[[[121.296834,23.720763],[121.297128,23.720767],[121.297127,23.720857],[121.297324,23.720769],[121.29713,23.720586],[121.297135,23.720225],[121.297037,23.720224],[121.297039,23.720043],[121.297137,23.720044],[121.297143,23.719593],[121.297046,23.719501],[121.296551,23.719857],[121.296549,23.720038],[121.296647,23.720039],[121.296644,23.72031],[121.296446,23.720398],[121.296537,23.720941],[121.296439,23.72094],[121.296337,23.7213],[121.29624,23.721208],[121.296042,23.721296],[121.296235,23.721569],[121.296334,23.72148],[121.296627,23.721574],[121.296728,23.721394],[121.296825,23.721486],[121.297022,23.721397],[121.296732,23.721033],[121.296834,23.720763]],[[121.296828,23.721215],[121.296729,23.721304],[121.29673,23.721214],[121.296828,23.721215]]],[[[121.302121,23.721454],[121.301934,23.720729],[121.302132,23.720641],[121.302135,23.72037],[121.302233,23.720371],[121.302141,23.719919],[121.301745,23.720185],[121.301837,23.720638],[121.30154,23.720905],[121.301633,23.721268],[121.301924,23.721542],[121.302121,23.721454]]],[[[121.302873,23.72399],[121.30307,23.723902],[121.30316,23.724535],[121.303551,23.72463],[121.303652,23.72445],[121.303361,23.724176],[121.30346,23.724087],[121.303473,23.723094],[121.30377,23.722916],[121.303773,23.722646],[121.30407,23.722468],[121.303974,23.722287],[121.303778,23.722284],[121.303777,23.722375],[121.303091,23.722277],[121.302893,23.722455],[121.302984,23.722998],[121.302788,23.722996],[121.302692,23.722814],[121.302397,23.722901],[121.302392,23.723262],[121.302195,23.723351],[121.302292,23.723442],[121.302186,23.723983],[121.302576,23.724167],[121.302571,23.724619],[121.302667,23.72471],[121.302865,23.724622],[121.302873,23.72399]]],[[[121.304232,23.725089],[121.304332,23.724909],[121.304137,23.724817],[121.30414,23.724636],[121.30375,23.724451],[121.303647,23.724811],[121.303939,23.724995],[121.304033,23.725267],[121.30423,23.725269],[121.304329,23.72518],[121.304232,23.725089]]],[[[121.302457,23.725792],[121.302557,23.725702],[121.302464,23.72525],[121.302761,23.725073],[121.302568,23.724799],[121.302271,23.725067],[121.301977,23.724974],[121.301875,23.725334],[121.301578,23.725511],[121.301576,23.725692],[121.301771,23.725784],[121.301865,23.726056],[121.302063,23.725968],[121.302165,23.725608],[121.302457,23.725792]],[[121.302067,23.725607],[121.30207,23.725426],[121.302168,23.725427],[121.302165,23.725608],[121.302067,23.725607]]],[[[121.306051,23.72854],[121.306249,23.728362],[121.306252,23.728181],[121.305959,23.728087],[121.305962,23.727817],[121.305767,23.727724],[121.305674,23.727362],[121.305286,23.726996],[121.30509,23.726994],[121.304994,23.726813],[121.304798,23.726811],[121.304604,23.726628],[121.304712,23.725907],[121.304614,23.725906],[121.304519,23.725634],[121.304323,23.725631],[121.304224,23.725721],[121.304212,23.726624],[121.30431,23.726625],[121.304403,23.726987],[121.304206,23.727075],[121.304203,23.727346],[121.304594,23.72744],[121.304694,23.727261],[121.30489,23.727263],[121.305084,23.727446],[121.305082,23.727626],[121.305374,23.72781],[121.305466,23.728263],[121.305757,23.728537],[121.305856,23.728448],[121.306051,23.72854]],[[121.305857,23.728357],[121.305956,23.728268],[121.305955,23.728358],[121.305857,23.728357]]],[[[121.302241,23.727324],[121.301952,23.72696],[121.301754,23.727048],[121.302044,23.727412],[121.301842,23.727862],[121.301939,23.727953],[121.302136,23.727865],[121.30233,23.728048],[121.302918,23.728054],[121.303019,23.727875],[121.302825,23.727692],[121.302531,23.727689],[121.302534,23.727418],[121.302241,23.727324]],[[121.302531,23.727689],[121.302432,23.727778],[121.302433,23.727688],[121.302531,23.727689]]]]}},{"type":"Feature","properties":{"kind":"bare_dam","month":"2020-06","area_ha":21.28},"geometry":{"type":"MultiPolygon","coordinates":[[[[121.302918,23.690219],[121.303214,23.690041],[121.303118,23.68986],[121.303019,23.689949],[121.302823,23.689947],[121.302824,23.689856],[121.302529,23.689944],[121.302625,23.690125],[121.302919,23.690128],[121.302918,23.690219]]],[[[121.30272,23.690307],[121.302623,23.690215],[121.301839,23.690207],[121.301645,23.690024],[121.301448,23.690112],[121.301641,23.690385],[121.301935,23.690389],[121.301934,23.690479],[121.30262,23.690486],[121.30272,23.690307]]],[[[121.299767,23.691177],[121.299669,23.691176],[121.299771,23.690907],[121.299869,23.690908],[121.299877,23.690276],[121.29978,23.690184],[121.299486,23.690181],[121.299288,23.690359],[121.299192,23.690178],[121.298897,23.690265],[121.298898,23.690175],[121.298604,23.690171],[121.298411,23.689898],[121.298215,23.689896],[121.297621,23.690341],[121.297615,23.690793],[121.297809,23.690975],[121.298103,23.690979],[121.298104,23.690888],[121.2984,23.690801],[121.298495,23.690983],[121.298691,23.690985],[121.298783,23.691438],[121.299665,23.691537],[121.299767,23.691177]]],[[[121.303285,23.692119],[121.303872,23.692216],[121.303871,23.692306],[121.304165,23.692309],[121.304164,23.6924],[121.304361,23.692311],[121.304268,23.691949],[121.303779,23.691854],[121.303391,23.691488],[121.303097,23.691485],[121.303098,23.691395],[121.302803,23.691482],[121.302707,23.6913],[121.302217,23.691295],[121.302025,23.691022],[121.301631,23.691108],[121.30144,23.690744],[121.301242,23.690923],[121.300949,23.690829],[121.300856,23.690377],[121.300663,23.690194],[121.300174,23.690098],[121.299975,23.690277],[121.300161,23.691091],[121.299863,23.691359],[121.300057,23.691542],[121.300253,23.691544],[121.300254,23.691454],[121.300547,23.691547],[121.300647,23.691368],[121.300744,23.691459],[121.301431,23.691467],[121.301525,23.691739],[121.301724,23.69156],[121.30192,23.691562],[121.301918,23.691653],[121.302312,23.691567],[121.302506,23.691749],[121.303094,23.691756],[121.303091,23.691936],[121.303285,23.692119]],[[121.303094,23.691756],[121.303193,23.691667],[121.303192,23.691757],[121.303094,23.691756]]],[[[121.298852,23.693696],[121.299145,23.693789],[121.299045,23.693969],[121.299335,23.694243],[121.299829,23.693977],[121.299832,23.693797],[121.299541,23.693523],[121.299248,23.693429],[121.299446,23.693251],[121.299449,23.69307],[121.299254,23.692978],[121.299354,23.692798],[121.299159,23.692706],[121.299263,23.692255],[121.298488,23.691525],[121.298388,23.691704],[121.298678,23.691978],[121.298286,23.691974],[121.298185,23.692244],[121.298282,23.692335],[121.298479,23.692247],[121.298473,23.692698],[121.298668,23.692791],[121.298664,23.693062],[121.298957,23.693155],[121.298858,23.693244],[121.298852,23.693696]],[[121.299637,23.693704],[121.299537,23.693794],[121.299539,23.693703],[121.299637,23.693704]],[[121.298957,23.693155],[121.299057,23.693066],[121.299055,23.693156],[121.298957,23.693155]],[[121.299057,23.693066],[121.299156,23.692977],[121.299155,23.693067],[121.299057,23.693066]]],[[[121.300905,23.69417],[121.301099,23.694353],[121.30149,23.694447],[121.301488,23.694628],[121.301682,23.69481],[121.302075,23.694724],[121.302077,23.694544],[121.301494,23.694176],[121.3014,23.693814],[121.301204,23.693812],[121.300905,23.69417]],[[121.301104,23.693991],[121.301201,23.694083],[121.301103,23.694082],[121.301104,23.693991]],[[121.301201,23.694083],[121.301298,23.694174],[121.301199,23.694173],[121.301201,23.694083]]],[[[121.302662,23.694821],[121.303249,23.694918],[121.303351,23.694648],[121.303254,23.694557],[121.302469,23.694548],[121.302468,23.694638],[121.302173,23.694725],[121.302464,23.695],[121.302662,23.694821]]],[[[121.299481,23.698127],[121.299285,23.698125],[121.298898,23.69776],[121.2991,23.69731],[121.299396,23.697133],[121.299202,23.69695],[121.299109,23.696588],[121.298914,23.696496],[121.298925,23.695683],[121.299024,23.695594],[121.298732,23.69541],[121.298734,23.69523],[121.298541,23.695047],[121.298245,23.695134],[121.298249,23.694863],[121.297956,23.694769],[121.297854,23.695039],[121.297657,23.695127],[121.297754,23.695219],[121.297748,23.69567],[121.29755,23.695849],[121.298036,23.696125],[121.297934,23.696485],[121.298032,23.696486],[121.298123,23.697029],[121.29851,23.697394],[121.298308,23.697844],[121.298601,23.697937],[121.298599,23.698118],[121.299083,23.698574],[121.299479,23.698308],[121.300068,23.698224],[121.300169,23.698045],[121.30056,23.698139],[121.300655,23.698321],[121.301148,23.698146],[121.301545,23.697789],[121.301547,23.697608],[121.301449,23.697607],[121.30155,23.697428],[121.30067,23.697237],[121.30057,23.697327],[121.300666,23.697508],[121.300371,23.697595],[121.300472,23.697326],[121.300081,23.697231],[121.299984,23.69714],[121.300085,23.69696],[121.29989,23.696868],[121.299691,23.697046],[121.299788,23.697137],[121.299686,23.697497],[121.299488,23.697586],[121.299481,23.698127]],[[121.299984,23.69714],[121.299885,23.697229],[121.299886,23.697138],[121.299984,23.69714]],[[121.299686,23.697497],[121.299782,23.697589],[121.299684,23.697588],[121.299686,23.697497]],[[121.299782,23.697589],[121.299879,23.69768],[121.299781,23.697679],[121.299782,23.697589]],[[121.300175,23.697593],[121.300078,23.697502],[121.300176,23.697503],[121.300175,23.697593]]],[[[121.302238,23.697255],[121.302143,23.697073],[121.302341,23.696895],[121.302438,23.696986],[121.302635,23.696898],[121.302346,23.696533],[121.30185,23.696979],[121.301747,23.69734],[121.301942,23.697432],[121.301943,23.697342],[121.302238,23.697255]]],[[[121.296721,23.699271],[121.296434,23.698726],[121.296141,23.698632],[121.296142,23.698542],[121.295848,23.698539],[121.295747,23.698718],[121.295354,23.698804],[121.295254,23.698984],[121.294959,23.698981],[121.294669,23.698706],[121.294471,23.698795],[121.294761,23.699159],[121.295055,23.699162],[121.295054,23.699253],[121.295446,23.699257],[121.295843,23.6989],[121.296235,23.698904],[121.296523,23.699359],[121.296721,23.699271]]],[[[121.31138,23.687873],[121.311876,23.687427],[121.311684,23.687154],[121.31188,23.687156],[121.31198,23.686977],[121.311787,23.686794],[121.311591,23.686792],[121.311404,23.686067],[121.311209,23.685975],[121.31111,23.686064],[121.3112,23.686697],[121.311298,23.686698],[121.311286,23.687601],[121.311188,23.6876],[121.311186,23.687781],[121.31138,23.687873]]],[[[121.312364,23.687613],[121.312457,23.688065],[121.312652,23.688158],[121.312754,23.687798],[121.312852,23.687799],[121.31276,23.687346],[121.312276,23.68689],[121.311977,23.687248],[121.312364,23.687613]],[[121.312172,23.68734],[121.312271,23.687251],[121.31227,23.687341],[121.312172,23.68734]]],[[[121.303508,23.690045],[121.303313,23.689952],[121.303213,23.690132],[121.303408,23.690224],[121.303508,23.690045]]],[[[121.308989,23.690827],[121.308994,23.690466],[121.308703,23.690192],[121.308707,23.689921],[121.308415,23.689737],[121.308313,23.690007],[121.308507,23.69019],[121.308498,23.690912],[121.308791,23.691005],[121.308989,23.690827]]],[[[121.310636,23.69238],[121.31123,23.691935],[121.311233,23.691754],[121.311039,23.691572],[121.310647,23.691567],[121.310064,23.69111],[121.309868,23.691107],[121.309867,23.691198],[121.309378,23.691102],[121.309279,23.691191],[121.309374,23.691373],[121.30908,23.69137],[121.308987,23.691008],[121.30879,23.691096],[121.308785,23.691457],[121.308979,23.69164],[121.309175,23.691642],[121.30927,23.691823],[121.309467,23.691825],[121.309465,23.691916],[121.309662,23.691918],[121.31005,23.692193],[121.310442,23.692197],[121.310636,23.69238]],[[121.309664,23.691737],[121.309763,23.691648],[121.309762,23.691738],[121.309664,23.691737]]],[[[121.305841,23.691605],[121.305747,23.691333],[121.305353,23.691419],[121.305252,23.691689],[121.305055,23.691777],[121.305052,23.691958],[121.305149,23.692049],[121.305445,23.691962],[121.305546,23.691692],[121.305841,23.691605]],[[121.305546,23.691692],[121.305449,23.691601],[121.305547,23.691602],[121.305546,23.691692]]],[[[121.307308,23.691892],[121.307601,23.691986],[121.307899,23.691718],[121.307704,23.691626],[121.307506,23.691804],[121.30731,23.691802],[121.307311,23.691712],[121.307016,23.691799],[121.30711,23.692071],[121.307308,23.691892]]],[[[121.305139,23.692862],[121.305434,23.692775],[121.305436,23.692594],[121.305338,23.692593],[121.305341,23.692412],[121.305538,23.692324],[121.305442,23.692143],[121.305246,23.69214],[121.305048,23.692319],[121.305045,23.692499],[121.304848,23.692588],[121.304845,23.692858],[121.304941,23.69295],[121.305138,23.692952],[121.305139,23.692862]]],[[[121.30464,23.693488],[121.304845,23.692858],[121.304651,23.692676],[121.304455,23.692674],[121.304353,23.692943],[121.304255,23.692942],[121.304258,23.692762],[121.303966,23.692578],[121.303866,23.692667],[121.303961,23.692939],[121.303763,23.693118],[121.304154,23.693212],[121.304248,23.693484],[121.304347,23.693395],[121.30464,23.693488]]],[[[121.304716,23.695205],[121.304136,23.694566],[121.303939,23.694655],[121.304031,23.695107],[121.304423,23.695111],[121.304519,23.695293],[121.304716,23.695205]]]]}}]}