{"type":"FeatureCollection","features":[{"type":"Feature","properties":{"kind":"bare_slide","month":"2021-06","area_ha":33.1},"geometry":{"type":"MultiPolygon","coordinates":[[[[121.288934,23.717335],[121.289614,23.717884],[121.28951,23.718335],[121.289705,23.718427],[121.289903,23.718249],[121.28991,23.717707],[121.290008,23.717708],[121.289914,23.717436],[121.290111,23.717348],[121.290214,23.716988],[121.290509,23.716901],[121.290219,23.716627],[121.290221,23.716446],[121.290419,23.716268],[121.290616,23.71627],[121.290808,23.716543],[121.291301,23.716368],[121.291404,23.716008],[121.291113,23.715734],[121.290618,23.716089],[121.290423,23.715997],[121.290522,23.715908],[121.290428,23.715636],[121.289838,23.71572],[121.28994,23.71545],[121.290235,23.715363],[121.290633,23.714916],[121.291025,23.71492],[121.291224,23.714742],[121.29123,23.71429],[121.291133,23.714199],[121.290937,23.714197],[121.290836,23.714376],[121.290444,23.714372],[121.290344,23.714551],[121.29005,23.714548],[121.289949,23.714728],[121.289459,23.714722],[121.28916,23.71508],[121.288768,23.715076],[121.288668,23.715165],[121.288764,23.715347],[121.288568,23.715344],[121.288567,23.715435],[121.288273,23.715431],[121.288274,23.715341],[121.288077,23.715429],[121.28798,23.715338],[121.28808,23.715158],[121.287983,23.715067],[121.287786,23.715155],[121.287883,23.715247],[121.287784,23.715336],[121.28778,23.715607],[121.287878,23.715608],[121.287778,23.715787],[121.288068,23.716061],[121.287964,23.716512],[121.288061,23.716603],[121.288846,23.716612],[121.289135,23.716976],[121.288937,23.717154],[121.288934,23.717335]],[[121.28933,23.717069],[121.289329,23.717159],[121.289133,23.717157],[121.289134,23.717066],[121.28933,23.717069]],[[121.28905,23.715982],[121.289347,23.715805],[121.28954,23.715987],[121.289343,23.716075],[121.289341,23.716256],[121.289047,23.716253],[121.28905,23.715982]]],[[[121.284497,23.719182],[121.284597,23.719003],[121.284403,23.71882],[121.284207,23.718818],[121.284209,23.718727],[121.283913,23.718814],[121.283916,23.718634],[121.284211,23.718547],[121.284116,23.718275],[121.284314,23.718187],[121.284218,23.718005],[121.284119,23.718094],[121.283924,23.718002],[121.283931,23.71746],[121.284327,23.717194],[121.284329,23.717013],[121.284134,23.716921],[121.283441,23.717455],[121.283437,23.717726],[121.283339,23.717725],[121.283432,23.718087],[121.283234,23.718265],[121.283429,23.718358],[121.283522,23.71872],[121.283223,23.719078],[121.28332,23.719169],[121.28381,23.719175],[121.28391,23.719085],[121.284005,23.719267],[121.284497,23.719182]],[[121.283911,23.718995],[121.283814,23.718904],[121.283912,23.718905],[121.283911,23.718995]]],[[[121.285084,23.719279],[121.284987,23.719188],[121.285282,23.719101],[121.285187,23.718919],[121.284795,23.718915],[121.284596,23.719093],[121.284886,23.719457],[121.285084,23.719279]]],[[[121.290743,23.721509],[121.290844,23.721329],[121.290454,23.721144],[121.290553,23.721055],[121.290477,23.719339],[121.290577,23.719249],[121.290674,23.719341],[121.291067,23.719255],[121.291069,23.719074],[121.291167,23.719075],[121.291074,23.718713],[121.291268,23.718896],[121.291563,23.718809],[121.29147,23.718447],[121.291667,23.718359],[121.291571,23.718177],[121.291769,23.718089],[121.291771,23.717908],[121.29148,23.717634],[121.291283,23.717722],[121.29138,23.717814],[121.291278,23.718083],[121.291082,23.718081],[121.290889,23.717898],[121.290789,23.717988],[121.290884,23.71826],[121.290493,23.718165],[121.290492,23.718255],[121.290098,23.718341],[121.290292,23.718524],[121.290288,23.718795],[121.290483,23.718887],[121.290481,23.719068],[121.289992,23.718972],[121.289891,23.719152],[121.290085,23.719334],[121.289594,23.719419],[121.289591,23.7196],[121.289882,23.719874],[121.290078,23.719876],[121.289977,23.720146],[121.290171,23.720238],[121.290169,23.720419],[121.289673,23.720865],[121.289966,23.720958],[121.290353,23.721324],[121.290448,23.721596],[121.290743,23.721509]]],[[[121.282517,23.720605],[121.282712,23.720697],[121.283009,23.72043],[121.283012,23.720249],[121.282817,23.720157],[121.282918,23.719887],[121.283114,23.719889],[121.283013,23.720159],[121.283208,23.720251],[121.283607,23.719714],[121.283216,23.719619],[121.283022,23.719437],[121.282427,23.719972],[121.282231,23.71997],[121.281835,23.720236],[121.281831,23.720507],[121.282122,23.720781],[121.282416,23.720784],[121.282517,23.720605]]],[[[121.285724,23.722808],[121.286221,23.722362],[121.286514,23.722455],[121.286512,23.722546],[121.286808,23.722459],[121.286713,23.722187],[121.286615,23.722185],[121.286818,23.721646],[121.287012,23.721829],[121.287403,23.721923],[121.287702,23.721565],[121.288089,23.722021],[121.28858,23.721936],[121.288582,23.721756],[121.288387,23.721663],[121.288489,23.721394],[121.288294,23.721301],[121.288194,23.721481],[121.287998,23.721478],[121.287709,23.721024],[121.287316,23.72111],[121.287018,23.721377],[121.287122,23.720927],[121.286735,23.720561],[121.286442,23.720468],[121.286544,23.720108],[121.286742,23.72002],[121.286744,23.719839],[121.286452,23.719655],[121.286457,23.719294],[121.286654,23.719206],[121.286658,23.718935],[121.287152,23.71867],[121.287055,23.718578],[121.287062,23.718037],[121.287358,23.717859],[121.287263,23.717678],[121.287066,23.717676],[121.286667,23.718213],[121.286079,23.718206],[121.285499,23.717568],[121.285303,23.717566],[121.2852,23.717926],[121.284904,23.718013],[121.285,23.718194],[121.285295,23.718107],[121.285297,23.718017],[121.285689,23.718021],[121.285883,23.718204],[121.285877,23.718656],[121.286265,23.718931],[121.286261,23.719292],[121.285963,23.71956],[121.285768,23.719467],[121.285668,23.719647],[121.285372,23.719734],[121.285466,23.720096],[121.285268,23.720184],[121.285266,23.720365],[121.28546,23.720547],[121.285064,23.720814],[121.285158,23.721086],[121.284961,23.721174],[121.284759,23.721623],[121.284463,23.7218],[121.28446,23.721981],[121.284557,23.722072],[121.284754,23.721984],[121.284948,23.722167],[121.285246,23.721899],[121.28535,23.721449],[121.285546,23.721451],[121.285547,23.721361],[121.285742,23.721453],[121.285843,23.721274],[121.286039,23.721276],[121.286134,23.721458],[121.286427,23.721551],[121.286424,23.721822],[121.286131,23.721729],[121.28584,23.721455],[121.285642,23.721633],[121.285539,23.721993],[121.285242,23.72217],[121.285338,23.722352],[121.285534,23.722354],[121.285531,23.722625],[121.285724,23.722808]],[[121.284952,23.721896],[121.284855,23.721805],[121.284953,23.721806],[121.284952,23.721896]],[[121.285943,23.721094],[121.285846,23.721003],[121.285944,23.721004],[121.285943,23.721094]],[[121.285454,23.720999],[121.285357,23.720907],[121.285455,23.720908],[121.285454,23.720999]],[[121.285663,23.720008],[121.285665,23.719827],[121.285864,23.719649],[121.28606,23.719651],[121.286254,23.719834],[121.286251,23.720014],[121.286053,23.720193],[121.285857,23.720191],[121.285663,23.720008]]],[[[121.293078,23.722979],[121.293274,23.722982],[121.29337,23.723163],[121.293664,23.723166],[121.293665,23.723076],[121.293958,23.72317],[121.294058,23.72308],[121.293962,23.722899],[121.293666,23.722986],[121.293473,23.722803],[121.293475,23.722623],[121.293773,23.722355],[121.293578,23.722262],[121.293679,23.721993],[121.293484,23.7219],[121.293487,23.72172],[121.292905,23.721171],[121.293012,23.720541],[121.292817,23.720448],[121.292618,23.720627],[121.292513,23.721167],[121.292317,23.721165],[121.292026,23.720891],[121.292129,23.720531],[121.291934,23.720438],[121.291835,23.720528],[121.291831,23.720798],[121.29193,23.720799],[121.291827,23.72116],[121.292021,23.721342],[121.292315,23.721346],[121.292314,23.721436],[121.292018,23.721523],[121.292015,23.721794],[121.292304,23.722158],[121.292597,23.722252],[121.292591,23.722703],[121.292689,23.722704],[121.292587,23.723064],[121.292978,23.723159],[121.293078,23.722979]]],[[[121.287102,23.722462],[121.287297,23.722554],[121.287397,23.722375],[121.287006,23.72228],[121.286807,23.722549],[121.287002,23.722641],[121.287102,23.722462]]],[[[121.291478,23.725309],[121.291874,23.725043],[121.291881,23.724501],[121.291784,23.72441],[121.291586,23.724588],[121.291194,23.724584],[121.290995,23.724762],[121.29099,23.725123],[121.290892,23.725122],[121.290988,23.725304],[121.291184,23.725306],[121.291279,23.725578],[121.291476,23.72549],[121.291382,23.725218],[121.291478,23.725309]],[[121.291283,23.725217],[121.291286,23.725036],[121.291384,23.725038],[121.291382,23.725218],[121.291283,23.725217]]],[[[121.299547,23.708151],[121.299748,23.707792],[121.299553,23.7077],[121.299556,23.707519],[121.299362,23.707337],[121.29887,23.707421],[121.298967,23.707513],[121.298866,23.707783],[121.29906,23.707965],[121.299256,23.707967],[121.299351,23.708149],[121.299547,23.708151]]],[[[121.301178,23.710968],[121.300111,23.710054],[121.300114,23.709873],[121.299629,23.709416],[121.299433,23.709414],[121.299434,23.709324],[121.299237,23.709412],[121.299721,23.709869],[121.299719,23.710049],[121.30069,23.710783],[121.300784,23.711145],[121.301078,23.711148],[121.301178,23.710968]]],[[[121.301424,23.714673],[121.301622,23.714585],[121.301528,23.714223],[121.301626,23.714224],[121.30163,23.713953],[121.301728,23.713954],[121.301731,23.713684],[121.301829,23.713685],[121.301932,23.713325],[121.302129,23.713236],[121.302133,23.712966],[121.302035,23.712964],[121.302038,23.712694],[121.301745,23.7126],[121.301457,23.712145],[121.301261,23.712143],[121.301063,23.712322],[121.301058,23.712683],[121.30096,23.712682],[121.30095,23.713404],[121.301049,23.713405],[121.301142,23.713767],[121.301337,23.71386],[121.301333,23.714131],[121.301034,23.714489],[121.301228,23.714671],[121.301327,23.714582],[121.301424,23.714673]]],[[[121.298382,23.714821],[121.298187,23.714728],[121.298192,23.714367],[121.29829,23.714368],[121.298197,23.714006],[121.298003,23.713823],[121.297807,23.713821],[121.297711,23.713639],[121.297514,23.713727],[121.297409,23.714268],[121.297111,23.714536],[121.296618,23.714711],[121.296909,23.714985],[121.297106,23.714897],[121.297109,23.714716],[121.297795,23.714724],[121.298084,23.715088],[121.298281,23.71509],[121.298382,23.714821]]],[[[121.302123,23.721273],[121.302025,23.721272],[121.302035,23.72055],[121.302233,23.720371],[121.302238,23.72001],[121.302043,23.719918],[121.301845,23.720096],[121.301837,23.720638],[121.30164,23.720726],[121.301637,23.720997],[121.301735,23.720998],[121.301731,23.721269],[121.301925,23.721451],[121.302123,23.721273]]],[[[121.303653,23.72436],[121.303362,23.724086],[121.30347,23.723365],[121.303371,23.723364],[121.303277,23.723092],[121.302492,23.723083],[121.302395,23.722992],[121.302394,23.723082],[121.302099,23.723169],[121.302094,23.72353],[121.302192,23.723531],[121.302285,23.723984],[121.302773,23.72417],[121.302874,23.7239],[121.30307,23.723902],[121.303162,23.724355],[121.303356,23.724537],[121.303552,23.724539],[121.303653,23.72436]]],[[[121.295039,23.723001],[121.295043,23.72273],[121.294848,23.722638],[121.294748,23.722817],[121.294453,23.722814],[121.294154,23.723172],[121.294152,23.723352],[121.29425,23.723353],[121.294147,23.723714],[121.294245,23.723715],[121.294242,23.723985],[121.294437,23.724078],[121.294435,23.724259],[121.294237,23.724347],[121.294234,23.724617],[121.293937,23.724795],[121.293931,23.725246],[121.294222,23.72552],[121.294419,23.725432],[121.294425,23.724981],[121.294328,23.724889],[121.294426,23.724891],[121.29463,23.724351],[121.294827,23.724263],[121.294642,23.723358],[121.29474,23.723359],[121.295039,23.723001]],[[121.294742,23.723269],[121.294645,23.723177],[121.294743,23.723178],[121.294742,23.723269]]],[[[121.302163,23.725788],[121.30197,23.725515],[121.302069,23.725516],[121.302071,23.725336],[121.302169,23.725337],[121.302263,23.725609],[121.302461,23.725521],[121.302465,23.72516],[121.302663,23.725071],[121.302567,23.72489],[121.302371,23.724888],[121.30237,23.724978],[121.301979,23.724883],[121.301879,23.724973],[121.301974,23.725244],[121.301677,23.725422],[121.301675,23.725602],[121.301773,23.725603],[121.301867,23.725966],[121.302163,23.725788]]]]}},{"type":"Feature","properties":{"kind":"bare_dam","month":"2021-06","area_ha":13.24},"geometry":{"type":"MultiPolygon","coordinates":[[[[121.297812,23.690704],[121.298408,23.690169],[121.298703,23.690082],[121.298607,23.6899],[121.298117,23.689895],[121.297621,23.690341],[121.297812,23.690704]]],[[[121.299961,23.69136],[121.299766,23.691268],[121.29977,23.690997],[121.300254,23.691454],[121.300255,23.691363],[121.300647,23.691368],[121.300749,23.691098],[121.301145,23.690831],[121.300854,23.690557],[121.300761,23.690195],[121.300172,23.690189],[121.300073,23.690278],[121.300071,23.690458],[121.300169,23.690459],[121.300066,23.69082],[121.299968,23.690818],[121.299973,23.690457],[121.299875,23.690456],[121.29978,23.690184],[121.299192,23.690178],[121.299093,23.690267],[121.299187,23.690539],[121.298989,23.690717],[121.298596,23.690803],[121.298789,23.690986],[121.298787,23.691167],[121.298689,23.691166],[121.298785,23.691347],[121.299666,23.691447],[121.299665,23.691537],[121.299861,23.69154],[121.299961,23.69136]]],[[[121.29964,23.693434],[121.299345,23.693521],[121.299347,23.69334],[121.300141,23.692626],[121.300143,23.692446],[121.29985,23.692352],[121.299658,23.692079],[121.299166,23.692164],[121.299169,23.691984],[121.29878,23.691708],[121.298782,23.691528],[121.298489,23.691434],[121.298389,23.691614],[121.298776,23.691979],[121.298482,23.691976],[121.29829,23.691703],[121.298091,23.691881],[121.298189,23.691882],[121.298284,23.692154],[121.298578,23.692158],[121.298474,23.692608],[121.298669,23.6927],[121.298666,23.692971],[121.298957,23.693155],[121.298855,23.693515],[121.299146,23.693699],[121.299144,23.69388],[121.299338,23.694062],[121.299536,23.693884],[121.299829,23.693977],[121.299931,23.693708],[121.29964,23.693434]],[[121.299736,23.693615],[121.299637,23.693704],[121.299638,23.693614],[121.299736,23.693615]]],[[[121.301491,23.694357],[121.301489,23.694537],[121.301683,23.69472],[121.302076,23.694634],[121.301592,23.694177],[121.301499,23.693725],[121.301012,23.693539],[121.30091,23.693809],[121.300713,23.693897],[121.30071,23.694077],[121.301101,23.694172],[121.3011,23.694262],[121.301298,23.694174],[121.301491,23.694357]],[[121.301298,23.694174],[121.301397,23.694085],[121.301396,23.694175],[121.301298,23.694174]],[[121.301299,23.694084],[121.301202,23.693992],[121.3013,23.693994],[121.301299,23.694084]]],[[[121.29874,23.694778],[121.298546,23.694595],[121.298349,23.694684],[121.298542,23.694957],[121.29874,23.694778]]],[[[121.298432,23.695858],[121.298339,23.695496],[121.298144,23.695404],[121.298148,23.695042],[121.298346,23.694954],[121.298348,23.694774],[121.298057,23.6945],[121.297854,23.695039],[121.297657,23.695127],[121.297754,23.695219],[121.297648,23.69585],[121.297843,23.695942],[121.297838,23.696303],[121.298033,23.696396],[121.298029,23.696667],[121.298224,23.696759],[121.298124,23.696939],[121.298511,23.697304],[121.298409,23.697664],[121.298604,23.697756],[121.298902,23.697399],[121.299098,23.697401],[121.2991,23.69731],[121.299295,23.697403],[121.299493,23.697224],[121.299499,23.696773],[121.299206,23.69668],[121.299111,23.696408],[121.298915,23.696405],[121.299014,23.696316],[121.29902,23.695865],[121.298923,23.695773],[121.298726,23.695862],[121.298721,23.696223],[121.298623,23.696222],[121.298627,23.695951],[121.298432,23.695858]],[[121.298623,23.696222],[121.298524,23.696311],[121.298525,23.696221],[121.298623,23.696222]],[[121.298321,23.69685],[121.298323,23.69667],[121.298522,23.696491],[121.298718,23.696494],[121.298912,23.696676],[121.298909,23.696857],[121.298711,23.697035],[121.298515,23.697033],[121.298321,23.69685]]],[[[121.29682,23.699182],[121.296625,23.699089],[121.296435,23.698636],[121.296239,23.698633],[121.29624,23.698543],[121.295748,23.698628],[121.295844,23.69881],[121.296333,23.698905],[121.296621,23.69936],[121.29682,23.699182]]],[[[121.311689,23.686793],[121.311596,23.68634],[121.311209,23.685975],[121.311107,23.686245],[121.311205,23.686246],[121.311298,23.686698],[121.311491,23.686881],[121.311689,23.686793]]],[[[121.310448,23.691746],[121.310648,23.691477],[121.310355,23.691384],[121.310356,23.691293],[121.309865,23.691378],[121.309862,23.691559],[121.310253,23.691653],[121.310252,23.691744],[121.310448,23.691746]]],[[[121.30319,23.691937],[121.303578,23.692213],[121.304068,23.692218],[121.304067,23.692308],[121.304461,23.692222],[121.304367,23.69186],[121.303974,23.691946],[121.303393,23.691398],[121.303098,23.691395],[121.3031,23.691304],[121.303,23.691393],[121.302706,23.69139],[121.302707,23.6913],[121.302412,23.691387],[121.302318,23.691115],[121.301537,23.690836],[121.301441,23.690654],[121.301145,23.690831],[121.301142,23.691012],[121.301337,23.691104],[121.301334,23.691375],[121.301432,23.691376],[121.301526,23.691648],[121.301725,23.69147],[121.30241,23.691568],[121.302409,23.691658],[121.302899,23.691663],[121.302898,23.691754],[121.303192,23.691757],[121.30319,23.691937]],[[121.303192,23.691757],[121.303291,23.691668],[121.30329,23.691758],[121.303192,23.691757]]],[[[121.310833,23.692292],[121.311329,23.691846],[121.311137,23.691573],[121.310938,23.691751],[121.310545,23.691837],[121.310544,23.691928],[121.310152,23.691923],[121.310056,23.691742],[121.309761,23.691829],[121.309856,23.69201],[121.310053,23.692012],[121.310246,23.692195],[121.310833,23.692292]]],[[[121.305238,23.692773],[121.305435,23.692684],[121.305338,23.692593],[121.305342,23.692322],[121.30544,23.692323],[121.305344,23.692142],[121.305048,23.692319],[121.305044,23.69259],[121.304946,23.692589],[121.305042,23.69277],[121.305141,23.692681],[121.305238,23.692773]]],[[[121.304447,23.693306],[121.304543,23.693397],[121.304741,23.693309],[121.304846,23.692768],[121.304553,23.692675],[121.304554,23.692584],[121.304357,23.692673],[121.304358,23.692582],[121.304162,23.69258],[121.303773,23.692305],[121.303674,23.692394],[121.303666,23.693026],[121.303859,23.693209],[121.304154,23.693212],[121.304248,23.693484],[121.304447,23.693306]],[[121.30445,23.693035],[121.304353,23.692943],[121.304451,23.692944],[121.30445,23.693035]],[[121.304452,23.692854],[121.304356,23.692763],[121.304454,23.692764],[121.304452,23.692854]]],[[[121.302761,23.694732],[121.303152,23.694827],[121.303253,23.694647],[121.303156,23.694556],[121.30296,23.694554],[121.302958,23.694644],[121.302469,23.694548],[121.30237,23.694637],[121.302563,23.69491],[121.302761,23.694732]]]]}}]}