{"type":"FeatureCollection","features":[{"type":"Feature","properties":{"kind":"bare_slide","month":"2021-08","area_ha":28.28},"geometry":{"type":"MultiPolygon","coordinates":[[[[121.293778,23.714409],[121.293294,23.713952],[121.293194,23.714041],[121.292313,23.713941],[121.292214,23.71403],[121.292308,23.714302],[121.292801,23.714127],[121.292994,23.7144],[121.293288,23.714403],[121.293287,23.714494],[121.293091,23.714491],[121.292792,23.714849],[121.292596,23.714847],[121.292306,23.714483],[121.29211,23.714481],[121.291907,23.71502],[121.292197,23.715294],[121.292394,23.715296],[121.292395,23.715206],[121.292884,23.715302],[121.292883,23.715392],[121.293374,23.715307],[121.293375,23.715217],[121.293864,23.715313],[121.294362,23.714776],[121.294657,23.714689],[121.294859,23.71424],[121.295058,23.714062],[121.295648,23.713888],[121.295948,23.713439],[121.295753,23.713347],[121.295554,23.713616],[121.295161,23.713611],[121.295166,23.71325],[121.295655,23.713346],[121.295756,23.713166],[121.295465,23.712892],[121.295069,23.713159],[121.294776,23.713065],[121.294675,23.713335],[121.294477,23.713423],[121.294475,23.713604],[121.294182,23.71351],[121.293786,23.713777],[121.29398,23.713959],[121.293879,23.714229],[121.294073,23.714322],[121.29397,23.714772],[121.293775,23.71468],[121.293778,23.714409]],[[121.294362,23.714776],[121.294265,23.714685],[121.294363,23.714686],[121.294362,23.714776]],[[121.294675,23.713335],[121.294772,23.713426],[121.294674,23.713425],[121.294675,23.713335]],[[121.293869,23.714951],[121.293771,23.71495],[121.293773,23.71477],[121.293871,23.714771],[121.293869,23.714951]]],[[[121.283859,23.715473],[121.284057,23.715294],[121.28406,23.715114],[121.283962,23.715113],[121.283975,23.71412],[121.283682,23.714026],[121.283086,23.714561],[121.282985,23.714831],[121.283569,23.715108],[121.283567,23.715289],[121.28337,23.715377],[121.283465,23.715559],[121.283859,23.715473]]],[[[121.289433,23.716708],[121.289238,23.716616],[121.289245,23.716074],[121.289343,23.716075],[121.28925,23.715713],[121.289349,23.715624],[121.289154,23.715531],[121.289052,23.715801],[121.288856,23.715799],[121.288658,23.715977],[121.288651,23.716519],[121.289038,23.716885],[121.289332,23.716888],[121.289433,23.716708]]],[[[121.289815,23.717525],[121.290211,23.717169],[121.290116,23.716987],[121.289725,23.716892],[121.289624,23.717072],[121.289231,23.717158],[121.289223,23.71779],[121.28932,23.717881],[121.28981,23.717887],[121.289909,23.717797],[121.289913,23.717526],[121.289815,23.717525]]],[[[121.287035,23.720113],[121.287038,23.719842],[121.286843,23.71975],[121.286846,23.719569],[121.287044,23.719391],[121.286653,23.719296],[121.286756,23.718936],[121.286562,23.718754],[121.286567,23.718392],[121.286373,23.71821],[121.286079,23.718206],[121.285691,23.717841],[121.285396,23.717928],[121.285499,23.717568],[121.285108,23.717473],[121.285208,23.717294],[121.285503,23.717207],[121.285507,23.716936],[121.285214,23.716842],[121.285215,23.716752],[121.284921,23.716749],[121.284923,23.716568],[121.285121,23.71648],[121.285123,23.7163],[121.285514,23.716394],[121.285713,23.716216],[121.285619,23.715854],[121.285915,23.715767],[121.285819,23.715585],[121.285525,23.715582],[121.285325,23.71585],[121.285031,23.715847],[121.284732,23.716205],[121.284438,23.716202],[121.284437,23.716292],[121.284141,23.716379],[121.284237,23.716561],[121.28453,23.716654],[121.284227,23.717283],[121.284713,23.717649],[121.284708,23.718011],[121.284511,23.718099],[121.284509,23.718279],[121.284211,23.718547],[121.284696,23.718913],[121.28509,23.718828],[121.285088,23.719008],[121.284989,23.719007],[121.285084,23.719279],[121.284986,23.719278],[121.284982,23.719549],[121.284884,23.719548],[121.28498,23.719729],[121.285473,23.719554],[121.285474,23.719464],[121.28567,23.719466],[121.285669,23.719556],[121.286062,23.71947],[121.286351,23.719925],[121.286646,23.719838],[121.286738,23.720291],[121.287035,23.720113]],[[121.285294,23.718198],[121.285195,23.718287],[121.285196,23.718197],[121.285294,23.718198]],[[121.285294,23.718198],[121.285394,23.718109],[121.285392,23.718199],[121.285294,23.718198]],[[121.285298,23.717927],[121.285102,23.717925],[121.285105,23.717654],[121.2853,23.717746],[121.285298,23.717927]]],[[[121.287641,23.718765],[121.287838,23.718677],[121.28784,23.718497],[121.287645,23.718404],[121.287544,23.718674],[121.287641,23.718765]]],[[[121.28735,23.718491],[121.287153,23.718579],[121.287248,23.718761],[121.287052,23.718759],[121.28686,23.718486],[121.286662,23.718574],[121.286757,23.718846],[121.286855,23.718847],[121.286851,23.719118],[121.287045,23.719301],[121.287243,23.719213],[121.287245,23.719032],[121.28754,23.718945],[121.287544,23.718674],[121.28735,23.718491]]],[[[121.284692,23.719275],[121.284888,23.719277],[121.284988,23.719097],[121.284499,23.719002],[121.284298,23.719361],[121.284591,23.719454],[121.284692,23.719275]]],[[[121.282719,23.720156],[121.283116,23.719799],[121.283021,23.719527],[121.28223,23.72006],[121.282417,23.720694],[121.282811,23.720608],[121.282817,23.720157],[121.282719,23.720156]]],[[[121.285724,23.722808],[121.286023,23.72245],[121.285828,23.722357],[121.285831,23.722177],[121.286029,23.721998],[121.286225,23.722001],[121.286514,23.722455],[121.286711,23.722367],[121.28662,23.721824],[121.286818,23.721646],[121.286822,23.721375],[121.287018,23.721377],[121.287015,23.721648],[121.286917,23.721647],[121.287011,23.721919],[121.287306,23.721832],[121.287505,23.721654],[121.287507,23.721473],[121.287703,23.721475],[121.287701,23.721656],[121.287994,23.721749],[121.28809,23.721931],[121.28858,23.721936],[121.288779,23.721758],[121.288782,23.721487],[121.288685,23.721396],[121.288488,23.721484],[121.288294,23.721301],[121.288393,23.721212],[121.288299,23.72094],[121.288103,23.720938],[121.288102,23.721028],[121.288005,23.720937],[121.286632,23.720921],[121.286635,23.720651],[121.286342,23.720557],[121.286243,23.720646],[121.286237,23.721098],[121.285939,23.721365],[121.285644,23.721452],[121.285642,23.721633],[121.285344,23.721901],[121.28524,23.722351],[121.285142,23.72235],[121.285138,23.722621],[121.285431,23.722714],[121.28543,23.722804],[121.285724,23.722808]],[[121.286332,23.72137],[121.286431,23.72128],[121.28643,23.721371],[121.286332,23.72137]],[[121.288001,23.721208],[121.2881,23.721118],[121.288099,23.721209],[121.288001,23.721208]]],[[[121.297743,23.711202],[121.297841,23.711203],[121.297741,23.711292],[121.297837,23.711474],[121.297639,23.711652],[121.297542,23.711561],[121.29705,23.711645],[121.297049,23.711736],[121.296756,23.711642],[121.296652,23.712093],[121.296749,23.712184],[121.297143,23.712098],[121.297144,23.712008],[121.297339,23.7121],[121.297439,23.711921],[121.297633,23.712103],[121.297829,23.712106],[121.298027,23.711927],[121.297933,23.711655],[121.298227,23.711658],[121.298428,23.711299],[121.298233,23.711207],[121.298335,23.710937],[121.298141,23.710754],[121.297943,23.710843],[121.297941,23.711023],[121.297743,23.711202]],[[121.297941,23.711023],[121.298038,23.711115],[121.29794,23.711113],[121.297941,23.711023]],[[121.298033,23.711476],[121.297936,23.711384],[121.298034,23.711385],[121.298033,23.711476]]],[[[121.311462,23.711984],[121.311854,23.712079],[121.312252,23.711631],[121.312645,23.711545],[121.312748,23.711185],[121.312651,23.711094],[121.312357,23.711091],[121.312355,23.711181],[121.311474,23.711081],[121.311473,23.711171],[121.311277,23.711169],[121.311174,23.711529],[121.311076,23.711528],[121.311171,23.7118],[121.310972,23.711979],[121.311166,23.712161],[121.311362,23.712164],[121.311462,23.711984]]],[[[121.301528,23.714223],[121.301626,23.714224],[121.301731,23.713684],[121.301829,23.713685],[121.301932,23.713325],[121.302129,23.713236],[121.302132,23.713056],[121.301454,23.712416],[121.301456,23.712236],[121.301261,23.712143],[121.301063,23.712322],[121.301058,23.712683],[121.30096,23.712682],[121.300949,23.713494],[121.301337,23.71386],[121.301333,23.714131],[121.301235,23.71413],[121.301133,23.71449],[121.301426,23.714583],[121.301528,23.714223]]],[[[121.298192,23.714367],[121.298097,23.714095],[121.297611,23.713819],[121.297409,23.714268],[121.297012,23.714625],[121.296816,23.714623],[121.296715,23.714802],[121.297007,23.714986],[121.297207,23.714717],[121.297697,23.714723],[121.297793,23.714904],[121.297989,23.714907],[121.298183,23.715089],[121.298283,23.71491],[121.298088,23.714817],[121.298092,23.714546],[121.297993,23.714545],[121.298192,23.714367]],[[121.297995,23.714455],[121.297898,23.714364],[121.297996,23.714365],[121.297995,23.714455]]],[[[121.29585,23.721023],[121.295749,23.721203],[121.295454,23.72129],[121.29545,23.721561],[121.29486,23.721735],[121.294758,23.722005],[121.295051,23.722098],[121.295147,23.72228],[121.295345,23.722101],[121.295541,23.722104],[121.295741,23.721835],[121.295937,23.721837],[121.296534,23.721211],[121.296926,23.721216],[121.297027,23.721036],[121.296833,23.720854],[121.297126,23.720947],[121.297324,23.720769],[121.297327,23.720588],[121.297133,23.720405],[121.297232,23.720316],[121.297234,23.720136],[121.297136,23.720135],[121.297244,23.719413],[121.297147,23.719322],[121.296651,23.719768],[121.296648,23.719949],[121.29694,23.720132],[121.297035,23.720404],[121.296642,23.7204],[121.296543,23.720489],[121.296638,23.720761],[121.29634,23.721029],[121.296243,23.720937],[121.29585,23.721023]],[[121.29634,23.721029],[121.296437,23.72112],[121.296339,23.721119],[121.29634,23.721029]]],[[[121.3027,23.722182],[121.3026,23.722362],[121.302795,23.722454],[121.302895,23.722275],[121.3027,23.722182]]],[[[121.303085,23.722728],[121.303082,23.722999],[121.302886,23.722997],[121.302595,23.722723],[121.302492,23.723083],[121.303074,23.723631],[121.303069,23.723992],[121.303264,23.724085],[121.303367,23.723725],[121.303465,23.723726],[121.30347,23.723365],[121.303371,23.723364],[121.303471,23.723274],[121.303375,23.723093],[121.303572,23.723005],[121.303478,23.722733],[121.30377,23.722916],[121.303872,23.722556],[121.30417,23.722289],[121.304073,23.722197],[121.303681,23.722193],[121.30368,23.722283],[121.303189,23.722278],[121.303092,23.722187],[121.302894,23.722365],[121.302987,23.722727],[121.303085,23.722728]],[[121.303381,23.722641],[121.303284,23.72255],[121.303382,23.722551],[121.303381,23.722641]]],[[[121.303555,23.724359],[121.303457,23.724358],[121.303362,23.724086],[121.303165,23.724174],[121.303162,23.724355],[121.303356,23.724537],[121.303555,23.724359]]],[[[121.296865,23.725911],[121.296676,23.725367],[121.296873,23.725279],[121.297075,23.724829],[121.296685,23.724645],[121.296593,23.724192],[121.296398,23.7241],[121.296397,23.72419],[121.296102,23.724277],[121.296099,23.724457],[121.296391,23.724641],[121.296388,23.724912],[121.296681,23.725006],[121.296678,23.725186],[121.296184,23.725452],[121.296181,23.725723],[121.295982,23.725901],[121.296079,23.725992],[121.296473,23.725906],[121.296567,23.726178],[121.296862,23.726182],[121.296961,23.726092],[121.296963,23.725912],[121.296865,23.725911]]],[[[121.305669,23.727723],[121.305671,23.727543],[121.305573,23.727541],[121.305674,23.727362],[121.305189,23.726905],[121.304993,23.726903],[121.304604,23.726628],[121.304711,23.725997],[121.304516,23.725904],[121.304317,23.726083],[121.30431,23.726625],[121.304601,23.726899],[121.304304,23.727076],[121.304302,23.727257],[121.304497,23.727349],[121.304696,23.72708],[121.304893,23.727082],[121.305086,23.727265],[121.30518,23.727627],[121.305567,23.727993],[121.305765,23.727905],[121.305767,23.727724],[121.305669,23.727723]]]]}},{"type":"Feature","properties":{"kind":"bare_dam","month":"2021-08","area_ha":13.26},"geometry":{"type":"MultiPolygon","coordinates":[[[[121.302315,23.691296],[121.302021,23.691292],[121.302024,23.691112],[121.30183,23.690929],[121.301438,23.690925],[121.301439,23.690835],[121.30124,23.691013],[121.301044,23.691011],[121.301047,23.69083],[121.300755,23.690646],[121.300758,23.690376],[121.300467,23.690192],[121.300372,23.68992],[121.300175,23.690008],[121.300267,23.690461],[121.300169,23.690459],[121.300066,23.69082],[121.299871,23.690727],[121.299874,23.690546],[121.299776,23.690545],[121.299876,23.690366],[121.299682,23.690183],[121.299484,23.690362],[121.29929,23.690179],[121.299092,23.690357],[121.298798,23.690354],[121.298801,23.690083],[121.298607,23.6899],[121.298215,23.689896],[121.297621,23.690341],[121.297713,23.690794],[121.298011,23.690526],[121.298305,23.690529],[121.298405,23.69035],[121.298601,23.690352],[121.298795,23.690535],[121.298694,23.690804],[121.298889,23.690897],[121.298884,23.691258],[121.299078,23.691441],[121.299666,23.691447],[121.299765,23.691358],[121.299672,23.690996],[121.299868,23.690998],[121.300059,23.691361],[121.300255,23.691363],[121.300256,23.691273],[121.300353,23.691364],[121.301334,23.691375],[121.301527,23.691558],[121.301822,23.691561],[121.301823,23.691471],[121.302312,23.691567],[121.302411,23.691477],[121.302315,23.691296]],[[121.300458,23.690824],[121.300359,23.690913],[121.30036,23.690823],[121.300458,23.690824]],[[121.299679,23.690454],[121.29958,23.690543],[121.299581,23.690453],[121.299679,23.690454]]],[[[121.302803,23.691482],[121.30251,23.691388],[121.30241,23.691568],[121.302703,23.691661],[121.302803,23.691482]]],[[[121.301201,23.694083],[121.301104,23.693991],[121.301397,23.694085],[121.301497,23.693905],[121.301206,23.693631],[121.30101,23.693629],[121.300721,23.693265],[121.300525,23.693263],[121.300336,23.692719],[121.300045,23.692445],[121.299751,23.692441],[121.299657,23.692169],[121.299068,23.692163],[121.298974,23.691891],[121.298775,23.69207],[121.298579,23.692067],[121.29858,23.691977],[121.298187,23.692063],[121.298282,23.692335],[121.298577,23.692248],[121.298473,23.692698],[121.298668,23.692791],[121.298666,23.692971],[121.29886,23.693064],[121.298858,23.693244],[121.299149,23.693518],[121.299445,23.693341],[121.29954,23.693613],[121.300128,23.693619],[121.300321,23.693892],[121.300713,23.693897],[121.30071,23.694077],[121.301003,23.694171],[121.301002,23.694261],[121.301201,23.694083]],[[121.300326,23.693441],[121.300426,23.693352],[121.300424,23.693442],[121.300326,23.693441]],[[121.300328,23.693351],[121.300231,23.693259],[121.300329,23.69326],[121.300328,23.693351]]],[[[121.302639,23.696627],[121.303035,23.69627],[121.303038,23.696089],[121.303235,23.696001],[121.303141,23.695729],[121.302248,23.696532],[121.302343,23.696714],[121.302639,23.696627]]],[[[121.298822,23.696043],[121.298921,23.695954],[121.298925,23.695683],[121.298827,23.695682],[121.298927,23.695503],[121.298636,23.695228],[121.298642,23.694777],[121.298447,23.694685],[121.298248,23.694953],[121.297955,23.69486],[121.297756,23.695038],[121.297745,23.695941],[121.297843,23.695942],[121.297839,23.696213],[121.298033,23.696396],[121.298124,23.696939],[121.298511,23.697304],[121.298507,23.697665],[121.298409,23.697664],[121.298504,23.697846],[121.2987,23.697848],[121.298998,23.69758],[121.299101,23.69722],[121.299296,23.697313],[121.299397,23.697043],[121.299495,23.697044],[121.2994,23.696862],[121.299107,23.696769],[121.299109,23.696588],[121.298914,23.696496],[121.298918,23.696225],[121.298821,23.696133],[121.298623,23.696222],[121.298627,23.695951],[121.298822,23.696043]],[[121.298621,23.696402],[121.298523,23.696401],[121.298525,23.696221],[121.298623,23.696222],[121.298621,23.696402]],[[121.29863,23.69568],[121.29873,23.695591],[121.298728,23.695681],[121.29863,23.69568]],[[121.298534,23.695589],[121.298536,23.695408],[121.298634,23.695409],[121.298632,23.69559],[121.298534,23.695589]]],[[[121.298989,23.698303],[121.299189,23.697944],[121.298896,23.69785],[121.298895,23.69794],[121.2986,23.698027],[121.298598,23.698208],[121.298989,23.698303]]],[[[121.295545,23.699168],[121.295942,23.698811],[121.296235,23.698904],[121.296336,23.698725],[121.296239,23.698633],[121.296043,23.698631],[121.296041,23.698722],[121.295748,23.698628],[121.295648,23.698808],[121.295452,23.698805],[121.295154,23.699073],[121.29525,23.699255],[121.295545,23.699168]]],[[[121.311785,23.686884],[121.311591,23.686792],[121.311497,23.68643],[121.311302,23.686337],[121.311201,23.686607],[121.311396,23.686699],[121.311392,23.68697],[121.311685,23.687064],[121.311785,23.686884]]],[[[121.305641,23.691964],[121.305839,23.691786],[121.305746,23.691424],[121.305452,23.69142],[121.305253,23.691599],[121.305251,23.691779],[121.305445,23.691962],[121.305641,23.691964]]],[[[121.304263,23.69231],[121.304462,23.692132],[121.304366,23.69195],[121.303973,23.692036],[121.303974,23.691946],[121.303583,23.691851],[121.303585,23.691671],[121.303391,23.691488],[121.302901,23.691483],[121.302802,23.691572],[121.302898,23.691754],[121.303192,23.691757],[121.30319,23.691937],[121.30348,23.692211],[121.304263,23.69231]]],[[[121.310833,23.692292],[121.31123,23.691935],[121.311134,23.691753],[121.310938,23.691751],[121.31054,23.692198],[121.310833,23.692292]]],[[[121.304248,23.693484],[121.304546,23.693216],[121.304254,23.693033],[121.304159,23.692761],[121.303668,23.692846],[121.303666,23.693026],[121.303859,23.693209],[121.304154,23.693212],[121.304248,23.693484]]],[[[121.304916,23.694936],[121.305313,23.694579],[121.30512,23.694306],[121.305513,23.69422],[121.305615,23.693951],[121.305812,23.693862],[121.305718,23.69359],[121.305222,23.694037],[121.305026,23.694034],[121.304826,23.694303],[121.30463,23.694301],[121.304332,23.694569],[121.30433,23.694749],[121.304525,23.694842],[121.304824,23.694484],[121.30502,23.694486],[121.304721,23.694844],[121.304916,23.694936]]]]}},{"type":"Feature","properties":{"kind":"water","month":"2021-08","area_ha":3.23},"geometry":{"type":"MultiPolygon","coordinates":[[[[121.304722,23.694753],[121.30482,23.694755],[121.30502,23.694486],[121.304824,23.694484],[121.304526,23.694751],[121.304524,23.694932],[121.30472,23.694934],[121.304722,23.694753]]],[[[121.303628,23.695915],[121.304122,23.69565],[121.304124,23.695469],[121.304518,23.695383],[121.30452,23.695203],[121.304225,23.69529],[121.304031,23.695107],[121.304026,23.695468],[121.303731,23.695555],[121.303628,23.695915]]],[[[121.30353,23.695914],[121.303532,23.695824],[121.303237,23.695821],[121.303235,23.696001],[121.30353,23.695914]]],[[[121.302041,23.697343],[121.302239,23.697164],[121.302534,23.697168],[121.302536,23.696987],[121.302831,23.6969],[121.303129,23.696632],[121.303235,23.696001],[121.303038,23.696089],[121.303035,23.69627],[121.302539,23.696716],[121.302245,23.696713],[121.302243,23.696893],[121.302047,23.696891],[121.301848,23.69707],[121.301846,23.69725],[121.301944,23.697251],[121.302041,23.697343]]],[[[121.301747,23.69734],[121.301846,23.69725],[121.301748,23.697249],[121.301747,23.69734]]],[[[121.298594,23.698479],[121.298502,23.698026],[121.298698,23.698028],[121.299094,23.697762],[121.29929,23.697764],[121.299289,23.697854],[121.299191,23.697853],[121.298989,23.698303],[121.29928,23.698486],[121.299283,23.698306],[121.299479,23.698308],[121.299579,23.698128],[121.300068,23.698224],[121.300169,23.698045],[121.300952,23.698143],[121.300953,23.698053],[121.301346,23.697967],[121.301349,23.697787],[121.301547,23.697608],[121.301743,23.69761],[121.301646,23.697519],[121.301747,23.69734],[121.301061,23.697332],[121.300662,23.697779],[121.300466,23.697777],[121.300273,23.697594],[121.300375,23.697234],[121.299983,23.69723],[121.299586,23.697587],[121.298801,23.697668],[121.2987,23.697848],[121.298504,23.697846],[121.298403,23.698115],[121.298205,23.698204],[121.298203,23.698384],[121.298399,23.698386],[121.298397,23.698567],[121.298594,23.698479]],[[121.301153,23.697784],[121.300957,23.697782],[121.300958,23.697692],[121.301154,23.697694],[121.301153,23.697784]]],[[[121.298877,23.699385],[121.298879,23.699204],[121.298487,23.6992],[121.298676,23.699744],[121.298774,23.699745],[121.298779,23.699384],[121.298877,23.699385]]]]}}]}