{"type":"FeatureCollection","features":[{"type":"Feature","properties":{"kind":"bare_slide","month":"2021-05","area_ha":62.85},"geometry":{"type":"MultiPolygon","coordinates":[[[[121.29273,23.712049],[121.292632,23.712048],[121.292634,23.711868],[121.293027,23.711872],[121.293423,23.711515],[121.293618,23.711608],[121.29372,23.711338],[121.293916,23.71134],[121.294215,23.710982],[121.29402,23.71089],[121.294019,23.71098],[121.293625,23.711066],[121.293525,23.711245],[121.293231,23.711242],[121.29313,23.711422],[121.29264,23.711416],[121.292639,23.711507],[121.292443,23.711504],[121.292047,23.711771],[121.292335,23.712226],[121.29263,23.712229],[121.29273,23.712049]]],[[[121.286986,23.71632],[121.287083,23.716412],[121.28728,23.716323],[121.287473,23.716596],[121.287669,23.716599],[121.287765,23.71678],[121.28806,23.716693],[121.288156,23.716875],[121.288648,23.7167],[121.288842,23.716883],[121.28884,23.717063],[121.288641,23.717241],[121.288932,23.717516],[121.289227,23.717429],[121.289127,23.717608],[121.289518,23.717703],[121.289617,23.717613],[121.289523,23.717342],[121.28972,23.717253],[121.289817,23.717345],[121.289715,23.717615],[121.28991,23.717707],[121.290009,23.717618],[121.289915,23.717346],[121.290211,23.717169],[121.290215,23.716898],[121.290607,23.716902],[121.290707,23.716813],[121.290611,23.716631],[121.290905,23.716634],[121.291005,23.716455],[121.291202,23.716457],[121.291304,23.716097],[121.291601,23.71592],[121.291803,23.71547],[121.291999,23.715473],[121.292197,23.715294],[121.293079,23.715394],[121.29308,23.715304],[121.293472,23.715308],[121.293473,23.715218],[121.293667,23.715401],[121.293961,23.715404],[121.294061,23.715315],[121.293965,23.715133],[121.29426,23.715046],[121.294856,23.714511],[121.294958,23.714151],[121.295648,23.713888],[121.295946,23.71362],[121.296051,23.713079],[121.296248,23.712991],[121.296453,23.712361],[121.296356,23.71227],[121.29606,23.712357],[121.295862,23.712535],[121.295958,23.712717],[121.295664,23.712714],[121.295265,23.713161],[121.294971,23.713158],[121.29497,23.713248],[121.294775,23.713155],[121.294676,23.713245],[121.294574,23.713514],[121.294963,23.71379],[121.294961,23.71397],[121.294762,23.714149],[121.294566,23.714146],[121.294465,23.714416],[121.294172,23.714323],[121.293971,23.714682],[121.293873,23.714681],[121.293876,23.71441],[121.294173,23.714232],[121.294175,23.714052],[121.293884,23.713778],[121.29359,23.713775],[121.293391,23.714043],[121.2929,23.714038],[121.292805,23.713856],[121.292313,23.713941],[121.292214,23.71403],[121.292208,23.714482],[121.291919,23.714117],[121.291623,23.714204],[121.291624,23.714114],[121.291135,23.714018],[121.290738,23.714375],[121.290445,23.714282],[121.290345,23.714461],[121.290051,23.714458],[121.28995,23.714637],[121.289362,23.714631],[121.289161,23.71499],[121.288769,23.714985],[121.288768,23.715076],[121.288573,23.714983],[121.288469,23.715434],[121.28798,23.715338],[121.288079,23.715249],[121.287984,23.714977],[121.287885,23.715066],[121.287199,23.715058],[121.287,23.715237],[121.287096,23.715418],[121.286899,23.715507],[121.286896,23.715687],[121.287091,23.71578],[121.286991,23.715959],[121.287186,23.716051],[121.286986,23.71632]],[[121.290611,23.716631],[121.290514,23.71654],[121.290612,23.716541],[121.290611,23.716631]],[[121.287187,23.715961],[121.287485,23.715694],[121.287877,23.715698],[121.288071,23.715881],[121.288068,23.716061],[121.28787,23.71624],[121.287478,23.716235],[121.287187,23.715961]],[[121.28933,23.717069],[121.289231,23.717158],[121.289232,23.717067],[121.28933,23.717069]],[[121.28933,23.717069],[121.289429,23.716979],[121.289529,23.71689],[121.289526,23.717071],[121.28933,23.717069]],[[121.289529,23.71689],[121.289628,23.716801],[121.289627,23.716891],[121.289529,23.71689]],[[121.289629,23.716711],[121.289924,23.716624],[121.290124,23.716355],[121.29032,23.716357],[121.290217,23.716717],[121.289923,23.716714],[121.289922,23.716804],[121.289628,23.716801],[121.289629,23.716711]],[[121.288943,23.716703],[121.289237,23.716706],[121.289236,23.716797],[121.288941,23.716793],[121.288943,23.716703]],[[121.289336,23.716617],[121.289435,23.716528],[121.289434,23.716618],[121.289336,23.716617]],[[121.289151,23.715802],[121.289543,23.715807],[121.289243,23.716255],[121.289048,23.716162],[121.289151,23.715802]],[[121.290525,23.715727],[121.290331,23.715545],[121.289936,23.715721],[121.28984,23.715539],[121.289939,23.71554],[121.289941,23.71536],[121.290434,23.715184],[121.290633,23.714916],[121.291123,23.714921],[121.291122,23.715011],[121.291415,23.715105],[121.291411,23.715466],[121.291212,23.715645],[121.291016,23.715642],[121.290618,23.716089],[121.290423,23.715997],[121.290525,23.715727]],[[121.288565,23.715615],[121.288664,23.715526],[121.288663,23.715616],[121.288565,23.715615]],[[121.288667,23.715255],[121.288767,23.715166],[121.288765,23.715256],[121.288667,23.715255]],[[121.291611,23.715107],[121.291906,23.71511],[121.291904,23.715201],[121.29161,23.715197],[121.291611,23.715107]],[[121.28965,23.715085],[121.289454,23.715083],[121.289455,23.714993],[121.289653,23.714905],[121.28965,23.715085]]],[[[121.28406,23.715114],[121.284356,23.714937],[121.284261,23.714755],[121.283768,23.71493],[121.283382,23.714474],[121.283085,23.714652],[121.283177,23.715104],[121.283376,23.714926],[121.283572,23.714928],[121.283766,23.715111],[121.283763,23.715291],[121.283566,23.715379],[121.283662,23.715561],[121.283956,23.715564],[121.28406,23.715114]]],[[[121.284925,23.716478],[121.285418,23.716213],[121.285612,23.716395],[121.286009,23.716038],[121.285913,23.715857],[121.286112,23.715678],[121.285623,23.715583],[121.285226,23.715939],[121.284733,23.716115],[121.284731,23.716295],[121.284925,23.716478]]],[[[121.286378,23.717849],[121.286479,23.717579],[121.286286,23.717396],[121.286089,23.717394],[121.285704,23.716848],[121.28541,23.716845],[121.285112,23.717112],[121.285208,23.717294],[121.285505,23.717116],[121.285698,23.717299],[121.285499,23.717568],[121.285692,23.717751],[121.285988,23.717664],[121.285887,23.717843],[121.286081,23.718026],[121.286378,23.717849]],[[121.286086,23.717665],[121.286185,23.717575],[121.286184,23.717666],[121.286086,23.717665]]],[[[121.287459,23.71768],[121.287161,23.717947],[121.287256,23.718219],[121.287454,23.718041],[121.28765,23.718043],[121.287746,23.718225],[121.287943,23.718137],[121.287753,23.717683],[121.287655,23.717682],[121.287855,23.717413],[121.287758,23.717322],[121.28756,23.71741],[121.287367,23.717227],[121.287369,23.717047],[121.287467,23.717048],[121.287371,23.716866],[121.287175,23.716864],[121.286877,23.717132],[121.286875,23.717312],[121.287263,23.717678],[121.287459,23.71768]],[[121.287459,23.71768],[121.287558,23.717591],[121.287557,23.717681],[121.287459,23.71768]]],[[[121.289909,23.717797],[121.289714,23.717705],[121.289613,23.717975],[121.289514,23.717974],[121.289707,23.718247],[121.289904,23.718158],[121.289909,23.717797]]],[[[121.283614,23.719172],[121.283613,23.719263],[121.283712,23.719173],[121.284103,23.719268],[121.284204,23.719089],[121.2844,23.719091],[121.284399,23.719181],[121.284596,23.719093],[121.284403,23.71882],[121.28411,23.718726],[121.284408,23.718459],[121.28431,23.718458],[121.284315,23.718097],[121.283927,23.717731],[121.283731,23.717729],[121.28373,23.717819],[121.283437,23.717726],[121.283337,23.717905],[121.283434,23.717996],[121.283729,23.717909],[121.283727,23.71809],[121.283235,23.718175],[121.283429,23.718358],[121.283522,23.71872],[121.283226,23.718897],[121.283123,23.719257],[121.283318,23.71935],[121.283319,23.719259],[121.283614,23.719172]]],[[[121.289474,23.721043],[121.289572,23.721044],[121.289568,23.721405],[121.289174,23.721491],[121.289464,23.721856],[121.289857,23.72177],[121.289858,23.72168],[121.290153,23.721683],[121.290154,23.721593],[121.290546,23.721597],[121.290745,23.721418],[121.290455,23.721054],[121.290554,23.720965],[121.290565,23.720152],[121.290467,23.720151],[121.290473,23.7197],[121.290376,23.719608],[121.290474,23.71961],[121.290578,23.719159],[121.29087,23.719343],[121.291068,23.719165],[121.291171,23.718805],[121.291564,23.718719],[121.291471,23.718356],[121.291569,23.718357],[121.291573,23.718087],[121.29177,23.717998],[121.291772,23.717818],[121.291482,23.717544],[121.291185,23.717721],[121.291183,23.717902],[121.290988,23.717809],[121.290788,23.718078],[121.290098,23.718341],[121.290482,23.718978],[121.29009,23.718973],[121.289987,23.719333],[121.289103,23.719414],[121.289204,23.719234],[121.288913,23.71896],[121.288031,23.71895],[121.287732,23.719308],[121.287436,23.719395],[121.287532,23.719577],[121.287631,23.719488],[121.288022,23.719582],[121.288213,23.720036],[121.288509,23.719859],[121.288315,23.719676],[121.288419,23.719226],[121.288713,23.719229],[121.288613,23.719408],[121.28871,23.7195],[121.288907,23.719412],[121.288904,23.719682],[121.289197,23.719776],[121.289196,23.719866],[121.289588,23.719871],[121.289587,23.719961],[121.28998,23.719875],[121.289878,23.720145],[121.289684,23.720052],[121.289682,23.720143],[121.289388,23.720139],[121.28919,23.720318],[121.289187,23.720498],[121.28948,23.720592],[121.289478,23.720772],[121.28938,23.720771],[121.289474,23.721043]],[[121.291171,23.718805],[121.291074,23.718713],[121.291172,23.718714],[121.291171,23.718805]],[[121.291183,23.717902],[121.29128,23.717993],[121.291182,23.717992],[121.291183,23.717902]],[[121.290788,23.718078],[121.290885,23.718169],[121.290787,23.718168],[121.290788,23.718078]],[[121.28948,23.720592],[121.28958,23.720503],[121.289578,23.720593],[121.28948,23.720592]],[[121.290179,23.719697],[121.290278,23.719607],[121.290277,23.719698],[121.290179,23.719697]]],[[[121.282615,23.720606],[121.282614,23.720696],[121.28281,23.720699],[121.283008,23.72052],[121.283011,23.72034],[121.283705,23.719715],[121.28361,23.719534],[121.283216,23.719619],[121.283022,23.719437],[121.282427,23.719972],[121.282035,23.719968],[121.281737,23.720235],[121.281733,23.720506],[121.282024,23.72078],[121.282416,23.720784],[121.282615,23.720606]],[[121.282917,23.719977],[121.283016,23.719888],[121.283015,23.719978],[121.282917,23.719977]]],[[[121.292219,23.721164],[121.292124,23.720892],[121.292026,23.720891],[121.29213,23.720441],[121.291935,23.720348],[121.291836,23.720437],[121.291833,23.720708],[121.291931,23.720709],[121.291828,23.721069],[121.292022,23.721252],[121.292219,23.721164]]],[[[121.285639,23.721813],[121.285242,23.72217],[121.28524,23.722351],[121.285435,23.722443],[121.285635,23.722175],[121.285831,23.722177],[121.28612,23.722541],[121.286318,23.722453],[121.286215,23.722813],[121.286703,23.722999],[121.286803,23.72282],[121.286608,23.722727],[121.286611,23.722547],[121.286808,23.722459],[121.286811,23.722188],[121.286714,23.722096],[121.286419,23.722183],[121.286225,23.722001],[121.286228,23.72182],[121.286426,23.721642],[121.286622,23.721644],[121.286621,23.721734],[121.286917,23.721647],[121.287011,23.721919],[121.28711,23.72183],[121.287305,23.721922],[121.287406,23.721743],[121.287799,23.721657],[121.287798,23.721747],[121.287994,23.721749],[121.288089,23.722021],[121.288481,23.722026],[121.288482,23.721935],[121.288777,23.721848],[121.288781,23.721577],[121.288977,23.72158],[121.289275,23.721312],[121.289279,23.720951],[121.289085,23.720858],[121.288982,23.721218],[121.288684,23.721486],[121.288488,23.721484],[121.288786,23.721216],[121.28879,23.720855],[121.289087,23.720678],[121.288894,23.720405],[121.288698,23.720403],[121.288598,23.720582],[121.288501,23.720491],[121.288205,23.720578],[121.288301,23.720759],[121.288497,23.720762],[121.288198,23.721119],[121.288002,23.721117],[121.287809,23.720935],[121.288007,23.720756],[121.287814,23.720483],[121.287127,23.720566],[121.286827,23.721014],[121.285847,23.720913],[121.285558,23.720548],[121.285362,23.720546],[121.284966,23.720813],[121.28506,23.721085],[121.284962,23.721084],[121.28496,23.721264],[121.284665,23.721351],[121.28476,23.721533],[121.284464,23.72171],[121.284161,23.722339],[121.284356,23.722431],[121.284557,23.722072],[121.284753,23.722075],[121.284947,23.722257],[121.285246,23.721899],[121.285251,23.721538],[121.285546,23.721451],[121.285547,23.721361],[121.285841,23.721364],[121.285639,23.721813]],[[121.288497,23.720762],[121.288597,23.720672],[121.288595,23.720763],[121.288497,23.720762]],[[121.285841,23.721364],[121.285941,23.721275],[121.285939,23.721365],[121.285841,23.721364]],[[121.288093,23.72166],[121.288193,23.721571],[121.288191,23.721661],[121.288093,23.72166]]],[[[121.286904,23.72264],[121.287102,23.722462],[121.287297,23.722554],[121.287495,23.722376],[121.287402,23.722014],[121.287205,23.722102],[121.287202,23.722282],[121.287006,23.72228],[121.286808,23.722459],[121.286904,23.72264]]],[[[121.291012,23.723498],[121.291014,23.723318],[121.291112,23.723319],[121.291016,23.723137],[121.290525,23.723222],[121.290424,23.723402],[121.290229,23.723309],[121.289833,23.723666],[121.289928,23.723848],[121.290225,23.72367],[121.290219,23.724122],[121.29002,23.7243],[121.290117,23.724391],[121.290413,23.724304],[121.29081,23.723948],[121.290812,23.723767],[121.291107,23.72368],[121.29111,23.723499],[121.291012,23.723498]],[[121.290812,23.723767],[121.290715,23.723676],[121.290813,23.723677],[121.290812,23.723767]],[[121.290715,23.723676],[121.290618,23.723584],[121.290716,23.723585],[121.290715,23.723676]]],[[[121.291476,23.72549],[121.291478,23.725309],[121.291774,23.725222],[121.291875,23.724953],[121.291973,23.724954],[121.291977,23.724683],[121.291879,23.724682],[121.291882,23.724411],[121.292081,23.724233],[121.291986,23.723961],[121.291789,23.724049],[121.291786,23.72432],[121.291587,23.724498],[121.290898,23.724671],[121.290896,23.724852],[121.290994,23.724853],[121.290891,23.725213],[121.290989,23.725214],[121.291083,23.725576],[121.291278,23.725668],[121.291476,23.72549]]],[[[121.29897,23.707332],[121.298678,23.707148],[121.29868,23.706968],[121.298778,23.706969],[121.298885,23.706338],[121.299082,23.70625],[121.299085,23.705979],[121.299183,23.70598],[121.299089,23.705708],[121.299187,23.705709],[121.29919,23.705438],[121.299288,23.705439],[121.299193,23.705258],[121.299291,23.705259],[121.299397,23.704628],[121.299695,23.70436],[121.299703,23.703728],[121.299217,23.703362],[121.299322,23.702821],[121.299032,23.702547],[121.299131,23.702458],[121.299042,23.701734],[121.29914,23.701736],[121.299243,23.701375],[121.298753,23.70137],[121.298657,23.701188],[121.298069,23.701182],[121.298065,23.701453],[121.298259,23.701636],[121.298054,23.702356],[121.298344,23.70263],[121.298338,23.703081],[121.298533,23.703174],[121.29853,23.703445],[121.29882,23.703719],[121.299113,23.703812],[121.299202,23.704536],[121.299004,23.704714],[121.298897,23.705345],[121.298504,23.705431],[121.298404,23.70561],[121.297913,23.705605],[121.297814,23.705694],[121.297808,23.706146],[121.297905,23.706237],[121.2982,23.70615],[121.298296,23.706332],[121.298589,23.706425],[121.298586,23.706696],[121.298192,23.706782],[121.297991,23.707141],[121.298088,23.707232],[121.298482,23.707146],[121.298479,23.707327],[121.298673,23.70751],[121.298869,23.707512],[121.29897,23.707332]]],[[[121.298183,23.707504],[121.29789,23.707411],[121.297889,23.707501],[121.297298,23.707675],[121.297198,23.707855],[121.297391,23.708037],[121.297687,23.70795],[121.297688,23.70786],[121.297981,23.707953],[121.298183,23.707504]]],[[[121.297778,23.708493],[121.297384,23.708579],[121.297279,23.70912],[121.296982,23.709387],[121.297369,23.709753],[121.297367,23.709933],[121.297562,23.710026],[121.297655,23.710388],[121.297947,23.710572],[121.297837,23.711474],[121.297739,23.711472],[121.297638,23.711742],[121.297541,23.711651],[121.296755,23.711733],[121.296656,23.711822],[121.296749,23.712184],[121.297141,23.712188],[121.297143,23.712098],[121.297239,23.712189],[121.29773,23.712195],[121.298325,23.711659],[121.298329,23.711389],[121.298427,23.71139],[121.298437,23.710577],[121.298535,23.710578],[121.298538,23.710398],[121.298343,23.710305],[121.298345,23.710125],[121.298053,23.709941],[121.298056,23.70976],[121.297765,23.709486],[121.297568,23.709574],[121.297571,23.709303],[121.297473,23.709302],[121.297576,23.708942],[121.298169,23.708588],[121.298176,23.708046],[121.298079,23.707955],[121.297882,23.708043],[121.297778,23.708493]]],[[[121.301525,23.714494],[121.301731,23.713684],[121.301929,23.713595],[121.301932,23.713325],[121.302129,23.713236],[121.302132,23.713056],[121.302034,23.713055],[121.302037,23.712784],[121.301747,23.71251],[121.30155,23.712508],[121.301456,23.712236],[121.30126,23.712234],[121.301061,23.712412],[121.301057,23.712773],[121.300959,23.712772],[121.30095,23.713404],[121.301049,23.713405],[121.301142,23.713767],[121.301337,23.71386],[121.301332,23.714221],[121.301234,23.71422],[121.301131,23.71458],[121.301522,23.714675],[121.301622,23.714585],[121.301525,23.714494]]],[[[121.298381,23.714911],[121.298089,23.714727],[121.298192,23.714367],[121.29829,23.714368],[121.298195,23.714096],[121.297905,23.713822],[121.297612,23.713729],[121.297508,23.714179],[121.29711,23.714626],[121.297207,23.714717],[121.297404,23.714629],[121.297403,23.71472],[121.297794,23.714814],[121.298181,23.71518],[121.298379,23.715091],[121.298381,23.714911]]],[[[121.297227,23.720677],[121.29723,23.720497],[121.297328,23.720498],[121.297134,23.720315],[121.297243,23.719504],[121.297048,23.719411],[121.296651,23.719768],[121.296744,23.72013],[121.296445,23.720488],[121.29664,23.720581],[121.296735,23.720852],[121.297227,23.720677]]],[[[121.296534,23.721211],[121.296238,23.721299],[121.296334,23.72148],[121.296433,23.721391],[121.296726,23.721484],[121.296826,23.721395],[121.296729,23.721304],[121.296832,23.720944],[121.296637,23.720851],[121.296534,23.721211]]],[[[121.294959,23.721646],[121.294763,23.721643],[121.294564,23.721822],[121.294757,23.722095],[121.294953,23.722097],[121.295152,23.721919],[121.294959,23.721646]]],[[[121.295147,23.72228],[121.295345,23.722101],[121.295739,23.722015],[121.295937,23.721837],[121.29594,23.721656],[121.295843,23.721565],[121.295449,23.721651],[121.295051,23.722098],[121.295147,23.72228]]],[[[121.294415,23.725793],[121.294321,23.725431],[121.294419,23.725432],[121.294522,23.725072],[121.294328,23.724889],[121.294627,23.724532],[121.294631,23.724261],[121.294827,23.724263],[121.295025,23.724084],[121.294639,23.723629],[121.294645,23.723177],[121.295039,23.723001],[121.295044,23.72264],[121.294849,23.722547],[121.294649,23.722816],[121.294355,23.722813],[121.294253,23.723173],[121.294154,23.723172],[121.293961,23.722989],[121.294062,23.722719],[121.293675,23.722354],[121.293679,23.721993],[121.293581,23.721992],[121.293488,23.721629],[121.293002,23.721263],[121.292914,23.720539],[121.292719,23.720447],[121.292616,23.720807],[121.292518,23.720806],[121.292514,23.721077],[121.292318,23.721075],[121.292219,23.721164],[121.292315,23.721346],[121.292018,23.721523],[121.292015,23.721794],[121.292113,23.721795],[121.292207,23.722067],[121.292598,23.722161],[121.292489,23.723063],[121.292683,23.723156],[121.292581,23.723516],[121.292774,23.723698],[121.292771,23.723969],[121.292965,23.724152],[121.293161,23.724154],[121.293257,23.724336],[121.293454,23.724248],[121.293456,23.724067],[121.293655,23.723889],[121.294047,23.723893],[121.294241,23.724076],[121.294238,23.724256],[121.293843,23.724523],[121.293839,23.724794],[121.293937,23.724795],[121.293836,23.725065],[121.294223,23.72543],[121.294221,23.725611],[121.293829,23.725606],[121.293726,23.725966],[121.293527,23.726145],[121.29392,23.726149],[121.293922,23.725969],[121.294314,23.725973],[121.294317,23.725792],[121.294415,23.725793]],[[121.292878,23.723248],[121.293175,23.723071],[121.293368,23.723344],[121.293071,23.723521],[121.292878,23.723248]],[[121.293382,23.72226],[121.29348,23.722261],[121.293477,23.722442],[121.293379,23.722441],[121.293382,23.72226]],[[121.293286,23.722079],[121.293385,23.721989],[121.293384,23.72208],[121.293286,23.722079]]],[[[121.303554,23.724449],[121.303459,23.724177],[121.303361,23.724176],[121.303369,23.723544],[121.303467,23.723545],[121.303374,23.723183],[121.303572,23.723005],[121.303477,23.722823],[121.30397,23.722557],[121.303876,23.722285],[121.303091,23.722277],[121.302893,23.722455],[121.302987,23.722727],[121.303085,23.722728],[121.303082,23.722999],[121.302788,23.722996],[121.302594,23.722813],[121.302098,23.723259],[121.302095,23.72344],[121.302193,23.723441],[121.302091,23.723801],[121.302381,23.724075],[121.302578,23.724077],[121.302771,23.72426],[121.302873,23.72399],[121.30307,23.723902],[121.303161,23.724445],[121.303454,23.724538],[121.303554,23.724449]]],[[[121.296767,23.72591],[121.296675,23.725457],[121.296382,23.725364],[121.296288,23.725001],[121.296681,23.725006],[121.296678,23.725186],[121.296873,23.725279],[121.297173,23.72483],[121.297465,23.725014],[121.297763,23.724747],[121.297867,23.724296],[121.297672,23.724204],[121.297274,23.724651],[121.296782,23.724736],[121.296689,23.724374],[121.296787,23.724375],[121.296789,23.724194],[121.296987,23.724106],[121.297088,23.723836],[121.296701,23.723471],[121.296601,23.72356],[121.296598,23.723831],[121.296696,23.723832],[121.296594,23.724102],[121.296398,23.7241],[121.2962,23.724278],[121.295906,23.724275],[121.295805,23.724454],[121.295315,23.724449],[121.295214,23.724628],[121.294921,23.724535],[121.294821,23.724714],[121.29511,23.725079],[121.295601,23.725084],[121.295698,23.725175],[121.295597,23.725355],[121.295792,23.725447],[121.295692,23.725627],[121.295887,23.725719],[121.295981,23.725991],[121.296473,23.725906],[121.29657,23.725998],[121.296469,23.726177],[121.296762,23.726271],[121.296862,23.726182],[121.296865,23.725911],[121.296767,23.72591]],[[121.29589,23.725448],[121.29599,23.725359],[121.295988,23.72545],[121.29589,23.725448]],[[121.295998,23.724727],[121.296096,23.724728],[121.296093,23.724909],[121.295995,23.724908],[121.295998,23.724727]]],[[[121.293525,23.726325],[121.293527,23.726145],[121.293429,23.726144],[121.293427,23.726324],[121.293525,23.726325]]],[[[121.306154,23.72818],[121.305766,23.727814],[121.305769,23.727544],[121.305091,23.726904],[121.304895,23.726902],[121.304604,23.726628],[121.304712,23.725907],[121.304517,23.725814],[121.304318,23.725993],[121.304309,23.726715],[121.304504,23.726807],[121.304502,23.726988],[121.304304,23.727076],[121.304301,23.727347],[121.304594,23.72744],[121.304695,23.727171],[121.304891,23.727173],[121.305085,23.727355],[121.305179,23.727718],[121.305471,23.727902],[121.305661,23.728355],[121.306154,23.72818]]],[[[121.303312,23.727968],[121.303216,23.727786],[121.302922,23.727783],[121.302923,23.727693],[121.302432,23.727778],[121.302336,23.727596],[121.302534,23.727418],[121.302341,23.727235],[121.302144,23.727233],[121.301952,23.72696],[121.301754,23.727048],[121.302045,23.727322],[121.302042,23.727593],[121.301844,23.727681],[121.301939,23.727953],[121.302136,23.727865],[121.302232,23.728047],[121.303213,23.728057],[121.303312,23.727968]]]]}},{"type":"Feature","properties":{"kind":"bare_dam","month":"2021-05","area_ha":30.69},"geometry":{"type":"MultiPolygon","coordinates":[[[[121.300961,23.689836],[121.301158,23.689838],[121.301159,23.689748],[121.300963,23.689746],[121.300961,23.689836]]],[[[121.302228,23.690482],[121.302522,23.690485],[121.302622,23.690306],[121.302525,23.690214],[121.302132,23.6903],[121.302039,23.689938],[121.301647,23.689934],[121.301544,23.690294],[121.301935,23.690389],[121.301934,23.690479],[121.302229,23.690392],[121.302228,23.690482]]],[[[121.303779,23.691854],[121.303198,23.691305],[121.303002,23.691303],[121.302901,23.691483],[121.302804,23.691391],[121.302411,23.691477],[121.30222,23.691114],[121.302024,23.691112],[121.30183,23.690929],[121.301536,23.690926],[121.30144,23.690744],[121.301341,23.690833],[121.301048,23.69074],[121.300951,23.690649],[121.301051,23.690469],[121.300858,23.690286],[121.301348,23.690292],[121.301448,23.690112],[121.30096,23.689926],[121.300961,23.689836],[121.298708,23.689721],[121.298607,23.6899],[121.298018,23.689984],[121.297621,23.690341],[121.297712,23.690884],[121.297906,23.691067],[121.298398,23.690891],[121.298205,23.690709],[121.298207,23.690528],[121.298405,23.69035],[121.298601,23.690352],[121.298795,23.690535],[121.298793,23.690715],[121.298594,23.690894],[121.298886,23.691077],[121.298883,23.691348],[121.299076,23.691531],[121.299763,23.691539],[121.29986,23.69163],[121.29996,23.69145],[121.299862,23.691449],[121.299769,23.691087],[121.299963,23.69118],[121.299961,23.69136],[121.300155,23.691543],[121.300254,23.691454],[121.300645,23.691548],[121.300745,23.691369],[121.300842,23.69146],[121.301431,23.691467],[121.301526,23.691648],[121.301722,23.69165],[121.301621,23.69192],[121.301523,23.691919],[121.301713,23.692373],[121.302106,23.692287],[121.302109,23.692106],[121.302011,23.692105],[121.302112,23.691835],[121.301822,23.691561],[121.3028,23.691752],[121.302797,23.691933],[121.302699,23.691932],[121.302793,23.692294],[121.30299,23.692206],[121.302897,23.691844],[121.303191,23.691847],[121.303577,23.692303],[121.303676,23.692214],[121.304067,23.692308],[121.304068,23.692218],[121.304462,23.692132],[121.304366,23.69195],[121.304071,23.692037],[121.303975,23.691856],[121.303779,23.691854]],[[121.303779,23.691854],[121.30368,23.691943],[121.303681,23.691852],[121.303779,23.691854]],[[121.299878,23.690185],[121.299975,23.690277],[121.300171,23.690279],[121.300164,23.690821],[121.299968,23.690818],[121.299974,23.690367],[121.299876,23.690366],[121.299878,23.690185]],[[121.299094,23.690177],[121.299093,23.690267],[121.29919,23.690358],[121.298897,23.690265],[121.298898,23.690175],[121.299094,23.690177]]],[[[121.301712,23.692463],[121.301615,23.692372],[121.301224,23.692277],[121.301024,23.692546],[121.301218,23.692728],[121.30161,23.692733],[121.30171,23.692644],[121.301712,23.692463]]],[[[121.302173,23.694725],[121.30198,23.694452],[121.301687,23.694359],[121.301595,23.693906],[121.301401,23.693724],[121.301205,23.693722],[121.30111,23.69354],[121.300914,23.693538],[121.300526,23.693172],[121.300434,23.69272],[121.300143,23.692446],[121.299849,23.692443],[121.299657,23.692169],[121.299166,23.692164],[121.299169,23.691984],[121.298684,23.691527],[121.298487,23.691615],[121.298778,23.691889],[121.298676,23.692159],[121.298384,23.691975],[121.29829,23.691703],[121.298093,23.691791],[121.29809,23.691972],[121.298285,23.692064],[121.298283,23.692245],[121.298185,23.692244],[121.29828,23.692425],[121.298479,23.692247],[121.298675,23.692249],[121.298576,23.692338],[121.29857,23.69279],[121.29886,23.693064],[121.298858,23.693244],[121.29915,23.693428],[121.299047,23.693788],[121.299435,23.694154],[121.299633,23.693975],[121.299828,23.694068],[121.300026,23.693889],[121.299931,23.693708],[121.300127,23.69371],[121.300417,23.693984],[121.300712,23.693987],[121.300806,23.694259],[121.3011,23.694262],[121.301099,23.694353],[121.30149,23.694447],[121.301683,23.69472],[121.302074,23.694815],[121.302173,23.694725]],[[121.301299,23.694084],[121.301396,23.694175],[121.301298,23.694174],[121.301299,23.694084]],[[121.301299,23.694084],[121.301202,23.693992],[121.3013,23.693994],[121.301299,23.694084]],[[121.299635,23.693795],[121.299735,23.693705],[121.299733,23.693796],[121.299635,23.693795]],[[121.299542,23.693432],[121.299442,23.693612],[121.299246,23.69361],[121.299346,23.69343],[121.299542,23.693432]]],[[[121.300514,23.694075],[121.300319,23.693983],[121.300219,23.694162],[121.300414,23.694255],[121.300514,23.694075]]],[[[121.303824,23.695918],[121.304021,23.69592],[121.304319,23.695562],[121.304615,23.695475],[121.304228,23.695019],[121.303736,23.695194],[121.303729,23.695736],[121.303532,23.695824],[121.303529,23.696005],[121.303724,23.696097],[121.303824,23.695918]]],[[[121.298824,23.695863],[121.299021,23.695774],[121.299025,23.695504],[121.29883,23.695411],[121.298727,23.695771],[121.298824,23.695863]]],[[[121.303127,23.696813],[121.303334,23.695912],[121.303432,23.695913],[121.303337,23.695732],[121.303141,23.695729],[121.302942,23.695908],[121.30294,23.696088],[121.302545,23.696265],[121.302836,23.696539],[121.302834,23.696719],[121.302635,23.696898],[121.302928,23.696991],[121.303127,23.696813]]],[[[121.298964,23.700199],[121.298777,23.699474],[121.299075,23.699206],[121.299081,23.698755],[121.299278,23.698667],[121.29928,23.698486],[121.299576,23.698399],[121.299577,23.698309],[121.299969,23.698313],[121.300267,23.698046],[121.30056,23.698139],[121.300559,23.698229],[121.301049,23.698235],[121.301149,23.698055],[121.301345,23.698057],[121.301742,23.697701],[121.301745,23.69752],[121.301648,23.697429],[121.301059,23.697422],[121.301061,23.697332],[121.300374,23.697324],[121.300375,23.697234],[121.299983,23.69723],[121.299984,23.69714],[121.299591,23.697226],[121.299498,23.696863],[121.299205,23.69677],[121.299306,23.6965],[121.299111,23.696408],[121.299116,23.696046],[121.298921,23.695954],[121.29882,23.696224],[121.298622,23.696312],[121.298727,23.695771],[121.29834,23.695406],[121.298736,23.695139],[121.29874,23.694778],[121.298447,23.694685],[121.298249,23.694863],[121.298251,23.694682],[121.298056,23.69459],[121.297952,23.69504],[121.297755,23.695128],[121.297745,23.695941],[121.297843,23.695942],[121.297839,23.696213],[121.297937,23.696214],[121.297837,23.696394],[121.298032,23.696486],[121.298123,23.697029],[121.298607,23.697486],[121.298509,23.697485],[121.298505,23.697755],[121.298308,23.697844],[121.298302,23.698295],[121.298204,23.698294],[121.298202,23.698474],[121.297903,23.698832],[121.297897,23.699284],[121.2977,23.699372],[121.297698,23.699553],[121.297499,23.699731],[121.297889,23.699916],[121.29798,23.700459],[121.299157,23.700472],[121.299159,23.700291],[121.298964,23.700199]],[[121.298797,23.697939],[121.298698,23.698028],[121.298699,23.697938],[121.298797,23.697939]],[[121.298797,23.697939],[121.298896,23.69785],[121.298895,23.69794],[121.298797,23.697939]],[[121.298996,23.697761],[121.299094,23.697762],[121.299091,23.697942],[121.298993,23.697941],[121.298996,23.697761]],[[121.299781,23.697679],[121.29988,23.69759],[121.299879,23.69768],[121.299781,23.697679]],[[121.299098,23.697401],[121.299196,23.697402],[121.299194,23.697582],[121.299096,23.697581],[121.299098,23.697401]]],[[[121.29525,23.699255],[121.295643,23.699169],[121.295942,23.698811],[121.296235,23.698904],[121.296428,23.699177],[121.296626,23.698999],[121.296239,23.698633],[121.296043,23.698631],[121.296041,23.698722],[121.295846,23.698629],[121.295252,23.699074],[121.294959,23.698981],[121.294961,23.69889],[121.294763,23.698978],[121.294956,23.699251],[121.295152,23.699254],[121.295153,23.699163],[121.29525,23.699255]]],[[[121.312556,23.687976],[121.312852,23.687799],[121.312856,23.687528],[121.312468,23.687163],[121.312375,23.6868],[121.31218,23.686708],[121.312179,23.686798],[121.311785,23.686884],[121.311592,23.686702],[121.311595,23.686431],[121.311303,23.686247],[121.311204,23.686336],[121.311298,23.686698],[121.311396,23.686699],[121.311284,23.687782],[121.311479,23.687874],[121.311976,23.687338],[121.312172,23.68734],[121.312366,23.687523],[121.312556,23.687976]]],[[[121.310782,23.688679],[121.311177,23.688413],[121.311083,23.688141],[121.310884,23.688319],[121.310491,23.688405],[121.310292,23.688674],[121.310487,23.688766],[121.310488,23.688676],[121.310782,23.688679]]],[[[121.308883,23.691458],[121.309077,23.691641],[121.309274,23.691552],[121.308985,23.691188],[121.308898,23.690284],[121.3088,23.690283],[121.308707,23.689921],[121.308512,23.689828],[121.308411,23.690008],[121.308509,23.690009],[121.308506,23.69028],[121.308604,23.690281],[121.308596,23.690913],[121.308498,23.690912],[121.308394,23.691362],[121.308198,23.69136],[121.307998,23.691629],[121.30829,23.691813],[121.30839,23.691633],[121.308883,23.691458]],[[121.30839,23.691633],[121.308294,23.691542],[121.308392,23.691543],[121.30839,23.691633]]],[[[121.310643,23.691838],[121.310745,23.691568],[121.310452,23.691475],[121.310356,23.691293],[121.310257,23.691383],[121.309963,23.691379],[121.309964,23.691289],[121.309767,23.691377],[121.310056,23.691742],[121.310252,23.691744],[121.310251,23.691834],[121.310546,23.691747],[121.310643,23.691838]]],[[[121.310249,23.692015],[121.309958,23.691741],[121.309761,23.691829],[121.309758,23.692009],[121.310148,23.692194],[121.310249,23.692015]]],[[[121.307796,23.692078],[121.307604,23.691805],[121.307112,23.69189],[121.307208,23.692072],[121.307503,23.691985],[121.307599,23.692166],[121.307796,23.692078]]],[[[121.310636,23.69238],[121.31123,23.691935],[121.311136,23.691663],[121.310247,23.692105],[121.310343,23.692287],[121.310637,23.69229],[121.310636,23.69238]]],[[[121.306015,23.693323],[121.306416,23.692695],[121.306711,23.692608],[121.306518,23.692335],[121.306717,23.692157],[121.306912,23.692249],[121.30711,23.692071],[121.307014,23.691889],[121.306816,23.692067],[121.306719,23.691976],[121.306228,23.692061],[121.306229,23.691971],[121.305936,23.691877],[121.305843,23.691515],[121.30555,23.691421],[121.305548,23.691512],[121.305253,23.691599],[121.305051,23.692048],[121.304855,23.692046],[121.304759,23.691864],[121.304464,23.691951],[121.305045,23.692499],[121.305342,23.692322],[121.305245,23.692231],[121.305346,23.691961],[121.305737,23.692056],[121.305931,23.692238],[121.305929,23.692419],[121.305831,23.692418],[121.305928,23.692509],[121.305924,23.69278],[121.305826,23.692779],[121.30592,23.693141],[121.30582,23.69323],[121.306015,23.693323]]],[[[121.304741,23.693309],[121.304743,23.693128],[121.304941,23.69295],[121.304553,23.692675],[121.304063,23.692669],[121.303667,23.692936],[121.303663,23.693207],[121.30376,23.693298],[121.304056,23.693211],[121.304248,23.693484],[121.304741,23.693309]]],[[[121.304817,23.695025],[121.305313,23.694579],[121.305805,23.694404],[121.305813,23.693772],[121.305911,23.693773],[121.305817,23.693501],[121.30562,23.693589],[121.305617,23.69377],[121.305322,23.693857],[121.30532,23.694038],[121.305026,23.694034],[121.304826,23.694303],[121.30463,23.694301],[121.304331,23.694659],[121.304036,23.694746],[121.304131,23.694928],[121.304624,23.694752],[121.304817,23.695025]]]]}}]}