{"type":"FeatureCollection","features":[{"type":"Feature","properties":{"kind":"bare_slide","month":"2021-07","area_ha":38.34},"geometry":{"type":"MultiPolygon","coordinates":[[[[121.29273,23.712049],[121.292535,23.711957],[121.292537,23.711776],[121.292928,23.711871],[121.293226,23.711603],[121.29313,23.711422],[121.292542,23.711415],[121.292047,23.711771],[121.292239,23.712134],[121.29263,23.712229],[121.29273,23.712049]]],[[[121.289926,23.716533],[121.290027,23.716264],[121.290522,23.715908],[121.290526,23.715637],[121.290429,23.715546],[121.289741,23.715628],[121.289742,23.715538],[121.289941,23.71536],[121.290137,23.715362],[121.290237,23.715182],[121.290434,23.715184],[121.290535,23.714915],[121.290438,23.714823],[121.29024,23.715002],[121.289751,23.714906],[121.289452,23.715264],[121.289256,23.715262],[121.289258,23.715081],[121.289455,23.714993],[121.28936,23.714811],[121.289161,23.71499],[121.288475,23.714982],[121.288378,23.714891],[121.288277,23.71507],[121.28857,23.715164],[121.288665,23.715436],[121.288861,23.715438],[121.288663,23.715616],[121.288655,23.716158],[121.288946,23.716432],[121.28924,23.716435],[121.289433,23.716708],[121.289926,23.716533]],[[121.289438,23.716347],[121.289537,23.716258],[121.289536,23.716348],[121.289438,23.716347]],[[121.289152,23.715712],[121.289445,23.715806],[121.289442,23.715986],[121.289244,23.716165],[121.289048,23.716162],[121.289152,23.715712]],[[121.289451,23.715354],[121.289252,23.715533],[121.289254,23.715352],[121.289451,23.715354]]],[[[121.289715,23.717615],[121.290211,23.717169],[121.290215,23.716898],[121.290313,23.716899],[121.290121,23.716626],[121.289825,23.716713],[121.289329,23.717159],[121.289425,23.71734],[121.28972,23.717253],[121.289718,23.717434],[121.28962,23.717433],[121.289715,23.717615]]],[[[121.291861,23.718541],[121.29157,23.718267],[121.291573,23.718087],[121.29177,23.717998],[121.291772,23.717818],[121.291578,23.717635],[121.29197,23.71773],[121.292071,23.71746],[121.292268,23.717372],[121.292264,23.717733],[121.292457,23.717916],[121.292754,23.717738],[121.292756,23.717558],[121.292466,23.717284],[121.292374,23.716831],[121.292176,23.716919],[121.292073,23.717279],[121.291776,23.717547],[121.291483,23.717454],[121.291283,23.717722],[121.291087,23.71772],[121.290591,23.718166],[121.290098,23.718341],[121.290384,23.718976],[121.289993,23.718882],[121.289891,23.719152],[121.290183,23.719335],[121.29018,23.719606],[121.290375,23.719699],[121.290474,23.71961],[121.29048,23.719158],[121.29087,23.719343],[121.291068,23.719165],[121.291171,23.718805],[121.291465,23.718808],[121.291567,23.718538],[121.291664,23.718629],[121.291861,23.718541]],[[121.291171,23.718805],[121.291074,23.718713],[121.291172,23.718714],[121.291171,23.718805]],[[121.291567,23.718538],[121.29147,23.718447],[121.291568,23.718448],[121.291567,23.718538]],[[121.291182,23.717992],[121.291281,23.717903],[121.29128,23.717993],[121.291182,23.717992]]],[[[121.284203,23.719179],[121.284204,23.719089],[121.284497,23.719182],[121.284597,23.719003],[121.284307,23.718729],[121.28411,23.718726],[121.284116,23.718275],[121.283823,23.718181],[121.283426,23.718538],[121.283424,23.718719],[121.283227,23.718807],[121.283223,23.719078],[121.28332,23.719169],[121.283712,23.719173],[121.283714,23.719083],[121.284203,23.719179]]],[[[121.282811,23.720608],[121.283009,23.72043],[121.282819,23.719976],[121.283016,23.719888],[121.283013,23.720159],[121.283208,23.720251],[121.283506,23.719984],[121.283508,23.719803],[121.283705,23.719715],[121.28361,23.719534],[121.283216,23.719619],[121.283218,23.719439],[121.283024,23.719346],[121.282526,23.719883],[121.282035,23.719968],[121.282033,23.720058],[121.281738,23.720145],[121.281733,23.720506],[121.282024,23.72078],[121.282416,23.720784],[121.282417,23.720694],[121.282811,23.720608]]],[[[121.292219,23.721164],[121.292124,23.720892],[121.292026,23.720891],[121.292129,23.720531],[121.291934,23.720438],[121.291732,23.720888],[121.292022,23.721252],[121.292219,23.721164]]],[[[121.289486,23.72014],[121.288992,23.720406],[121.28899,23.720586],[121.288793,23.720675],[121.288789,23.720945],[121.288294,23.721301],[121.288292,23.721482],[121.288487,23.721574],[121.288387,23.721663],[121.288483,23.721845],[121.28868,23.721757],[121.288586,23.721485],[121.288782,23.721487],[121.288981,23.721309],[121.288983,23.721128],[121.289474,23.721043],[121.289472,23.721224],[121.289667,23.721316],[121.290065,23.720869],[121.290261,23.720871],[121.29026,23.720962],[121.290555,23.720875],[121.290564,23.720243],[121.290467,23.720151],[121.289971,23.720597],[121.28958,23.720503],[121.289583,23.720232],[121.289486,23.72014]],[[121.28958,23.720503],[121.28948,23.720592],[121.289481,23.720502],[121.28958,23.720503]]],[[[121.293281,23.72244],[121.29328,23.72253],[121.293476,23.722532],[121.293675,23.722354],[121.293578,23.722262],[121.293679,23.721993],[121.293484,23.7219],[121.293391,23.721538],[121.293002,23.721263],[121.292914,23.720539],[121.292719,23.720447],[121.292616,23.720807],[121.292219,23.721164],[121.292315,23.721346],[121.292021,23.721342],[121.291919,23.721612],[121.292114,23.721705],[121.29211,23.721975],[121.292597,23.722252],[121.292497,23.722431],[121.292691,23.722614],[121.292889,23.722435],[121.293281,23.72244]],[[121.29251,23.721438],[121.292609,23.721349],[121.292608,23.721439],[121.29251,23.721438]]],[[[121.287305,23.721922],[121.287603,23.721655],[121.287605,23.721474],[121.287902,23.721297],[121.287806,23.721115],[121.287316,23.72111],[121.286919,23.721466],[121.286914,23.721828],[121.287305,23.721922]]],[[[121.284458,23.722162],[121.284557,23.722072],[121.284948,23.722167],[121.285246,23.721899],[121.285252,23.721448],[121.285743,23.721363],[121.285646,23.721272],[121.285652,23.72082],[121.285362,23.720546],[121.284869,23.720721],[121.285063,23.720904],[121.28506,23.721085],[121.284665,23.721351],[121.284361,23.72207],[121.284063,23.722338],[121.284355,23.722522],[121.284458,23.722162]]],[[[121.286802,23.72291],[121.286611,23.722547],[121.286902,23.72273],[121.287399,23.722284],[121.287204,23.722192],[121.286808,23.722459],[121.286713,23.722187],[121.28642,23.722093],[121.286222,23.722271],[121.286416,23.722454],[121.286312,23.722905],[121.286703,23.722999],[121.286802,23.72291]]],[[[121.291107,23.72368],[121.29111,23.723499],[121.290915,23.723407],[121.291114,23.723138],[121.290919,23.723046],[121.290918,23.723136],[121.290526,23.723132],[121.290426,23.723311],[121.290131,23.723308],[121.289634,23.723844],[121.289829,23.723937],[121.290225,23.72367],[121.29022,23.724031],[121.290023,23.724119],[121.29002,23.7243],[121.290215,23.724393],[121.290415,23.724124],[121.29071,23.724037],[121.290715,23.723676],[121.290812,23.723767],[121.291107,23.72368]],[[121.290617,23.723675],[121.290619,23.723494],[121.290717,23.723495],[121.290715,23.723676],[121.290617,23.723675]]],[[[121.291478,23.725309],[121.29158,23.72504],[121.291775,23.725132],[121.291877,23.724862],[121.291975,23.724863],[121.291977,23.724683],[121.291879,23.724682],[121.291884,23.724321],[121.292082,23.724142],[121.292084,23.723962],[121.291986,23.723961],[121.292088,23.723691],[121.291991,23.723599],[121.291794,23.723688],[121.291888,23.72396],[121.29179,23.723958],[121.291787,23.724229],[121.291588,23.724408],[121.291682,23.72477],[121.291385,23.724947],[121.291383,23.725128],[121.291089,23.725125],[121.29109,23.725034],[121.290892,23.725122],[121.291086,23.725305],[121.291084,23.725486],[121.290986,23.725485],[121.291081,23.725666],[121.291278,23.725668],[121.29138,23.725308],[121.291478,23.725309]]],[[[121.294314,23.725973],[121.294319,23.725612],[121.294417,23.725613],[121.29432,23.725521],[121.294419,23.725432],[121.294426,23.724891],[121.294329,23.724799],[121.294428,23.7248],[121.29453,23.72444],[121.295025,23.724084],[121.294931,23.723812],[121.294543,23.723447],[121.294051,23.723622],[121.294048,23.723803],[121.294243,23.723895],[121.294241,23.724076],[121.294042,23.724254],[121.293846,23.724252],[121.293847,23.724162],[121.293651,23.72416],[121.29365,23.72425],[121.293357,23.724156],[121.293258,23.724246],[121.29345,23.724519],[121.293745,23.724522],[121.293938,23.724705],[121.293833,23.725245],[121.294223,23.72543],[121.294222,23.72552],[121.293829,23.725606],[121.29363,23.725785],[121.293628,23.725965],[121.29343,23.726053],[121.293428,23.726234],[121.293232,23.726232],[121.293231,23.726322],[121.293525,23.726325],[121.293527,23.726145],[121.29392,23.726149],[121.293922,23.725969],[121.294314,23.725973]]],[[[121.299503,23.703997],[121.299701,23.703909],[121.299703,23.703728],[121.299218,23.703271],[121.299022,23.703269],[121.29932,23.703002],[121.299322,23.702821],[121.299129,23.702638],[121.298833,23.702725],[121.298836,23.702545],[121.299034,23.702366],[121.298936,23.702365],[121.29894,23.702095],[121.298647,23.702001],[121.298447,23.70227],[121.298152,23.702357],[121.298338,23.703081],[121.298533,23.703174],[121.29853,23.703445],[121.299112,23.703902],[121.299206,23.704265],[121.299402,23.704267],[121.299503,23.703997]],[[121.299406,23.703906],[121.299309,23.703814],[121.299408,23.703815],[121.299406,23.703906]]],[[[121.298597,23.705793],[121.298789,23.706156],[121.298692,23.706065],[121.298397,23.706152],[121.298493,23.706243],[121.298488,23.706695],[121.298388,23.706784],[121.298193,23.706692],[121.297993,23.707051],[121.29809,23.707142],[121.298385,23.707055],[121.298478,23.707417],[121.298869,23.707512],[121.29897,23.707332],[121.298678,23.707148],[121.298681,23.706878],[121.298779,23.706879],[121.298684,23.706697],[121.298782,23.706698],[121.298786,23.706337],[121.299183,23.70598],[121.29899,23.705797],[121.29909,23.705618],[121.298895,23.705525],[121.298597,23.705793]],[[121.298786,23.706337],[121.29869,23.706246],[121.298788,23.706247],[121.298786,23.706337]],[[121.298795,23.705705],[121.298892,23.705796],[121.298793,23.705795],[121.298795,23.705705]]],[[[121.298867,23.707692],[121.29935,23.708239],[121.299646,23.708152],[121.299549,23.708061],[121.29965,23.707791],[121.299264,23.707335],[121.298969,23.707423],[121.298965,23.707693],[121.298867,23.707692]]],[[[121.301176,23.711149],[121.300984,23.710786],[121.30011,23.710144],[121.300112,23.709963],[121.299821,23.70978],[121.299823,23.709599],[121.299336,23.709323],[121.299236,23.709502],[121.299624,23.709778],[121.299622,23.709958],[121.300011,23.710233],[121.300008,23.710414],[121.300301,23.710507],[121.300397,23.710689],[121.300593,23.710691],[121.300784,23.711145],[121.301077,23.711238],[121.301176,23.711149]]],[[[121.297746,23.710931],[121.297838,23.711383],[121.297938,23.711294],[121.298134,23.711296],[121.298133,23.711386],[121.298428,23.711299],[121.298441,23.710306],[121.297862,23.709578],[121.297367,23.709933],[121.297657,23.710207],[121.297655,23.710388],[121.297948,23.710481],[121.297945,23.710752],[121.297746,23.710931]],[[121.297948,23.710481],[121.298047,23.710392],[121.298046,23.710483],[121.297948,23.710481]]],[[[121.29773,23.712195],[121.298029,23.711837],[121.297738,23.711563],[121.297639,23.711652],[121.297346,23.711558],[121.297345,23.711649],[121.29705,23.711645],[121.297049,23.711736],[121.296853,23.711734],[121.296854,23.711643],[121.296657,23.711731],[121.29675,23.712094],[121.297633,23.712103],[121.29773,23.712195]]],[[[121.301525,23.714494],[121.301631,23.713863],[121.301729,23.713864],[121.301932,23.713325],[121.302128,23.713327],[121.302229,23.713147],[121.302034,23.713055],[121.302037,23.712784],[121.301456,23.712236],[121.30126,23.712234],[121.301061,23.712412],[121.301057,23.712773],[121.300959,23.712772],[121.300949,23.713494],[121.301047,23.713495],[121.301045,23.713676],[121.30124,23.713768],[121.301334,23.71404],[121.301236,23.714039],[121.301233,23.71431],[121.301034,23.714489],[121.301228,23.714671],[121.301522,23.714675],[121.301622,23.714585],[121.301525,23.714494]]],[[[121.294279,23.713602],[121.293788,23.713686],[121.293688,23.713776],[121.293782,23.714138],[121.293584,23.714226],[121.293679,23.714498],[121.293974,23.714411],[121.293967,23.714953],[121.294064,23.715044],[121.294461,23.714687],[121.294756,23.7146],[121.294759,23.714419],[121.295055,23.714242],[121.295058,23.714062],[121.295549,23.713977],[121.295946,23.71362],[121.29605,23.71317],[121.295855,23.713077],[121.295755,23.713257],[121.295558,23.713254],[121.295268,23.71298],[121.295267,23.713071],[121.294971,23.713158],[121.294865,23.713789],[121.294472,23.713875],[121.294279,23.713602]],[[121.294469,23.714055],[121.294273,23.714053],[121.294274,23.713963],[121.294472,23.713875],[121.294469,23.714055]],[[121.294273,23.714053],[121.294174,23.714142],[121.294175,23.714052],[121.294273,23.714053]],[[121.294174,23.714142],[121.294075,23.714231],[121.293975,23.714321],[121.293978,23.71414],[121.294174,23.714142]]],[[[121.298381,23.714911],[121.298186,23.714818],[121.298291,23.714278],[121.29771,23.71373],[121.297513,23.713818],[121.297407,23.714358],[121.29711,23.714626],[121.296618,23.714711],[121.296909,23.714985],[121.297107,23.714807],[121.297501,23.714721],[121.2975,23.714811],[121.297794,23.714814],[121.29789,23.714996],[121.298086,23.714998],[121.298181,23.71518],[121.298379,23.715091],[121.298381,23.714911]]],[[[121.296531,23.721392],[121.29653,23.721482],[121.296728,23.721394],[121.296731,23.721123],[121.296829,23.721124],[121.296735,23.720852],[121.296834,23.720763],[121.297128,23.720767],[121.297127,23.720857],[121.297324,23.720769],[121.297227,23.720677],[121.297329,23.720408],[121.297134,23.720315],[121.297137,23.720044],[121.296844,23.719951],[121.296749,23.719769],[121.296551,23.719857],[121.296645,23.720219],[121.296448,23.720308],[121.296445,23.720488],[121.29664,23.720581],[121.296534,23.721211],[121.296238,23.721299],[121.296144,23.721027],[121.295947,23.721115],[121.296235,23.721569],[121.296531,23.721392]]],[[[121.303554,23.724449],[121.303459,23.724177],[121.303361,23.724176],[121.303368,23.723634],[121.303466,23.723635],[121.303374,23.723183],[121.303571,23.723095],[121.303477,23.722823],[121.303673,23.722825],[121.303774,23.722555],[121.303972,23.722467],[121.303876,23.722285],[121.303091,23.722277],[121.302893,23.722455],[121.303082,23.722999],[121.302788,23.722996],[121.302692,23.722814],[121.302496,23.722812],[121.302394,23.723082],[121.302098,23.723259],[121.302094,23.72353],[121.302192,23.723531],[121.302091,23.723801],[121.302285,23.723984],[121.302481,23.723986],[121.302771,23.72426],[121.302874,23.7239],[121.30307,23.723902],[121.303161,23.724445],[121.303454,23.724538],[121.303554,23.724449]]],[[[121.296863,23.726091],[121.296676,23.725367],[121.296973,23.725189],[121.297075,23.724829],[121.296687,23.724554],[121.296689,23.724374],[121.296787,23.724375],[121.296789,23.724194],[121.296987,23.724106],[121.297088,23.723836],[121.296701,23.723471],[121.296601,23.72356],[121.296596,23.724011],[121.296399,23.724009],[121.2962,23.724278],[121.296004,23.724276],[121.295805,23.724454],[121.294921,23.724535],[121.294821,23.724714],[121.295209,23.72508],[121.295699,23.725085],[121.2956,23.725174],[121.295695,23.725356],[121.295991,23.725269],[121.295988,23.72545],[121.295792,23.725447],[121.295692,23.725627],[121.295982,23.725901],[121.296473,23.725906],[121.29647,23.726087],[121.296372,23.726086],[121.296468,23.726267],[121.296664,23.72627],[121.296863,23.726091]],[[121.296288,23.725001],[121.296682,23.724915],[121.296678,23.725186],[121.296285,23.725272],[121.296188,23.725181],[121.296288,23.725001]],[[121.295997,23.724818],[121.296096,23.724728],[121.296095,23.724819],[121.295997,23.724818]]],[[[121.301969,23.725606],[121.302071,23.725336],[121.302169,23.725337],[121.302263,23.725609],[121.302461,23.725521],[121.302465,23.72516],[121.302564,23.725161],[121.302469,23.724889],[121.30237,23.724978],[121.302076,23.724975],[121.302077,23.724884],[121.301879,23.724973],[121.301974,23.725244],[121.301677,23.725422],[121.301867,23.725966],[121.302064,23.725878],[121.302067,23.725607],[121.301969,23.725606]]],[[[121.305959,23.728087],[121.305961,23.727907],[121.305669,23.727723],[121.305577,23.727271],[121.305189,23.726905],[121.304701,23.726719],[121.304703,23.726539],[121.304605,23.726538],[121.304712,23.725907],[121.304419,23.725813],[121.304218,23.726172],[121.304316,23.726173],[121.30431,23.726625],[121.304505,23.726717],[121.304502,23.726988],[121.304204,23.727256],[121.304398,23.727438],[121.304594,23.72744],[121.304695,23.727171],[121.304891,23.727173],[121.305085,23.727355],[121.305082,23.727626],[121.305375,23.72772],[121.305372,23.7279],[121.305567,23.727993],[121.30566,23.728445],[121.305857,23.728357],[121.30586,23.728086],[121.305959,23.728087]]],[[[121.303312,23.727968],[121.303216,23.727786],[121.302727,23.727691],[121.302728,23.727601],[121.302432,23.727778],[121.302337,23.727506],[121.302532,23.727598],[121.302632,23.727419],[121.302144,23.727233],[121.301952,23.72696],[121.301754,23.727048],[121.302045,23.727322],[121.302042,23.727593],[121.301844,23.727681],[121.30194,23.727863],[121.302234,23.727866],[121.302428,23.728049],[121.303213,23.728057],[121.303312,23.727968]]]]}},{"type":"Feature","properties":{"kind":"bare_dam","month":"2021-07","area_ha":19.51},"geometry":{"type":"MultiPolygon","coordinates":[[[[121.302621,23.690396],[121.302525,23.690214],[121.301937,23.690208],[121.301938,23.690118],[121.301741,23.690206],[121.301934,23.690479],[121.302522,23.690485],[121.302621,23.690396]]],[[[121.2983,23.69089],[121.2984,23.690801],[121.298402,23.690621],[121.298304,23.69062],[121.298408,23.690169],[121.298899,23.690084],[121.298806,23.689722],[121.298607,23.6899],[121.298018,23.689984],[121.297621,23.690341],[121.297616,23.690702],[121.297714,23.690703],[121.297809,23.690975],[121.2983,23.69089]]],[[[121.306119,23.692872],[121.306416,23.692695],[121.306418,23.692515],[121.306126,23.692331],[121.306229,23.691971],[121.305839,23.691786],[121.305747,23.691333],[121.305551,23.691331],[121.304954,23.691957],[121.304661,23.691863],[121.304664,23.691683],[121.304762,23.691684],[121.304666,23.691502],[121.304469,23.69159],[121.304563,23.691862],[121.303876,23.691945],[121.303586,23.691581],[121.30339,23.691578],[121.303197,23.691396],[121.303,23.691393],[121.302999,23.691484],[121.30251,23.691388],[121.302411,23.691477],[121.302413,23.691297],[121.30222,23.691114],[121.302024,23.691112],[121.30183,23.690929],[121.301536,23.690926],[121.30144,23.690744],[121.301047,23.69083],[121.300853,23.690648],[121.300953,23.690468],[121.300469,23.690011],[121.300273,23.690009],[121.300074,23.690187],[121.300171,23.690279],[121.300168,23.69055],[121.30007,23.690549],[121.300164,23.690821],[121.299968,23.690818],[121.299972,23.690548],[121.299874,23.690546],[121.29978,23.690184],[121.299094,23.690177],[121.298991,23.690537],[121.298596,23.690803],[121.298789,23.690986],[121.298785,23.691347],[121.299078,23.691441],[121.299076,23.691531],[121.29947,23.691445],[121.299469,23.691535],[121.29986,23.69163],[121.299959,23.691541],[121.299864,23.691269],[121.299766,23.691268],[121.299769,23.691087],[121.299867,23.691088],[121.300058,23.691452],[121.301334,23.691375],[121.301526,23.691648],[121.301725,23.69147],[121.301921,23.691472],[121.302017,23.691654],[121.302312,23.691567],[121.302408,23.691748],[121.302801,23.691662],[121.3028,23.691752],[121.303191,23.691847],[121.303577,23.692303],[121.303872,23.692216],[121.303871,23.692306],[121.30436,23.692402],[121.304459,23.692312],[121.304364,23.692131],[121.304659,23.692044],[121.304852,23.692317],[121.305145,23.69241],[121.305043,23.69268],[121.304945,23.692679],[121.305041,23.692861],[121.305434,23.692775],[121.305436,23.692594],[121.305241,23.692502],[121.305343,23.692232],[121.305149,23.692049],[121.305641,23.691964],[121.305931,23.692238],[121.305823,23.69305],[121.306018,23.693142],[121.306119,23.692872]],[[121.301142,23.691012],[121.301045,23.690921],[121.301143,23.690922],[121.301142,23.691012]]],[[[121.301296,23.694264],[121.301587,23.694538],[121.301682,23.69481],[121.302173,23.694725],[121.301883,23.694361],[121.301687,23.694359],[121.301498,23.693815],[121.301305,23.693632],[121.30101,23.693629],[121.300526,23.693172],[121.300528,23.692992],[121.300333,23.692899],[121.300337,23.692628],[121.300143,23.692446],[121.299849,23.692443],[121.299657,23.692169],[121.299166,23.692164],[121.299169,23.691984],[121.298587,23.691435],[121.29839,23.691523],[121.298388,23.691704],[121.298776,23.691979],[121.298384,23.691975],[121.298291,23.691613],[121.298097,23.69143],[121.2979,23.691518],[121.29809,23.691972],[121.298285,23.692064],[121.298283,23.692245],[121.29838,23.692336],[121.298675,23.692249],[121.298473,23.692698],[121.298668,23.692791],[121.298664,23.693062],[121.299149,23.693518],[121.299047,23.693788],[121.299337,23.694153],[121.299634,23.693885],[121.299731,23.693976],[121.299928,23.693888],[121.299833,23.693707],[121.299635,23.693795],[121.299638,23.693614],[121.299736,23.693615],[121.29964,23.693434],[121.299344,23.693611],[121.299346,23.69343],[121.299743,23.693073],[121.299939,23.693076],[121.300035,23.693257],[121.300231,23.693259],[121.300232,23.693169],[121.300427,23.693262],[121.300225,23.693711],[121.300419,23.693894],[121.300713,23.693897],[121.30071,23.694077],[121.300904,23.69426],[121.3011,23.694262],[121.301099,23.694353],[121.301296,23.694264]],[[121.301296,23.694264],[121.301396,23.694175],[121.301394,23.694265],[121.301296,23.694264]],[[121.301199,23.694173],[121.301202,23.693992],[121.3013,23.693994],[121.301298,23.694174],[121.301199,23.694173]]],[[[121.298602,23.697847],[121.298798,23.697849],[121.299098,23.697401],[121.299292,23.697583],[121.299489,23.697495],[121.299393,23.697404],[121.299498,23.696863],[121.299205,23.69677],[121.299207,23.696589],[121.299012,23.696497],[121.299025,23.695504],[121.29883,23.695411],[121.298832,23.695231],[121.298639,23.695048],[121.298643,23.694687],[121.298448,23.694594],[121.29825,23.694773],[121.298056,23.69459],[121.297953,23.69495],[121.297657,23.695127],[121.297754,23.695219],[121.297747,23.69576],[121.297648,23.69585],[121.297843,23.695942],[121.297838,23.696303],[121.298032,23.696486],[121.298123,23.697029],[121.29851,23.697394],[121.298505,23.697755],[121.298307,23.697934],[121.298502,23.698026],[121.298602,23.697847]],[[121.298623,23.696222],[121.298626,23.696041],[121.298724,23.696042],[121.298721,23.696223],[121.298623,23.696222]],[[121.29863,23.69568],[121.298534,23.695589],[121.298632,23.69559],[121.29863,23.69568]]],[[[121.298697,23.698119],[121.298791,23.698391],[121.298495,23.698568],[121.29849,23.698929],[121.298781,23.699203],[121.298977,23.699205],[121.299076,23.699116],[121.29908,23.698845],[121.298885,23.698753],[121.298989,23.698303],[121.299279,23.698577],[121.299381,23.698307],[121.299871,23.698312],[121.299971,23.698133],[121.299584,23.697767],[121.299388,23.697765],[121.299387,23.697855],[121.299192,23.697763],[121.298992,23.698032],[121.298697,23.698119]],[[121.299381,23.698307],[121.299284,23.698215],[121.299382,23.698217],[121.299381,23.698307]],[[121.298992,23.698032],[121.299089,23.698123],[121.298991,23.698122],[121.298992,23.698032]]],[[[121.295249,23.699345],[121.295941,23.698901],[121.296235,23.698904],[121.296525,23.699269],[121.296723,23.69909],[121.296528,23.698998],[121.29653,23.698817],[121.296337,23.698635],[121.295846,23.698629],[121.295252,23.699074],[121.294764,23.698888],[121.294474,23.698614],[121.294277,23.698702],[121.294858,23.69925],[121.29525,23.699255],[121.295249,23.699345]]],[[[121.31169,23.686703],[121.311592,23.686702],[121.311595,23.686431],[121.3114,23.686338],[121.311404,23.686067],[121.311209,23.685975],[121.311107,23.686245],[121.311205,23.686246],[121.311296,23.686789],[121.311588,23.686972],[121.31169,23.686703]]],[[[121.312754,23.687798],[121.312852,23.687799],[121.31276,23.687346],[121.312468,23.687163],[121.312278,23.686709],[121.311984,23.686706],[121.311784,23.686975],[121.311979,23.687067],[121.312074,23.687339],[121.312173,23.68725],[121.312368,23.687342],[121.312266,23.687612],[121.312461,23.687704],[121.312458,23.687975],[121.312653,23.688068],[121.312754,23.687798]]],[[[121.310647,23.691567],[121.310453,23.691385],[121.309963,23.691379],[121.309863,23.691469],[121.310056,23.691742],[121.310546,23.691747],[121.310647,23.691567]]],[[[121.310636,23.69238],[121.31123,23.691935],[121.311136,23.691663],[121.310345,23.692106],[121.310636,23.69238]]],[[[121.307111,23.69198],[121.307209,23.691981],[121.307114,23.6918],[121.306819,23.691797],[121.306522,23.692064],[121.306812,23.692338],[121.307009,23.69234],[121.307111,23.69198]]],[[[121.304445,23.693396],[121.30464,23.693488],[121.304743,23.693128],[121.304941,23.69295],[121.304748,23.692767],[121.304552,23.692765],[121.304353,23.692943],[121.304356,23.692763],[121.304065,23.692489],[121.303772,23.692395],[121.303673,23.692484],[121.30377,23.692576],[121.30367,23.692665],[121.303665,23.693116],[121.304056,23.693211],[121.304247,23.693574],[121.304445,23.693396]],[[121.304547,23.693126],[121.30445,23.693035],[121.304548,23.693036],[121.304547,23.693126]]]]}},{"type":"Feature","properties":{"kind":"water","month":"2021-07","area_ha":0.5},"geometry":{"type":"MultiPolygon","coordinates":[[[[121.300952,23.698143],[121.301052,23.697964],[121.300856,23.697962],[121.300662,23.697779],[121.300269,23.697865],[121.30056,23.698139],[121.300952,23.698143]]],[[[121.298594,23.698479],[121.298791,23.698391],[121.298695,23.698299],[121.298797,23.697939],[121.298993,23.697941],[121.299192,23.697763],[121.299387,23.697855],[121.299486,23.697766],[121.29939,23.697585],[121.299096,23.697581],[121.299095,23.697672],[121.298899,23.697669],[121.298798,23.697849],[121.298503,23.697936],[121.2985,23.698207],[121.298598,23.698208],[121.298594,23.698479]]]]}}]}