{"type":"FeatureCollection","features":[{"type":"Feature","properties":{"kind":"bare_slide","month":"2021-10","area_ha":0.7},"geometry":{"type":"Polygon","coordinates":[[[121.298625,23.703626],[121.298436,23.703082],[121.298832,23.702816],[121.298834,23.702635],[121.298933,23.702636],[121.298838,23.702364],[121.299035,23.702276],[121.299132,23.702368],[121.299031,23.702637],[121.299321,23.702911],[121.299216,23.703452],[121.298625,23.703626]]]}},{"type":"Feature","properties":{"kind":"bare_dam","month":"2021-10","area_ha":13.69},"geometry":{"type":"MultiPolygon","coordinates":[[[[121.301544,23.690294],[121.301253,23.69002],[121.300861,23.690016],[121.300862,23.689925],[121.300665,23.690013],[121.30076,23.690285],[121.301152,23.69029],[121.301151,23.69038],[121.301544,23.690294]]],[[[121.299486,23.690181],[121.299485,23.690271],[121.299388,23.69018],[121.299093,23.690267],[121.298989,23.690717],[121.298691,23.690985],[121.298886,23.691077],[121.298884,23.691258],[121.298786,23.691257],[121.298882,23.691439],[121.299762,23.691629],[121.299862,23.691449],[121.299667,23.691357],[121.299575,23.690904],[121.299871,23.690727],[121.299774,23.690636],[121.299875,23.690456],[121.299486,23.690181]],[[121.29968,23.690364],[121.299581,23.690453],[121.299582,23.690363],[121.29968,23.690364]],[[121.299676,23.690635],[121.29958,23.690543],[121.299678,23.690544],[121.299676,23.690635]],[[121.299483,23.690452],[121.299386,23.690361],[121.299484,23.690362],[121.299483,23.690452]]],[[[121.30026,23.691002],[121.299962,23.69127],[121.300451,23.691366],[121.30045,23.691456],[121.300549,23.691367],[121.300646,23.691458],[121.301431,23.691467],[121.301526,23.691648],[121.301626,23.691559],[121.30192,23.691562],[121.301918,23.691653],[121.30241,23.691568],[121.302314,23.691386],[121.30202,23.691383],[121.302119,23.691294],[121.302024,23.691112],[121.301827,23.69111],[121.301727,23.691289],[121.301629,23.691288],[121.301534,23.691016],[121.301338,23.691014],[121.301238,23.691194],[121.301044,23.691011],[121.300749,23.691098],[121.300652,23.691007],[121.300756,23.690556],[121.300369,23.690191],[121.300171,23.690279],[121.300267,23.690461],[121.300169,23.690459],[121.300066,23.69082],[121.30026,23.691002]],[[121.300262,23.690822],[121.300458,23.690824],[121.300554,23.691005],[121.300358,23.691003],[121.300262,23.690822]]],[[[121.301302,23.693813],[121.301009,23.693719],[121.30072,23.693355],[121.300524,23.693353],[121.300325,23.693531],[121.300231,23.693259],[121.300328,23.693351],[121.300525,23.693263],[121.30043,23.692991],[121.300332,23.69299],[121.300336,23.692719],[121.300043,23.692625],[121.300044,23.692535],[121.29975,23.692532],[121.299655,23.69226],[121.299459,23.692258],[121.29946,23.692167],[121.299067,23.692253],[121.298973,23.691981],[121.298776,23.691979],[121.298578,23.692158],[121.298472,23.692789],[121.298667,23.692881],[121.298664,23.693062],[121.298859,23.693154],[121.298857,23.693335],[121.299148,23.693609],[121.299444,23.693431],[121.299539,23.693703],[121.300127,23.69371],[121.300417,23.693984],[121.300712,23.693987],[121.301001,23.694351],[121.301198,23.694263],[121.301104,23.693991],[121.301302,23.693813]],[[121.301104,23.693991],[121.301007,23.6939],[121.301105,23.693901],[121.301104,23.693991]],[[121.299937,23.693256],[121.299939,23.693076],[121.300037,23.693077],[121.300035,23.693257],[121.299937,23.693256]]],[[[121.297934,23.696485],[121.298529,23.69595],[121.298238,23.695676],[121.298242,23.695405],[121.29844,23.695226],[121.298147,23.695133],[121.29805,23.695041],[121.298151,23.694862],[121.297956,23.694769],[121.297857,23.694859],[121.297952,23.69504],[121.297656,23.695218],[121.297748,23.69567],[121.297846,23.695671],[121.297646,23.69594],[121.297841,23.696032],[121.297934,23.696485]]],[[[121.298711,23.697035],[121.299103,23.69704],[121.299104,23.696949],[121.299593,23.697045],[121.299694,23.696865],[121.299597,23.696774],[121.299105,23.696859],[121.299108,23.696678],[121.298914,23.696496],[121.298517,23.696853],[121.298227,23.696578],[121.298029,23.696667],[121.298123,23.697029],[121.298316,23.697212],[121.298611,23.697215],[121.298711,23.697035]]],[[[121.298866,23.700197],[121.298964,23.700199],[121.298968,23.699928],[121.298774,23.699745],[121.298877,23.699385],[121.298683,23.699202],[121.29908,23.698845],[121.298984,23.698664],[121.299082,23.698665],[121.299186,23.698214],[121.299089,23.698123],[121.298599,23.698118],[121.298399,23.698386],[121.298203,23.698384],[121.298005,23.698563],[121.298098,23.698925],[121.298292,23.699108],[121.297898,23.699194],[121.297302,23.699819],[121.297791,23.699915],[121.297788,23.700186],[121.297886,23.700187],[121.29798,23.700459],[121.298961,23.700469],[121.298866,23.700197]],[[121.298277,23.700281],[121.298373,23.700373],[121.298275,23.700372],[121.298277,23.700281]],[[121.298473,23.700283],[121.298279,23.700101],[121.298573,23.700104],[121.298473,23.700283]],[[121.29809,23.699557],[121.298284,23.69974],[121.297988,23.699827],[121.29809,23.699557]]],[[[121.311281,23.687962],[121.311777,23.687516],[121.311585,23.687243],[121.311977,23.687248],[121.312073,23.687429],[121.312368,23.687342],[121.312265,23.687702],[121.312459,23.687885],[121.312656,23.687797],[121.312758,23.687527],[121.312273,23.68707],[121.312179,23.686798],[121.311784,23.686975],[121.311785,23.686884],[121.311589,23.686882],[121.311496,23.68652],[121.311301,23.686427],[121.3112,23.686697],[121.311393,23.68688],[121.311387,23.687331],[121.311289,23.68733],[121.311284,23.687782],[121.311184,23.687871],[121.311281,23.687962]]],[[[121.308587,23.691635],[121.308884,23.691368],[121.308886,23.691187],[121.308693,23.691004],[121.308497,23.691002],[121.308196,23.691541],[121.308587,23.691635]]],[[[121.302704,23.691571],[121.302509,23.691478],[121.302409,23.691658],[121.302604,23.69175],[121.302704,23.691571]]],[[[121.307799,23.691898],[121.307408,23.691803],[121.307307,23.691982],[121.307697,23.692167],[121.307799,23.691898]]],[[[121.303773,23.692305],[121.304263,23.69231],[121.304463,23.692042],[121.304366,23.69195],[121.304267,23.692039],[121.303679,23.692033],[121.303485,23.69185],[121.30319,23.691937],[121.303285,23.692119],[121.303481,23.692121],[121.303577,23.692303],[121.303774,23.692215],[121.303773,23.692305]]],[[[121.306414,23.692785],[121.306712,23.692518],[121.306615,23.692426],[121.306717,23.692157],[121.307108,23.692251],[121.307307,23.691982],[121.306916,23.691888],[121.306816,23.692067],[121.306719,23.691976],[121.30613,23.69206],[121.306131,23.69197],[121.305837,23.691966],[121.305743,23.691604],[121.305644,23.691693],[121.305351,23.6916],[121.304953,23.692047],[121.304757,23.692045],[121.304661,23.691863],[121.304464,23.691951],[121.30485,23.692407],[121.305247,23.69205],[121.305639,23.692054],[121.30593,23.692329],[121.305928,23.692509],[121.30583,23.692508],[121.305925,23.69269],[121.306221,23.692603],[121.306414,23.692785]]],[[[121.305316,23.694308],[121.30522,23.694127],[121.305024,23.694125],[121.304924,23.694304],[121.304728,23.694302],[121.304133,23.694837],[121.30413,23.695018],[121.304325,23.69511],[121.304624,23.694752],[121.304916,23.694936],[121.305115,23.694667],[121.305311,23.69467],[121.305412,23.69449],[121.305217,23.694398],[121.305316,23.694308]],[[121.305217,23.694398],[121.305118,23.694487],[121.305119,23.694397],[121.305217,23.694398]]]]}},{"type":"Feature","properties":{"kind":"water","month":"2021-10","area_ha":0.12},"geometry":{"type":"Polygon","coordinates":[[[121.304323,23.695291],[121.304227,23.695109],[121.304522,23.695022],[121.304525,23.694842],[121.304722,23.694753],[121.304719,23.695024],[121.304323,23.695291]]]}}]}