{"type":"FeatureCollection","features":[{"type":"Feature","properties":{"kind":"bare_slide","month":"2021-11","area_ha":62.95},"geometry":{"type":"MultiPolygon","coordinates":[[[[121.297575,23.709033],[121.297284,23.708758],[121.297182,23.709028],[121.296886,23.709206],[121.297174,23.70966],[121.297372,23.709572],[121.297375,23.709301],[121.297473,23.709302],[121.297477,23.709031],[121.297575,23.709033]]],[[[121.297269,23.709932],[121.297657,23.710207],[121.297655,23.710388],[121.29785,23.71048],[121.297738,23.711563],[121.297639,23.711652],[121.297148,23.711647],[121.297147,23.711737],[121.296756,23.711642],[121.296653,23.712002],[121.296946,23.712096],[121.296945,23.712186],[121.297144,23.712008],[121.29773,23.712195],[121.297831,23.711925],[121.298029,23.711837],[121.298031,23.711656],[121.298327,23.711479],[121.298332,23.711118],[121.29843,23.711119],[121.298346,23.710034],[121.298053,23.709941],[121.297765,23.709486],[121.297372,23.709572],[121.297369,23.709753],[121.297271,23.709752],[121.297269,23.709932]],[[121.298031,23.711656],[121.297934,23.711565],[121.298032,23.711566],[121.298031,23.711656]]],[[[121.292439,23.711775],[121.29293,23.711781],[121.293327,23.711424],[121.293621,23.711427],[121.29392,23.711069],[121.293725,23.710977],[121.293329,23.711243],[121.293035,23.71124],[121.292934,23.71142],[121.29264,23.711416],[121.292639,23.711507],[121.292246,23.711593],[121.292143,23.711953],[121.292338,23.712045],[121.292439,23.711775]]],[[[121.298383,23.71473],[121.298286,23.714639],[121.29809,23.714637],[121.298289,23.714458],[121.298292,23.714188],[121.297613,23.713638],[121.297209,23.714537],[121.297403,23.71472],[121.297795,23.714724],[121.298084,23.715088],[121.29838,23.715001],[121.298383,23.71473]],[[121.297898,23.714364],[121.297997,23.714275],[121.297996,23.714365],[121.297898,23.714364]]],[[[121.285221,23.716301],[121.285323,23.716031],[121.285516,23.716214],[121.285714,23.716125],[121.28562,23.715763],[121.285915,23.715767],[121.286212,23.715499],[121.286117,23.715317],[121.285821,23.715404],[121.28582,23.715495],[121.285329,23.715579],[121.285129,23.715848],[121.284933,23.715846],[121.284734,23.716024],[121.284927,23.716297],[121.285026,23.716208],[121.285221,23.716301]]],[[[121.287547,23.718403],[121.287844,23.718226],[121.287748,23.718044],[121.288046,23.717777],[121.288338,23.717961],[121.288335,23.718141],[121.288039,23.718318],[121.288034,23.71868],[121.288327,23.718773],[121.288428,23.718594],[121.288624,23.718596],[121.288914,23.71887],[121.288815,23.718959],[121.289009,23.719142],[121.288905,23.719592],[121.2891,23.719685],[121.288999,23.719864],[121.289292,23.719958],[121.289387,23.72023],[121.289681,23.720233],[121.289782,23.720053],[121.29027,23.720239],[121.29037,23.72006],[121.290566,23.720062],[121.290668,23.719792],[121.29057,23.719791],[121.290573,23.71952],[121.290378,23.719428],[121.290481,23.719068],[121.290677,23.71907],[121.290773,23.719252],[121.291069,23.719074],[121.291073,23.718803],[121.291467,23.718627],[121.291471,23.718356],[121.291373,23.718355],[121.291571,23.718177],[121.291476,23.717995],[121.291771,23.717908],[121.29148,23.717634],[121.29158,23.717545],[121.291873,23.717638],[121.292072,23.71737],[121.291975,23.717278],[121.291777,23.717457],[121.291484,23.717363],[121.291087,23.71772],[121.290597,23.717715],[121.2905,23.717623],[121.290398,23.717893],[121.2902,23.718071],[121.290004,23.718069],[121.289916,23.717256],[121.290412,23.71681],[121.290803,23.716904],[121.290805,23.716814],[121.291395,23.71664],[121.291498,23.71628],[121.291304,23.716097],[121.291701,23.71574],[121.291706,23.715379],[121.292,23.715382],[121.292101,23.715203],[121.292294,23.715386],[121.292687,23.71539],[121.292885,23.715212],[121.293078,23.715485],[121.293373,23.715397],[121.293374,23.715307],[121.293962,23.715314],[121.29386,23.715674],[121.294153,23.715767],[121.29445,23.7155],[121.294258,23.715227],[121.294062,23.715224],[121.294163,23.714955],[121.29456,23.714598],[121.295053,23.714423],[121.295352,23.714065],[121.295942,23.713891],[121.295945,23.71371],[121.296043,23.713711],[121.295948,23.713439],[121.296346,23.712992],[121.29635,23.712721],[121.296252,23.71272],[121.296353,23.71245],[121.296257,23.712359],[121.295961,23.712446],[121.295858,23.712806],[121.295664,23.712714],[121.295167,23.71316],[121.294775,23.713155],[121.29418,23.713691],[121.293492,23.713773],[121.293194,23.714041],[121.292313,23.713941],[121.292115,23.714119],[121.29221,23.714301],[121.292406,23.714303],[121.292306,23.714483],[121.29211,23.714481],[121.291822,23.714026],[121.291722,23.714115],[121.291134,23.714109],[121.291037,23.714017],[121.290937,23.714197],[121.290543,23.714283],[121.290443,23.714462],[121.29015,23.714369],[121.289951,23.714547],[121.290144,23.71482],[121.28985,23.714817],[121.289749,23.714996],[121.289653,23.714905],[121.289456,23.714903],[121.289455,23.714993],[121.288966,23.714897],[121.288867,23.714987],[121.288868,23.714896],[121.288378,23.714891],[121.288379,23.714801],[121.28828,23.71489],[121.287987,23.714796],[121.287788,23.714975],[121.287102,23.714967],[121.286903,23.715145],[121.286998,23.715417],[121.286801,23.715505],[121.287087,23.716141],[121.286694,23.716136],[121.286397,23.716404],[121.286393,23.716675],[121.286197,23.716673],[121.286297,23.716493],[121.286004,23.7164],[121.285705,23.716757],[121.285899,23.71694],[121.285897,23.717121],[121.2857,23.717209],[121.285688,23.718112],[121.286079,23.718206],[121.286367,23.718661],[121.286662,23.718574],[121.286664,23.718484],[121.287152,23.71867],[121.28745,23.718312],[121.287547,23.718403]],[[121.291706,23.715379],[121.291609,23.715288],[121.291707,23.715289],[121.291706,23.715379]],[[121.287352,23.718311],[121.287257,23.718129],[121.287061,23.718127],[121.286861,23.718396],[121.286665,23.718393],[121.286471,23.718211],[121.286475,23.71794],[121.28628,23.717847],[121.286284,23.717486],[121.286483,23.717308],[121.287071,23.717314],[121.287265,23.717497],[121.287263,23.717678],[121.287651,23.717953],[121.287649,23.718133],[121.287352,23.718311]],[[121.29028,23.719427],[121.290183,23.719335],[121.290281,23.719337],[121.29028,23.719427]],[[121.289205,23.719144],[121.289011,23.718961],[121.289014,23.718781],[121.289411,23.718424],[121.289999,23.71843],[121.290098,23.718341],[121.290389,23.718615],[121.290385,23.718886],[121.290092,23.718793],[121.290091,23.718883],[121.289796,23.71897],[121.289891,23.719152],[121.2894,23.719236],[121.289399,23.719327],[121.289106,23.719233],[121.289205,23.719144]],[[121.289335,23.716707],[121.289332,23.716888],[121.289038,23.716885],[121.289139,23.716705],[121.289335,23.716707]],[[121.289926,23.716533],[121.290124,23.716355],[121.290028,23.716173],[121.290422,23.716087],[121.29032,23.716357],[121.290022,23.716625],[121.289629,23.716711],[121.289729,23.716531],[121.289926,23.716533]],[[121.290617,23.71618],[121.29052,23.716088],[121.290618,23.716089],[121.290617,23.71618]],[[121.289445,23.715806],[121.289444,23.715896],[121.289147,23.716073],[121.289152,23.715712],[121.289445,23.715806]],[[121.289741,23.715628],[121.289843,23.715359],[121.290138,23.715271],[121.290536,23.714824],[121.290829,23.714918],[121.29083,23.714828],[121.291126,23.714741],[121.291123,23.714921],[121.291318,23.715014],[121.291315,23.715284],[121.290819,23.71573],[121.290525,23.715727],[121.290527,23.715547],[121.290332,23.715454],[121.290228,23.715905],[121.289836,23.7159],[121.289839,23.715629],[121.289741,23.715628]],[[121.29121,23.715825],[121.291113,23.715734],[121.291211,23.715735],[121.29121,23.715825]],[[121.288368,23.715613],[121.28837,23.715523],[121.288566,23.715525],[121.288565,23.715615],[121.288368,23.715613]],[[121.289643,23.715627],[121.289546,23.715536],[121.289644,23.715537],[121.289643,23.715627]],[[121.289061,23.715169],[121.289254,23.715352],[121.289057,23.71544],[121.289061,23.715169]],[[121.28808,23.715158],[121.287981,23.715248],[121.287983,23.715067],[121.288279,23.71498],[121.288569,23.715254],[121.288372,23.715342],[121.288373,23.715252],[121.28808,23.715158]],[[121.292596,23.714847],[121.292499,23.714756],[121.292597,23.714757],[121.292596,23.714847]],[[121.292891,23.71476],[121.292794,23.714669],[121.292892,23.71467],[121.292891,23.71476]],[[121.292699,23.714397],[121.292603,23.714305],[121.292701,23.714306],[121.292699,23.714397]],[[121.294473,23.713784],[121.29447,23.713965],[121.294274,23.713963],[121.294275,23.713872],[121.294473,23.713784]],[[121.294668,23.713877],[121.294571,23.713785],[121.294669,23.713786],[121.294668,23.713877]],[[121.294866,23.713698],[121.294864,23.713879],[121.294766,23.713878],[121.294768,23.713697],[121.294866,23.713698]],[[121.294866,23.713698],[121.294965,23.713609],[121.294964,23.713699],[121.294866,23.713698]]],[[[121.292558,23.717736],[121.292956,23.717289],[121.293251,23.717202],[121.293257,23.716751],[121.293062,23.716658],[121.292968,23.716386],[121.292672,23.716473],[121.292769,23.716565],[121.292668,23.716834],[121.292472,23.716832],[121.292278,23.71665],[121.292076,23.717099],[121.291978,23.717098],[121.292073,23.717279],[121.29227,23.717282],[121.292362,23.717734],[121.292558,23.717736]]],[[[121.284008,23.719086],[121.284403,23.71882],[121.28411,23.718726],[121.284015,23.718545],[121.284511,23.718099],[121.284416,23.717827],[121.284122,23.717824],[121.283929,23.717641],[121.284326,23.717284],[121.284233,23.716831],[121.28384,23.716917],[121.283641,23.717096],[121.283639,23.717276],[121.283243,23.717543],[121.283338,23.717815],[121.283632,23.717818],[121.283631,23.717908],[121.283237,23.717994],[121.283234,23.718265],[121.283524,23.718539],[121.283227,23.718807],[121.283224,23.718987],[121.283615,23.719082],[121.283807,23.719445],[121.284004,23.719357],[121.284008,23.719086]],[[121.283822,23.718272],[121.28392,23.718273],[121.283918,23.718453],[121.28382,23.718452],[121.283822,23.718272]],[[121.283625,23.71836],[121.283724,23.718271],[121.283723,23.718361],[121.283625,23.71836]]],[[[121.282518,23.720515],[121.282713,23.720607],[121.283507,23.719894],[121.283509,23.719713],[121.283216,23.719619],[121.283122,23.719347],[121.282824,23.719615],[121.282628,23.719613],[121.282428,23.719882],[121.281937,23.719966],[121.281738,23.720145],[121.281735,23.720416],[121.282025,23.72069],[121.282417,23.720694],[121.282518,23.720515]],[[121.283116,23.719799],[121.282916,23.720068],[121.28272,23.720065],[121.282821,23.719796],[121.283116,23.719799]]],[[[121.296726,23.721484],[121.296529,23.721573],[121.296625,23.721754],[121.296822,23.721666],[121.296726,23.721484]]],[[[121.296719,23.722026],[121.296917,23.721938],[121.296821,23.721756],[121.296624,23.721845],[121.296719,23.722026]]],[[[121.296442,23.720759],[121.295949,23.720934],[121.29575,23.721113],[121.295846,23.721294],[121.295551,23.721381],[121.29545,23.721561],[121.294959,23.721646],[121.294958,23.721736],[121.294662,23.721823],[121.294757,23.722095],[121.294855,23.722096],[121.29485,23.722457],[121.294256,23.722902],[121.29425,23.723353],[121.294053,23.723442],[121.294047,23.723893],[121.293552,23.724249],[121.293738,23.725064],[121.293246,23.725148],[121.293245,23.725239],[121.292851,23.725325],[121.292751,23.725504],[121.292654,23.725413],[121.292457,23.725501],[121.292552,23.725683],[121.29275,23.725594],[121.292846,23.725776],[121.293631,23.725694],[121.293329,23.726323],[121.293525,23.726325],[121.293527,23.726145],[121.29392,23.726149],[121.293922,23.725969],[121.294412,23.725974],[121.294415,23.725793],[121.294317,23.725792],[121.294416,23.725703],[121.294423,23.725161],[121.294719,23.724984],[121.294626,23.724622],[121.295017,23.724716],[121.295415,23.724269],[121.295611,23.724271],[121.295805,23.724454],[121.295798,23.724996],[121.2956,23.725174],[121.295108,23.725259],[121.295007,23.725529],[121.2952,23.725712],[121.295396,23.725714],[121.295595,23.725535],[121.295594,23.725626],[121.295887,23.725719],[121.296077,23.726173],[121.296665,23.726179],[121.296864,23.726001],[121.296775,23.725278],[121.297073,23.72501],[121.297364,23.725284],[121.29757,23.724474],[121.297967,23.724117],[121.298263,23.72403],[121.298069,23.723847],[121.298071,23.723666],[121.297876,23.723574],[121.29798,23.723124],[121.297882,23.723123],[121.297789,23.72276],[121.297591,23.722849],[121.297588,23.723119],[121.297389,23.723298],[121.29768,23.723572],[121.297675,23.723933],[121.297183,23.724108],[121.296983,23.724377],[121.296689,23.724374],[121.296691,23.724193],[121.296988,23.724016],[121.297091,23.723656],[121.296702,23.723381],[121.296505,23.723469],[121.296601,23.72356],[121.296596,23.724011],[121.296399,23.724009],[121.296201,23.724188],[121.295711,23.724182],[121.295712,23.724092],[121.295416,23.724179],[121.295419,23.723998],[121.295224,23.723906],[121.295227,23.723635],[121.294937,23.723361],[121.294941,23.723],[121.295139,23.722912],[121.295146,23.72237],[121.295543,23.722013],[121.295739,23.722015],[121.295937,23.721837],[121.29594,23.721656],[121.296333,23.72157],[121.296433,23.721391],[121.29653,23.721482],[121.296729,23.721304],[121.29712,23.721399],[121.297318,23.72122],[121.297223,23.721038],[121.297123,23.721128],[121.29683,23.721034],[121.296931,23.720855],[121.297127,23.720857],[121.297126,23.720947],[121.297323,23.720859],[121.297327,23.720588],[121.297228,23.720587],[121.29733,23.720317],[121.297135,23.720225],[121.297145,23.719503],[121.297243,23.719504],[121.297149,23.719141],[121.296854,23.719228],[121.296849,23.71959],[121.296452,23.719946],[121.296446,23.720398],[121.29664,23.720581],[121.296542,23.720579],[121.296539,23.72085],[121.296442,23.720759]],[[121.296539,23.72085],[121.296635,23.720942],[121.296537,23.720941],[121.296539,23.72085]]],[[[121.298057,23.702085],[121.29834,23.702991],[121.298438,23.702992],[121.298627,23.703536],[121.299015,23.703811],[121.299103,23.704625],[121.299298,23.704717],[121.299595,23.70445],[121.299702,23.703819],[121.29941,23.703635],[121.299413,23.703364],[121.299218,23.703271],[121.299322,23.702821],[121.299031,23.702637],[121.298733,23.702905],[121.298738,23.702544],[121.298933,23.702636],[121.299131,23.702458],[121.299043,23.701644],[121.299241,23.701556],[121.299243,23.701375],[121.298753,23.70137],[121.298657,23.701188],[121.298069,23.701182],[121.298157,23.701905],[121.298256,23.701906],[121.298057,23.702085]],[[121.29864,23.702543],[121.298642,23.702362],[121.29874,23.702363],[121.298738,23.702544],[121.29864,23.702543]],[[121.298254,23.701997],[121.298351,23.702088],[121.298253,23.702087],[121.298254,23.701997]],[[121.298362,23.701275],[121.29846,23.701277],[121.298457,23.701457],[121.298359,23.701456],[121.298362,23.701275]]],[[[121.298994,23.705436],[121.299294,23.704988],[121.299002,23.704804],[121.298799,23.705344],[121.298994,23.705436]]],[[[121.312129,23.705941],[121.312326,23.705853],[121.312328,23.705673],[121.312133,23.70558],[121.312143,23.704858],[121.311752,23.704763],[121.311753,23.704673],[121.311359,23.704759],[121.31126,23.704848],[121.311355,23.70512],[121.311746,23.705215],[121.311743,23.705395],[121.311645,23.705394],[121.311839,23.705577],[121.311738,23.705847],[121.311835,23.705938],[121.31213,23.705851],[121.312129,23.705941]]],[[[121.298786,23.706337],[121.299083,23.70616],[121.299086,23.705889],[121.298988,23.705888],[121.29909,23.705618],[121.298896,23.705435],[121.298014,23.705425],[121.297913,23.705605],[121.297618,23.705692],[121.297906,23.706147],[121.298006,23.706057],[121.298202,23.70606],[121.298297,23.706241],[121.298495,23.706153],[121.298489,23.706605],[121.298586,23.706696],[121.298783,23.706608],[121.298786,23.706337]],[[121.29889,23.705887],[121.298694,23.705884],[121.298695,23.705794],[121.298893,23.705706],[121.29889,23.705887]]],[[[121.301527,23.714313],[121.301531,23.714043],[121.301728,23.713954],[121.301733,23.713593],[121.30193,23.713505],[121.301932,23.713325],[121.302131,23.713146],[121.302033,23.713145],[121.301939,23.712783],[121.30155,23.712508],[121.301553,23.712327],[121.301261,23.712143],[121.300963,23.712411],[121.300855,23.713222],[121.300953,23.713223],[121.300949,23.713494],[121.301239,23.713859],[121.301234,23.71422],[121.301036,23.714398],[121.301327,23.714582],[121.301429,23.714312],[121.301527,23.714313]]],[[[121.302125,23.721183],[121.302027,23.721182],[121.301934,23.720729],[121.302233,23.720371],[121.302241,23.719739],[121.302046,23.719647],[121.301944,23.720007],[121.301745,23.720185],[121.301741,23.720546],[121.301643,23.720545],[121.30154,23.720905],[121.301735,23.720998],[121.301731,23.721269],[121.301925,23.721451],[121.302122,23.721363],[121.302125,23.721183]]],[[[121.29985,23.722602],[121.300148,23.722335],[121.300153,23.721974],[121.300251,23.721975],[121.300356,23.721434],[121.300454,23.721435],[121.30046,23.720984],[121.300758,23.720716],[121.300667,23.720173],[121.300376,23.719899],[121.299881,23.720255],[121.299879,23.720436],[121.299482,23.720792],[121.299477,23.721154],[121.299379,23.721152],[121.299374,23.721514],[121.299276,23.721513],[121.29927,23.721964],[121.299464,23.722147],[121.299461,23.722418],[121.299655,23.72251],[121.299555,23.72269],[121.299848,23.722783],[121.299947,23.722694],[121.29985,23.722602]]],[[[121.30336,23.724266],[121.303268,23.723814],[121.303565,23.723546],[121.303375,23.723093],[121.303473,23.723094],[121.303475,23.722913],[121.303572,23.723005],[121.30377,23.722916],[121.303676,23.722554],[121.303972,23.722467],[121.304072,23.722288],[121.303975,23.722196],[121.303876,23.722285],[121.30368,23.722283],[121.303681,23.722193],[121.303485,23.722191],[121.303484,23.722281],[121.302896,23.722184],[121.302797,23.722274],[121.302506,23.722],[121.302407,23.722089],[121.302501,23.722451],[121.302696,23.722543],[121.302894,23.722365],[121.302985,23.722908],[121.302788,23.722996],[121.30279,23.722815],[121.302497,23.722722],[121.302395,23.722992],[121.302,23.723258],[121.301995,23.723619],[121.302482,23.723896],[121.302574,23.724348],[121.30297,23.724082],[121.303064,23.724353],[121.303356,23.724537],[121.303455,23.724448],[121.303458,23.724267],[121.30336,23.724266]]],[[[121.305865,23.727725],[121.305573,23.727541],[121.30548,23.727179],[121.305189,23.726905],[121.304798,23.726811],[121.304702,23.726629],[121.304505,23.726717],[121.304502,23.726988],[121.304304,23.727076],[121.3044,23.727258],[121.304796,23.726991],[121.304795,23.727081],[121.304991,23.727084],[121.304988,23.727264],[121.305086,23.727265],[121.305084,23.727446],[121.305374,23.72781],[121.305765,23.727905],[121.305865,23.727725]]],[[[121.302238,23.727595],[121.302437,23.727326],[121.302049,23.727051],[121.301949,23.72714],[121.302043,23.727503],[121.301847,23.727501],[121.301746,23.72768],[121.302235,23.727776],[121.302331,23.727957],[121.302725,23.727871],[121.302629,23.72769],[121.302238,23.727595]]],[[[121.303116,23.727966],[121.303216,23.727786],[121.302826,23.727602],[121.302726,23.727781],[121.303116,23.727966]]]]}},{"type":"Feature","properties":{"kind":"bare_dam","month":"2021-11","area_ha":13.44},"geometry":{"type":"MultiPolygon","coordinates":[[[[121.301252,23.69011],[121.301349,23.690201],[121.301449,23.690022],[121.301156,23.689928],[121.301158,23.689838],[121.300666,23.689923],[121.300762,23.690105],[121.301056,23.690108],[121.301055,23.690198],[121.301252,23.69011]]],[[[121.29959,23.689731],[121.299589,23.689821],[121.298708,23.689721],[121.298607,23.6899],[121.298117,23.689895],[121.29772,23.690252],[121.297713,23.690794],[121.298005,23.690977],[121.298006,23.690887],[121.2983,23.69089],[121.298499,23.690712],[121.298689,23.691166],[121.299078,23.691441],[121.299372,23.691444],[121.299373,23.691354],[121.299764,23.691448],[121.299864,23.691269],[121.299766,23.691268],[121.299673,23.690905],[121.300064,23.691],[121.30016,23.691182],[121.300357,23.691094],[121.300453,23.691275],[121.301628,23.691378],[121.301627,23.691469],[121.302118,23.691384],[121.301925,23.691111],[121.301631,23.691108],[121.301633,23.691017],[121.301141,23.691102],[121.301142,23.691012],[121.300457,23.690914],[121.300363,23.690642],[121.300558,23.690735],[121.30066,23.690375],[121.30037,23.6901],[121.300172,23.690189],[121.300269,23.69028],[121.300165,23.69073],[121.299578,23.690634],[121.299484,23.690362],[121.299777,23.690455],[121.299876,23.690366],[121.299781,23.690094],[121.300074,23.690187],[121.300273,23.690009],[121.300176,23.689918],[121.300276,23.689738],[121.299786,23.689733],[121.299785,23.689823],[121.29959,23.689731]],[[121.299785,23.689823],[121.299882,23.689914],[121.299784,23.689913],[121.299785,23.689823]],[[121.299283,23.690721],[121.299184,23.69081],[121.299185,23.69072],[121.299283,23.690721]],[[121.299192,23.690178],[121.298898,23.690175],[121.298899,23.690084],[121.299193,23.690088],[121.299192,23.690178]]],[[[121.304661,23.691863],[121.304562,23.691952],[121.304366,23.69195],[121.304367,23.69186],[121.30368,23.691943],[121.303389,23.691669],[121.303192,23.691757],[121.303481,23.692121],[121.303677,23.692123],[121.303679,23.692033],[121.303875,23.692035],[121.303873,23.692125],[121.304561,23.692043],[121.304658,23.692134],[121.304757,23.692045],[121.304661,23.691863]]],[[[121.304951,23.692228],[121.30515,23.691959],[121.304955,23.691866],[121.304756,23.692135],[121.304951,23.692228]]],[[[121.306018,23.693142],[121.306514,23.692696],[121.30642,23.692334],[121.306716,23.692247],[121.306817,23.691977],[121.30672,23.691886],[121.306621,23.691975],[121.306131,23.69197],[121.306132,23.691879],[121.305839,23.691786],[121.305744,23.691514],[121.305645,23.691603],[121.305352,23.69151],[121.305252,23.691689],[121.305349,23.69178],[121.305644,23.691693],[121.305737,23.692056],[121.305932,23.692148],[121.305833,23.692237],[121.30593,23.692329],[121.305831,23.692418],[121.305823,23.69305],[121.306018,23.693142]]],[[[121.300332,23.69299],[121.30024,23.692537],[121.299752,23.692351],[121.29956,23.692078],[121.299167,23.692074],[121.299269,23.691804],[121.298879,23.691619],[121.298978,23.69153],[121.298883,23.691348],[121.298589,23.691345],[121.298389,23.691614],[121.298094,23.691701],[121.298287,23.691884],[121.298185,23.692244],[121.298576,23.692338],[121.298474,23.692608],[121.299053,23.693337],[121.299544,23.693252],[121.299542,23.693432],[121.299736,23.693615],[121.30003,23.693618],[121.300029,23.693709],[121.300324,23.693622],[121.30042,23.693803],[121.300616,23.693805],[121.301005,23.694081],[121.301105,23.693901],[121.300813,23.693717],[121.300915,23.693448],[121.300624,23.693173],[121.300427,23.693262],[121.300424,23.693442],[121.300132,23.693349],[121.300231,23.693259],[121.300135,23.693078],[121.300332,23.69299]],[[121.299939,23.693076],[121.299938,23.693166],[121.299645,23.693072],[121.299646,23.692982],[121.299449,23.69307],[121.299451,23.69289],[121.300039,23.692896],[121.300135,23.693078],[121.299939,23.693076]],[[121.298584,23.691706],[121.298778,23.691889],[121.29858,23.691977],[121.298584,23.691706]]],[[[121.302444,23.696534],[121.302741,23.696267],[121.303037,23.69618],[121.303039,23.695999],[121.303136,23.696091],[121.303333,23.696002],[121.303239,23.69573],[121.302943,23.695818],[121.302842,23.696087],[121.302646,23.696085],[121.302348,23.696353],[121.302444,23.696534]]],[[[121.298505,23.697755],[121.298999,23.69749],[121.298905,23.697218],[121.299102,23.69713],[121.299206,23.69668],[121.299012,23.696497],[121.298718,23.696494],[121.29882,23.696224],[121.298918,23.696225],[121.298927,23.695503],[121.298636,23.695228],[121.298244,23.695224],[121.298144,23.695404],[121.297949,23.695311],[121.29775,23.69549],[121.297847,23.695581],[121.297745,23.695941],[121.297843,23.695942],[121.297838,23.696303],[121.298033,23.696396],[121.298125,23.696848],[121.298416,23.697122],[121.298613,23.697034],[121.298807,23.697217],[121.298411,23.697483],[121.298409,23.697664],[121.298505,23.697755]],[[121.298618,23.696673],[121.298518,23.696762],[121.29852,23.696672],[121.298618,23.696673]],[[121.298139,23.695765],[121.297943,23.695763],[121.297945,23.695582],[121.298141,23.695584],[121.298139,23.695765]]],[[[121.300264,23.698226],[121.300364,23.698137],[121.30056,23.698139],[121.300559,23.698229],[121.301148,23.698146],[121.301546,23.697699],[121.301351,23.697606],[121.301251,23.697786],[121.300465,23.697867],[121.300267,23.698046],[121.300071,23.698044],[121.300072,23.697953],[121.299777,23.69804],[121.299872,23.698222],[121.300068,23.698224],[121.30007,23.698134],[121.300266,23.698136],[121.300264,23.698226]]],[[[121.298085,23.699918],[121.297788,23.700186],[121.297886,23.700187],[121.29798,23.700459],[121.298372,23.700463],[121.298375,23.700282],[121.298473,23.700283],[121.29847,23.700464],[121.298666,23.700466],[121.298669,23.700286],[121.298864,23.700378],[121.299062,23.7002],[121.298969,23.699837],[121.298775,23.699655],[121.298874,23.699565],[121.298779,23.699384],[121.299076,23.699116],[121.299082,23.698665],[121.29918,23.698666],[121.299086,23.698394],[121.29879,23.698481],[121.298787,23.698752],[121.298689,23.698751],[121.298586,23.699111],[121.298291,23.699198],[121.297993,23.699465],[121.298085,23.699918]],[[121.298281,23.69992],[121.298279,23.700101],[121.298181,23.7001],[121.298085,23.699918],[121.298281,23.69992]]]]}},{"type":"Feature","properties":{"kind":"water","month":"2021-11","area_ha":5.96},"geometry":{"type":"MultiPolygon","coordinates":[[[[121.30522,23.694127],[121.305024,23.694125],[121.304924,23.694304],[121.304431,23.694479],[121.304232,23.694748],[121.303938,23.694745],[121.304032,23.695017],[121.303834,23.695195],[121.303826,23.695827],[121.304022,23.695829],[121.304123,23.69556],[121.304421,23.695292],[121.304814,23.695206],[121.304719,23.695024],[121.304915,23.695026],[121.304917,23.694846],[121.305313,23.694579],[121.305315,23.694399],[121.305511,23.694401],[121.305512,23.694311],[121.305707,23.694403],[121.305817,23.693501],[121.30562,23.693589],[121.305616,23.69386],[121.30542,23.693858],[121.30522,23.694127]],[[121.305419,23.693948],[121.305516,23.69404],[121.305418,23.694039],[121.305419,23.693948]],[[121.30423,23.694929],[121.304133,23.694837],[121.304231,23.694838],[121.30423,23.694929]],[[121.304623,23.694843],[121.304526,23.694751],[121.304624,23.694752],[121.304623,23.694843]],[[121.305415,23.694219],[121.305318,23.694128],[121.305417,23.694129],[121.305415,23.694219]]],[[[121.302439,23.696896],[121.302341,23.696895],[121.302343,23.696714],[121.302636,23.696807],[121.302541,23.696626],[121.302835,23.696629],[121.302834,23.696719],[121.303031,23.696631],[121.303034,23.69636],[121.303233,23.696182],[121.303137,23.696],[121.303039,23.695999],[121.302937,23.696269],[121.302741,23.696267],[121.302542,23.696536],[121.302246,23.696623],[121.302243,23.696893],[121.302044,23.697072],[121.302337,23.697165],[121.302439,23.696896]]],[[[121.299876,23.697951],[121.300169,23.698045],[121.30017,23.697954],[121.300464,23.697958],[121.300465,23.697867],[121.301251,23.697786],[121.301352,23.697516],[121.301255,23.697424],[121.301156,23.697514],[121.300373,23.697415],[121.300374,23.697324],[121.300081,23.697231],[121.299586,23.697587],[121.299677,23.698129],[121.299876,23.697951]]],[[[121.292027,23.698226],[121.291734,23.698132],[121.291736,23.698042],[121.291441,23.698039],[121.291439,23.698219],[121.291733,23.698223],[121.291926,23.698496],[121.292122,23.698498],[121.292027,23.698226]]],[[[121.299084,23.698484],[121.29948,23.698218],[121.299482,23.698037],[121.299189,23.697944],[121.299192,23.697763],[121.298702,23.697758],[121.298699,23.697938],[121.298306,23.698024],[121.2982,23.698655],[121.297903,23.698832],[121.297897,23.699284],[121.2976,23.699551],[121.297888,23.700006],[121.298085,23.699918],[121.297993,23.699465],[121.298291,23.699198],[121.298586,23.699111],[121.298393,23.698838],[121.298592,23.698659],[121.298787,23.698752],[121.298889,23.698392],[121.299086,23.698394],[121.299084,23.698484]],[[121.29879,23.698481],[121.298693,23.69839],[121.298791,23.698391],[121.29879,23.698481]]],[[[121.298491,23.698839],[121.29849,23.698929],[121.298686,23.698931],[121.298688,23.698841],[121.298491,23.698839]]],[[[121.298085,23.699918],[121.298182,23.700009],[121.298279,23.700101],[121.298281,23.69992],[121.298085,23.699918]]],[[[121.299255,23.700473],[121.299059,23.70047],[121.299062,23.7002],[121.298964,23.700199],[121.298861,23.700559],[121.299055,23.700741],[121.299153,23.700742],[121.299255,23.700473]]],[[[121.312468,23.687163],[121.312565,23.687254],[121.312566,23.687164],[121.312468,23.687163]]],[[[121.312174,23.687159],[121.312077,23.687068],[121.311978,23.687157],[121.311488,23.687152],[121.311288,23.687421],[121.311581,23.687514],[121.311585,23.687243],[121.312173,23.68725],[121.312269,23.687431],[121.312465,23.687433],[121.312467,23.687253],[121.312271,23.687251],[121.312273,23.68707],[121.312174,23.687159]]],[[[121.310686,23.688498],[121.311181,23.688142],[121.311184,23.687871],[121.310888,23.688048],[121.310786,23.688318],[121.310492,23.688315],[121.31049,23.688496],[121.310686,23.688498]]],[[[121.308509,23.690009],[121.308607,23.69001],[121.308612,23.689649],[121.308514,23.689648],[121.308509,23.690009]]],[[[121.308706,23.690011],[121.308607,23.69001],[121.308602,23.690462],[121.308798,23.690464],[121.308706,23.690011]]],[[[121.308193,23.691721],[121.308687,23.691456],[121.30869,23.691185],[121.308886,23.691187],[121.308797,23.690554],[121.3086,23.690552],[121.308492,23.691363],[121.308297,23.691271],[121.308196,23.691541],[121.3079,23.691628],[121.307701,23.691896],[121.308093,23.691901],[121.308193,23.691721]]],[[[121.307108,23.692251],[121.307599,23.692166],[121.307604,23.691805],[121.307408,23.691803],[121.307209,23.691981],[121.307014,23.691889],[121.306914,23.692068],[121.307108,23.692251]],[[121.307502,23.692075],[121.307405,23.691984],[121.307503,23.691985],[121.307502,23.692075]]],[[[121.306914,23.692068],[121.30642,23.692334],[121.306417,23.692605],[121.306614,23.692517],[121.306616,23.692336],[121.306912,23.692249],[121.306914,23.692068]]]]}}]}