{"type":"FeatureCollection","features":[{"type":"Feature","properties":{"kind":"bare_slide","month":"2021-12","area_ha":75.5},"geometry":{"type":"MultiPolygon","coordinates":[[[[121.292535,23.711957],[121.292437,23.711956],[121.292537,23.711776],[121.292928,23.711871],[121.293325,23.711514],[121.29362,23.711517],[121.293918,23.711159],[121.293625,23.711066],[121.293525,23.711245],[121.293132,23.711331],[121.293031,23.711511],[121.292541,23.711505],[121.29254,23.711596],[121.292047,23.711771],[121.292045,23.711951],[121.292239,23.712134],[121.292435,23.712136],[121.292535,23.711957]]],[[[121.28608,23.718116],[121.286273,23.718389],[121.286568,23.718302],[121.286567,23.718392],[121.287056,23.718488],[121.287355,23.71813],[121.287647,23.718314],[121.287944,23.718046],[121.288239,23.71805],[121.288335,23.718141],[121.288231,23.718591],[121.288328,23.718683],[121.288624,23.718596],[121.289011,23.718961],[121.289509,23.718425],[121.289804,23.718338],[121.28991,23.717707],[121.289813,23.717616],[121.289616,23.717704],[121.289522,23.717432],[121.289815,23.717525],[121.290211,23.717169],[121.290117,23.716897],[121.290509,23.716901],[121.290708,23.716723],[121.29071,23.716542],[121.291402,23.716098],[121.291405,23.715918],[121.291701,23.71574],[121.291803,23.71547],[121.291999,23.715473],[121.292099,23.715293],[121.29239,23.715567],[121.292685,23.71548],[121.292687,23.71539],[121.292981,23.715393],[121.293076,23.715575],[121.293961,23.715404],[121.293859,23.715764],[121.294152,23.715858],[121.294449,23.71559],[121.294257,23.715317],[121.294061,23.715315],[121.294162,23.715045],[121.294457,23.714958],[121.294657,23.714689],[121.294853,23.714691],[121.29525,23.714335],[121.295352,23.714065],[121.295843,23.71398],[121.296042,23.713802],[121.295947,23.71353],[121.296045,23.713531],[121.296148,23.713171],[121.296345,23.713082],[121.29635,23.712721],[121.296252,23.71272],[121.296352,23.712541],[121.295961,23.712446],[121.295861,23.712626],[121.295959,23.712627],[121.296052,23.712989],[121.295564,23.712803],[121.295265,23.713161],[121.295069,23.713159],[121.294969,23.713338],[121.294872,23.713247],[121.294675,23.713335],[121.294867,23.713608],[121.294573,23.713605],[121.294574,23.713514],[121.294181,23.7136],[121.293982,23.713779],[121.29398,23.713959],[121.293883,23.713868],[121.293685,23.714046],[121.293392,23.713953],[121.293192,23.714222],[121.292996,23.714219],[121.292802,23.714037],[121.292606,23.714035],[121.292605,23.714125],[121.292312,23.714031],[121.29221,23.714301],[121.292405,23.714394],[121.292403,23.714574],[121.292207,23.714572],[121.292206,23.714662],[121.292011,23.71457],[121.291917,23.714208],[121.291623,23.714204],[121.291622,23.714295],[121.291525,23.714203],[121.290937,23.714197],[121.290441,23.714643],[121.290148,23.714549],[121.290047,23.714729],[121.289753,23.714725],[121.289653,23.714905],[121.28936,23.714811],[121.28926,23.714901],[121.289355,23.715173],[121.289156,23.715351],[121.28896,23.715349],[121.28886,23.715528],[121.288665,23.715436],[121.288667,23.715255],[121.288862,23.715348],[121.288963,23.715168],[121.28867,23.715075],[121.288671,23.714984],[121.288375,23.715071],[121.288569,23.715254],[121.288468,23.715524],[121.288274,23.715341],[121.28798,23.715338],[121.287982,23.715157],[121.28808,23.715158],[121.287984,23.714977],[121.287786,23.715155],[121.287297,23.715059],[121.287296,23.71515],[121.286804,23.715235],[121.286705,23.715324],[121.286899,23.715507],[121.286796,23.715867],[121.287183,23.716232],[121.286986,23.71632],[121.286984,23.716501],[121.286692,23.716317],[121.286493,23.716495],[121.286686,23.716768],[121.286587,23.716858],[121.286392,23.716765],[121.285697,23.717389],[121.285891,23.717572],[121.285886,23.717933],[121.286179,23.718027],[121.28608,23.718116]],[[121.292108,23.714661],[121.292008,23.71475],[121.29201,23.71466],[121.292108,23.714661]],[[121.288566,23.715525],[121.288661,23.715707],[121.288366,23.715794],[121.288368,23.715613],[121.288566,23.715525]],[[121.288364,23.715974],[121.288266,23.715973],[121.288268,23.715793],[121.288366,23.715794],[121.288364,23.715974]],[[121.286899,23.715507],[121.286998,23.715417],[121.286997,23.715508],[121.286899,23.715507]],[[121.285891,23.717572],[121.28599,23.717483],[121.285989,23.717573],[121.285891,23.717572]],[[121.286179,23.718027],[121.286278,23.717938],[121.286277,23.718028],[121.286179,23.718027]],[[121.286575,23.71776],[121.286771,23.717763],[121.286769,23.717943],[121.286573,23.717941],[121.286575,23.71776]],[[121.287165,23.717677],[121.287359,23.717769],[121.287259,23.717949],[121.287161,23.717947],[121.287165,23.717677]],[[121.287359,23.717769],[121.287459,23.71768],[121.287458,23.71777],[121.287359,23.717769]],[[121.286579,23.71749],[121.286677,23.717491],[121.286674,23.717671],[121.286576,23.71767],[121.286579,23.71749]],[[121.289128,23.717518],[121.289227,23.717429],[121.289226,23.717519],[121.289128,23.717518]],[[121.286287,23.717306],[121.286386,23.717217],[121.286385,23.717307],[121.286287,23.717306]],[[121.289628,23.716801],[121.289629,23.716711],[121.290121,23.716626],[121.29002,23.716805],[121.289824,23.716803],[121.289823,23.716893],[121.289429,23.716979],[121.289329,23.717159],[121.289133,23.717157],[121.289233,23.716977],[121.289039,23.716794],[121.289236,23.716797],[121.289234,23.716887],[121.289628,23.716801]],[[121.289039,23.716794],[121.288943,23.716703],[121.289041,23.716704],[121.289039,23.716794]],[[121.28894,23.716884],[121.288646,23.71688],[121.288647,23.71679],[121.288941,23.716793],[121.28894,23.716884]],[[121.287372,23.716776],[121.287569,23.716778],[121.287567,23.716868],[121.287371,23.716866],[121.287372,23.716776]],[[121.287078,23.716773],[121.287178,23.716683],[121.287176,23.716774],[121.287078,23.716773]],[[121.289434,23.716618],[121.289238,23.716616],[121.28924,23.716435],[121.289534,23.716439],[121.289434,23.716618]],[[121.287671,23.716418],[121.287572,23.716507],[121.287573,23.716417],[121.287671,23.716418]],[[121.287671,23.716418],[121.287771,23.716329],[121.287769,23.716419],[121.287671,23.716418]],[[121.290122,23.716535],[121.289927,23.716443],[121.289929,23.716262],[121.290223,23.716266],[121.290221,23.716446],[121.290122,23.716535]],[[121.290223,23.716266],[121.290323,23.716177],[121.290321,23.716267],[121.290223,23.716266]],[[121.290326,23.715906],[121.290523,23.715818],[121.290428,23.715636],[121.290035,23.715632],[121.289935,23.715811],[121.28974,23.715719],[121.289939,23.71554],[121.289941,23.71536],[121.290137,23.715362],[121.290534,23.715005],[121.290827,23.715098],[121.290927,23.714919],[121.291123,23.714921],[121.291218,23.715193],[121.291515,23.715016],[121.291512,23.715196],[121.291315,23.715284],[121.291311,23.715555],[121.291409,23.715556],[121.291309,23.715736],[121.291212,23.715645],[121.290917,23.715732],[121.290519,23.716179],[121.290323,23.716177],[121.290326,23.715906]],[[121.289935,23.715811],[121.290032,23.715902],[121.289934,23.715901],[121.289935,23.715811]],[[121.287968,23.716241],[121.287869,23.71633],[121.28787,23.71624],[121.287968,23.716241]],[[121.287968,23.716241],[121.288067,23.716152],[121.288066,23.716242],[121.287968,23.716241]],[[121.288556,23.716247],[121.288653,23.716339],[121.288555,23.716338],[121.288556,23.716247]],[[121.288556,23.716247],[121.288459,23.716156],[121.288557,23.716157],[121.288556,23.716247]],[[121.289343,23.716075],[121.289245,23.716074],[121.289243,23.716255],[121.289047,23.716253],[121.289149,23.715893],[121.289345,23.715895],[121.289343,23.716075]],[[121.289747,23.715177],[121.289649,23.715176],[121.289553,23.714994],[121.289749,23.714996],[121.289747,23.715177]],[[121.289947,23.714908],[121.290143,23.71491],[121.290142,23.715001],[121.289946,23.714998],[121.289947,23.714908]],[[121.293869,23.714951],[121.29377,23.715041],[121.293771,23.71495],[121.293869,23.714951]],[[121.293871,23.714771],[121.29397,23.714772],[121.293967,23.714953],[121.293869,23.714951],[121.293871,23.714771]],[[121.292889,23.714941],[121.292496,23.714936],[121.292497,23.714846],[121.292891,23.71476],[121.292889,23.714941]],[[121.293874,23.71459],[121.29407,23.714592],[121.294069,23.714683],[121.293873,23.714681],[121.293874,23.71459]],[[121.2926,23.714486],[121.292699,23.714397],[121.292698,23.714487],[121.2926,23.714486]],[[121.293778,23.714409],[121.293877,23.714319],[121.293876,23.71441],[121.293778,23.714409]],[[121.29457,23.713876],[121.29447,23.713965],[121.294272,23.714143],[121.294374,23.713873],[121.29457,23.713876]]],[[[121.285711,23.716306],[121.285618,23.715944],[121.286011,23.715858],[121.286309,23.71559],[121.286213,23.715409],[121.285721,23.715584],[121.28572,23.715674],[121.285425,23.715671],[121.285226,23.715939],[121.284733,23.716115],[121.284731,23.716295],[121.284925,23.716478],[121.285024,23.716389],[121.285317,23.716482],[121.285417,23.716303],[121.285514,23.716394],[121.285711,23.716306]],[[121.285417,23.716303],[121.28532,23.716211],[121.285418,23.716213],[121.285417,23.716303]]],[[[121.292457,23.717916],[121.292754,23.717738],[121.292856,23.717469],[121.293052,23.717471],[121.29325,23.717292],[121.293255,23.716931],[121.292964,23.716657],[121.292767,23.716745],[121.292665,23.717015],[121.292469,23.717013],[121.292275,23.71683],[121.292174,23.7171],[121.291977,23.717188],[121.291974,23.717369],[121.292267,23.717462],[121.292264,23.717733],[121.292457,23.717916]]],[[[121.284422,23.717375],[121.284329,23.717013],[121.284036,23.71692],[121.283638,23.717367],[121.283343,23.717454],[121.283233,23.718355],[121.283426,23.718538],[121.283423,23.718809],[121.283128,23.718896],[121.283223,23.719078],[121.283715,23.718993],[121.283907,23.719266],[121.284103,23.719268],[121.284302,23.71909],[121.284207,23.718818],[121.284012,23.718725],[121.28431,23.718458],[121.283921,23.718182],[121.283926,23.717821],[121.284223,23.717644],[121.284225,23.717463],[121.284422,23.717375]],[[121.284225,23.717463],[121.284128,23.717372],[121.284226,23.717373],[121.284225,23.717463]],[[121.28382,23.718452],[121.283917,23.718544],[121.283819,23.718543],[121.28382,23.718452]],[[121.283624,23.71845],[121.283626,23.71827],[121.283724,23.718271],[121.28382,23.718452],[121.283624,23.71845]]],[[[121.290286,23.718975],[121.289992,23.718972],[121.289889,23.719332],[121.289399,23.719327],[121.289398,23.719417],[121.289105,23.719323],[121.288903,23.719773],[121.289097,23.719865],[121.289192,23.720137],[121.289388,23.720139],[121.289289,23.720229],[121.289383,23.7205],[121.28958,23.720503],[121.28968,23.720323],[121.289876,23.720325],[121.290174,23.720058],[121.290171,23.720238],[121.289478,23.720772],[121.289476,23.720953],[121.289572,23.721044],[121.28977,23.720956],[121.290447,23.721686],[121.290643,23.721688],[121.290841,23.72151],[121.290844,23.721329],[121.290551,23.721236],[121.290553,23.721055],[121.290651,23.721056],[121.290571,23.719701],[121.290376,23.719608],[121.290274,23.719878],[121.290176,23.719877],[121.290181,23.719516],[121.290279,23.719517],[121.290382,23.719157],[121.290675,23.719251],[121.29077,23.719432],[121.291067,23.719255],[121.290971,23.719073],[121.291368,23.718716],[121.291276,23.718264],[121.29177,23.717998],[121.291479,23.717724],[121.291675,23.717727],[121.291677,23.717636],[121.29197,23.71773],[121.29207,23.71755],[121.291973,23.717459],[121.291777,23.717457],[121.291776,23.717547],[121.291483,23.717454],[121.291184,23.717811],[121.290496,23.717894],[121.290397,23.717983],[121.290492,23.718255],[121.29,23.71834],[121.290194,23.718523],[121.290191,23.718703],[121.290483,23.718887],[121.290481,23.719068],[121.290285,23.719066],[121.290286,23.718975]],[[121.291171,23.718805],[121.291074,23.718713],[121.291172,23.718714],[121.291171,23.718805]],[[121.290386,23.718796],[121.290486,23.718707],[121.290484,23.718797],[121.290386,23.718796]],[[121.289782,23.720053],[121.289881,23.719964],[121.28988,23.720054],[121.289782,23.720053]],[[121.28939,23.719959],[121.28949,23.71987],[121.289489,23.71996],[121.28939,23.719959]],[[121.290774,23.719161],[121.290873,23.719072],[121.290872,23.719162],[121.290774,23.719161]],[[121.290584,23.718708],[121.290683,23.718619],[121.290682,23.718709],[121.290584,23.718708]]],[[[121.282417,23.720694],[121.28281,23.720699],[121.283207,23.720342],[121.283209,23.720161],[121.283506,23.719984],[121.283508,23.719803],[121.283705,23.719715],[121.28361,23.719534],[121.283216,23.719619],[121.283218,23.719439],[121.283317,23.71944],[121.283221,23.719258],[121.282526,23.719883],[121.282035,23.719968],[121.282033,23.720058],[121.281738,23.720145],[121.281732,23.720596],[121.282023,23.72087],[121.282219,23.720873],[121.282417,23.720694]],[[121.283013,23.720159],[121.282816,23.720247],[121.28272,23.720065],[121.282918,23.719887],[121.283114,23.719889],[121.283013,23.720159]],[[121.283114,23.719889],[121.283214,23.7198],[121.283213,23.71989],[121.283114,23.719889]]],[[[121.288301,23.720759],[121.288205,23.720578],[121.287813,23.720573],[121.287814,23.720483],[121.287618,23.720481],[121.287518,23.72066],[121.287421,23.720569],[121.287225,23.720567],[121.287224,23.720657],[121.286735,23.720561],[121.286635,23.720651],[121.28673,23.720923],[121.287612,23.720932],[121.287708,23.721114],[121.287904,23.721116],[121.288301,23.720759]],[[121.288005,23.720937],[121.287908,23.720845],[121.288006,23.720846],[121.288005,23.720937]]],[[[121.284654,23.722164],[121.284655,23.722073],[121.285144,23.722169],[121.285343,23.721991],[121.285149,23.721808],[121.285151,23.721627],[121.285548,23.721271],[121.28545,23.72127],[121.285454,23.720999],[121.28526,23.720816],[121.285063,23.720904],[121.28496,23.721264],[121.284763,23.721352],[121.285053,23.721626],[121.285051,23.721807],[121.284852,23.721985],[121.284656,23.721983],[121.284463,23.7218],[121.283965,23.722337],[121.284355,23.722522],[121.284458,23.722162],[121.284654,23.722164]]],[[[121.286901,23.722821],[121.286904,23.72264],[121.287003,23.722551],[121.287198,23.722643],[121.287497,23.722286],[121.2875,23.722015],[121.287402,23.722014],[121.287309,23.721651],[121.286915,23.721737],[121.287011,23.721919],[121.287207,23.721921],[121.287103,23.722371],[121.286908,23.722279],[121.28671,23.722457],[121.286616,23.722095],[121.28642,23.722093],[121.286419,23.722183],[121.286028,23.722089],[121.285628,23.722716],[121.285431,23.722714],[121.285142,23.72235],[121.284945,23.722438],[121.285233,23.722893],[121.285429,23.722895],[121.28543,23.722804],[121.285723,23.722898],[121.286121,23.722451],[121.286219,23.722452],[121.286216,23.722723],[121.286118,23.722722],[121.286212,23.722994],[121.286703,23.722999],[121.286901,23.722821]]],[[[121.294662,23.721823],[121.294562,23.722002],[121.294757,23.722095],[121.294849,23.722547],[121.294652,23.722636],[121.294649,23.722816],[121.294453,23.722814],[121.294058,23.72308],[121.293864,23.722898],[121.293868,23.722537],[121.293577,23.722353],[121.293486,23.72181],[121.293097,23.721535],[121.293002,23.721263],[121.292806,23.721261],[121.292905,23.721171],[121.292911,23.72072],[121.292716,23.720628],[121.292419,23.720895],[121.292415,23.721166],[121.292218,23.721254],[121.292314,23.721436],[121.292117,23.721434],[121.292116,23.721524],[121.291921,23.721431],[121.29182,23.721701],[121.292113,23.721795],[121.29211,23.721975],[121.292597,23.722252],[121.292591,23.722703],[121.292295,23.72288],[121.292392,23.722972],[121.292288,23.723422],[121.292483,23.723515],[121.292673,23.723968],[121.292867,23.724151],[121.293063,23.724153],[121.293059,23.724424],[121.292863,23.724422],[121.292662,23.724781],[121.292955,23.724874],[121.292957,23.724784],[121.293547,23.72461],[121.293447,23.724789],[121.293739,23.724973],[121.293736,23.725154],[121.29354,23.725152],[121.293342,23.72533],[121.292851,23.725325],[121.29285,23.725415],[121.292359,23.7255],[121.292358,23.72559],[121.292163,23.725498],[121.292165,23.725317],[121.292362,23.725229],[121.292265,23.725138],[121.292367,23.724868],[121.291879,23.724682],[121.29188,23.724592],[121.291978,23.724593],[121.291981,23.724412],[121.292276,23.724325],[121.292279,23.724054],[121.292478,23.723876],[121.292185,23.723782],[121.292092,23.72342],[121.2918,23.723236],[121.2917,23.723325],[121.291696,23.723686],[121.291794,23.723688],[121.291686,23.724409],[121.291488,23.724587],[121.291194,23.724584],[121.291,23.724401],[121.290801,23.72458],[121.290699,23.72494],[121.290601,23.724939],[121.290697,23.72503],[121.290692,23.725481],[121.290592,23.725571],[121.290786,23.725753],[121.29108,23.725757],[121.291079,23.725847],[121.291669,23.725763],[121.291668,23.725853],[121.291864,23.725856],[121.292062,23.725677],[121.29206,23.725858],[121.291962,23.725857],[121.292056,23.726129],[121.292156,23.726039],[121.292842,23.726047],[121.29304,23.725868],[121.293532,23.725784],[121.293329,23.726323],[121.293525,23.726325],[121.293527,23.726145],[121.29392,23.726149],[121.293825,23.725877],[121.294412,23.725974],[121.294522,23.725072],[121.294328,23.724889],[121.294526,23.724801],[121.29463,23.724351],[121.294926,23.724174],[121.294932,23.723722],[121.294834,23.723721],[121.294841,23.723179],[121.295038,23.723091],[121.294944,23.722819],[121.295141,23.722731],[121.295343,23.722282],[121.295539,23.722284],[121.295935,23.722018],[121.296036,23.721748],[121.296529,23.721573],[121.296527,23.721753],[121.296722,23.721846],[121.296821,23.721756],[121.296726,23.721484],[121.297118,23.721579],[121.297316,23.721401],[121.297221,23.721129],[121.297122,23.721218],[121.296829,23.721124],[121.297028,23.720946],[121.297125,23.721037],[121.297322,23.720949],[121.297325,23.720678],[121.297227,23.720677],[121.297329,23.720408],[121.297134,23.720315],[121.297142,23.719683],[121.29724,23.719684],[121.297147,23.719322],[121.296851,23.719409],[121.296848,23.71968],[121.296651,23.719768],[121.296648,23.719949],[121.29645,23.720127],[121.296445,23.720488],[121.29664,23.720581],[121.296539,23.72085],[121.296046,23.721026],[121.295847,23.721204],[121.295845,23.721384],[121.295349,23.721831],[121.295252,23.721739],[121.295153,23.721828],[121.294662,23.721823]],[[121.295349,23.721831],[121.295446,23.721922],[121.295348,23.721921],[121.295349,23.721831]],[[121.294132,23.724887],[121.29423,23.724888],[121.294228,23.725069],[121.29413,23.725068],[121.294132,23.724887]],[[121.294153,23.723262],[121.294253,23.723173],[121.294251,23.723263],[121.294153,23.723262]],[[121.296335,23.72139],[121.296237,23.721389],[121.296142,23.721207],[121.296338,23.721209],[121.296335,23.72139]]],[[[121.290313,23.724394],[121.29071,23.724037],[121.29052,23.723583],[121.290716,23.723585],[121.290811,23.723857],[121.291107,23.72368],[121.290819,23.723225],[121.290623,23.723223],[121.290423,23.723492],[121.290326,23.7234],[121.290129,23.723489],[121.290219,23.724122],[121.29002,23.7243],[121.290313,23.724394]]],[[[121.296862,23.726182],[121.296774,23.725368],[121.296973,23.725189],[121.297169,23.725192],[121.297362,23.725374],[121.297462,23.725285],[121.297468,23.724834],[121.297664,23.724836],[121.297862,23.724657],[121.297867,23.724296],[121.297965,23.724297],[121.297973,23.723665],[121.297875,23.723664],[121.297979,23.723214],[121.297881,23.723213],[121.297887,23.722761],[121.29779,23.72267],[121.297593,23.722758],[121.297586,23.7233],[121.297388,23.723388],[121.297386,23.723569],[121.297678,23.723752],[121.297574,23.724203],[121.297182,23.724198],[121.296883,23.724556],[121.296687,23.724554],[121.296689,23.724374],[121.296985,23.724196],[121.296989,23.723925],[121.297087,23.723927],[121.296699,23.723561],[121.2966,23.72365],[121.296594,23.724102],[121.296398,23.7241],[121.296199,23.724368],[121.295904,23.724365],[121.295803,23.724635],[121.295706,23.724543],[121.295216,23.724538],[121.295217,23.724448],[121.295021,23.724446],[121.294822,23.724624],[121.29482,23.724805],[121.29511,23.725079],[121.295699,23.725085],[121.295596,23.725445],[121.295791,23.725538],[121.295691,23.725717],[121.295886,23.72581],[121.295882,23.72608],[121.296076,23.726263],[121.296467,23.726358],[121.296567,23.726178],[121.296664,23.72627],[121.296862,23.726182]],[[121.296469,23.726177],[121.296473,23.725906],[121.296571,23.725907],[121.296567,23.726178],[121.296469,23.726177]],[[121.296473,23.725906],[121.296376,23.725815],[121.296474,23.725816],[121.296473,23.725906]],[[121.296476,23.725635],[121.296576,23.725546],[121.296574,23.725637],[121.296476,23.725635]],[[121.296384,23.725183],[121.29658,23.725185],[121.296579,23.725275],[121.296383,23.725273],[121.296384,23.725183]],[[121.296093,23.724909],[121.295897,23.724907],[121.295899,23.724816],[121.296096,23.724728],[121.296093,23.724909]]],[[[121.311625,23.699344],[121.311429,23.699342],[121.311627,23.699163],[121.311632,23.698802],[121.311437,23.69871],[121.311436,23.6988],[121.311043,23.698886],[121.311138,23.699068],[121.310642,23.699514],[121.310836,23.699696],[121.311032,23.699699],[121.311128,23.69988],[121.311325,23.699792],[121.311519,23.699975],[121.311618,23.699886],[121.311625,23.699344]],[[121.311328,23.699612],[121.311231,23.69952],[121.311329,23.699521],[121.311328,23.699612]]],[[[121.298772,23.70742],[121.298678,23.707148],[121.29858,23.707147],[121.298684,23.706697],[121.298782,23.706698],[121.298785,23.706427],[121.299082,23.70625],[121.299085,23.705979],[121.298987,23.705978],[121.299089,23.705708],[121.298895,23.705525],[121.299192,23.705348],[121.299196,23.704987],[121.299294,23.704988],[121.299297,23.704807],[121.299494,23.704719],[121.299496,23.704539],[121.299695,23.70436],[121.299701,23.703909],[121.299409,23.703725],[121.299412,23.703454],[121.299217,23.703362],[121.299321,23.702911],[121.299126,23.702819],[121.299134,23.702187],[121.299036,23.702186],[121.299041,23.701825],[121.29924,23.701646],[121.299243,23.701375],[121.298753,23.70137],[121.298657,23.701188],[121.298069,23.701182],[121.298156,23.701996],[121.298351,23.702088],[121.298153,23.702266],[121.298245,23.702719],[121.298343,23.70272],[121.298338,23.703081],[121.298532,23.703264],[121.298529,23.703535],[121.298819,23.703809],[121.299015,23.703811],[121.299013,23.703992],[121.299111,23.703993],[121.299103,23.704625],[121.299005,23.704624],[121.298798,23.705434],[121.298112,23.705427],[121.297912,23.705695],[121.297618,23.705692],[121.297518,23.705871],[121.297811,23.705965],[121.297906,23.706147],[121.298493,23.706243],[121.298486,23.706785],[121.298189,23.707053],[121.298481,23.707237],[121.298575,23.707508],[121.298772,23.70742]],[[121.298694,23.705884],[121.29889,23.705887],[121.298889,23.705977],[121.298693,23.705975],[121.298694,23.705884]],[[121.298921,23.703539],[121.29902,23.70345],[121.299019,23.70354],[121.298921,23.703539]],[[121.29893,23.702817],[121.298929,23.702907],[121.298732,23.702995],[121.298734,23.702815],[121.29893,23.702817]],[[121.298929,23.702907],[121.299026,23.702998],[121.298928,23.702997],[121.298929,23.702907]],[[121.298638,23.702633],[121.298738,23.702544],[121.298736,23.702634],[121.298638,23.702633]],[[121.298453,23.701818],[121.298552,23.701729],[121.298551,23.701819],[121.298453,23.701818]]],[[[121.29935,23.708239],[121.299843,23.708064],[121.30023,23.70843],[121.30053,23.707981],[121.300433,23.70789],[121.300334,23.707979],[121.30004,23.707976],[121.300041,23.707886],[121.299746,23.707973],[121.299651,23.707701],[121.299553,23.7077],[121.299654,23.70752],[121.29946,23.707338],[121.298969,23.707423],[121.298865,23.707873],[121.299158,23.707966],[121.29935,23.708239]],[[121.299158,23.707966],[121.299257,23.707877],[121.299256,23.707967],[121.299158,23.707966]]],[[[121.297578,23.708762],[121.297383,23.708669],[121.297185,23.708848],[121.297181,23.709119],[121.296886,23.709206],[121.296884,23.709386],[121.297173,23.709751],[121.29747,23.709573],[121.297475,23.709122],[121.297573,23.709123],[121.297578,23.708762]]],[[[121.300402,23.710328],[121.299336,23.709323],[121.299139,23.709411],[121.299623,23.709868],[121.299619,23.710229],[121.299812,23.710412],[121.300107,23.710415],[121.3003,23.710598],[121.3004,23.710508],[121.300402,23.710328]]],[[[121.297862,23.709578],[121.297666,23.709575],[121.297665,23.709666],[121.29747,23.709573],[121.297368,23.709843],[121.29727,23.709842],[121.297268,23.710022],[121.297561,23.710116],[121.297654,23.710478],[121.297946,23.710662],[121.297844,23.710932],[121.297746,23.710931],[121.297743,23.711202],[121.297841,23.711203],[121.297738,23.711563],[121.297247,23.711648],[121.297146,23.711827],[121.296755,23.711733],[121.296656,23.711822],[121.296749,23.712184],[121.297241,23.712099],[121.297239,23.712189],[121.297729,23.712285],[121.29783,23.712015],[121.298027,23.711927],[121.297835,23.711654],[121.298031,23.711656],[121.29803,23.711747],[121.298325,23.711659],[121.298429,23.711209],[121.298136,23.711116],[121.298235,23.711026],[121.298138,23.710935],[121.29824,23.710665],[121.298046,23.710483],[121.29815,23.710032],[121.297857,23.709939],[121.297956,23.709849],[121.297862,23.709578]],[[121.298136,23.711116],[121.298037,23.711205],[121.298038,23.711115],[121.298136,23.711116]],[[121.298037,23.711205],[121.297938,23.711294],[121.297939,23.711204],[121.298037,23.711205]],[[121.297856,23.710029],[121.29766,23.710027],[121.297661,23.709937],[121.297857,23.709939],[121.297856,23.710029]],[[121.29685,23.712004],[121.296949,23.711915],[121.296948,23.712006],[121.29685,23.712004]]],[[[121.301428,23.714403],[121.301526,23.714404],[121.301731,23.713684],[121.301929,23.713595],[121.301931,23.713415],[121.302129,23.713236],[121.302031,23.713235],[121.301938,23.712873],[121.301645,23.71278],[121.301552,23.712417],[121.301358,23.712235],[121.301162,23.712232],[121.30106,23.712502],[121.300962,23.712501],[121.300957,23.712862],[121.300859,23.712861],[121.300852,23.713403],[121.30095,23.713404],[121.301044,23.713766],[121.301336,23.71395],[121.301332,23.714221],[121.301134,23.714399],[121.301227,23.714762],[121.301424,23.714673],[121.301428,23.714403]],[[121.301246,23.713317],[121.301149,23.713226],[121.301247,23.713227],[121.301246,23.713317]]],[[[121.298382,23.714821],[121.298285,23.714729],[121.298089,23.714727],[121.298092,23.714546],[121.298289,23.714458],[121.298292,23.714188],[121.297613,23.713638],[121.29751,23.713998],[121.297412,23.713997],[121.297409,23.714268],[121.297111,23.714536],[121.297404,23.714629],[121.297403,23.71472],[121.297697,23.714723],[121.297986,23.715087],[121.298281,23.71509],[121.29838,23.715001],[121.298382,23.714821]],[[121.297898,23.714364],[121.297997,23.714275],[121.297996,23.714365],[121.297898,23.714364]]],[[[121.302121,23.721454],[121.301933,23.720819],[121.302232,23.720461],[121.30224,23.719829],[121.302338,23.719831],[121.302243,23.719649],[121.302045,23.719737],[121.302043,23.719918],[121.301744,23.720275],[121.301638,23.720906],[121.30154,23.720905],[121.301924,23.721542],[121.302121,23.721454]]],[[[121.300145,23.722606],[121.30015,23.722154],[121.300449,23.721796],[121.300458,23.721164],[121.300755,23.720897],[121.300571,23.719992],[121.300081,23.719986],[121.299882,23.720165],[121.299879,23.720436],[121.299581,23.720703],[121.299477,23.721154],[121.299379,23.721152],[121.299374,23.721514],[121.299276,23.721513],[121.299269,23.722054],[121.299464,23.722147],[121.299458,23.722598],[121.299749,23.722872],[121.299945,23.722874],[121.300047,23.722605],[121.300145,23.722606]]],[[[121.302868,23.724351],[121.302871,23.724171],[121.302969,23.724172],[121.303257,23.724626],[121.303454,23.724538],[121.303361,23.724176],[121.303263,23.724175],[121.303265,23.723994],[121.303363,23.723996],[121.303268,23.723814],[121.303564,23.723637],[121.303566,23.723456],[121.303371,23.723364],[121.303374,23.723183],[121.303865,23.723098],[121.303671,23.722915],[121.303675,23.722644],[121.303873,23.722466],[121.30368,23.722283],[121.303091,23.722277],[121.303092,23.722187],[121.302797,23.722274],[121.302701,23.722092],[121.302505,23.72209],[121.302406,23.722179],[121.302499,23.722541],[121.302596,23.722633],[121.302892,23.722546],[121.302984,23.722998],[121.302496,23.722812],[121.302394,23.723082],[121.302099,23.723169],[121.301898,23.723528],[121.302188,23.723892],[121.302481,23.723986],[121.302475,23.724437],[121.302669,23.72462],[121.302964,23.724533],[121.302966,23.724352],[121.302868,23.724351]],[[121.302795,23.722454],[121.302894,23.722365],[121.302893,23.722455],[121.302795,23.722454]]],[[[121.301869,23.725785],[121.30207,23.725426],[121.302263,23.725609],[121.302461,23.725521],[121.302464,23.72525],[121.302662,23.725162],[121.302469,23.724889],[121.302271,23.725067],[121.301977,23.724974],[121.301875,23.725334],[121.301577,23.725601],[121.301381,23.725599],[121.30118,23.725958],[121.301472,23.726142],[121.301575,23.725782],[121.301869,23.725785]]],[[[121.305865,23.727725],[121.305768,23.727634],[121.305572,23.727632],[121.305479,23.727269],[121.305188,23.726995],[121.304992,23.726993],[121.304603,23.726718],[121.304709,23.726087],[121.304514,23.725995],[121.30441,23.726445],[121.304312,23.726444],[121.304309,23.726715],[121.304504,23.726807],[121.3045,23.727078],[121.304597,23.72717],[121.304795,23.727081],[121.304988,23.727264],[121.305082,23.727626],[121.305372,23.7279],[121.305764,23.727995],[121.305863,23.727906],[121.305865,23.727725]]]]}},{"type":"Feature","properties":{"kind":"bare_dam","month":"2021-12","area_ha":11.23},"geometry":{"type":"MultiPolygon","coordinates":[[[[121.300062,23.691181],[121.300157,23.691362],[121.300354,23.691274],[121.300353,23.691364],[121.30104,23.691372],[121.301038,23.691462],[121.301529,23.691468],[121.301527,23.691558],[121.302018,23.691563],[121.302017,23.691654],[121.302214,23.691565],[121.302118,23.691384],[121.301629,23.691288],[121.301533,23.691107],[121.30114,23.691192],[121.301141,23.691102],[121.299674,23.690815],[121.299676,23.690635],[121.299874,23.690546],[121.299778,23.690365],[121.29909,23.690448],[121.299089,23.690538],[121.298894,23.690445],[121.298801,23.690083],[121.298997,23.690085],[121.29919,23.690358],[121.299289,23.690269],[121.299484,23.690362],[121.299587,23.690002],[121.29978,23.690184],[121.300172,23.690189],[121.300273,23.690009],[121.29998,23.689916],[121.299981,23.689825],[121.298708,23.689721],[121.298508,23.68999],[121.298214,23.689986],[121.298114,23.690166],[121.297819,23.690163],[121.297621,23.690341],[121.297808,23.691066],[121.298498,23.690802],[121.299076,23.691531],[121.299666,23.691447],[121.299765,23.691358],[121.299671,23.691086],[121.300062,23.691181]],[[121.299671,23.691086],[121.299574,23.690995],[121.299672,23.690996],[121.299671,23.691086]]],[[[121.301006,23.69399],[121.300812,23.693808],[121.300912,23.693628],[121.300814,23.693627],[121.30072,23.693355],[121.300524,23.693353],[121.300422,23.693623],[121.300324,23.693622],[121.29984,23.693165],[121.299448,23.69316],[121.29945,23.69298],[121.299842,23.692984],[121.299841,23.693075],[121.300038,23.692986],[121.300036,23.693167],[121.300231,23.693259],[121.30033,23.69317],[121.300333,23.692899],[121.300235,23.692898],[121.300336,23.692719],[121.300239,23.692627],[121.300042,23.692716],[121.299946,23.692534],[121.299652,23.692531],[121.299751,23.692441],[121.299655,23.69226],[121.299067,23.692253],[121.298875,23.69198],[121.298578,23.692158],[121.298673,23.69243],[121.298475,23.692518],[121.298473,23.692698],[121.298668,23.692791],[121.298666,23.692971],[121.298957,23.693155],[121.299052,23.693427],[121.299542,23.693432],[121.299735,23.693705],[121.30003,23.693618],[121.300417,23.693984],[121.300615,23.693896],[121.300807,23.694169],[121.301006,23.69399]],[[121.299064,23.692524],[121.298967,23.692433],[121.299065,23.692434],[121.299064,23.692524]]],[[[121.302336,23.697256],[121.303027,23.696902],[121.302932,23.69672],[121.302735,23.696718],[121.302835,23.696629],[121.302739,23.696447],[121.302935,23.69645],[121.303037,23.69618],[121.303332,23.696093],[121.303237,23.695821],[121.303041,23.695819],[121.30294,23.696088],[121.302741,23.696267],[121.302545,23.696265],[121.302248,23.696532],[121.302145,23.696892],[121.301948,23.696981],[121.302043,23.697162],[121.302337,23.697165],[121.302336,23.697256]]],[[[121.298615,23.696854],[121.298322,23.69676],[121.298323,23.69667],[121.298126,23.696758],[121.298316,23.697212],[121.298612,23.697124],[121.298615,23.696854]]],[[[121.30214,23.697254],[121.301945,23.697161],[121.301845,23.697341],[121.30204,23.697433],[121.30214,23.697254]]],[[[121.300557,23.69832],[121.301147,23.698236],[121.301445,23.697968],[121.301447,23.697788],[121.30135,23.697696],[121.301251,23.697786],[121.30086,23.697691],[121.300859,23.697781],[121.300564,23.697778],[121.300267,23.698046],[121.299775,23.698131],[121.299871,23.698312],[121.300361,23.698318],[121.300363,23.698227],[121.300559,23.698229],[121.300557,23.69832]]],[[[121.298867,23.700107],[121.298965,23.700108],[121.298968,23.699928],[121.29887,23.699927],[121.298776,23.699564],[121.298973,23.699476],[121.29908,23.698845],[121.299377,23.698578],[121.299087,23.698304],[121.298891,23.698301],[121.298495,23.698568],[121.298592,23.698659],[121.298589,23.69884],[121.298491,23.698839],[121.298585,23.699201],[121.298389,23.699199],[121.298388,23.699289],[121.298193,23.699197],[121.297895,23.699464],[121.297992,23.699556],[121.297891,23.699735],[121.297698,23.699553],[121.2975,23.699641],[121.297791,23.699915],[121.297882,23.700458],[121.298961,23.700469],[121.298867,23.700107]],[[121.29818,23.70019],[121.298182,23.700009],[121.29828,23.70001],[121.298278,23.700191],[121.29818,23.70019]]],[[[121.312169,23.687521],[121.312467,23.687253],[121.312272,23.68716],[121.312178,23.686889],[121.311982,23.686886],[121.311882,23.686976],[121.311976,23.687338],[121.312169,23.687521]]],[[[121.304758,23.691955],[121.304563,23.691862],[121.304463,23.692042],[121.304658,23.692134],[121.304758,23.691955]]],[[[121.307209,23.691981],[121.306818,23.691887],[121.306718,23.692066],[121.307109,23.692161],[121.307209,23.691981]]],[[[121.303484,23.691941],[121.303485,23.69185],[121.303289,23.691848],[121.303188,23.692028],[121.303676,23.692214],[121.303777,23.692034],[121.303484,23.691941]]],[[[121.304067,23.692308],[121.304068,23.692218],[121.304363,23.692221],[121.304463,23.692042],[121.304072,23.691947],[121.304071,23.692037],[121.303775,23.692124],[121.303871,23.692306],[121.304067,23.692308]]],[[[121.306421,23.692244],[121.306616,23.692336],[121.306718,23.692066],[121.306621,23.691975],[121.306326,23.692062],[121.306127,23.69224],[121.306125,23.692421],[121.30632,23.692513],[121.306421,23.692244]]],[[[121.304623,23.694843],[121.304721,23.694844],[121.304719,23.695024],[121.30452,23.695203],[121.304127,23.695289],[121.304319,23.695562],[121.304515,23.695564],[121.304715,23.695295],[121.304911,23.695297],[121.30511,23.695119],[121.305015,23.694847],[121.305313,23.694579],[121.304826,23.694303],[121.304727,23.694392],[121.304821,23.694664],[121.304623,23.694843]],[[121.304821,23.694664],[121.304918,23.694756],[121.30482,23.694755],[121.304821,23.694664]],[[121.304916,23.694936],[121.304819,23.694845],[121.304917,23.694846],[121.304916,23.694936]]]]}},{"type":"Feature","properties":{"kind":"water","month":"2021-12","area_ha":0.62},"geometry":{"type":"MultiPolygon","coordinates":[[[[121.308699,23.690553],[121.308599,23.690642],[121.308697,23.690643],[121.308699,23.690553]]],[[[121.308792,23.690915],[121.308795,23.690644],[121.308697,23.690643],[121.308597,23.690823],[121.308695,23.690824],[121.308692,23.691095],[121.308886,23.691187],[121.30889,23.690916],[121.308792,23.690915]]],[[[121.308093,23.691901],[121.308194,23.691631],[121.30839,23.691633],[121.308393,23.691453],[121.308197,23.69145],[121.308095,23.69172],[121.307899,23.691718],[121.307798,23.691988],[121.308093,23.691901]]],[[[121.306812,23.692338],[121.307009,23.69234],[121.307011,23.69216],[121.306814,23.692248],[121.306816,23.692067],[121.306718,23.692066],[121.306714,23.692337],[121.306518,23.692335],[121.306517,23.692425],[121.306811,23.692429],[121.306812,23.692338]]],[[[121.306421,23.692244],[121.306518,23.692335],[121.306519,23.692245],[121.306421,23.692244]]],[[[121.305813,23.693772],[121.305816,23.693592],[121.305718,23.69359],[121.305615,23.693951],[121.305419,23.693948],[121.305611,23.694221],[121.30571,23.694222],[121.305715,23.693771],[121.305813,23.693772]]],[[[121.298589,23.69884],[121.298496,23.698478],[121.298692,23.69848],[121.298693,23.69839],[121.298497,23.698387],[121.298304,23.698205],[121.298301,23.698385],[121.298399,23.698386],[121.2983,23.698476],[121.298294,23.698927],[121.298589,23.69884]]]]}}]}