{"type":"FeatureCollection","features":[{"type":"Feature","properties":{"kind":"bare_slide","month":"2021-09","area_ha":23.69},"geometry":{"type":"MultiPolygon","coordinates":[[[[121.292534,23.712047],[121.292537,23.711776],[121.293225,23.711694],[121.293325,23.711514],[121.293719,23.711428],[121.294018,23.71107],[121.293823,23.710978],[121.293525,23.711245],[121.293231,23.711242],[121.29313,23.711422],[121.292542,23.711415],[121.292442,23.711595],[121.292246,23.711593],[121.292143,23.711953],[121.292337,23.712135],[121.292534,23.712047]]],[[[121.293772,23.71486],[121.29358,23.714587],[121.293384,23.714585],[121.293185,23.714763],[121.293187,23.714583],[121.293484,23.714405],[121.293291,23.714132],[121.292899,23.714128],[121.292803,23.713946],[121.292313,23.713941],[121.292214,23.71403],[121.29221,23.714301],[121.292405,23.714394],[121.2925,23.714665],[121.292794,23.714669],[121.292992,23.71449],[121.29289,23.71485],[121.293083,23.715033],[121.292984,23.715122],[121.29308,23.715304],[121.293571,23.715219],[121.293667,23.715401],[121.293863,23.715403],[121.294163,23.714955],[121.293772,23.71486]],[[121.293772,23.71486],[121.293673,23.714949],[121.293674,23.714859],[121.293772,23.71486]],[[121.293278,23.715126],[121.293182,23.715034],[121.29328,23.715035],[121.293278,23.715126]]],[[[121.291504,23.715828],[121.292001,23.715292],[121.292197,23.715294],[121.292496,23.714936],[121.29201,23.71466],[121.29211,23.714481],[121.292012,23.714479],[121.291917,23.714208],[121.291036,23.714108],[121.291035,23.714198],[121.290739,23.714285],[121.290737,23.714465],[121.290931,23.714648],[121.291127,23.71465],[121.291227,23.714471],[121.291424,23.714473],[121.291422,23.714563],[121.291816,23.714477],[121.291913,23.714569],[121.29191,23.714749],[121.291713,23.714837],[121.291907,23.71502],[121.291904,23.715201],[121.291512,23.715196],[121.291314,23.715375],[121.291309,23.715736],[121.291504,23.715828]]],[[[121.290115,23.717077],[121.290213,23.717078],[121.290217,23.716717],[121.289924,23.716624],[121.289831,23.716261],[121.290125,23.716265],[121.290324,23.716086],[121.290326,23.715906],[121.290523,23.715818],[121.290526,23.715637],[121.290233,23.715543],[121.290232,23.715634],[121.289838,23.71572],[121.28984,23.715539],[121.289939,23.71554],[121.29004,23.71527],[121.290236,23.715273],[121.290435,23.715094],[121.290437,23.714914],[121.290242,23.714821],[121.290244,23.714641],[121.290343,23.714642],[121.290247,23.71446],[121.290051,23.714458],[121.289654,23.714815],[121.289361,23.714721],[121.289161,23.71499],[121.288965,23.714988],[121.288865,23.715167],[121.28867,23.715075],[121.288568,23.715344],[121.28847,23.715343],[121.288664,23.715526],[121.288561,23.715886],[121.288853,23.71607],[121.288751,23.71634],[121.289044,23.716433],[121.289332,23.716888],[121.28953,23.7168],[121.289527,23.71698],[121.289329,23.717159],[121.289426,23.71725],[121.289819,23.717164],[121.290013,23.717347],[121.290115,23.717077]],[[121.289824,23.716803],[121.289727,23.716712],[121.289825,23.716713],[121.289824,23.716803]],[[121.289732,23.716351],[121.289631,23.71653],[121.289435,23.716528],[121.289438,23.716347],[121.289732,23.716351]],[[121.289149,23.715893],[121.289152,23.715712],[121.289445,23.715806],[121.289243,23.716255],[121.289048,23.716162],[121.289051,23.715892],[121.289149,23.715893]],[[121.289455,23.714993],[121.289456,23.714903],[121.289653,23.714905],[121.289651,23.714995],[121.289455,23.714993]],[[121.289751,23.714906],[121.289848,23.714997],[121.289749,23.714996],[121.289751,23.714906]],[[121.28985,23.714817],[121.290046,23.714819],[121.290045,23.714909],[121.289849,23.714907],[121.28985,23.714817]]],[[[121.291305,23.716007],[121.291404,23.716008],[121.291406,23.715827],[121.291308,23.715826],[121.291212,23.715645],[121.291016,23.715642],[121.290818,23.715821],[121.290815,23.716001],[121.29101,23.716094],[121.291105,23.716366],[121.291302,23.716278],[121.291305,23.716007]]],[[[121.291765,23.71836],[121.29157,23.718267],[121.291772,23.717818],[121.291577,23.717725],[121.291678,23.717546],[121.291483,23.717454],[121.291284,23.717632],[121.291282,23.717812],[121.29138,23.717814],[121.29128,23.717993],[121.290988,23.717809],[121.290789,23.717988],[121.290886,23.718079],[121.290786,23.718258],[121.290395,23.718164],[121.290196,23.718342],[121.290291,23.718614],[121.290486,23.718707],[121.290482,23.718978],[121.290091,23.718883],[121.289991,23.719062],[121.290382,23.719157],[121.290381,23.719247],[121.290677,23.71907],[121.290773,23.719252],[121.290969,23.719254],[121.291071,23.718984],[121.291169,23.718985],[121.290976,23.718712],[121.291173,23.718624],[121.291269,23.718806],[121.291465,23.718808],[121.291765,23.71836]],[[121.291567,23.718538],[121.29147,23.718447],[121.291568,23.718448],[121.291567,23.718538]]],[[[121.282417,23.720694],[121.282811,23.720608],[121.282813,23.720428],[121.282715,23.720427],[121.282817,23.720157],[121.28272,23.720065],[121.283214,23.7198],[121.283122,23.719347],[121.282427,23.719972],[121.282133,23.719969],[121.281737,23.720235],[121.281732,23.720596],[121.282023,23.72087],[121.282317,23.720874],[121.282417,23.720694]]],[[[121.298574,23.707599],[121.298872,23.707331],[121.298677,23.707239],[121.298684,23.706697],[121.298782,23.706698],[121.298785,23.706427],[121.299083,23.70616],[121.298991,23.705707],[121.299287,23.70553],[121.29929,23.705349],[121.299095,23.705257],[121.299393,23.704899],[121.299299,23.704627],[121.299495,23.704629],[121.299597,23.704359],[121.299402,23.704267],[121.299506,23.703816],[121.299408,23.703815],[121.299411,23.703545],[121.299216,23.703452],[121.299321,23.702911],[121.299031,23.702637],[121.299036,23.702186],[121.298938,23.702185],[121.298942,23.701914],[121.298844,23.701913],[121.298846,23.701732],[121.298943,23.701824],[121.29914,23.701736],[121.299243,23.701375],[121.298753,23.70137],[121.298657,23.701188],[121.298069,23.701182],[121.298159,23.701815],[121.298354,23.701907],[121.29835,23.702178],[121.298155,23.702086],[121.298055,23.702265],[121.298153,23.702266],[121.298246,23.702629],[121.298442,23.702631],[121.298544,23.702361],[121.298642,23.702362],[121.298735,23.702724],[121.298637,23.702723],[121.298634,23.702994],[121.298436,23.703082],[121.298434,23.703263],[121.298532,23.703264],[121.298529,23.703535],[121.298722,23.703718],[121.299017,23.703721],[121.299203,23.704445],[121.299105,23.704444],[121.299102,23.704715],[121.298903,23.704893],[121.298997,23.705256],[121.298798,23.705434],[121.298405,23.70552],[121.298597,23.705793],[121.298301,23.70597],[121.298108,23.705697],[121.297912,23.705695],[121.297713,23.705964],[121.297906,23.706147],[121.298493,23.706243],[121.298486,23.706785],[121.298387,23.706874],[121.298192,23.706782],[121.297994,23.70696],[121.297991,23.707141],[121.298088,23.707232],[121.298384,23.707145],[121.298477,23.707507],[121.298574,23.707599]],[[121.29885,23.701461],[121.29875,23.701551],[121.298752,23.70146],[121.29885,23.701461]]],[[[121.297484,23.70849],[121.297384,23.708579],[121.297381,23.70885],[121.297184,23.708938],[121.29718,23.709209],[121.296984,23.709207],[121.296884,23.709386],[121.297173,23.709751],[121.297369,23.709753],[121.297269,23.709932],[121.297657,23.710207],[121.297655,23.710388],[121.297849,23.710571],[121.297737,23.711653],[121.297638,23.711742],[121.297247,23.711648],[121.297245,23.711738],[121.296951,23.711735],[121.29695,23.711825],[121.296755,23.711733],[121.296652,23.712093],[121.296749,23.712184],[121.297241,23.712099],[121.297239,23.712189],[121.297729,23.712285],[121.29783,23.712015],[121.298326,23.711569],[121.298441,23.710306],[121.298247,23.710124],[121.297854,23.71021],[121.298052,23.710031],[121.298054,23.709851],[121.297859,23.709758],[121.297765,23.709486],[121.297568,23.709574],[121.29757,23.709394],[121.297472,23.709393],[121.297577,23.708852],[121.297775,23.708674],[121.29797,23.708766],[121.298169,23.708588],[121.298072,23.708496],[121.298174,23.708226],[121.297979,23.708134],[121.297877,23.708404],[121.297484,23.70849]],[[121.297855,23.710119],[121.297758,23.710028],[121.297856,23.710029],[121.297855,23.710119]],[[121.297758,23.710028],[121.297661,23.709937],[121.297759,23.709938],[121.297758,23.710028]],[[121.297877,23.708404],[121.297974,23.708495],[121.297876,23.708494],[121.297877,23.708404]]],[[[121.301528,23.714223],[121.301626,23.714224],[121.301731,23.713684],[121.301829,23.713685],[121.301832,23.713504],[121.302131,23.713146],[121.301936,23.713054],[121.302036,23.712874],[121.30126,23.712234],[121.301061,23.712412],[121.301157,23.712594],[121.300959,23.712772],[121.300949,23.713494],[121.301337,23.71386],[121.301333,23.714131],[121.301235,23.71413],[121.301133,23.71449],[121.301426,23.714583],[121.301528,23.714223]],[[121.301353,23.712596],[121.301451,23.712597],[121.301449,23.712777],[121.301351,23.712776],[121.301353,23.712596]],[[121.301353,23.712596],[121.301256,23.712504],[121.301354,23.712505],[121.301353,23.712596]]],[[[121.294758,23.71451],[121.294956,23.714331],[121.295058,23.714062],[121.295549,23.713977],[121.295847,23.713709],[121.295951,23.713259],[121.296248,23.712991],[121.296253,23.71263],[121.296351,23.712631],[121.296257,23.712359],[121.29606,23.712357],[121.295862,23.712535],[121.295858,23.712806],[121.295664,23.712714],[121.295265,23.713161],[121.294775,23.713155],[121.294577,23.713334],[121.294574,23.713514],[121.294378,23.713512],[121.294377,23.713603],[121.293687,23.713866],[121.293782,23.714138],[121.293879,23.714229],[121.294076,23.714141],[121.29417,23.714413],[121.294564,23.714327],[121.294758,23.71451]],[[121.29546,23.713253],[121.295462,23.713163],[121.295658,23.713165],[121.295656,23.713256],[121.29546,23.713253]],[[121.295854,23.713167],[121.295757,23.713076],[121.295855,23.713077],[121.295854,23.713167]]],[[[121.29809,23.714637],[121.297895,23.714544],[121.298097,23.714095],[121.297611,23.713819],[121.297409,23.714268],[121.297211,23.714356],[121.297209,23.714537],[121.297403,23.71472],[121.297795,23.714724],[121.297794,23.714814],[121.29799,23.714816],[121.29809,23.714637]]],[[[121.296433,23.721391],[121.296729,23.721304],[121.296731,23.721123],[121.296829,23.721124],[121.296735,23.720852],[121.296834,23.720763],[121.29703,23.720765],[121.297029,23.720856],[121.297226,23.720768],[121.297233,23.720226],[121.297135,23.720225],[121.297244,23.719413],[121.297147,23.719322],[121.296951,23.71932],[121.296848,23.71968],[121.296651,23.719768],[121.296644,23.72031],[121.296546,23.720309],[121.296543,23.720489],[121.296641,23.72049],[121.296539,23.72085],[121.296635,23.720942],[121.296138,23.721478],[121.296333,23.72157],[121.296433,23.721391]]],[[[121.302874,23.7239],[121.303366,23.723815],[121.30327,23.723633],[121.303074,23.723631],[121.303076,23.723451],[121.303272,23.723453],[121.303371,23.723364],[121.303276,23.723182],[121.303473,23.723094],[121.30338,23.722732],[121.303084,23.722819],[121.302882,23.723268],[121.302784,23.723267],[121.302692,23.722814],[121.302197,23.72317],[121.30219,23.723712],[121.302384,23.723894],[121.30258,23.723897],[121.302674,23.724169],[121.302872,23.72408],[121.302874,23.7239]]]]}},{"type":"Feature","properties":{"kind":"bare_dam","month":"2021-09","area_ha":21.29},"geometry":{"type":"MultiPolygon","coordinates":[[[[121.301642,23.690295],[121.301741,23.690206],[121.301645,23.690024],[121.301253,23.69002],[121.301254,23.68993],[121.300765,23.689834],[121.300767,23.689744],[121.300472,23.68974],[121.300471,23.689831],[121.300374,23.689739],[121.298708,23.689721],[121.298607,23.6899],[121.298117,23.689895],[121.297621,23.690341],[121.297615,23.690793],[121.297713,23.690794],[121.297808,23.691066],[121.298201,23.69098],[121.2983,23.69089],[121.298207,23.690528],[121.298403,23.69053],[121.298401,23.690711],[121.298691,23.690985],[121.298887,23.690987],[121.298883,23.691348],[121.299076,23.691531],[121.299371,23.691534],[121.299372,23.691444],[121.299665,23.691537],[121.299769,23.691087],[121.299965,23.691089],[121.300059,23.691361],[121.300354,23.691274],[121.300353,23.691364],[121.300844,23.69137],[121.300842,23.69146],[121.301334,23.691375],[121.301527,23.691558],[121.302018,23.691563],[121.302117,23.691474],[121.302022,23.691202],[121.301925,23.691111],[121.30163,23.691198],[121.301536,23.690926],[121.30134,23.690924],[121.301239,23.691103],[121.301043,23.691101],[121.301044,23.691011],[121.300749,23.691098],[121.300652,23.691007],[121.300751,23.690917],[121.300757,23.690466],[121.300562,23.690373],[121.300565,23.690193],[121.300761,23.690195],[121.30076,23.690285],[121.301642,23.690295]],[[121.300565,23.690193],[121.300468,23.690102],[121.300566,23.690103],[121.300565,23.690193]],[[121.300457,23.690914],[121.30036,23.690823],[121.300458,23.690824],[121.300457,23.690914]],[[121.299777,23.690455],[121.299878,23.690185],[121.299975,23.690277],[121.30027,23.69019],[121.300266,23.690551],[121.300069,23.690639],[121.300066,23.69082],[121.299871,23.690727],[121.299875,23.690456],[121.299777,23.690455]],[[121.299582,23.690363],[121.299485,23.690271],[121.299583,23.690272],[121.299582,23.690363]],[[121.299095,23.690086],[121.299093,23.690267],[121.298897,23.690265],[121.298898,23.690175],[121.299095,23.690086]]],[[[121.301201,23.694083],[121.301104,23.693991],[121.301397,23.694085],[121.301497,23.693905],[121.301303,23.693723],[121.301009,23.693719],[121.300525,23.693263],[121.300527,23.693082],[121.300429,23.693081],[121.300431,23.6929],[121.300142,23.692536],[121.299946,23.692534],[121.299558,23.692168],[121.299067,23.692253],[121.298973,23.691981],[121.29848,23.692157],[121.298577,23.692248],[121.298473,23.692698],[121.298571,23.692699],[121.298664,23.693062],[121.299149,23.693518],[121.299543,23.693342],[121.299541,23.693523],[121.299735,23.693705],[121.30003,23.693618],[121.300321,23.693892],[121.30081,23.693988],[121.301002,23.694261],[121.301201,23.694083]],[[121.300424,23.693442],[121.300328,23.693351],[121.300426,23.693352],[121.300424,23.693442]],[[121.299644,23.693163],[121.299547,23.693071],[121.299645,23.693072],[121.299644,23.693163]]],[[[121.298702,23.697758],[121.298997,23.697671],[121.299101,23.69722],[121.299198,23.697312],[121.299395,23.697223],[121.299298,23.697132],[121.299398,23.696953],[121.299203,23.69686],[121.29911,23.696498],[121.298915,23.696405],[121.298918,23.696225],[121.299016,23.696226],[121.298919,23.696135],[121.299018,23.696045],[121.298925,23.695683],[121.299024,23.695594],[121.298829,23.695501],[121.298531,23.695769],[121.298437,23.695497],[121.298339,23.695496],[121.298636,23.695228],[121.29864,23.694958],[121.298445,23.694865],[121.298246,23.695044],[121.298248,23.694953],[121.297955,23.69486],[121.297853,23.69513],[121.297755,23.695128],[121.297745,23.695941],[121.297843,23.695942],[121.297839,23.696213],[121.298033,23.696396],[121.298124,23.696939],[121.298511,23.697304],[121.298406,23.697845],[121.298601,23.697937],[121.298702,23.697758]],[[121.2992,23.697131],[121.299103,23.69704],[121.299201,23.697041],[121.2992,23.697131]],[[121.298524,23.696311],[121.298621,23.696402],[121.298523,23.696401],[121.298524,23.696311]],[[121.298625,23.696131],[121.298723,23.696132],[121.29872,23.696313],[121.298622,23.696312],[121.298625,23.696131]]],[[[121.30095,23.698324],[121.301544,23.697879],[121.301546,23.697699],[121.301742,23.697701],[121.301941,23.697522],[121.301845,23.697341],[121.301649,23.697338],[121.301449,23.697607],[121.301057,23.697603],[121.300957,23.697782],[121.300762,23.69769],[121.300662,23.697779],[121.300758,23.697961],[121.300461,23.698228],[121.30095,23.698324]]],[[[121.29928,23.698486],[121.299478,23.698398],[121.299386,23.697946],[121.29909,23.698033],[121.299083,23.698574],[121.298984,23.698664],[121.299179,23.698756],[121.29928,23.698486]]],[[[121.295447,23.699167],[121.295743,23.699079],[121.295942,23.698811],[121.295845,23.698719],[121.295452,23.698805],[121.295054,23.699253],[121.295347,23.699346],[121.295447,23.699167]]],[[[121.295056,23.699072],[121.294861,23.698979],[121.294761,23.699159],[121.294956,23.699251],[121.295056,23.699072]]],[[[121.29887,23.699927],[121.298872,23.699746],[121.298774,23.699745],[121.298878,23.699295],[121.298389,23.699199],[121.298392,23.698928],[121.298489,23.699019],[121.298784,23.698932],[121.298691,23.69857],[121.298988,23.698393],[121.29899,23.698212],[121.298599,23.698118],[121.2984,23.698296],[121.298397,23.698567],[121.2983,23.698476],[121.298005,23.698563],[121.297902,23.698923],[121.298097,23.699015],[121.298093,23.699286],[121.297799,23.699283],[121.297499,23.699731],[121.297888,23.700006],[121.297786,23.700276],[121.29798,23.700459],[121.298961,23.700469],[121.299061,23.70029],[121.298866,23.700197],[121.298965,23.700108],[121.298968,23.699928],[121.29887,23.699927]],[[121.298866,23.700197],[121.298767,23.700287],[121.298768,23.700196],[121.298866,23.700197]],[[121.298373,23.700373],[121.298376,23.700192],[121.298474,23.700193],[121.298472,23.700374],[121.298373,23.700373]]],[[[121.31158,23.687604],[121.311878,23.687337],[121.312074,23.687339],[121.312557,23.687886],[121.312754,23.687798],[121.312759,23.687437],[121.31237,23.687162],[121.312374,23.686891],[121.312277,23.686799],[121.311983,23.686796],[121.311982,23.686886],[121.311591,23.686792],[121.311497,23.68643],[121.311302,23.686337],[121.311203,23.686426],[121.311201,23.686607],[121.311394,23.68679],[121.311284,23.687782],[121.311479,23.687874],[121.31158,23.687604]]],[[[121.310784,23.688499],[121.31098,23.688501],[121.31118,23.688232],[121.310887,23.688139],[121.310391,23.688585],[121.310586,23.688677],[121.310784,23.688499]]],[[[121.307698,23.692077],[121.307898,23.691808],[121.308191,23.691902],[121.308589,23.691455],[121.308982,23.691369],[121.308986,23.691098],[121.308693,23.691004],[121.308694,23.690914],[121.308989,23.690827],[121.308896,23.690465],[121.308502,23.690551],[121.308595,23.691003],[121.308397,23.691091],[121.308395,23.691272],[121.307998,23.691629],[121.307408,23.691803],[121.307502,23.692075],[121.307698,23.692077]]],[[[121.304067,23.692308],[121.304263,23.69231],[121.304364,23.692131],[121.304658,23.692134],[121.304759,23.691864],[121.304564,23.691772],[121.304464,23.691951],[121.303973,23.692036],[121.303779,23.691854],[121.303484,23.691941],[121.303387,23.691849],[121.303487,23.69167],[121.303194,23.691576],[121.303195,23.691486],[121.3029,23.691573],[121.302995,23.691845],[121.30329,23.691758],[121.303191,23.691847],[121.303285,23.692119],[121.303872,23.692216],[121.303871,23.692306],[121.304068,23.692218],[121.304067,23.692308]]],[[[121.310636,23.69238],[121.31123,23.691935],[121.311134,23.691753],[121.310938,23.691751],[121.310838,23.691931],[121.310345,23.692106],[121.310636,23.69238]]],[[[121.306016,23.693233],[121.306417,23.692605],[121.306613,23.692607],[121.306812,23.692338],[121.307009,23.69234],[121.307308,23.691892],[121.306917,23.691798],[121.306916,23.691888],[121.306131,23.69197],[121.30555,23.691421],[121.305154,23.691688],[121.305052,23.691958],[121.304757,23.692045],[121.304754,23.692316],[121.304948,23.692408],[121.305246,23.69214],[121.305248,23.69196],[121.305641,23.691964],[121.305931,23.692238],[121.305925,23.69269],[121.305827,23.692689],[121.305921,23.693051],[121.305822,23.69314],[121.306016,23.693233]]],[[[121.303626,23.696096],[121.304221,23.695561],[121.304417,23.695563],[121.304715,23.695295],[121.304817,23.695025],[121.304429,23.69466],[121.304233,23.694658],[121.304031,23.695107],[121.303736,23.695194],[121.30373,23.695646],[121.303433,23.695823],[121.303626,23.696096]],[[121.304525,23.694842],[121.304426,23.694931],[121.304427,23.694841],[121.304525,23.694842]],[[121.304224,23.69538],[121.304226,23.6952],[121.304324,23.695201],[121.304322,23.695381],[121.304224,23.69538]]],[[[121.303041,23.695819],[121.302942,23.695908],[121.302841,23.696178],[121.302644,23.696175],[121.302347,23.696443],[121.302344,23.696624],[121.301948,23.696981],[121.302041,23.697343],[121.302238,23.697255],[121.302241,23.697074],[121.302538,23.696806],[121.302732,23.696989],[121.302929,23.696901],[121.302737,23.696628],[121.302934,23.69654],[121.303037,23.69618],[121.303233,23.696182],[121.303431,23.696003],[121.303335,23.695822],[121.303041,23.695819]]]]}},{"type":"Feature","properties":{"kind":"water","month":"2021-09","area_ha":1.58},"geometry":{"type":"MultiPolygon","coordinates":[[[[121.30086,23.697691],[121.300957,23.697782],[121.300958,23.697692],[121.30086,23.697691]]],[[[121.298985,23.698573],[121.299083,23.698574],[121.29909,23.698033],[121.299189,23.697944],[121.299484,23.697947],[121.299485,23.697856],[121.299878,23.69777],[121.29968,23.697949],[121.299775,23.698131],[121.299971,23.698133],[121.29997,23.698223],[121.30007,23.698134],[121.30056,23.698139],[121.300562,23.697959],[121.300758,23.697961],[121.300759,23.69787],[121.300466,23.697777],[121.300464,23.697958],[121.300366,23.697956],[121.300173,23.697683],[121.30086,23.697691],[121.300861,23.697601],[121.301449,23.697607],[121.30145,23.697517],[121.299982,23.69732],[121.299585,23.697677],[121.299292,23.697583],[121.299291,23.697674],[121.298702,23.697758],[121.298601,23.697937],[121.298306,23.698024],[121.298302,23.698295],[121.298498,23.698297],[121.298599,23.698118],[121.298894,23.698031],[121.298988,23.698393],[121.298691,23.69857],[121.298689,23.698751],[121.298983,23.698754],[121.298985,23.698573]]],[[[121.298884,23.698843],[121.298686,23.698931],[121.298684,23.699112],[121.298392,23.698928],[121.298389,23.699199],[121.298879,23.699204],[121.298884,23.698843]]]]}}]}