{"type":"FeatureCollection","features":[{"type":"Feature","properties":{"kind":"bare_slide","month":"2021-03","area_ha":84.74},"geometry":{"type":"MultiPolygon","coordinates":[[[[121.29273,23.712049],[121.292632,23.712048],[121.292634,23.711868],[121.292927,23.711961],[121.293324,23.711604],[121.293618,23.711608],[121.29372,23.711338],[121.293916,23.71134],[121.294413,23.710804],[121.294709,23.710717],[121.294711,23.710536],[121.294516,23.710444],[121.294019,23.71098],[121.293625,23.711066],[121.293525,23.711245],[121.293231,23.711242],[121.293031,23.711511],[121.292934,23.71142],[121.292443,23.711504],[121.292342,23.711684],[121.292047,23.711771],[121.292335,23.712226],[121.29263,23.712229],[121.29273,23.712049]]],[[[121.283958,23.715384],[121.284056,23.715385],[121.28416,23.714934],[121.284258,23.714935],[121.284162,23.714754],[121.283966,23.714752],[121.283969,23.714571],[121.284266,23.714303],[121.284269,23.714123],[121.284466,23.714035],[121.28437,23.713853],[121.283978,23.713849],[121.283878,23.714028],[121.283682,23.714026],[121.283384,23.714294],[121.283382,23.714474],[121.283085,23.714652],[121.283079,23.715103],[121.283176,23.715194],[121.283572,23.714928],[121.283569,23.715108],[121.283667,23.71511],[121.283563,23.71556],[121.28366,23.715651],[121.283856,23.715653],[121.283958,23.715384]]],[[[121.284188,23.720262],[121.284086,23.720622],[121.284477,23.720717],[121.284572,23.720899],[121.28477,23.720811],[121.284767,23.720991],[121.284669,23.72099],[121.284763,23.721352],[121.284665,23.721351],[121.284361,23.72207],[121.284066,23.722157],[121.284063,23.722338],[121.284452,23.722613],[121.284551,23.722524],[121.284458,23.722162],[121.284655,23.722073],[121.284652,23.722344],[121.284847,23.722437],[121.285144,23.722169],[121.285147,23.721989],[121.285344,23.721901],[121.28535,23.721449],[121.285545,23.721542],[121.285646,23.721272],[121.285843,23.721274],[121.285741,23.721544],[121.285643,23.721543],[121.285639,23.721813],[121.285244,23.72208],[121.28524,23.722351],[121.285142,23.72235],[121.285238,23.722531],[121.285435,23.722443],[121.285625,23.722897],[121.285821,23.722899],[121.285923,23.722629],[121.286218,23.722542],[121.286215,23.722813],[121.286408,23.722996],[121.2868,23.723091],[121.287002,23.722641],[121.287101,23.722552],[121.287296,23.722645],[121.287494,23.722466],[121.2875,23.722015],[121.287306,23.721832],[121.287504,23.721744],[121.287506,23.721563],[121.287897,23.721658],[121.288195,23.72139],[121.288197,23.72121],[121.288392,23.721302],[121.288292,23.721482],[121.288487,23.721574],[121.288189,23.721842],[121.288285,23.722023],[121.288678,23.721937],[121.288978,23.721489],[121.289174,23.721491],[121.289172,23.721672],[121.289366,23.721855],[121.289758,23.721859],[121.289858,23.72168],[121.290151,23.721773],[121.290153,23.721683],[121.290644,23.721598],[121.290844,23.721329],[121.290551,23.721236],[121.290557,23.720784],[121.290655,23.720785],[121.290566,23.720062],[121.290665,23.719973],[121.290567,23.719972],[121.290571,23.719701],[121.290473,23.7197],[121.290477,23.719339],[121.290577,23.719249],[121.290968,23.719344],[121.291069,23.719074],[121.291167,23.719075],[121.291171,23.718805],[121.291366,23.718897],[121.291564,23.718719],[121.29147,23.718447],[121.291568,23.718448],[121.291573,23.718087],[121.291771,23.717908],[121.291576,23.717816],[121.291677,23.717636],[121.291482,23.717544],[121.29148,23.717634],[121.291185,23.717721],[121.291379,23.717904],[121.291278,23.718083],[121.291085,23.717901],[121.29079,23.717897],[121.290689,23.718167],[121.290197,23.718252],[121.290097,23.718431],[121.290195,23.718433],[121.290191,23.718703],[121.290481,23.719068],[121.289992,23.718972],[121.289888,23.719422],[121.289595,23.719329],[121.289494,23.719508],[121.2892,23.719505],[121.289203,23.719325],[121.289009,23.719142],[121.289107,23.719143],[121.28911,23.718872],[121.289506,23.718606],[121.289509,23.718425],[121.289705,23.718427],[121.289903,23.718249],[121.290013,23.717347],[121.29021,23.717259],[121.290313,23.716899],[121.290607,23.716902],[121.291005,23.716455],[121.291301,23.716368],[121.291304,23.716097],[121.291502,23.716009],[121.291504,23.715828],[121.291701,23.71574],[121.291803,23.71547],[121.291999,23.715473],[121.292197,23.715294],[121.293079,23.715394],[121.29308,23.715304],[121.293472,23.715308],[121.293473,23.715218],[121.293571,23.715219],[121.293666,23.715491],[121.293862,23.715493],[121.294064,23.715044],[121.29426,23.715046],[121.294558,23.714778],[121.29456,23.714598],[121.294856,23.714511],[121.294958,23.714151],[121.295157,23.713972],[121.295648,23.713888],[121.295946,23.71362],[121.296051,23.713079],[121.296248,23.712991],[121.296453,23.712361],[121.296356,23.71227],[121.295962,23.712356],[121.29586,23.712716],[121.295661,23.712894],[121.295465,23.712892],[121.295365,23.713072],[121.294774,23.713246],[121.294475,23.713604],[121.293492,23.713773],[121.293391,23.714043],[121.293096,23.71404],[121.293095,23.71413],[121.292802,23.714037],[121.292803,23.713946],[121.292214,23.71403],[121.292115,23.714119],[121.292208,23.714482],[121.292012,23.714479],[121.291917,23.714208],[121.291134,23.714109],[121.290738,23.714375],[121.290444,23.714372],[121.290344,23.714551],[121.29005,23.714548],[121.289949,23.714728],[121.289361,23.714721],[121.28916,23.71508],[121.288668,23.715165],[121.288764,23.715347],[121.288566,23.715525],[121.288469,23.715434],[121.28837,23.715523],[121.287979,23.715428],[121.287981,23.715248],[121.288079,23.715249],[121.287983,23.715067],[121.287786,23.715155],[121.287684,23.715425],[121.287488,23.715423],[121.287587,23.715334],[121.287492,23.715152],[121.287393,23.715241],[121.2871,23.715148],[121.287,23.715237],[121.287095,23.715509],[121.286897,23.715597],[121.286895,23.715777],[121.28709,23.71587],[121.286991,23.715959],[121.287085,23.716231],[121.286692,23.716317],[121.286592,23.716496],[121.286003,23.71649],[121.285705,23.716757],[121.285899,23.71694],[121.285794,23.717481],[121.285988,23.717664],[121.286478,23.717669],[121.286469,23.718391],[121.286273,23.718389],[121.286079,23.718206],[121.286082,23.717936],[121.285792,23.717661],[121.285495,23.717839],[121.285503,23.717207],[121.285019,23.71675],[121.285023,23.716479],[121.285121,23.71648],[121.285025,23.716298],[121.285319,23.716302],[121.285318,23.716392],[121.285611,23.716486],[121.286206,23.71595],[121.286112,23.715678],[121.28631,23.7155],[121.286115,23.715408],[121.286015,23.715587],[121.285819,23.715585],[121.285715,23.716035],[121.285519,23.716033],[121.285423,23.715851],[121.285227,23.715849],[121.285226,23.715939],[121.285031,23.715847],[121.284634,23.716204],[121.284722,23.716927],[121.284525,23.717015],[121.284523,23.717196],[121.284912,23.717471],[121.284908,23.717742],[121.285006,23.717743],[121.284904,23.718013],[121.284806,23.718012],[121.284899,23.718464],[121.285093,23.718557],[121.285091,23.718737],[121.284894,23.718825],[121.284989,23.719007],[121.284694,23.719094],[121.284405,23.71873],[121.284206,23.718908],[121.284012,23.718725],[121.283326,23.718718],[121.283128,23.718896],[121.283122,23.719347],[121.283024,23.719346],[121.282922,23.719616],[121.282726,23.719614],[121.282329,23.719971],[121.282134,23.719878],[121.282133,23.719969],[121.281739,23.720055],[121.281732,23.720596],[121.282121,23.720871],[121.28271,23.720788],[121.283009,23.72043],[121.283205,23.720432],[121.283503,23.720164],[121.283506,23.719984],[121.283804,23.719626],[121.284197,23.71963],[121.284192,23.719991],[121.284387,23.720084],[121.284188,23.720262]],[[121.287304,23.722013],[121.287206,23.722011],[121.287204,23.722192],[121.286912,23.722008],[121.28681,23.722278],[121.286712,23.722277],[121.28672,23.721645],[121.286917,23.721647],[121.287304,23.722013]],[[121.286917,23.721647],[121.287016,23.721558],[121.287015,23.721648],[121.286917,23.721647]],[[121.291171,23.718805],[121.291074,23.718713],[121.291172,23.718714],[121.291171,23.718805]],[[121.288566,23.715525],[121.288663,23.715616],[121.288565,23.715615],[121.288566,23.715525]],[[121.288565,23.715615],[121.288465,23.715704],[121.288466,23.715614],[121.288565,23.715615]],[[121.284387,23.720084],[121.284486,23.719995],[121.284485,23.720085],[121.284387,23.720084]],[[121.286706,23.722728],[121.286609,23.722637],[121.286707,23.722638],[121.286706,23.722728]],[[121.288587,23.721395],[121.28849,23.721303],[121.288588,23.721304],[121.288587,23.721395]],[[121.289274,23.721402],[121.289278,23.721041],[121.289474,23.721043],[121.28947,23.721404],[121.289274,23.721402]],[[121.288988,23.720767],[121.288982,23.721218],[121.288786,23.721216],[121.28879,23.720855],[121.288988,23.720767]],[[121.288109,23.720486],[121.287719,23.720301],[121.287618,23.720481],[121.287324,23.720478],[121.287326,23.720297],[121.287525,23.720119],[121.28782,23.720032],[121.288014,23.720214],[121.288115,23.720035],[121.288311,23.720037],[121.288509,23.719859],[121.288319,23.719405],[121.288618,23.719047],[121.288716,23.719048],[121.288613,23.719408],[121.28871,23.7195],[121.288907,23.719412],[121.288999,23.719864],[121.289196,23.719866],[121.289194,23.719957],[121.289588,23.719871],[121.289685,23.719962],[121.289682,23.720143],[121.289388,23.720139],[121.288991,23.720496],[121.288207,23.720487],[121.288107,23.720577],[121.288109,23.720486]],[[121.286345,23.720377],[121.286442,23.720468],[121.286343,23.720467],[121.286345,23.720377]],[[121.286443,23.720378],[121.286642,23.720109],[121.286835,23.720382],[121.286443,23.720378]],[[121.286446,23.720107],[121.286449,23.719926],[121.286547,23.719927],[121.286544,23.720108],[121.286446,23.720107]],[[121.285182,23.71928],[121.285277,23.719552],[121.285472,23.719644],[121.285371,23.719824],[121.285566,23.719916],[121.285365,23.720275],[121.285169,23.720273],[121.285369,23.720005],[121.285272,23.719913],[121.285075,23.720001],[121.285079,23.71964],[121.284981,23.719639],[121.285085,23.719189],[121.285281,23.719191],[121.285182,23.71928]],[[121.285281,23.719191],[121.285381,23.719102],[121.285379,23.719192],[121.285281,23.719191]],[[121.282915,23.720158],[121.282917,23.719977],[121.283015,23.719978],[121.283013,23.720159],[121.282915,23.720158]],[[121.287434,23.719576],[121.287533,23.719487],[121.287827,23.71949],[121.287921,23.719852],[121.287527,23.719938],[121.28743,23.719847],[121.287434,23.719576]],[[121.283613,23.719263],[121.283708,23.719535],[121.283314,23.719621],[121.283318,23.71935],[121.283613,23.719263]],[[121.286062,23.71947],[121.286065,23.71929],[121.286263,23.719111],[121.286459,23.719114],[121.286653,23.719296],[121.286455,23.719475],[121.286452,23.719655],[121.286256,23.719653],[121.286062,23.71947]],[[121.284692,23.719275],[121.284786,23.719547],[121.284394,23.719542],[121.284496,23.719272],[121.284692,23.719275]],[[121.287339,23.719304],[121.287337,23.719485],[121.28714,23.719573],[121.287142,23.719392],[121.287339,23.719304]],[[121.286466,23.718572],[121.28666,23.718755],[121.286658,23.718935],[121.286362,23.719022],[121.28627,23.71857],[121.286466,23.718572]],[[121.287739,23.718767],[121.287836,23.718858],[121.287738,23.718857],[121.287739,23.718767]],[[121.287837,23.718768],[121.287936,23.718678],[121.287935,23.718769],[121.287837,23.718768]],[[121.285288,23.718649],[121.28529,23.718559],[121.285486,23.718561],[121.285485,23.718651],[121.285288,23.718649]],[[121.29078,23.71871],[121.290683,23.718619],[121.290781,23.71862],[121.29078,23.71871]],[[121.288231,23.718591],[121.288135,23.7185],[121.288233,23.718501],[121.288231,23.718591]],[[121.285197,23.718106],[121.285294,23.718198],[121.285488,23.71838],[121.285195,23.718287],[121.285197,23.718106]],[[121.287258,23.718039],[121.287254,23.71831],[121.287156,23.718309],[121.287062,23.718037],[121.287258,23.718039]],[[121.286769,23.717943],[121.28677,23.717853],[121.286966,23.717855],[121.286965,23.717945],[121.286769,23.717943]],[[121.287063,23.717946],[121.287163,23.717767],[121.287359,23.717769],[121.287259,23.717949],[121.287063,23.717946]],[[121.287361,23.717679],[121.287557,23.717681],[121.287556,23.717771],[121.287359,23.717769],[121.287361,23.717679]],[[121.285201,23.717835],[121.285104,23.717744],[121.285202,23.717745],[121.285201,23.717835]],[[121.287654,23.717772],[121.287853,23.717504],[121.288049,23.717506],[121.288048,23.717596],[121.28854,23.717511],[121.288536,23.717782],[121.287751,23.717864],[121.287654,23.717772]],[[121.289615,23.717794],[121.289518,23.717703],[121.289616,23.717704],[121.289615,23.717794]],[[121.286875,23.717312],[121.286873,23.717493],[121.286577,23.71758],[121.28658,23.717399],[121.286875,23.717312]],[[121.289617,23.717613],[121.28962,23.717433],[121.289718,23.717434],[121.289715,23.717615],[121.289617,23.717613]],[[121.289527,23.71698],[121.289525,23.717161],[121.289132,23.717247],[121.289134,23.717066],[121.289527,23.71698]],[[121.288645,23.716971],[121.288644,23.717061],[121.288448,23.717059],[121.288449,23.716968],[121.288645,23.716971]],[[121.288645,23.716971],[121.288744,23.716881],[121.288743,23.716972],[121.288645,23.716971]],[[121.290121,23.716626],[121.290118,23.716806],[121.289627,23.716891],[121.289629,23.716711],[121.290121,23.716626]],[[121.290318,23.716538],[121.290221,23.716446],[121.290319,23.716447],[121.290318,23.716538]],[[121.28905,23.715982],[121.289249,23.715803],[121.289445,23.715806],[121.28954,23.715987],[121.289343,23.716075],[121.289341,23.716256],[121.289047,23.716253],[121.28905,23.715982]],[[121.290621,23.715819],[121.290429,23.715546],[121.290135,23.715542],[121.290133,23.715633],[121.289838,23.71572],[121.289941,23.71536],[121.290137,23.715362],[121.290237,23.715182],[121.290434,23.715184],[121.290731,23.714917],[121.291123,23.714921],[121.291219,23.715103],[121.291512,23.715196],[121.291211,23.715735],[121.291016,23.715642],[121.290816,23.715911],[121.290423,23.715997],[121.290621,23.715819]],[[121.287194,23.715419],[121.287195,23.715329],[121.287391,23.715331],[121.28739,23.715422],[121.287194,23.715419]],[[121.291609,23.715288],[121.291611,23.715107],[121.291808,23.715109],[121.291805,23.71529],[121.291609,23.715288]],[[121.290338,23.715003],[121.290241,23.714911],[121.290339,23.714912],[121.290338,23.715003]],[[121.29103,23.714559],[121.290933,23.714468],[121.291031,23.714469],[121.29103,23.714559]],[[121.293972,23.714591],[121.293875,23.7145],[121.293973,23.714501],[121.293972,23.714591]],[[121.294172,23.714323],[121.29437,23.714144],[121.294366,23.714415],[121.294172,23.714323]]],[[[121.296627,23.721574],[121.296825,23.721486],[121.296827,23.721305],[121.296729,23.721304],[121.296828,23.721215],[121.296834,23.720763],[121.297227,23.720677],[121.297232,23.720316],[121.297134,23.720315],[121.297241,23.719594],[121.297145,23.719503],[121.296651,23.719768],[121.296744,23.72013],[121.296446,23.720398],[121.29664,23.720581],[121.296637,23.720851],[121.296539,23.72085],[121.296534,23.721211],[121.296236,23.721479],[121.296333,23.72157],[121.296628,23.721483],[121.296627,23.721574]]],[[[121.295052,23.722008],[121.295246,23.722191],[121.295442,23.722193],[121.295938,23.721747],[121.295842,23.721655],[121.295645,23.721653],[121.295644,23.721743],[121.294763,23.721643],[121.294564,23.721822],[121.294562,23.722002],[121.294756,23.722185],[121.294952,23.722187],[121.295052,23.722008]]],[[[121.293922,23.725969],[121.294314,23.725973],[121.294317,23.725792],[121.294415,23.725793],[121.294417,23.725613],[121.294319,23.725612],[121.294422,23.725252],[121.29452,23.725253],[121.294428,23.7248],[121.294526,23.724801],[121.294729,23.724262],[121.29522,23.724177],[121.295125,23.723995],[121.294733,23.723901],[121.294737,23.72363],[121.294639,23.723629],[121.294645,23.723177],[121.294841,23.723179],[121.295039,23.723001],[121.295044,23.72264],[121.294849,23.722547],[121.294649,23.722816],[121.294453,23.722814],[121.29456,23.722183],[121.294268,23.721999],[121.294069,23.722178],[121.294263,23.72236],[121.29426,23.722631],[121.293964,23.722718],[121.293969,23.722357],[121.293774,23.722265],[121.293682,23.721812],[121.293004,23.721173],[121.293013,23.72045],[121.292818,23.720358],[121.29262,23.720536],[121.292616,23.720807],[121.292317,23.721165],[121.292026,23.720891],[121.29213,23.720441],[121.291935,23.720348],[121.291836,23.720437],[121.291831,23.720798],[121.29193,23.720799],[121.291827,23.72116],[121.292021,23.721342],[121.292315,23.721346],[121.292314,23.721436],[121.292018,23.721523],[121.292015,23.721794],[121.292113,23.721795],[121.292206,23.722157],[121.292597,23.722252],[121.292595,23.722432],[121.292497,23.722431],[121.292487,23.723153],[121.292682,23.723246],[121.29258,23.723606],[121.292774,23.723698],[121.292771,23.723969],[121.293062,23.724243],[121.293258,23.724246],[121.293255,23.724426],[121.293449,23.724609],[121.293743,23.724612],[121.293937,23.724795],[121.29393,23.725337],[121.294222,23.72552],[121.294023,23.725699],[121.293829,23.725606],[121.293726,23.725966],[121.29353,23.725964],[121.293331,23.726143],[121.293329,23.726323],[121.293525,23.726325],[121.293527,23.726145],[121.29392,23.726149],[121.293922,23.725969]],[[121.294256,23.722902],[121.294254,23.723083],[121.294156,23.723082],[121.29406,23.7229],[121.294256,23.722902]]],[[[121.290413,23.724304],[121.290708,23.724217],[121.29081,23.723948],[121.291106,23.72377],[121.291109,23.72359],[121.290914,23.723497],[121.290915,23.723407],[121.29121,23.72332],[121.291114,23.723138],[121.291015,23.723227],[121.290525,23.723222],[121.290424,23.723402],[121.290033,23.723307],[121.289931,23.723667],[121.289634,23.723844],[121.289828,23.724027],[121.290027,23.723758],[121.290224,23.723761],[121.290218,23.724212],[121.290019,23.72439],[121.290312,23.724484],[121.290413,23.724304]]],[[[121.291475,23.72558],[121.291477,23.7254],[121.291871,23.725314],[121.291875,23.724953],[121.291973,23.724954],[121.291982,23.724322],[121.29208,23.724323],[121.292083,23.724052],[121.292181,23.724053],[121.291991,23.723599],[121.291794,23.723688],[121.291887,23.72405],[121.291789,23.724049],[121.291686,23.724409],[121.291587,23.724498],[121.291098,23.724402],[121.290996,23.724672],[121.290898,23.724671],[121.290896,23.724852],[121.290994,23.724853],[121.290895,23.724942],[121.290891,23.725213],[121.290989,23.725214],[121.290888,23.725484],[121.291178,23.725758],[121.291475,23.72558]]],[[[121.29696,23.726183],[121.296771,23.725639],[121.296672,23.725638],[121.296774,23.725368],[121.296677,23.725277],[121.296382,23.725364],[121.296287,23.725092],[121.296681,23.725006],[121.296678,23.725186],[121.296873,23.725279],[121.297072,23.7251],[121.297074,23.72492],[121.297368,23.724923],[121.297267,23.725193],[121.297462,23.725285],[121.297561,23.725196],[121.297466,23.724924],[121.297862,23.724657],[121.297867,23.724296],[121.297672,23.724204],[121.297175,23.72474],[121.296879,23.724827],[121.296685,23.724645],[121.296688,23.724464],[121.296786,23.724465],[121.296788,23.724284],[121.296985,23.724196],[121.296988,23.724016],[121.297186,23.723837],[121.296699,23.723561],[121.2966,23.72365],[121.296697,23.723742],[121.296594,23.724102],[121.296201,23.724188],[121.295804,23.724544],[121.295315,23.724449],[121.295116,23.724627],[121.294921,23.724535],[121.294821,23.724714],[121.29511,23.725079],[121.295698,23.725175],[121.295399,23.725533],[121.295496,23.725625],[121.295791,23.725538],[121.295789,23.725718],[121.296078,23.726083],[121.296277,23.725904],[121.29657,23.725998],[121.29647,23.726087],[121.296566,23.726269],[121.29686,23.726272],[121.29696,23.726183]],[[121.295995,23.724908],[121.296095,23.724819],[121.296093,23.724909],[121.295995,23.724908]]],[[[121.298776,23.707149],[121.298678,23.707148],[121.298681,23.706878],[121.298779,23.706879],[121.298784,23.706517],[121.298882,23.706519],[121.298885,23.706338],[121.299082,23.70625],[121.299085,23.705979],[121.299183,23.70598],[121.29909,23.705618],[121.299287,23.70553],[121.29929,23.705349],[121.299192,23.705348],[121.299295,23.704898],[121.299393,23.704899],[121.299396,23.704718],[121.299695,23.70436],[121.299703,23.703728],[121.29941,23.703635],[121.299315,23.703363],[121.299217,23.703362],[121.299321,23.702911],[121.299127,23.702729],[121.299133,23.702277],[121.299035,23.702276],[121.299042,23.701734],[121.29914,23.701736],[121.299243,23.701375],[121.298753,23.70137],[121.298657,23.701188],[121.298069,23.701182],[121.298064,23.701543],[121.298259,23.701636],[121.298152,23.702357],[121.29825,23.702358],[121.298246,23.702629],[121.298344,23.70263],[121.29834,23.702991],[121.298533,23.703174],[121.298625,23.703626],[121.299112,23.703902],[121.299202,23.704536],[121.299104,23.704534],[121.299101,23.704805],[121.298902,23.704984],[121.298896,23.705435],[121.298504,23.705431],[121.298404,23.70561],[121.297913,23.705605],[121.297713,23.705964],[121.297906,23.706147],[121.298493,23.706243],[121.29849,23.706514],[121.298588,23.706515],[121.298486,23.706785],[121.298192,23.706782],[121.297991,23.707141],[121.298186,23.707233],[121.298385,23.707055],[121.298577,23.707328],[121.298776,23.707149]]],[[[121.297883,23.707952],[121.29808,23.707864],[121.298086,23.707413],[121.297989,23.707321],[121.297691,23.707589],[121.297397,23.707586],[121.297199,23.707764],[121.297295,23.707946],[121.297589,23.707949],[121.29759,23.707859],[121.297884,23.707862],[121.297883,23.707952]]],[[[121.297631,23.712284],[121.298026,23.712017],[121.298029,23.711837],[121.298426,23.71148],[121.298442,23.710216],[121.298053,23.709941],[121.297863,23.709487],[121.297568,23.709574],[121.297676,23.708763],[121.297775,23.708674],[121.29797,23.708766],[121.298169,23.708588],[121.298176,23.708046],[121.298079,23.707955],[121.297882,23.708043],[121.297877,23.708404],[121.297384,23.708579],[121.297279,23.70912],[121.296788,23.709205],[121.297369,23.709753],[121.297269,23.709932],[121.297947,23.710572],[121.297943,23.710843],[121.297745,23.711021],[121.297737,23.711653],[121.296853,23.711734],[121.296652,23.712093],[121.296749,23.712184],[121.297241,23.712099],[121.297239,23.712189],[121.297632,23.712194],[121.297631,23.712284]]],[[[121.301527,23.714313],[121.301625,23.714314],[121.301731,23.713684],[121.302128,23.713327],[121.302132,23.713056],[121.302034,23.713055],[121.302037,23.712784],[121.301747,23.71251],[121.30155,23.712508],[121.301456,23.712236],[121.30126,23.712234],[121.301061,23.712412],[121.301057,23.712773],[121.300959,23.712772],[121.30095,23.713404],[121.301049,23.713405],[121.301046,23.713586],[121.301336,23.71395],[121.301332,23.714221],[121.301234,23.71422],[121.301131,23.71458],[121.301424,23.714673],[121.301527,23.714313]]],[[[121.298382,23.714821],[121.298187,23.714728],[121.298292,23.714188],[121.29771,23.71373],[121.297513,23.713818],[121.297508,23.714179],[121.297211,23.714356],[121.297209,23.714537],[121.297013,23.714535],[121.296814,23.714713],[121.296909,23.714985],[121.297306,23.714628],[121.297697,23.714723],[121.298181,23.71518],[121.298379,23.715091],[121.298382,23.714821]]],[[[121.302123,23.721273],[121.302025,23.721272],[121.302034,23.72064],[121.302232,23.720461],[121.302237,23.7201],[121.302042,23.720008],[121.30194,23.720278],[121.301842,23.720277],[121.301836,23.720728],[121.301639,23.720816],[121.301636,23.721087],[121.301734,23.721088],[121.301827,23.72145],[121.302023,23.721452],[121.302123,23.721273]]],[[[121.303554,23.724449],[121.303455,23.724448],[121.303459,23.724177],[121.303361,23.724176],[121.30346,23.724087],[121.303466,23.723635],[121.303564,23.723637],[121.303467,23.723545],[121.303473,23.723094],[121.30377,23.722916],[121.303773,23.722646],[121.303972,23.722467],[121.303189,23.722278],[121.303088,23.722548],[121.30299,23.722547],[121.303081,23.723089],[121.302885,23.723087],[121.302594,23.722813],[121.302395,23.722992],[121.302393,23.723172],[121.302196,23.72326],[121.302188,23.723892],[121.302381,23.724075],[121.302578,23.724077],[121.302672,23.724349],[121.303069,23.723992],[121.303257,23.724626],[121.303453,23.724629],[121.303554,23.724449]]],[[[121.303214,23.727967],[121.303118,23.727785],[121.302432,23.727778],[121.302335,23.727687],[121.302436,23.727417],[121.302049,23.727051],[121.301851,23.727139],[121.302045,23.727322],[121.302042,23.727593],[121.301844,23.727681],[121.301939,23.727953],[121.302332,23.727867],[121.302427,23.728139],[121.302917,23.728144],[121.302918,23.728054],[121.303214,23.727967]]],[[[121.305865,23.727725],[121.305573,23.727541],[121.305576,23.727361],[121.305091,23.726904],[121.3047,23.726809],[121.3046,23.726989],[121.304304,23.727076],[121.304301,23.727347],[121.304495,23.72753],[121.304692,23.727441],[121.304694,23.727261],[121.304987,23.727354],[121.304985,23.727535],[121.305471,23.727902],[121.305467,23.728172],[121.305565,23.728173],[121.305659,23.728536],[121.305953,23.728539],[121.305954,23.728449],[121.306247,23.728542],[121.30635,23.728182],[121.306253,23.728091],[121.306055,23.728179],[121.305865,23.727725]],[[121.306053,23.728359],[121.305955,23.728358],[121.305957,23.728178],[121.306055,23.728179],[121.306053,23.728359]]]]}},{"type":"Feature","properties":{"kind":"bare_dam","month":"2021-03","area_ha":21.61},"geometry":{"type":"MultiPolygon","coordinates":[[[[121.302312,23.691567],[121.301924,23.691201],[121.301629,23.691288],[121.301435,23.691105],[121.30114,23.691192],[121.301141,23.691102],[121.300749,23.691098],[121.30075,23.691008],[121.299869,23.690908],[121.29987,23.690817],[121.299479,23.690723],[121.299287,23.69045],[121.298798,23.690354],[121.2988,23.690173],[121.299094,23.690177],[121.29919,23.690358],[121.299877,23.690276],[121.299878,23.690185],[121.300073,23.690278],[121.300074,23.690187],[121.300467,23.690192],[121.300468,23.690102],[121.300664,23.690104],[121.30076,23.690285],[121.30125,23.690291],[121.301349,23.690201],[121.301253,23.69002],[121.300764,23.689924],[121.300765,23.689834],[121.298708,23.689721],[121.298607,23.6899],[121.298313,23.689897],[121.298114,23.690166],[121.297819,23.690163],[121.297621,23.690341],[121.297809,23.690975],[121.298201,23.69098],[121.298301,23.6908],[121.298791,23.690896],[121.298789,23.690986],[121.298985,23.690988],[121.298884,23.691258],[121.299174,23.691532],[121.299667,23.691357],[121.299574,23.690995],[121.299767,23.691177],[121.299963,23.69118],[121.300059,23.691361],[121.300844,23.69137],[121.300842,23.69146],[121.301431,23.691467],[121.301429,23.691557],[121.302018,23.691563],[121.302017,23.691654],[121.302312,23.691567]],[[121.299375,23.691173],[121.299276,23.691262],[121.299277,23.691172],[121.299375,23.691173]],[[121.29928,23.690991],[121.29918,23.691081],[121.299181,23.69099],[121.29928,23.690991]]],[[[121.306117,23.693053],[121.306812,23.692338],[121.307205,23.692343],[121.307206,23.692252],[121.307697,23.692167],[121.307896,23.691989],[121.307898,23.691808],[121.307507,23.691714],[121.307506,23.691804],[121.307016,23.691799],[121.307014,23.691889],[121.306622,23.691885],[121.306621,23.691975],[121.306131,23.69197],[121.306132,23.691879],[121.305838,23.691876],[121.305743,23.691604],[121.305644,23.691693],[121.305351,23.6916],[121.304756,23.692135],[121.304754,23.692316],[121.305047,23.692409],[121.305248,23.69196],[121.305739,23.691965],[121.305932,23.692148],[121.305929,23.692419],[121.305831,23.692418],[121.305928,23.692509],[121.305922,23.692961],[121.306117,23.693053]]],[[[121.301105,23.693901],[121.301007,23.6939],[121.301108,23.69363],[121.300815,23.693537],[121.300428,23.693171],[121.300335,23.692809],[121.299947,23.692444],[121.299751,23.692441],[121.299557,23.692259],[121.299067,23.692253],[121.298973,23.691981],[121.298577,23.692248],[121.298673,23.69243],[121.298575,23.692429],[121.298473,23.692698],[121.298668,23.692791],[121.298666,23.692971],[121.29886,23.693064],[121.298858,23.693244],[121.299052,23.693427],[121.299543,23.693342],[121.299637,23.693704],[121.300322,23.693802],[121.300417,23.693984],[121.300712,23.693987],[121.300904,23.69426],[121.301101,23.694172],[121.301105,23.693901]],[[121.300328,23.693351],[121.300426,23.693352],[121.300423,23.693532],[121.300325,23.693531],[121.300328,23.693351]],[[121.300328,23.693351],[121.300231,23.693259],[121.300329,23.69326],[121.300328,23.693351]],[[121.299547,23.693071],[121.299548,23.692981],[121.299744,23.692983],[121.299743,23.693073],[121.299547,23.693071]],[[121.299159,23.692706],[121.29916,23.692616],[121.299357,23.692618],[121.299355,23.692708],[121.299159,23.692706]]],[[[121.301496,23.693996],[121.301303,23.693723],[121.301106,23.693811],[121.301299,23.694084],[121.301496,23.693996]]],[[[121.303824,23.695918],[121.304021,23.69592],[121.304219,23.695741],[121.304221,23.695561],[121.304515,23.695564],[121.304714,23.695385],[121.304917,23.694846],[121.305215,23.694578],[121.305411,23.69458],[121.305806,23.694314],[121.305813,23.693772],[121.305911,23.693773],[121.305817,23.693501],[121.30562,23.693589],[121.305617,23.69377],[121.30532,23.694038],[121.305124,23.694035],[121.305023,23.694215],[121.304827,23.694213],[121.304528,23.694571],[121.304332,23.694569],[121.304134,23.694747],[121.30413,23.695018],[121.303735,23.695284],[121.303729,23.695736],[121.303532,23.695824],[121.303529,23.696005],[121.303724,23.696097],[121.303824,23.695918]]],[[[121.298202,23.698474],[121.298005,23.698563],[121.298095,23.699196],[121.297898,23.699194],[121.297401,23.69973],[121.297889,23.699916],[121.297883,23.700367],[121.29798,23.700459],[121.299157,23.700472],[121.298776,23.699564],[121.298975,23.699386],[121.299081,23.698755],[121.299278,23.698667],[121.29928,23.698486],[121.299576,23.698399],[121.299577,23.698309],[121.299969,23.698313],[121.300169,23.698045],[121.300463,23.698048],[121.300559,23.698229],[121.301148,23.698146],[121.301645,23.697609],[121.301841,23.697611],[121.302041,23.697343],[121.302434,23.697257],[121.302733,23.696899],[121.302929,23.696901],[121.303128,23.696723],[121.303234,23.696092],[121.303432,23.695913],[121.303141,23.695729],[121.302942,23.695908],[121.30294,23.696088],[121.302644,23.696175],[121.302543,23.696445],[121.302246,23.696623],[121.302144,23.696983],[121.301748,23.697249],[121.301746,23.69743],[121.300863,23.69742],[121.300763,23.6976],[121.300567,23.697597],[121.300277,23.697233],[121.299983,23.69723],[121.299785,23.697408],[121.29988,23.69759],[121.300077,23.697592],[121.299976,23.697772],[121.299486,23.697766],[121.299386,23.697946],[121.299191,23.697853],[121.298795,23.69812],[121.298699,23.697938],[121.299094,23.697762],[121.298997,23.697671],[121.299,23.6974],[121.299098,23.697401],[121.29901,23.696677],[121.298717,23.696584],[121.298818,23.696314],[121.298916,23.696315],[121.298919,23.696135],[121.298821,23.696133],[121.298925,23.695683],[121.29873,23.695591],[121.298635,23.695319],[121.298048,23.695222],[121.297854,23.695039],[121.297755,23.695128],[121.297753,23.695309],[121.297851,23.69531],[121.297844,23.695852],[121.297745,23.695941],[121.298134,23.696126],[121.298131,23.696397],[121.298033,23.696396],[121.298125,23.696848],[121.298223,23.696849],[121.298316,23.697212],[121.298609,23.697305],[121.298505,23.697755],[121.298308,23.697844],[121.298403,23.698115],[121.298205,23.698204],[121.298202,23.698474]],[[121.300077,23.697592],[121.300176,23.697503],[121.300175,23.697593],[121.300077,23.697592]],[[121.298403,23.698115],[121.2985,23.698207],[121.298402,23.698206],[121.298403,23.698115]],[[121.298501,23.698117],[121.2986,23.698027],[121.298599,23.698118],[121.298501,23.698117]],[[121.298723,23.696132],[121.298626,23.696041],[121.298724,23.696042],[121.298723,23.696132]]],[[[121.295251,23.699164],[121.29525,23.699255],[121.295446,23.699257],[121.295942,23.698811],[121.296137,23.698903],[121.296238,23.698724],[121.295846,23.698629],[121.295746,23.698809],[121.295452,23.698805],[121.295252,23.699074],[121.294959,23.698981],[121.294961,23.69889],[121.294763,23.698978],[121.295054,23.699253],[121.295251,23.699164]]],[[[121.31148,23.687784],[121.311878,23.687337],[121.312172,23.68734],[121.312366,23.687523],[121.312363,23.687703],[121.312656,23.687797],[121.312759,23.687437],[121.312467,23.687253],[121.312277,23.686799],[121.311687,23.686883],[121.311397,23.686609],[121.311298,23.686698],[121.311394,23.68679],[121.311285,23.687692],[121.31148,23.687784]]],[[[121.310881,23.68859],[121.311179,23.688322],[121.311083,23.688141],[121.310884,23.688319],[121.31059,23.688316],[121.310391,23.688585],[121.310586,23.688677],[121.310587,23.688587],[121.310881,23.68859]]],[[[121.308706,23.690011],[121.308512,23.689828],[121.308411,23.690008],[121.308606,23.6901],[121.308706,23.690011]]],[[[121.308603,23.690371],[121.308599,23.690642],[121.308794,23.690735],[121.308897,23.690374],[121.308799,23.690373],[121.308704,23.690101],[121.308507,23.69019],[121.308505,23.69037],[121.308603,23.690371]]],[[[121.30829,23.691813],[121.308589,23.691455],[121.308982,23.691369],[121.308989,23.690827],[121.308892,23.690736],[121.308597,23.690823],[121.308494,23.691183],[121.307999,23.691539],[121.308094,23.69181],[121.30829,23.691813]]],[[[121.310833,23.692292],[121.31123,23.691935],[121.311136,23.691663],[121.31054,23.692198],[121.310833,23.692292]]]]}},{"type":"Feature","properties":{"kind":"water","month":"2021-03","area_ha":0.15},"geometry":{"type":"Polygon","coordinates":[[[121.298893,23.698121],[121.298698,23.698028],[121.298798,23.697849],[121.298995,23.697851],[121.299193,23.697673],[121.299486,23.697766],[121.299386,23.697946],[121.299191,23.697853],[121.299189,23.697944],[121.298895,23.69794],[121.298893,23.698121]]]}}]}