{"type":"FeatureCollection","features":[{"type":"Feature","properties":{"kind":"bare_slide","month":"2021-02","area_ha":41.24},"geometry":{"type":"MultiPolygon","coordinates":[[[[121.292825,23.712321],[121.293413,23.712328],[121.293414,23.712237],[121.293807,23.712152],[121.293712,23.71197],[121.29332,23.711966],[121.293318,23.712056],[121.293221,23.711964],[121.292731,23.711959],[121.292632,23.712048],[121.292536,23.711867],[121.292635,23.711777],[121.293027,23.711872],[121.293127,23.711693],[121.29362,23.711517],[121.293918,23.711159],[121.294214,23.711072],[121.294118,23.710891],[121.293725,23.710977],[121.293624,23.711156],[121.293231,23.711242],[121.29313,23.711422],[121.29264,23.711416],[121.292639,23.711507],[121.292443,23.711504],[121.292047,23.711771],[121.292237,23.712225],[121.29263,23.712229],[121.292628,23.712319],[121.292826,23.712231],[121.292825,23.712321]]],[[[121.294063,23.715134],[121.294956,23.714331],[121.294958,23.714151],[121.295157,23.713972],[121.295451,23.713976],[121.295946,23.71362],[121.295951,23.713259],[121.296248,23.712991],[121.296253,23.71263],[121.296351,23.712631],[121.296257,23.712359],[121.29606,23.712357],[121.295861,23.712626],[121.295665,23.712623],[121.295167,23.71316],[121.294971,23.713158],[121.29497,23.713248],[121.294775,23.713155],[121.29418,23.713691],[121.29359,23.713775],[121.29349,23.713954],[121.293294,23.713952],[121.293095,23.71413],[121.292901,23.713948],[121.292313,23.713941],[121.292115,23.714119],[121.29221,23.714301],[121.292406,23.714303],[121.292502,23.714485],[121.292796,23.714488],[121.293184,23.714854],[121.293276,23.715306],[121.293571,23.715219],[121.293765,23.715402],[121.293867,23.715132],[121.294063,23.715134]],[[121.294271,23.714234],[121.294172,23.714323],[121.294173,23.714232],[121.294271,23.714234]],[[121.294271,23.714234],[121.29437,23.714144],[121.294369,23.714235],[121.294271,23.714234]],[[121.294469,23.714055],[121.294568,23.713966],[121.294567,23.714056],[121.294469,23.714055]]],[[[121.298381,23.714911],[121.298186,23.714818],[121.298292,23.714188],[121.29771,23.71373],[121.297513,23.713818],[121.297509,23.714089],[121.297211,23.714356],[121.297209,23.714537],[121.297013,23.714535],[121.296912,23.714714],[121.296617,23.714801],[121.296713,23.714983],[121.296812,23.714894],[121.297007,23.714986],[121.297207,23.714717],[121.297599,23.714722],[121.29789,23.714996],[121.298086,23.714998],[121.298181,23.71518],[121.298379,23.715091],[121.298381,23.714911]]],[[[121.28376,23.715562],[121.284057,23.715294],[121.284061,23.715024],[121.284359,23.714756],[121.284164,23.714664],[121.283964,23.714932],[121.283768,23.71493],[121.283382,23.714474],[121.283185,23.714472],[121.282987,23.71465],[121.282982,23.715012],[121.283275,23.715105],[121.283377,23.714835],[121.283475,23.714836],[121.283669,23.715019],[121.283467,23.715468],[121.28376,23.715562]]],[[[121.283643,23.717006],[121.283943,23.716557],[121.283748,23.716465],[121.283646,23.716735],[121.28345,23.716732],[121.28335,23.716912],[121.283643,23.717006]]],[[[121.292754,23.717738],[121.29256,23.717556],[121.292564,23.717285],[121.292466,23.717284],[121.292468,23.717103],[121.292566,23.717104],[121.292473,23.716742],[121.292182,23.716468],[121.291986,23.716466],[121.291788,23.716644],[121.291981,23.716827],[121.291979,23.717007],[121.291483,23.717454],[121.291874,23.717548],[121.292172,23.717281],[121.292264,23.717733],[121.292457,23.717916],[121.292754,23.717738]]],[[[121.282517,23.720605],[121.282712,23.720697],[121.282911,23.720429],[121.283207,23.720342],[121.28321,23.720071],[121.283606,23.719804],[121.283608,23.719624],[121.283804,23.719626],[121.284003,23.719448],[121.284007,23.719177],[121.284498,23.719092],[121.284304,23.718909],[121.284307,23.718729],[121.284112,23.718636],[121.284213,23.718366],[121.283921,23.718182],[121.283931,23.71746],[121.284327,23.717194],[121.284334,23.716652],[121.284237,23.716561],[121.28394,23.716738],[121.283937,23.717009],[121.283643,23.717006],[121.283344,23.717363],[121.283236,23.718085],[121.283138,23.718083],[121.283136,23.718264],[121.283331,23.718357],[121.283326,23.718718],[121.283129,23.718806],[121.283024,23.719346],[121.282627,23.719703],[121.28243,23.719701],[121.282232,23.719879],[121.28184,23.719875],[121.281542,23.720143],[121.281636,23.720415],[121.282024,23.72078],[121.282416,23.720784],[121.282517,23.720605]],[[121.283015,23.719978],[121.282918,23.719887],[121.283016,23.719888],[121.283015,23.719978]],[[121.283516,23.719171],[121.283611,23.719443],[121.283315,23.71953],[121.283319,23.719259],[121.283516,23.719171]],[[121.28363,23.717999],[121.283533,23.717907],[121.283631,23.717908],[121.28363,23.717999]]],[[[121.284873,23.72045],[121.284875,23.72027],[121.285766,23.719648],[121.28567,23.719466],[121.285273,23.719823],[121.284881,23.719818],[121.28478,23.719998],[121.284289,23.720083],[121.284288,23.720173],[121.283992,23.72026],[121.284087,23.720532],[121.284479,23.720536],[121.284478,23.720627],[121.284873,23.72045]]],[[[121.287306,23.721832],[121.287407,23.721652],[121.287603,23.721655],[121.287801,23.721476],[121.287805,23.721205],[121.28761,23.721113],[121.287612,23.720932],[121.288008,23.720666],[121.287912,23.720484],[121.287519,23.72057],[121.28752,23.72048],[121.287129,23.720385],[121.287029,23.720565],[121.286833,23.720563],[121.286834,23.720472],[121.286636,23.72056],[121.287024,23.720926],[121.286915,23.721737],[121.287306,23.721832]]],[[[121.286901,23.722821],[121.286805,23.722639],[121.287004,23.722461],[121.287198,23.722643],[121.287395,23.722555],[121.287501,23.721924],[121.287403,23.721923],[121.287404,23.721833],[121.287306,23.721832],[121.287204,23.722192],[121.286911,23.722098],[121.286809,23.722368],[121.286711,23.722367],[121.286521,23.721914],[121.286225,23.722001],[121.286032,23.721818],[121.286039,23.721276],[121.286236,23.721188],[121.28624,23.720917],[121.286536,23.72074],[121.286538,23.720559],[121.286343,23.720467],[121.286443,23.720378],[121.286446,23.720107],[121.286348,23.720106],[121.28645,23.719836],[121.286548,23.719837],[121.286641,23.720199],[121.287038,23.719842],[121.287234,23.719845],[121.287427,23.720118],[121.287624,23.720029],[121.287238,23.719574],[121.287042,23.719572],[121.286941,23.719751],[121.286748,23.719568],[121.286549,23.719747],[121.286354,23.719654],[121.286056,23.719922],[121.286053,23.720193],[121.285854,23.720371],[121.285462,23.720367],[121.285268,23.720184],[121.285169,23.720273],[121.285262,23.720635],[121.284968,23.720632],[121.284671,23.7209],[121.284662,23.721532],[121.284366,23.721709],[121.284263,23.722069],[121.283966,23.722246],[121.284062,23.722428],[121.284355,23.722522],[121.284459,23.722071],[121.284655,23.722073],[121.284849,23.722256],[121.285246,23.721899],[121.285153,23.721537],[121.285843,23.721274],[121.285741,23.721544],[121.285544,23.721632],[121.285541,23.721812],[121.285145,23.722079],[121.285143,23.722259],[121.285435,23.722443],[121.285433,23.722624],[121.285626,23.722807],[121.285924,23.722539],[121.28612,23.722541],[121.28631,23.722995],[121.286703,23.722999],[121.286901,23.722821]],[[121.286611,23.722547],[121.286709,23.722548],[121.286706,23.722728],[121.286608,23.722727],[121.286611,23.722547]],[[121.284964,23.720993],[121.285063,23.720904],[121.285062,23.720994],[121.284964,23.720993]],[[121.286144,23.720735],[121.286243,23.720646],[121.286242,23.720737],[121.286144,23.720735]]],[[[121.288581,23.721846],[121.28888,23.721488],[121.288977,23.72158],[121.289272,23.721493],[121.289275,23.721312],[121.289081,23.721129],[121.288689,23.721125],[121.288391,23.721392],[121.288387,23.721663],[121.28809,23.721931],[121.288285,23.722023],[121.288286,23.721933],[121.288581,23.721846]]],[[[121.290116,23.724482],[121.290415,23.724124],[121.29071,23.724037],[121.290713,23.723856],[121.290909,23.723858],[121.290908,23.723949],[121.291105,23.723861],[121.291114,23.723138],[121.291212,23.723139],[121.291117,23.722958],[121.290918,23.723136],[121.290526,23.723132],[121.290426,23.723311],[121.290033,23.723307],[121.289932,23.723577],[121.289636,23.723664],[121.289732,23.723845],[121.290225,23.72367],[121.29022,23.724031],[121.289924,23.724209],[121.289921,23.724389],[121.290116,23.724482]]],[[[121.291379,23.725399],[121.291873,23.725133],[121.291976,23.724773],[121.291588,23.724408],[121.291489,23.724497],[121.290999,23.724491],[121.290899,23.724581],[121.290896,23.724852],[121.290994,23.724853],[121.290891,23.725213],[121.291086,23.725305],[121.290985,23.725575],[121.291278,23.725668],[121.291379,23.725399]],[[121.291285,23.725127],[121.291384,23.725038],[121.291383,23.725128],[121.291285,23.725127]]],[[[121.299185,23.70589],[121.299088,23.705798],[121.299186,23.7058],[121.299189,23.705529],[121.299287,23.70553],[121.29929,23.705349],[121.299192,23.705348],[121.299291,23.705259],[121.299297,23.704807],[121.299494,23.704719],[121.299496,23.704539],[121.299695,23.70436],[121.299703,23.703728],[121.299217,23.703362],[121.299321,23.702911],[121.299032,23.702547],[121.299131,23.702458],[121.299042,23.701734],[121.29914,23.701736],[121.299243,23.701375],[121.298753,23.70137],[121.298657,23.701188],[121.298069,23.701182],[121.298065,23.701453],[121.298259,23.701636],[121.298152,23.702357],[121.29825,23.702358],[121.298246,23.702629],[121.298344,23.70263],[121.29834,23.702991],[121.298533,23.703174],[121.29853,23.703445],[121.299112,23.703902],[121.299106,23.704354],[121.299204,23.704355],[121.299103,23.704625],[121.299005,23.704624],[121.299001,23.704894],[121.298903,23.704893],[121.298897,23.705345],[121.298406,23.70543],[121.298306,23.705609],[121.297913,23.705605],[121.297812,23.705875],[121.297714,23.705874],[121.297906,23.706147],[121.2982,23.70615],[121.298296,23.706332],[121.298493,23.706243],[121.29849,23.706514],[121.298588,23.706515],[121.298586,23.706696],[121.29839,23.706694],[121.297994,23.70696],[121.298088,23.707232],[121.298482,23.707146],[121.298576,23.707418],[121.298774,23.70733],[121.29868,23.706968],[121.298778,23.706969],[121.298885,23.706338],[121.299082,23.70625],[121.298986,23.706068],[121.299185,23.70589]],[[121.298986,23.706068],[121.298889,23.705977],[121.298987,23.705978],[121.298986,23.706068]]],[[[121.305252,23.706859],[121.305738,23.707226],[121.305935,23.707138],[121.305354,23.70659],[121.304961,23.706585],[121.304565,23.706942],[121.30505,23.707309],[121.305252,23.706859]]],[[[121.304851,23.707577],[121.30514,23.707942],[121.305337,23.707854],[121.30524,23.707762],[121.305341,23.707583],[121.305243,23.707582],[121.305148,23.70731],[121.304851,23.707577]]],[[[121.30817,23.708697],[121.307879,23.708514],[121.307881,23.708333],[121.308077,23.708335],[121.308375,23.708067],[121.308377,23.707887],[121.30828,23.707796],[121.307692,23.707789],[121.307693,23.707699],[121.307105,23.707692],[121.306911,23.70751],[121.306822,23.706786],[121.306529,23.706693],[121.306428,23.706963],[121.30623,23.707051],[121.306325,23.707323],[121.30652,23.707415],[121.306515,23.707776],[121.306613,23.707777],[121.306508,23.708318],[121.306897,23.708593],[121.307388,23.708508],[121.307485,23.7086],[121.307385,23.708779],[121.307776,23.708874],[121.307775,23.708964],[121.308069,23.708967],[121.30817,23.708697]],[[121.30739,23.708418],[121.307293,23.708327],[121.307391,23.708328],[121.30739,23.708418]],[[121.307589,23.708149],[121.307492,23.708058],[121.30759,23.708059],[121.307589,23.708149]]],[[[121.310904,23.70963],[121.311102,23.709542],[121.311295,23.709725],[121.311992,23.70892],[121.311702,23.708646],[121.311505,23.708643],[121.311109,23.709],[121.311106,23.709181],[121.31091,23.709179],[121.31062,23.708905],[121.310325,23.708901],[121.310132,23.708719],[121.310139,23.708177],[121.309944,23.708085],[121.309547,23.708441],[121.309641,23.708713],[121.309345,23.708891],[121.309342,23.709071],[121.309731,23.709346],[121.310025,23.70935],[121.310024,23.70944],[121.31022,23.709442],[121.310419,23.709264],[121.310613,23.709446],[121.310908,23.709359],[121.310809,23.709449],[121.310904,23.70963]],[[121.310909,23.709269],[121.311105,23.709271],[121.311104,23.709361],[121.310908,23.709359],[121.310909,23.709269]]],[[[121.308843,23.709788],[121.308946,23.709428],[121.308752,23.709245],[121.309048,23.709068],[121.309051,23.708888],[121.308954,23.708796],[121.30866,23.708793],[121.308658,23.708883],[121.308463,23.708791],[121.308361,23.709151],[121.308263,23.70915],[121.308259,23.709421],[121.308357,23.709422],[121.308256,23.709692],[121.308353,23.709783],[121.308452,23.709694],[121.308843,23.709788]]],[[[121.306286,23.710302],[121.306188,23.710301],[121.306191,23.71012],[121.306389,23.709942],[121.306683,23.709945],[121.306784,23.709766],[121.307275,23.709681],[121.306986,23.709316],[121.30679,23.709314],[121.306788,23.709405],[121.306299,23.709309],[121.306101,23.709487],[121.306193,23.70994],[121.305996,23.710028],[121.306093,23.710119],[121.30599,23.710479],[121.306185,23.710572],[121.306286,23.710302]]],[[[121.29783,23.712015],[121.298325,23.711659],[121.298329,23.711389],[121.298427,23.71139],[121.298441,23.710306],[121.298344,23.710215],[121.298147,23.710303],[121.298151,23.709942],[121.297765,23.709486],[121.297568,23.709574],[121.297571,23.709303],[121.297473,23.709302],[121.297575,23.709033],[121.297478,23.708941],[121.297775,23.708674],[121.29797,23.708766],[121.298169,23.708588],[121.298175,23.708136],[121.298078,23.708045],[121.297881,23.708133],[121.297778,23.708493],[121.297384,23.708579],[121.297382,23.70876],[121.297185,23.708848],[121.29728,23.709029],[121.297082,23.709208],[121.296985,23.709116],[121.296788,23.709205],[121.297079,23.709479],[121.297076,23.709659],[121.297369,23.709753],[121.297269,23.709932],[121.297947,23.710572],[121.297943,23.710843],[121.297746,23.710931],[121.297737,23.711653],[121.297541,23.711651],[121.29754,23.711741],[121.297247,23.711648],[121.297048,23.711826],[121.296951,23.711735],[121.296656,23.711822],[121.296749,23.712184],[121.297632,23.712194],[121.297729,23.712285],[121.29783,23.712015]]],[[[121.311071,23.711889],[121.310881,23.711436],[121.31108,23.711257],[121.311276,23.71126],[121.311376,23.71108],[121.310794,23.710622],[121.310694,23.710711],[121.31079,23.710893],[121.310692,23.710892],[121.310585,23.711613],[121.310874,23.711978],[121.311071,23.711889]]],[[[121.311646,23.712979],[121.311649,23.712708],[121.311359,23.712434],[121.311063,23.712521],[121.310872,23.712158],[121.310379,23.712333],[121.310475,23.712515],[121.310963,23.712701],[121.310961,23.712882],[121.311254,23.712975],[121.311349,23.713157],[121.311646,23.712979]]],[[[121.301626,23.714224],[121.30163,23.713953],[121.301435,23.713861],[121.301437,23.71368],[121.301731,23.713684],[121.30193,23.713505],[121.301932,23.713325],[121.302129,23.713236],[121.302132,23.713056],[121.301645,23.71278],[121.301649,23.712509],[121.301455,23.712326],[121.301259,23.712324],[121.301257,23.712414],[121.300962,23.712501],[121.300957,23.712862],[121.300859,23.712861],[121.30095,23.713404],[121.301049,23.713405],[121.301141,23.713858],[121.301239,23.713859],[121.301131,23.71458],[121.301424,23.714673],[121.301528,23.714223],[121.301626,23.714224]]],[[[121.306379,23.725925],[121.306485,23.725294],[121.306194,23.72502],[121.305801,23.725106],[121.305602,23.725284],[121.305696,23.725646],[121.305988,23.72583],[121.306082,23.726102],[121.306379,23.725925]]],[[[121.306346,23.728453],[121.30635,23.728182],[121.306057,23.728089],[121.305865,23.727725],[121.305372,23.7279],[121.305369,23.728171],[121.305564,23.728264],[121.305659,23.728536],[121.306148,23.728631],[121.306346,23.728453]]]]}},{"type":"Feature","properties":{"kind":"bare_dam","month":"2021-02","area_ha":17.56},"geometry":{"type":"MultiPolygon","coordinates":[[[[121.301154,23.690109],[121.301058,23.689927],[121.300764,23.689924],[121.300765,23.689834],[121.300568,23.689922],[121.300761,23.690195],[121.301154,23.690109]]],[[[121.301238,23.691194],[121.301044,23.691011],[121.300945,23.6911],[121.300358,23.691003],[121.300262,23.690822],[121.29987,23.690817],[121.299871,23.690727],[121.29948,23.690632],[121.299288,23.690359],[121.29909,23.690448],[121.299092,23.690357],[121.298701,23.690263],[121.298703,23.690082],[121.298899,23.690084],[121.299093,23.690267],[121.300074,23.690187],[121.300076,23.690097],[121.300469,23.690011],[121.300373,23.68983],[121.298708,23.689721],[121.298607,23.6899],[121.298215,23.689896],[121.298115,23.690076],[121.297919,23.690074],[121.297621,23.690341],[121.29762,23.690431],[121.297816,23.690434],[121.297814,23.690614],[121.297716,23.690613],[121.297809,23.690975],[121.297908,23.690886],[121.298103,23.690979],[121.298303,23.69071],[121.298597,23.690713],[121.298596,23.690803],[121.299185,23.69072],[121.299378,23.690993],[121.29977,23.690997],[121.30006,23.691271],[121.300356,23.691184],[121.300354,23.691274],[121.301138,23.691373],[121.301238,23.691194]]],[[[121.301201,23.694083],[121.300909,23.693899],[121.301108,23.69363],[121.300815,23.693537],[121.300623,23.693264],[121.300426,23.693352],[121.300423,23.693532],[121.300228,23.69344],[121.300232,23.693169],[121.300427,23.693262],[121.300527,23.693082],[121.300332,23.69299],[121.300336,23.692719],[121.300043,23.692625],[121.299947,23.692444],[121.299751,23.692441],[121.299558,23.692168],[121.299067,23.692253],[121.298973,23.691981],[121.298776,23.691979],[121.298775,23.69207],[121.298286,23.691974],[121.298187,23.692063],[121.298283,23.692245],[121.298382,23.692155],[121.298675,23.692249],[121.298473,23.692698],[121.298668,23.692791],[121.298666,23.692971],[121.298957,23.693155],[121.299052,23.693427],[121.299543,23.693342],[121.299638,23.693614],[121.30003,23.693618],[121.300321,23.693892],[121.30081,23.693988],[121.301002,23.694261],[121.301201,23.694083]],[[121.299841,23.693075],[121.300037,23.693077],[121.300036,23.693167],[121.29984,23.693165],[121.299841,23.693075]],[[121.299645,23.693072],[121.299647,23.692892],[121.299745,23.692893],[121.299841,23.693075],[121.299645,23.693072]],[[121.299547,23.693071],[121.29945,23.69298],[121.299548,23.692981],[121.299547,23.693071]],[[121.299257,23.692707],[121.29916,23.692616],[121.299258,23.692617],[121.299257,23.692707]]],[[[121.298244,23.695224],[121.298245,23.695134],[121.298049,23.695132],[121.297752,23.695399],[121.297945,23.695582],[121.297844,23.695852],[121.298039,23.695944],[121.298133,23.696216],[121.298428,23.696129],[121.298719,23.696403],[121.298918,23.696225],[121.298926,23.695593],[121.298538,23.695227],[121.298244,23.695224]],[[121.298634,23.695409],[121.298535,23.695498],[121.298536,23.695408],[121.298634,23.695409]],[[121.298241,23.695495],[121.298144,23.695404],[121.298242,23.695405],[121.298241,23.695495]]],[[[121.298601,23.697937],[121.298998,23.69758],[121.298901,23.697489],[121.298906,23.697128],[121.299004,23.697129],[121.299009,23.696768],[121.298911,23.696767],[121.299011,23.696587],[121.298914,23.696496],[121.298619,23.696583],[121.298618,23.696673],[121.298323,23.69667],[121.298325,23.69658],[121.298127,23.696668],[121.298318,23.697121],[121.298611,23.697215],[121.298607,23.697486],[121.298509,23.697485],[121.298406,23.697845],[121.298601,23.697937]]],[[[121.299062,23.7002],[121.298964,23.700199],[121.298968,23.699928],[121.29887,23.699927],[121.298776,23.699564],[121.299075,23.699206],[121.299081,23.698755],[121.299278,23.698667],[121.29928,23.698486],[121.299576,23.698399],[121.299577,23.698309],[121.299969,23.698313],[121.300267,23.698046],[121.30056,23.698139],[121.300559,23.698229],[121.301148,23.698146],[121.301745,23.69752],[121.301941,23.697522],[121.30214,23.697254],[121.302434,23.697257],[121.302733,23.696899],[121.302929,23.696901],[121.303128,23.696723],[121.303234,23.696092],[121.303431,23.696003],[121.303335,23.695822],[121.303041,23.695819],[121.30294,23.696088],[121.302644,23.696175],[121.302347,23.696443],[121.302344,23.696624],[121.302147,23.696712],[121.302145,23.696892],[121.301848,23.69707],[121.301846,23.69725],[121.301648,23.697429],[121.300961,23.697421],[121.300861,23.697601],[121.300666,23.697508],[121.300566,23.697688],[121.30037,23.697686],[121.300171,23.697864],[121.299976,23.697772],[121.299975,23.697862],[121.299681,23.697859],[121.29968,23.697949],[121.299485,23.697856],[121.299384,23.698036],[121.299189,23.697944],[121.298892,23.698211],[121.298696,23.698209],[121.298697,23.698119],[121.298205,23.698204],[121.298202,23.698474],[121.298005,23.698563],[121.298002,23.698743],[121.298294,23.698927],[121.298291,23.699198],[121.298092,23.699376],[121.297799,23.699283],[121.297401,23.69973],[121.297889,23.699916],[121.297883,23.700367],[121.29798,23.700459],[121.299157,23.700472],[121.299062,23.7002]]],[[[121.295446,23.699257],[121.295942,23.698811],[121.296137,23.698903],[121.296238,23.698724],[121.295846,23.698629],[121.295746,23.698809],[121.295452,23.698805],[121.295153,23.699163],[121.295446,23.699257]]],[[[121.312172,23.68734],[121.312364,23.687613],[121.312562,23.687525],[121.312277,23.686799],[121.311885,23.686795],[121.311883,23.686885],[121.311492,23.686791],[121.311285,23.687692],[121.31148,23.687784],[121.311876,23.687427],[121.311879,23.687246],[121.312172,23.68734]],[[121.311879,23.687246],[121.311782,23.687155],[121.31188,23.687156],[121.311879,23.687246]]],[[[121.301546,23.690113],[121.301253,23.69002],[121.301252,23.69011],[121.301154,23.690109],[121.301153,23.690199],[121.301446,23.690293],[121.301546,23.690113]]],[[[121.308589,23.691455],[121.308982,23.691369],[121.308986,23.691098],[121.308695,23.690824],[121.308498,23.690912],[121.308494,23.691183],[121.308196,23.691541],[121.308488,23.691634],[121.308589,23.691455]]],[[[121.308292,23.691632],[121.308097,23.69154],[121.307997,23.691719],[121.308192,23.691812],[121.308292,23.691632]]],[[[121.310636,23.69238],[121.31123,23.691935],[121.311136,23.691663],[121.310543,23.692018],[121.310636,23.69238]]],[[[121.306117,23.693053],[121.306417,23.692605],[121.306613,23.692607],[121.306812,23.692338],[121.307599,23.692166],[121.307897,23.691899],[121.307507,23.691714],[121.307506,23.691804],[121.307016,23.691799],[121.307014,23.691889],[121.306622,23.691885],[121.306621,23.691975],[121.30613,23.69206],[121.305741,23.691785],[121.305641,23.691964],[121.306029,23.692239],[121.305922,23.692961],[121.306117,23.693053]]],[[[121.303823,23.696008],[121.304022,23.695829],[121.303926,23.695648],[121.30422,23.695651],[121.304715,23.695295],[121.304818,23.694935],[121.305215,23.694578],[121.305411,23.69458],[121.305511,23.694401],[121.305806,23.694314],[121.305813,23.693772],[121.305716,23.693681],[121.30522,23.694127],[121.304728,23.694302],[121.304033,23.694926],[121.304031,23.695107],[121.303736,23.695194],[121.303729,23.695736],[121.30353,23.695914],[121.303823,23.696008]],[[121.305315,23.694399],[121.305218,23.694307],[121.305316,23.694308],[121.305315,23.694399]]]]}}]}