{"type":"FeatureCollection","features":[{"type":"Feature","properties":{"kind":"bare_slide","month":"2021-01","area_ha":56.98},"geometry":{"type":"MultiPolygon","coordinates":[[[[121.292632,23.712048],[121.292534,23.712047],[121.292635,23.711777],[121.292928,23.711871],[121.293325,23.711514],[121.29362,23.711517],[121.294612,23.710625],[121.294417,23.710533],[121.294118,23.710891],[121.293725,23.710977],[121.293624,23.711156],[121.29333,23.711153],[121.293032,23.711421],[121.29264,23.711416],[121.292639,23.711507],[121.292443,23.711504],[121.292047,23.711771],[121.292335,23.712226],[121.292532,23.712228],[121.292632,23.712048]]],[[[121.284056,23.715385],[121.28406,23.715114],[121.283574,23.714747],[121.283578,23.714476],[121.283285,23.714383],[121.282986,23.714741],[121.282981,23.715102],[121.283176,23.715194],[121.283475,23.714836],[121.283669,23.715019],[121.283565,23.71547],[121.283858,23.715563],[121.284056,23.715385]]],[[[121.287081,23.716592],[121.287669,23.716599],[121.287863,23.716781],[121.287859,23.717052],[121.288054,23.717145],[121.288052,23.717325],[121.28854,23.717511],[121.288537,23.717692],[121.288829,23.717876],[121.288819,23.718688],[121.28911,23.718872],[121.289408,23.718604],[121.289411,23.718424],[121.289804,23.718338],[121.289806,23.718157],[121.289904,23.718158],[121.289915,23.717346],[121.290211,23.717169],[121.290215,23.716898],[121.290707,23.716813],[121.290709,23.716632],[121.291204,23.716277],[121.291108,23.716095],[121.291304,23.716097],[121.291602,23.715829],[121.291705,23.715469],[121.291901,23.715472],[121.292199,23.715204],[121.292981,23.715393],[121.292982,23.715303],[121.293276,23.715306],[121.293376,23.715127],[121.293765,23.715402],[121.293867,23.715132],[121.294063,23.715134],[121.294758,23.71451],[121.29476,23.714329],[121.295157,23.713972],[121.295451,23.713976],[121.295551,23.713796],[121.295847,23.713709],[121.296052,23.712989],[121.29625,23.712901],[121.296353,23.71245],[121.296257,23.712359],[121.295863,23.712445],[121.295167,23.71316],[121.294677,23.713154],[121.294476,23.713513],[121.294182,23.71351],[121.293884,23.713778],[121.293492,23.713773],[121.293095,23.71413],[121.292901,23.713948],[121.292313,23.713941],[121.292115,23.714119],[121.292208,23.714482],[121.292012,23.714479],[121.291917,23.714208],[121.291525,23.714203],[121.291526,23.714113],[121.291036,23.714108],[121.290937,23.714197],[121.291031,23.714469],[121.290737,23.714465],[121.290738,23.714375],[121.290346,23.714371],[121.290246,23.71455],[121.290051,23.714458],[121.289851,23.714727],[121.29034,23.714822],[121.290339,23.714912],[121.289357,23.714992],[121.28896,23.715349],[121.288667,23.715255],[121.288567,23.715435],[121.288761,23.715617],[121.288466,23.715614],[121.288274,23.715341],[121.28798,23.715338],[121.287982,23.715157],[121.28808,23.715158],[121.287984,23.714977],[121.287885,23.715066],[121.287101,23.715057],[121.286902,23.715236],[121.286997,23.715508],[121.286798,23.715686],[121.287381,23.716144],[121.287087,23.716141],[121.286986,23.71632],[121.286693,23.716227],[121.286592,23.716496],[121.286297,23.716493],[121.286296,23.716583],[121.285905,23.716489],[121.285707,23.716667],[121.285702,23.717028],[121.285995,23.717122],[121.286089,23.717394],[121.286286,23.717396],[121.286583,23.717128],[121.28649,23.716766],[121.286788,23.716499],[121.286981,23.716681],[121.287081,23.716592]],[[121.291108,23.716095],[121.291011,23.716004],[121.291109,23.716005],[121.291108,23.716095]],[[121.288762,23.715527],[121.288861,23.715438],[121.28886,23.715528],[121.288762,23.715527]],[[121.288466,23.715614],[121.288367,23.715703],[121.288368,23.715613],[121.288466,23.715614]],[[121.28709,23.71587],[121.287189,23.715781],[121.287188,23.715871],[121.28709,23.71587]],[[121.286886,23.7165],[121.286985,23.71641],[121.286984,23.716501],[121.286886,23.7165]],[[121.288833,23.717605],[121.288932,23.717516],[121.288931,23.717606],[121.288833,23.717605]],[[121.289523,23.717342],[121.289621,23.717343],[121.289618,23.717523],[121.28952,23.717522],[121.289523,23.717342]],[[121.289129,23.717427],[121.289229,23.717338],[121.289227,23.717429],[121.289129,23.717427]],[[121.289428,23.71707],[121.289331,23.716978],[121.289134,23.717066],[121.289136,23.716886],[121.289529,23.71689],[121.289428,23.71707]],[[121.288548,23.716879],[121.288449,23.716968],[121.28845,23.716878],[121.288548,23.716879]],[[121.288548,23.716879],[121.288647,23.71679],[121.288746,23.716701],[121.288744,23.716881],[121.288548,23.716879]],[[121.286196,23.716763],[121.286295,23.716674],[121.286294,23.716764],[121.286196,23.716763]],[[121.288941,23.716793],[121.289041,23.716704],[121.289039,23.716794],[121.288941,23.716793]],[[121.289628,23.716801],[121.289727,23.716712],[121.289729,23.716531],[121.290022,23.716625],[121.289824,23.716803],[121.289628,23.716801]],[[121.290022,23.716625],[121.290122,23.716535],[121.290026,23.716354],[121.290323,23.716177],[121.290419,23.716268],[121.290318,23.716538],[121.290219,23.716627],[121.290022,23.716625]],[[121.289239,23.716526],[121.289536,23.716348],[121.289532,23.716619],[121.289239,23.716526]],[[121.289829,23.716442],[121.289928,23.716353],[121.289927,23.716443],[121.289829,23.716442]],[[121.288458,23.716246],[121.288557,23.716157],[121.288556,23.716247],[121.288458,23.716246]],[[121.289051,23.715892],[121.289445,23.715806],[121.289635,23.716259],[121.289439,23.716257],[121.28944,23.716167],[121.289047,23.716253],[121.28895,23.716161],[121.289051,23.715892]],[[121.290428,23.715636],[121.290233,23.715543],[121.290232,23.715634],[121.28974,23.715719],[121.289742,23.715538],[121.289941,23.71536],[121.290137,23.715362],[121.290633,23.714916],[121.290539,23.714644],[121.290735,23.714646],[121.291122,23.715011],[121.291515,23.715016],[121.291516,23.714926],[121.291809,23.715019],[121.291806,23.7152],[121.291512,23.715196],[121.291314,23.715375],[121.29131,23.715646],[121.291016,23.715642],[121.290618,23.716089],[121.290325,23.715996],[121.290428,23.715636]],[[121.287678,23.715876],[121.287975,23.715699],[121.287971,23.71597],[121.287678,23.715876]],[[121.287487,23.715513],[121.287586,23.715424],[121.287585,23.715514],[121.287487,23.715513]],[[121.293281,23.714945],[121.293477,23.714947],[121.293476,23.715037],[121.29328,23.715035],[121.293281,23.714945]],[[121.292399,23.714845],[121.292596,23.714847],[121.292594,23.714937],[121.292398,23.714935],[121.292399,23.714845]],[[121.291518,23.714745],[121.291714,23.714747],[121.291713,23.714837],[121.291517,23.714835],[121.291518,23.714745]],[[121.294172,23.714323],[121.293973,23.714501],[121.29397,23.714772],[121.293871,23.714771],[121.293876,23.71441],[121.294273,23.714053],[121.294469,23.714055],[121.294368,23.714325],[121.294172,23.714323]],[[121.294469,23.714055],[121.294568,23.713966],[121.294567,23.714056],[121.294469,23.714055]],[[121.291131,23.714379],[121.291425,23.714383],[121.291424,23.714473],[121.291129,23.71447],[121.291131,23.714379]],[[121.292306,23.714483],[121.292405,23.714394],[121.292404,23.714484],[121.292306,23.714483]]],[[[121.283931,23.71746],[121.284327,23.717194],[121.28433,23.716923],[121.284136,23.71674],[121.283939,23.716828],[121.283937,23.717009],[121.283741,23.717007],[121.283443,23.717274],[121.283341,23.717544],[121.283632,23.717818],[121.283828,23.71782],[121.283931,23.71746]]],[[[121.284302,23.71909],[121.284304,23.718909],[121.284109,23.718817],[121.284015,23.718545],[121.283524,23.718539],[121.283425,23.718628],[121.283907,23.719266],[121.284103,23.719268],[121.284302,23.71909]]],[[[121.290649,23.721237],[121.290454,23.721144],[121.290457,23.720874],[121.290555,23.720875],[121.29046,23.720693],[121.290558,23.720694],[121.290566,23.720062],[121.290665,23.719973],[121.290567,23.719972],[121.290573,23.71952],[121.290281,23.719337],[121.290284,23.719156],[121.290381,23.719247],[121.290578,23.719159],[121.290674,23.719341],[121.29087,23.719343],[121.291068,23.719165],[121.290976,23.718712],[121.291075,23.718623],[121.291269,23.718806],[121.291466,23.718718],[121.291471,23.718356],[121.291569,23.718357],[121.291475,23.718086],[121.291672,23.717997],[121.291576,23.717816],[121.291278,23.718083],[121.291082,23.718081],[121.291085,23.717901],[121.29089,23.717808],[121.29079,23.717897],[121.290884,23.71826],[121.290688,23.718257],[121.290494,23.718075],[121.290393,23.718254],[121.29,23.71834],[121.290096,23.718522],[121.290292,23.718524],[121.290191,23.718703],[121.290483,23.718887],[121.290383,23.719067],[121.289992,23.718972],[121.289893,23.719061],[121.289987,23.719333],[121.289103,23.719414],[121.289204,23.719234],[121.28901,23.719052],[121.288814,23.719049],[121.288615,23.719228],[121.288711,23.719409],[121.288907,23.719412],[121.288807,23.719591],[121.289097,23.719865],[121.289588,23.719871],[121.289585,23.720051],[121.289191,23.720227],[121.289287,23.720409],[121.289483,23.720411],[121.289583,23.720232],[121.289779,23.720234],[121.289973,23.720417],[121.289971,23.720597],[121.289476,23.720953],[121.289472,23.721224],[121.289667,23.721316],[121.289767,23.721137],[121.29016,23.721141],[121.290547,23.721507],[121.290646,23.721417],[121.290649,23.721237]],[[121.290677,23.71907],[121.290776,23.718981],[121.290775,23.719071],[121.290677,23.71907]],[[121.290584,23.718708],[121.290683,23.718619],[121.290682,23.718709],[121.290584,23.718708]]],[[[121.282517,23.720605],[121.282712,23.720697],[121.283506,23.719984],[121.283508,23.719803],[121.284004,23.719357],[121.283809,23.719265],[121.28361,23.719534],[121.283315,23.71953],[121.283319,23.719259],[121.283124,23.719167],[121.283022,23.719437],[121.282826,23.719435],[121.282428,23.719882],[121.281938,23.719876],[121.28164,23.720144],[121.281733,23.720506],[121.282024,23.72078],[121.282416,23.720784],[121.282517,23.720605]],[[121.283016,23.719888],[121.283014,23.720069],[121.282818,23.720067],[121.282819,23.719976],[121.283016,23.719888]]],[[[121.284671,23.7209],[121.284668,23.72108],[121.284862,23.721263],[121.285058,23.721265],[121.285154,23.721447],[121.285941,23.721275],[121.286437,23.720829],[121.286439,23.720648],[121.286245,23.720466],[121.286445,23.720197],[121.286153,23.720013],[121.285854,23.720371],[121.28556,23.720368],[121.284965,23.720903],[121.284868,23.720812],[121.284671,23.7209]],[[121.285063,23.720904],[121.28506,23.721085],[121.284962,23.721084],[121.284965,23.720903],[121.285063,23.720904]]],[[[121.287305,23.721922],[121.287604,23.721564],[121.2879,23.721477],[121.287806,23.721115],[121.2883,23.72085],[121.288109,23.720486],[121.287715,23.720572],[121.287714,23.720663],[121.287617,23.720571],[121.287322,23.720658],[121.287416,23.72093],[121.287219,23.721018],[121.287215,23.721289],[121.287018,23.721377],[121.287015,23.721648],[121.286917,23.721647],[121.287011,23.721919],[121.28711,23.72183],[121.287305,23.721922]]],[[[121.289858,23.72168],[121.290153,23.721683],[121.290253,23.721503],[121.290059,23.721321],[121.289567,23.721496],[121.289568,23.721405],[121.289274,23.721402],[121.289179,23.72113],[121.288787,23.721126],[121.288691,23.720944],[121.288494,23.721032],[121.288588,23.721304],[121.288391,23.721392],[121.288389,23.721573],[121.288582,23.721756],[121.288781,23.721577],[121.288977,23.72158],[121.289073,23.721761],[121.289367,23.721764],[121.289366,23.721855],[121.289857,23.72177],[121.289858,23.72168]]],[[[121.284552,23.722434],[121.284459,23.722071],[121.284655,23.722073],[121.284849,23.722256],[121.285247,23.721809],[121.28515,23.721718],[121.284855,23.721805],[121.284564,23.721531],[121.284362,23.72198],[121.284066,23.722157],[121.284063,23.722338],[121.284257,23.722521],[121.284453,23.722523],[121.284552,23.722434]]],[[[121.294327,23.72498],[121.294631,23.724261],[121.29473,23.724171],[121.295024,23.724175],[121.295023,23.724265],[121.29522,23.724177],[121.295125,23.723995],[121.294637,23.723809],[121.294646,23.723087],[121.294842,23.723089],[121.295041,23.722911],[121.295044,23.72264],[121.294849,23.722547],[121.294649,23.722816],[121.294355,23.722813],[121.294256,23.722902],[121.294351,23.723174],[121.294154,23.723172],[121.293961,23.722989],[121.294062,23.722719],[121.293867,23.722627],[121.293969,23.722357],[121.293677,23.722173],[121.293585,23.721721],[121.293197,23.721355],[121.293001,23.721353],[121.292915,23.720449],[121.292818,23.720358],[121.292621,23.720446],[121.292416,23.721076],[121.29222,23.721074],[121.292026,23.720891],[121.292129,23.720531],[121.291934,23.720438],[121.291731,23.720978],[121.291829,23.720979],[121.291924,23.721251],[121.292316,23.721255],[121.292314,23.721436],[121.292117,23.721434],[121.292016,23.721703],[121.292114,23.721705],[121.29211,23.721975],[121.292304,23.722158],[121.2925,23.72216],[121.292489,23.723063],[121.292779,23.723337],[121.293073,23.72334],[121.293655,23.723889],[121.293652,23.724069],[121.293358,23.724066],[121.293257,23.724336],[121.293938,23.724705],[121.293833,23.725245],[121.294321,23.725431],[121.29442,23.725342],[121.294425,23.724981],[121.294327,23.72498]],[[121.294249,23.723444],[121.294348,23.723355],[121.294347,23.723445],[121.294249,23.723444]]],[[[121.290217,23.724302],[121.290413,23.724304],[121.290811,23.723857],[121.291106,23.72377],[121.291111,23.723409],[121.291013,23.723408],[121.291113,23.723229],[121.291016,23.723137],[121.290623,23.723223],[121.290423,23.723492],[121.290128,23.723579],[121.290225,23.72367],[121.290219,23.724122],[121.289921,23.724389],[121.290116,23.724482],[121.290217,23.724302]],[[121.290715,23.723676],[121.290618,23.723584],[121.290716,23.723585],[121.290715,23.723676]]],[[[121.298385,23.707055],[121.298481,23.707237],[121.298678,23.707148],[121.298785,23.706427],[121.299083,23.70616],[121.299089,23.705708],[121.299187,23.705709],[121.29919,23.705438],[121.299288,23.705439],[121.299194,23.705168],[121.299292,23.705169],[121.299397,23.704628],[121.299594,23.70454],[121.299702,23.703819],[121.299217,23.703362],[121.299321,23.702911],[121.299126,23.702819],[121.299129,23.702638],[121.299031,23.702637],[121.299133,23.702277],[121.298938,23.702185],[121.299243,23.701375],[121.298753,23.70137],[121.298657,23.701188],[121.298069,23.701182],[121.298065,23.701453],[121.298259,23.701636],[121.298152,23.702357],[121.29825,23.702358],[121.298246,23.702629],[121.298344,23.70263],[121.298338,23.703081],[121.298533,23.703174],[121.29853,23.703445],[121.299112,23.703902],[121.299103,23.704625],[121.299005,23.704624],[121.299001,23.704894],[121.298903,23.704893],[121.298897,23.705345],[121.298406,23.70543],[121.298306,23.705609],[121.297913,23.705605],[121.297812,23.705875],[121.297714,23.705874],[121.297906,23.706147],[121.298493,23.706243],[121.298488,23.706695],[121.298192,23.706782],[121.297994,23.70696],[121.297991,23.707141],[121.298186,23.707233],[121.298385,23.707055]]],[[[121.29783,23.712015],[121.298127,23.711838],[121.298129,23.711657],[121.298326,23.711569],[121.298329,23.711389],[121.298427,23.71139],[121.298442,23.710216],[121.297956,23.709849],[121.297959,23.709669],[121.297765,23.709486],[121.297568,23.709574],[121.29757,23.709394],[121.297472,23.709393],[121.297577,23.708852],[121.297775,23.708674],[121.297872,23.708765],[121.29807,23.708677],[121.298073,23.708406],[121.29778,23.708312],[121.29768,23.708492],[121.297384,23.708579],[121.297382,23.70876],[121.297185,23.708848],[121.297181,23.709119],[121.296788,23.709205],[121.297174,23.70966],[121.29737,23.709662],[121.297269,23.709932],[121.297657,23.710207],[121.297655,23.710388],[121.297946,23.710662],[121.297844,23.710932],[121.297746,23.710931],[121.297738,23.711563],[121.29754,23.711741],[121.297443,23.71165],[121.296951,23.711735],[121.29695,23.711825],[121.296755,23.711733],[121.296652,23.712093],[121.296749,23.712184],[121.296848,23.712095],[121.296945,23.712186],[121.297535,23.712102],[121.297729,23.712285],[121.29783,23.712015]]],[[[121.301228,23.714671],[121.301525,23.714494],[121.301733,23.713593],[121.30193,23.713505],[121.301932,23.713325],[121.302131,23.713146],[121.301937,23.712963],[121.30194,23.712693],[121.301647,23.712599],[121.301454,23.712416],[121.301456,23.712236],[121.301261,23.712143],[121.300962,23.712501],[121.301058,23.712683],[121.30096,23.712682],[121.300858,23.712952],[121.300956,23.712953],[121.30095,23.713404],[121.301049,23.713405],[121.301141,23.713858],[121.301239,23.713859],[121.301233,23.71431],[121.301034,23.714489],[121.301228,23.714671]]],[[[121.29771,23.71373],[121.297513,23.713818],[121.297608,23.713999],[121.297411,23.714088],[121.297409,23.714268],[121.297111,23.714536],[121.296915,23.714534],[121.296715,23.714802],[121.297008,23.714896],[121.297109,23.714716],[121.297404,23.714629],[121.297403,23.71472],[121.297697,23.714723],[121.297793,23.714904],[121.297989,23.714907],[121.298084,23.715088],[121.298281,23.71509],[121.298381,23.714911],[121.298089,23.714727],[121.298188,23.714638],[121.298093,23.714456],[121.298291,23.714278],[121.298002,23.713913],[121.297806,23.713911],[121.29771,23.71373]],[[121.297806,23.713911],[121.297706,23.714],[121.297707,23.71391],[121.297806,23.713911]]],[[[121.297227,23.720677],[121.297134,23.720315],[121.297036,23.720314],[121.297143,23.719593],[121.296948,23.7195],[121.296651,23.719768],[121.296645,23.720219],[121.296448,23.720308],[121.296445,23.720488],[121.29664,23.720581],[121.296541,23.72067],[121.296637,23.720851],[121.297227,23.720677]]],[[[121.302029,23.721001],[121.301931,23.721],[121.301934,23.720729],[121.302233,23.720371],[121.302239,23.71992],[121.302142,23.719828],[121.301945,23.719916],[121.301837,23.720638],[121.30154,23.720905],[121.301633,23.721268],[121.301827,23.72145],[121.302024,23.721362],[121.302029,23.721001]]],[[[121.294456,23.722633],[121.294558,23.722273],[121.29417,23.721998],[121.294068,23.722268],[121.294263,23.72236],[121.294261,23.722541],[121.294062,23.722719],[121.294257,23.722812],[121.294456,23.722633]]],[[[121.302769,23.724441],[121.302972,23.723901],[121.30307,23.723902],[121.303161,23.724445],[121.303258,23.724536],[121.303554,23.724449],[121.30336,23.724266],[121.303363,23.723996],[121.303461,23.723997],[121.303364,23.723905],[121.30337,23.723454],[121.303468,23.723455],[121.303473,23.723094],[121.303571,23.723095],[121.303477,23.722823],[121.303972,23.722467],[121.303876,23.722285],[121.303091,23.722277],[121.302893,23.722455],[121.302984,23.722998],[121.302788,23.722996],[121.302497,23.722722],[121.302394,23.723082],[121.302098,23.723259],[121.302091,23.723801],[121.302381,23.724075],[121.302578,23.724077],[121.302574,23.724348],[121.302672,23.724349],[121.302572,23.724529],[121.302669,23.72462],[121.302866,23.724532],[121.302769,23.724441]]],[[[121.296767,23.72591],[121.296675,23.725457],[121.296285,23.725272],[121.296288,23.725001],[121.296682,23.724915],[121.296678,23.725186],[121.296873,23.725279],[121.297173,23.72483],[121.297466,23.724924],[121.297863,23.724567],[121.297868,23.724206],[121.297673,23.724114],[121.297076,23.724739],[121.296782,23.724736],[121.296689,23.724374],[121.296787,23.724375],[121.296789,23.724194],[121.296987,23.724106],[121.296989,23.723925],[121.297187,23.723747],[121.296796,23.723652],[121.296603,23.72347],[121.296503,23.723559],[121.2966,23.72365],[121.296594,23.724102],[121.2963,23.724098],[121.296299,23.724189],[121.295906,23.724275],[121.295706,23.724543],[121.295315,23.724449],[121.295314,23.724539],[121.295018,23.724626],[121.294824,23.724443],[121.294724,23.724623],[121.294919,23.724715],[121.294917,23.724896],[121.29511,23.725079],[121.295699,23.725085],[121.2954,23.725443],[121.295497,23.725534],[121.295694,23.725446],[121.295692,23.725627],[121.295981,23.725991],[121.296473,23.725906],[121.29647,23.726087],[121.296764,23.72618],[121.296863,23.726091],[121.296865,23.725911],[121.296767,23.72591]],[[121.296093,23.724909],[121.295897,23.724907],[121.2959,23.724726],[121.296194,23.724729],[121.296093,23.724909]]],[[[121.301972,23.725425],[121.302169,23.725337],[121.302167,23.725517],[121.302362,23.72561],[121.302464,23.72525],[121.302663,23.725071],[121.302469,23.724889],[121.30237,23.724978],[121.301979,23.724883],[121.301879,23.724973],[121.301974,23.725244],[121.301677,23.725422],[121.301675,23.725602],[121.30187,23.725695],[121.301972,23.725425]]],[[[121.302064,23.725878],[121.30187,23.725695],[121.30177,23.725874],[121.301965,23.725967],[121.302064,23.725878]]],[[[121.305857,23.728357],[121.306055,23.728179],[121.306058,23.727998],[121.305669,23.727723],[121.305577,23.727271],[121.305189,23.726905],[121.304993,23.726903],[121.304604,23.726628],[121.304713,23.725816],[121.304518,23.725724],[121.30422,23.725992],[121.304213,23.726533],[121.304504,23.726807],[121.304502,23.726988],[121.304206,23.727075],[121.304203,23.727346],[121.304594,23.72744],[121.304695,23.727171],[121.304891,23.727173],[121.305082,23.727626],[121.305471,23.727902],[121.305563,23.728354],[121.305757,23.728537],[121.305954,23.728449],[121.305857,23.728357]]]]}},{"type":"Feature","properties":{"kind":"bare_dam","month":"2021-01","area_ha":13.51},"geometry":{"type":"MultiPolygon","coordinates":[[[[121.298301,23.6908],[121.298303,23.69071],[121.298989,23.690717],[121.299088,23.690628],[121.298701,23.690263],[121.298703,23.690082],[121.299192,23.690178],[121.299191,23.690268],[121.300074,23.690187],[121.300076,23.690097],[121.300468,23.690102],[121.300469,23.690011],[121.300665,23.690013],[121.300956,23.690287],[121.30125,23.690291],[121.30135,23.690111],[121.301057,23.690018],[121.301058,23.689927],[121.300764,23.689924],[121.300765,23.689834],[121.30047,23.689921],[121.300471,23.689831],[121.299883,23.689824],[121.299884,23.689734],[121.298708,23.689721],[121.298607,23.6899],[121.298313,23.689897],[121.298213,23.690077],[121.298017,23.690075],[121.297621,23.690341],[121.29762,23.690431],[121.298012,23.690436],[121.297714,23.690703],[121.29781,23.690885],[121.298301,23.6908]]],[[[121.299772,23.690816],[121.299672,23.690996],[121.299867,23.691088],[121.299967,23.690909],[121.299772,23.690816]]],[[[121.299965,23.691089],[121.300158,23.691272],[121.300356,23.691184],[121.300354,23.691274],[121.300747,23.691278],[121.300745,23.691369],[121.301237,23.691284],[121.301141,23.691102],[121.300651,23.691097],[121.300652,23.691007],[121.300065,23.69091],[121.299965,23.691089]]],[[[121.299947,23.692444],[121.299652,23.692531],[121.299557,23.692259],[121.299263,23.692255],[121.299264,23.692165],[121.299067,23.692253],[121.298776,23.691979],[121.298578,23.692158],[121.298675,23.692249],[121.298673,23.69243],[121.298575,23.692429],[121.298666,23.692971],[121.298957,23.693155],[121.299052,23.693427],[121.299543,23.693342],[121.299638,23.693614],[121.30003,23.693618],[121.300321,23.693892],[121.300713,23.693897],[121.300907,23.69408],[121.301006,23.69399],[121.300812,23.693808],[121.300914,23.693538],[121.300623,23.693264],[121.300325,23.693531],[121.299841,23.693075],[121.299742,23.693164],[121.299449,23.69307],[121.299647,23.692892],[121.299744,23.692983],[121.299941,23.692895],[121.300134,23.693168],[121.300331,23.69308],[121.300333,23.692899],[121.300235,23.692898],[121.300336,23.692719],[121.300043,23.692625],[121.299947,23.692444]],[[121.300043,23.692625],[121.299944,23.692714],[121.299945,23.692624],[121.300043,23.692625]],[[121.299358,23.692527],[121.299159,23.692706],[121.299064,23.692524],[121.299358,23.692527]],[[121.299064,23.692524],[121.298967,23.692433],[121.299065,23.692434],[121.299064,23.692524]]],[[[121.302635,23.696898],[121.303028,23.696812],[121.302836,23.696539],[121.30323,23.696362],[121.303234,23.696092],[121.303332,23.696093],[121.303237,23.695821],[121.303041,23.695819],[121.30294,23.696088],[121.302644,23.696175],[121.302147,23.696712],[121.302145,23.696892],[121.302339,23.697075],[121.302535,23.697077],[121.302635,23.696898]]],[[[121.298416,23.697122],[121.298712,23.696945],[121.298714,23.696764],[121.298616,23.696763],[121.298522,23.696491],[121.29872,23.696313],[121.298525,23.696221],[121.298524,23.696311],[121.298131,23.696397],[121.298126,23.696758],[121.298416,23.697122]]],[[[121.300951,23.698234],[121.302238,23.697255],[121.302144,23.696983],[121.301948,23.696981],[121.301749,23.697159],[121.301747,23.69734],[121.301551,23.697337],[121.30155,23.697428],[121.300863,23.69742],[121.300764,23.697509],[121.30086,23.697691],[121.300661,23.697869],[121.300564,23.697778],[121.300269,23.697865],[121.300657,23.698231],[121.300951,23.698234]]],[[[121.299482,23.698037],[121.299189,23.697944],[121.29899,23.698212],[121.298696,23.698209],[121.298697,23.698119],[121.298501,23.698117],[121.298602,23.697847],[121.298505,23.697755],[121.298308,23.697844],[121.2984,23.698296],[121.298105,23.698383],[121.298103,23.698564],[121.298201,23.698565],[121.2981,23.698744],[121.298392,23.698928],[121.29839,23.699109],[121.298092,23.699376],[121.297799,23.699283],[121.297502,23.69955],[121.297889,23.699916],[121.297883,23.700367],[121.29798,23.700459],[121.299157,23.700472],[121.299062,23.7002],[121.298964,23.700199],[121.298968,23.699928],[121.298774,23.699745],[121.298777,23.699474],[121.299076,23.699116],[121.299081,23.698755],[121.299479,23.698308],[121.299675,23.69831],[121.299676,23.69822],[121.299871,23.698312],[121.300268,23.697955],[121.299779,23.69786],[121.299679,23.698039],[121.299582,23.697948],[121.299482,23.698037]],[[121.299679,23.698039],[121.299775,23.698131],[121.299677,23.698129],[121.299679,23.698039]]],[[[121.311885,23.686795],[121.311883,23.686885],[121.311687,23.686883],[121.311689,23.686793],[121.311393,23.68688],[121.311389,23.687241],[121.311291,23.68724],[121.311285,23.687692],[121.311382,23.687783],[121.311678,23.687605],[121.31188,23.687156],[121.312267,23.687522],[121.312465,23.687433],[121.312371,23.687071],[121.312081,23.686797],[121.311885,23.686795]],[[121.312176,23.686979],[121.312077,23.687068],[121.312078,23.686978],[121.312176,23.686979]]],[[[121.308488,23.691634],[121.308983,23.691278],[121.308889,23.691006],[121.30879,23.691096],[121.308595,23.691003],[121.308198,23.69136],[121.308292,23.691632],[121.308488,23.691634]]],[[[121.307997,23.691719],[121.308192,23.691812],[121.308292,23.691632],[121.308097,23.69154],[121.307997,23.691719]]],[[[121.310833,23.692292],[121.31123,23.691935],[121.311136,23.691663],[121.310937,23.691841],[121.310741,23.691839],[121.31054,23.692198],[121.310833,23.692292]]],[[[121.306613,23.692607],[121.306811,23.692429],[121.306717,23.692157],[121.30701,23.69225],[121.307209,23.691981],[121.307599,23.692166],[121.307898,23.691808],[121.307507,23.691714],[121.307308,23.691892],[121.307212,23.691801],[121.306524,23.691884],[121.306424,23.692063],[121.306228,23.692061],[121.30593,23.692329],[121.305922,23.692961],[121.306117,23.693053],[121.306319,23.692604],[121.306613,23.692607]],[[121.306319,23.692604],[121.306222,23.692512],[121.30632,23.692513],[121.306319,23.692604]]],[[[121.306116,23.693143],[121.305921,23.693051],[121.30582,23.69323],[121.306015,23.693323],[121.306116,23.693143]]],[[[121.303823,23.696008],[121.304022,23.695829],[121.303925,23.695738],[121.304028,23.695378],[121.304221,23.695561],[121.304417,23.695563],[121.304616,23.695384],[121.304719,23.695024],[121.305215,23.694578],[121.30512,23.694306],[121.305316,23.694308],[121.305417,23.694129],[121.305712,23.694042],[121.305616,23.69386],[121.304926,23.694124],[121.303736,23.695194],[121.30373,23.695646],[121.303533,23.695734],[121.30353,23.695914],[121.303823,23.696008]]]]}}]}