{"type":"FeatureCollection","features":[{"type":"Feature","properties":{"kind":"bare_slide","month":"2021-04","area_ha":72.17},"geometry":{"type":"MultiPolygon","coordinates":[[[[121.292633,23.711958],[121.292535,23.711957],[121.292635,23.711777],[121.292928,23.711871],[121.293325,23.711514],[121.29362,23.711517],[121.294117,23.710981],[121.293824,23.710888],[121.293624,23.711156],[121.293133,23.711241],[121.293032,23.711421],[121.292542,23.711415],[121.292442,23.711595],[121.292246,23.711593],[121.292047,23.711771],[121.292239,23.712134],[121.292533,23.712137],[121.292633,23.711958]]],[[[121.283957,23.715474],[121.284056,23.715385],[121.284061,23.715024],[121.284257,23.715026],[121.284359,23.714756],[121.284165,23.714573],[121.283869,23.71466],[121.283872,23.71448],[121.284467,23.713945],[121.284372,23.713763],[121.283682,23.714026],[121.283086,23.714561],[121.28308,23.715013],[121.283177,23.715104],[121.283376,23.714926],[121.283669,23.715019],[121.283665,23.71529],[121.283467,23.715468],[121.283662,23.715561],[121.283663,23.715471],[121.283957,23.715474]]],[[[121.285115,23.716932],[121.285601,23.717208],[121.285399,23.717657],[121.285788,23.717932],[121.285887,23.717843],[121.286278,23.717938],[121.28638,23.717668],[121.286678,23.7174],[121.286971,23.717494],[121.287066,23.717676],[121.287263,23.717678],[121.287461,23.717499],[121.287754,23.717593],[121.287855,23.717413],[121.288051,23.717416],[121.288049,23.717506],[121.288541,23.717421],[121.288925,23.718057],[121.28863,23.718144],[121.288724,23.718416],[121.288426,23.718684],[121.28823,23.718682],[121.287632,23.719397],[121.288119,23.719674],[121.288117,23.719854],[121.288019,23.719853],[121.288115,23.720035],[121.288411,23.719858],[121.28832,23.719315],[121.288519,23.719136],[121.288715,23.719139],[121.288614,23.719318],[121.288907,23.719412],[121.289001,23.719774],[121.28998,23.719875],[121.289978,23.720056],[121.289388,23.720139],[121.28919,23.720318],[121.28948,23.720592],[121.289478,23.720772],[121.28938,23.720771],[121.28947,23.721404],[121.289274,23.721402],[121.289173,23.721582],[121.289367,23.721764],[121.289759,23.721769],[121.289958,23.72159],[121.290448,23.721596],[121.290746,23.721328],[121.290455,23.721054],[121.290554,23.720965],[121.290566,23.720062],[121.290468,23.720061],[121.290473,23.7197],[121.290375,23.719699],[121.29048,23.719158],[121.290969,23.719254],[121.291071,23.718984],[121.291169,23.718985],[121.290976,23.718712],[121.291075,23.718623],[121.291269,23.718806],[121.291564,23.718719],[121.291567,23.718538],[121.291469,23.718537],[121.291571,23.718177],[121.291475,23.718086],[121.291671,23.718088],[121.291772,23.717818],[121.291577,23.717725],[121.291678,23.717546],[121.291483,23.717454],[121.291185,23.717721],[121.29128,23.717993],[121.290889,23.717898],[121.290789,23.717988],[121.290884,23.71826],[121.290395,23.718164],[121.290196,23.718342],[121.290482,23.718978],[121.290091,23.718883],[121.289987,23.719333],[121.289103,23.719414],[121.289011,23.718961],[121.289904,23.718158],[121.289915,23.717346],[121.290211,23.717169],[121.290216,23.716807],[121.290607,23.716902],[121.290707,23.716813],[121.290611,23.716631],[121.290807,23.716633],[121.291007,23.716365],[121.291203,23.716367],[121.291305,23.716007],[121.291701,23.71574],[121.291705,23.715469],[121.292098,23.715383],[121.292199,23.715204],[121.292493,23.715207],[121.292492,23.715297],[121.293571,23.715219],[121.293667,23.715401],[121.293863,23.715403],[121.293962,23.715314],[121.293867,23.715132],[121.294063,23.715134],[121.294461,23.714687],[121.294657,23.714689],[121.294859,23.71424],[121.295157,23.713972],[121.295847,23.713709],[121.295849,23.713529],[121.296048,23.71335],[121.296051,23.713079],[121.29635,23.712721],[121.296355,23.71236],[121.296258,23.712269],[121.295962,23.712356],[121.295861,23.712626],[121.295563,23.712893],[121.295367,23.712891],[121.295167,23.71316],[121.294971,23.713158],[121.29497,23.713248],[121.294775,23.713155],[121.294476,23.713513],[121.29428,23.713511],[121.293884,23.713778],[121.293492,23.713773],[121.293293,23.714042],[121.292313,23.713941],[121.292212,23.714211],[121.292113,23.71421],[121.292208,23.714482],[121.292013,23.714389],[121.291919,23.714117],[121.291623,23.714204],[121.291624,23.714114],[121.291135,23.714018],[121.290838,23.714286],[121.290445,23.714282],[121.290345,23.714461],[121.290051,23.714458],[121.28995,23.714637],[121.289362,23.714631],[121.289062,23.715079],[121.288965,23.714988],[121.288768,23.715076],[121.288666,23.715345],[121.28886,23.715528],[121.288565,23.715615],[121.288563,23.715706],[121.288274,23.715341],[121.28798,23.715338],[121.287982,23.715157],[121.28808,23.715158],[121.287984,23.714977],[121.287786,23.715155],[121.287689,23.715064],[121.287101,23.715057],[121.287001,23.715146],[121.287096,23.715418],[121.286897,23.715597],[121.287092,23.715689],[121.286991,23.715959],[121.287382,23.716054],[121.287381,23.716144],[121.287085,23.716231],[121.287375,23.716595],[121.286781,23.71704],[121.286587,23.716858],[121.286985,23.71641],[121.286791,23.716228],[121.286592,23.716496],[121.286102,23.716401],[121.286101,23.716491],[121.285806,23.716578],[121.286,23.716761],[121.286093,23.717123],[121.285799,23.71712],[121.285899,23.71694],[121.285606,23.716847],[121.285607,23.716756],[121.285508,23.716846],[121.285215,23.716752],[121.285115,23.716932]],[[121.290415,23.716629],[121.290416,23.716539],[121.290612,23.716541],[121.290611,23.716631],[121.290415,23.716629]],[[121.29022,23.716537],[121.290119,23.716716],[121.289628,23.716801],[121.289729,23.716531],[121.290122,23.716535],[121.29032,23.716357],[121.290416,23.716539],[121.29022,23.716537]],[[121.289628,23.716801],[121.289529,23.71689],[121.28953,23.7168],[121.289628,23.716801]],[[121.289526,23.717071],[121.28933,23.717069],[121.289329,23.717159],[121.289133,23.717157],[121.289332,23.716888],[121.289529,23.71689],[121.289526,23.717071]],[[121.295861,23.712626],[121.295958,23.712717],[121.29586,23.712716],[121.295861,23.712626]],[[121.288861,23.715438],[121.28896,23.715349],[121.288959,23.715439],[121.288861,23.715438]],[[121.288963,23.715168],[121.289061,23.715169],[121.289058,23.71535],[121.28896,23.715349],[121.288963,23.715168]],[[121.288463,23.715885],[121.288365,23.715884],[121.288266,23.715973],[121.288367,23.715703],[121.288465,23.715704],[121.288463,23.715885]],[[121.286289,23.717125],[121.286483,23.717308],[121.286382,23.717487],[121.286092,23.717213],[121.286093,23.717123],[121.286289,23.717125]],[[121.290179,23.719697],[121.290181,23.719516],[121.290279,23.719517],[121.290277,23.719698],[121.290179,23.719697]],[[121.290781,23.71862],[121.290684,23.718528],[121.290782,23.718529],[121.290781,23.71862]],[[121.289419,23.717792],[121.289318,23.717971],[121.289122,23.717969],[121.289223,23.71779],[121.289419,23.717792]],[[121.289615,23.717794],[121.289518,23.717703],[121.289616,23.717704],[121.289615,23.717794]],[[121.285988,23.717664],[121.285891,23.717572],[121.285989,23.717573],[121.285988,23.717664]],[[121.288931,23.717606],[121.288834,23.717515],[121.288932,23.717516],[121.288931,23.717606]],[[121.289229,23.717338],[121.289226,23.717519],[121.28903,23.717517],[121.289031,23.717426],[121.289229,23.717338]],[[121.28962,23.717433],[121.289622,23.717252],[121.28972,23.717253],[121.289718,23.717434],[121.28962,23.717433]],[[121.287368,23.717137],[121.287667,23.716779],[121.287863,23.716781],[121.288057,23.716964],[121.288054,23.717145],[121.287759,23.717232],[121.287758,23.717322],[121.287562,23.71732],[121.287368,23.717137]],[[121.288745,23.716791],[121.288743,23.716972],[121.288449,23.716968],[121.288549,23.716789],[121.288745,23.716791]],[[121.286392,23.716765],[121.286295,23.716674],[121.286393,23.716675],[121.286392,23.716765]],[[121.288653,23.716339],[121.288556,23.716247],[121.288654,23.716248],[121.288653,23.716339]],[[121.290125,23.716265],[121.290028,23.716173],[121.290126,23.716174],[121.290125,23.716265]],[[121.289543,23.715807],[121.289344,23.715985],[121.289342,23.716166],[121.289048,23.716162],[121.289151,23.715802],[121.289543,23.715807]],[[121.290323,23.716177],[121.290226,23.716085],[121.290324,23.716086],[121.290323,23.716177]],[[121.290523,23.715818],[121.290331,23.715545],[121.290035,23.715632],[121.290034,23.715722],[121.28984,23.715539],[121.289939,23.71554],[121.289941,23.71536],[121.290434,23.715184],[121.290535,23.714915],[121.291125,23.714831],[121.29122,23.715013],[121.291809,23.715019],[121.291806,23.7152],[121.291513,23.715106],[121.291311,23.715555],[121.291016,23.715642],[121.290816,23.715911],[121.290423,23.715997],[121.290425,23.715816],[121.290523,23.715818]],[[121.28758,23.715875],[121.287483,23.715784],[121.287582,23.715785],[121.28758,23.715875]],[[121.287975,23.715699],[121.287973,23.71588],[121.287678,23.715876],[121.28768,23.715786],[121.287975,23.715699]],[[121.287586,23.715424],[121.287489,23.715332],[121.287587,23.715334],[121.287586,23.715424]],[[121.287684,23.715425],[121.287687,23.715244],[121.287785,23.715245],[121.287782,23.715426],[121.287684,23.715425]],[[121.293973,23.714501],[121.293971,23.714682],[121.293873,23.714681],[121.293876,23.71441],[121.294172,23.714323],[121.293973,23.714501]],[[121.294173,23.714232],[121.294271,23.714234],[121.294273,23.714053],[121.294468,23.714145],[121.294366,23.714415],[121.294173,23.714232]],[[121.291031,23.714469],[121.290934,23.714377],[121.291032,23.714378],[121.291031,23.714469]],[[121.292404,23.714484],[121.292307,23.714392],[121.292405,23.714394],[121.292404,23.714484]]],[[[121.286111,23.715769],[121.28621,23.715679],[121.286212,23.715499],[121.286017,23.715406],[121.285819,23.715585],[121.285525,23.715582],[121.285523,23.715672],[121.28513,23.715758],[121.284633,23.716294],[121.284337,23.716381],[121.284431,23.716743],[121.284037,23.716829],[121.283937,23.717009],[121.283641,23.717096],[121.283639,23.717276],[121.283341,23.717544],[121.283334,23.718086],[121.283236,23.718085],[121.283234,23.718265],[121.283429,23.718358],[121.283423,23.718809],[121.283226,23.718897],[121.28332,23.719169],[121.283712,23.719173],[121.283714,23.719083],[121.28391,23.719085],[121.284005,23.719267],[121.284204,23.719089],[121.284497,23.719182],[121.284597,23.719003],[121.284403,23.71882],[121.284207,23.718818],[121.284211,23.718547],[121.284308,23.718638],[121.284798,23.718644],[121.284799,23.718553],[121.285288,23.718649],[121.28529,23.718559],[121.285585,23.718472],[121.285493,23.718019],[121.285396,23.717928],[121.285101,23.718015],[121.285103,23.717834],[121.285201,23.717835],[121.285105,23.717654],[121.284712,23.71774],[121.284709,23.71792],[121.284512,23.718008],[121.284609,23.7181],[121.284509,23.718279],[121.284314,23.718187],[121.284316,23.718006],[121.283929,23.717641],[121.284622,23.717107],[121.284525,23.717015],[121.284626,23.716836],[121.284917,23.71702],[121.285116,23.716841],[121.285024,23.716389],[121.28522,23.716391],[121.285321,23.716121],[121.285612,23.716395],[121.28591,23.716128],[121.285717,23.715855],[121.286111,23.715769]],[[121.284509,23.718279],[121.284606,23.718371],[121.284507,23.71837],[121.284509,23.718279]],[[121.285716,23.715945],[121.285617,23.716034],[121.285618,23.715944],[121.285716,23.715945]],[[121.284803,23.718283],[121.284902,23.718193],[121.284901,23.718284],[121.284803,23.718283]],[[121.284904,23.718013],[121.285004,23.717924],[121.285002,23.718014],[121.284904,23.718013]]],[[[121.285084,23.719279],[121.284891,23.719006],[121.284694,23.719094],[121.284887,23.719367],[121.285084,23.719279]]],[[[121.284102,23.719358],[121.283907,23.719266],[121.283807,23.719445],[121.284002,23.719538],[121.284102,23.719358]]],[[[121.282811,23.720608],[121.283506,23.719984],[121.283508,23.719803],[121.283705,23.719715],[121.28361,23.719534],[121.283216,23.719619],[121.283022,23.719437],[121.282526,23.719883],[121.281739,23.720055],[121.281733,23.720506],[121.282024,23.72078],[121.282514,23.720786],[121.282515,23.720695],[121.282811,23.720608]],[[121.282916,23.720068],[121.283015,23.719978],[121.283014,23.720069],[121.282916,23.720068]]],[[[121.285639,23.721813],[121.285242,23.72217],[121.285338,23.722352],[121.285534,23.722354],[121.285529,23.722715],[121.285822,23.722809],[121.286121,23.722451],[121.286318,23.722453],[121.286414,23.722544],[121.286313,23.722814],[121.286606,23.722908],[121.286705,23.722819],[121.286611,23.722547],[121.286807,23.722549],[121.286805,23.722639],[121.287002,23.722641],[121.287003,23.722551],[121.287296,23.722645],[121.287395,23.722555],[121.2875,23.722015],[121.287306,23.721832],[121.287505,23.721654],[121.287896,23.721748],[121.28809,23.721931],[121.28858,23.721936],[121.288682,23.721667],[121.288979,23.721399],[121.289275,23.721312],[121.289277,23.721131],[121.288984,23.721038],[121.288786,23.721216],[121.288783,23.721397],[121.288587,23.721395],[121.288586,23.721485],[121.288391,23.721392],[121.288392,23.721302],[121.288688,23.721215],[121.288691,23.720944],[121.28889,23.720766],[121.288892,23.720585],[121.288698,23.720403],[121.288501,23.720491],[121.288595,23.720763],[121.288399,23.72076],[121.288398,23.720851],[121.287907,23.720936],[121.287814,23.720483],[121.287519,23.72057],[121.287614,23.720842],[121.287319,23.720839],[121.287421,23.720569],[121.287226,23.720477],[121.287228,23.720296],[121.287625,23.719939],[121.287334,23.719755],[121.287434,23.719576],[121.287337,23.719485],[121.287042,23.719572],[121.286947,23.7193],[121.286452,23.719655],[121.28616,23.719471],[121.286262,23.719202],[121.286558,23.719024],[121.286465,23.718662],[121.28627,23.71857],[121.286171,23.718659],[121.286265,23.718931],[121.285967,23.719289],[121.285672,23.719285],[121.285674,23.719195],[121.285378,23.719282],[121.285285,23.71892],[121.285188,23.718829],[121.284991,23.718917],[121.284988,23.719097],[121.285279,23.719371],[121.285179,23.719551],[121.285373,23.719643],[121.285272,23.719913],[121.285467,23.720006],[121.285464,23.720186],[121.285267,23.720274],[121.285163,23.720725],[121.284966,23.720813],[121.285063,23.720904],[121.28496,23.721264],[121.284665,23.721351],[121.284362,23.72198],[121.284459,23.722071],[121.284754,23.721984],[121.284948,23.722167],[121.285247,23.721809],[121.285252,23.721448],[121.285841,23.721364],[121.285643,23.721543],[121.285639,23.721813]],[[121.287304,23.722013],[121.287206,23.722011],[121.287204,23.722192],[121.286911,23.722098],[121.286712,23.722277],[121.286714,23.722096],[121.286616,23.722095],[121.28672,23.721645],[121.286918,23.721557],[121.286914,23.721828],[121.287011,23.721919],[121.287208,23.721831],[121.287304,23.722013]],[[121.288392,23.721302],[121.288295,23.721211],[121.288393,23.721212],[121.288392,23.721302]],[[121.284754,23.721984],[121.284854,23.721895],[121.284852,23.721985],[121.284754,23.721984]],[[121.284854,23.721895],[121.284953,23.721806],[121.284952,23.721896],[121.284854,23.721895]],[[121.285841,23.721364],[121.285941,23.721275],[121.285939,23.721365],[121.285841,23.721364]],[[121.286836,23.720292],[121.286831,23.720653],[121.287025,23.720836],[121.286729,23.721013],[121.286438,23.720739],[121.28644,23.720558],[121.286538,23.720559],[121.286445,23.720197],[121.286642,23.720109],[121.286836,23.720292]],[[121.286446,23.720107],[121.286449,23.719926],[121.286645,23.719928],[121.286644,23.720019],[121.286446,23.720107]],[[121.286241,23.720827],[121.286338,23.720918],[121.28624,23.720917],[121.286241,23.720827]],[[121.285947,23.720824],[121.285753,23.720641],[121.285854,23.720371],[121.286342,23.720557],[121.286241,23.720827],[121.285947,23.720824]]],[[[121.294844,23.722909],[121.295042,23.72282],[121.295044,23.72264],[121.294849,23.722547],[121.294748,23.722817],[121.294844,23.722909]]],[[[121.294416,23.725703],[121.294319,23.725612],[121.294321,23.725431],[121.294419,23.725432],[121.294329,23.724799],[121.294527,23.724711],[121.294631,23.724261],[121.295025,23.724084],[121.29493,23.723903],[121.294733,23.723901],[121.294737,23.72363],[121.294639,23.723629],[121.294646,23.723087],[121.294844,23.722909],[121.294453,23.722814],[121.294351,23.723174],[121.294154,23.723172],[121.293961,23.722989],[121.293963,23.722809],[121.293865,23.722807],[121.293965,23.722628],[121.293867,23.722627],[121.293871,23.722356],[121.293676,23.722264],[121.293681,23.721902],[121.293486,23.72181],[121.293488,23.721629],[121.292907,23.721081],[121.292915,23.720449],[121.29272,23.720357],[121.292514,23.721077],[121.292317,23.721165],[121.292413,23.721347],[121.292217,23.721344],[121.292018,23.721523],[121.29211,23.721975],[121.292598,23.722161],[121.292594,23.722523],[121.292789,23.722615],[121.292491,23.722883],[121.292489,23.723063],[121.292683,23.723156],[121.292581,23.723516],[121.292776,23.723608],[121.292772,23.723879],[121.293063,23.724153],[121.293356,23.724247],[121.29345,23.724519],[121.293745,23.724522],[121.293938,23.724705],[121.293931,23.725246],[121.294223,23.72543],[121.294221,23.725611],[121.293729,23.725696],[121.293821,23.726148],[121.29392,23.726149],[121.293922,23.725969],[121.294314,23.725973],[121.294318,23.725702],[121.294416,23.725703]],[[121.293474,23.722713],[121.293573,23.722624],[121.293572,23.722714],[121.293474,23.722713]],[[121.293381,23.722351],[121.293479,23.722352],[121.293476,23.722532],[121.293378,23.722531],[121.293381,23.722351]],[[121.293287,23.721988],[121.293385,23.721989],[121.293383,23.72217],[121.293285,23.722169],[121.293287,23.721988]]],[[[121.290215,23.724393],[121.290811,23.723857],[121.290617,23.723675],[121.290619,23.723494],[121.29091,23.723768],[121.291107,23.72368],[121.29111,23.723499],[121.290915,23.723407],[121.291014,23.723318],[121.290918,23.723136],[121.290525,23.723222],[121.290524,23.723312],[121.290131,23.723308],[121.29003,23.723578],[121.289634,23.723844],[121.289828,23.724027],[121.290127,23.723669],[121.290323,23.723671],[121.29002,23.7243],[121.290215,23.724393]]],[[[121.29118,23.725667],[121.291973,23.724954],[121.291977,23.724683],[121.291879,23.724682],[121.291884,23.724321],[121.292082,23.724142],[121.291985,23.724051],[121.291988,23.72387],[121.292086,23.723871],[121.291992,23.723509],[121.291795,23.723597],[121.291887,23.72405],[121.291789,23.724049],[121.291686,23.724409],[121.291587,23.724498],[121.291098,23.724402],[121.290899,23.724581],[121.290891,23.725213],[121.290989,23.725214],[121.290889,23.725393],[121.29118,23.725667]]],[[[121.298969,23.707423],[121.298678,23.707148],[121.298681,23.706878],[121.298779,23.706879],[121.298686,23.706516],[121.299082,23.70625],[121.299085,23.705979],[121.299183,23.70598],[121.29909,23.705618],[121.299288,23.705439],[121.299192,23.705348],[121.299297,23.704807],[121.299695,23.70436],[121.299703,23.703728],[121.299217,23.703362],[121.299322,23.702821],[121.299032,23.702547],[121.299034,23.702366],[121.299132,23.702368],[121.299035,23.702276],[121.299042,23.701734],[121.29914,23.701736],[121.299243,23.701375],[121.298753,23.70137],[121.298657,23.701188],[121.298069,23.701182],[121.298065,23.701453],[121.29826,23.701545],[121.298152,23.702357],[121.298345,23.70254],[121.29834,23.702991],[121.298534,23.703083],[121.298627,23.703536],[121.299113,23.703812],[121.299203,23.704445],[121.299105,23.704444],[121.299102,23.704715],[121.298903,23.704893],[121.298897,23.705345],[121.298603,23.705342],[121.298404,23.70561],[121.297913,23.705605],[121.297809,23.706055],[121.298299,23.706151],[121.298589,23.706425],[121.298486,23.706785],[121.298192,23.706782],[121.297991,23.707141],[121.298186,23.707233],[121.298385,23.707055],[121.298579,23.707238],[121.298479,23.707327],[121.298575,23.707508],[121.298869,23.707512],[121.298969,23.707423]],[[121.298697,23.705704],[121.298796,23.705615],[121.298795,23.705705],[121.298697,23.705704]]],[[[121.297981,23.707953],[121.298084,23.707593],[121.298182,23.707594],[121.297989,23.707321],[121.297199,23.707764],[121.297295,23.707946],[121.297491,23.707948],[121.297492,23.707858],[121.297981,23.707953]]],[[[121.29773,23.712195],[121.298127,23.711838],[121.298129,23.711657],[121.298427,23.71139],[121.298442,23.710216],[121.29815,23.710032],[121.29796,23.709579],[121.297863,23.709487],[121.297568,23.709574],[121.297571,23.709303],[121.297473,23.709302],[121.297577,23.708852],[121.297775,23.708674],[121.298169,23.708588],[121.298176,23.708046],[121.298079,23.707955],[121.297981,23.707953],[121.297882,23.708043],[121.297877,23.708404],[121.297484,23.70849],[121.297382,23.70876],[121.297284,23.708758],[121.29728,23.709029],[121.296886,23.709206],[121.29708,23.709388],[121.297077,23.709569],[121.29737,23.709662],[121.297367,23.709933],[121.297659,23.710117],[121.297655,23.710388],[121.297947,23.710572],[121.297943,23.710843],[121.297746,23.710931],[121.29784,23.711293],[121.297741,23.711292],[121.297639,23.711652],[121.297148,23.711647],[121.297147,23.711737],[121.296756,23.711642],[121.296657,23.711731],[121.29675,23.712094],[121.297633,23.712103],[121.29773,23.712195]]],[[[121.301522,23.714675],[121.301622,23.714585],[121.301529,23.714133],[121.301628,23.714134],[121.301731,23.713684],[121.30193,23.713505],[121.301933,23.713234],[121.302132,23.713056],[121.302034,23.713055],[121.302037,23.712784],[121.301747,23.71251],[121.30155,23.712508],[121.301456,23.712236],[121.301162,23.712232],[121.301063,23.712322],[121.301057,23.712773],[121.300959,23.712772],[121.30095,23.713404],[121.301145,23.713496],[121.301142,23.713767],[121.301337,23.71386],[121.301332,23.714221],[121.301234,23.71422],[121.301131,23.71458],[121.301522,23.714675]]],[[[121.29771,23.71373],[121.297513,23.713818],[121.297608,23.713999],[121.297411,23.714088],[121.297209,23.714537],[121.297697,23.714723],[121.298084,23.715088],[121.298281,23.71509],[121.298382,23.714821],[121.298089,23.714727],[121.298292,23.714188],[121.298002,23.713913],[121.297806,23.713911],[121.29771,23.71373]],[[121.297806,23.713911],[121.297706,23.714],[121.297707,23.71391],[121.297806,23.713911]]],[[[121.296932,23.720764],[121.297329,23.720408],[121.297134,23.720315],[121.297243,23.719504],[121.297048,23.719411],[121.296651,23.719768],[121.296744,23.72013],[121.296445,23.720488],[121.296736,23.720762],[121.296932,23.720764]]],[[[121.302122,23.721363],[121.301934,23.720729],[121.302233,23.720371],[121.302141,23.719919],[121.301944,23.720007],[121.301837,23.720638],[121.30164,23.720726],[121.301731,23.721269],[121.301925,23.721451],[121.302122,23.721363]]],[[[121.303652,23.72445],[121.303361,23.724176],[121.303363,23.723996],[121.303461,23.723997],[121.303364,23.723905],[121.303368,23.723634],[121.303466,23.723635],[121.303374,23.723183],[121.303572,23.723005],[121.303477,23.722823],[121.303673,23.722825],[121.303973,23.722377],[121.303092,23.722187],[121.302993,23.722276],[121.30309,23.722367],[121.302991,23.722456],[121.303082,23.722999],[121.302788,23.722996],[121.30279,23.722815],[121.302595,23.722723],[121.302397,23.722901],[121.302394,23.723082],[121.302098,23.723259],[121.302095,23.72344],[121.302193,23.723441],[121.302189,23.723802],[121.302673,23.724259],[121.302871,23.724171],[121.302874,23.7239],[121.30307,23.723902],[121.303161,23.724445],[121.303552,23.724539],[121.303652,23.72445]]],[[[121.296566,23.726269],[121.296863,23.726091],[121.296865,23.725911],[121.296671,23.725728],[121.296676,23.725367],[121.296383,23.725273],[121.296288,23.725001],[121.296584,23.724914],[121.296678,23.725186],[121.296873,23.725279],[121.297173,23.72483],[121.297466,23.724924],[121.297863,23.724567],[121.297868,23.724206],[121.297673,23.724114],[121.297571,23.724383],[121.297274,23.724651],[121.296782,23.724736],[121.296689,23.724374],[121.296787,23.724375],[121.296789,23.724194],[121.296987,23.724106],[121.297088,23.723836],[121.296699,23.723561],[121.2966,23.72365],[121.296695,23.723922],[121.296496,23.724101],[121.2963,23.724098],[121.2962,23.724278],[121.295906,23.724275],[121.295805,23.724454],[121.295315,23.724449],[121.295314,23.724539],[121.294923,23.724444],[121.294822,23.724624],[121.29492,23.724625],[121.294917,23.724896],[121.29511,23.725079],[121.295699,23.725085],[121.295499,23.725354],[121.295792,23.725447],[121.295692,23.725627],[121.296079,23.725992],[121.296473,23.725906],[121.296566,23.726269]],[[121.295997,23.724818],[121.295998,23.724727],[121.296194,23.724729],[121.296193,23.72482],[121.295997,23.724818]]],[[[121.305759,23.728356],[121.306058,23.727998],[121.305669,23.727723],[121.305577,23.727271],[121.305189,23.726905],[121.304701,23.726719],[121.304703,23.726539],[121.304605,23.726538],[121.304713,23.725816],[121.304518,23.725724],[121.30422,23.725992],[121.30431,23.726625],[121.304505,23.726717],[121.304502,23.726988],[121.304304,23.727076],[121.304301,23.727347],[121.304594,23.72744],[121.304695,23.727171],[121.304891,23.727173],[121.305082,23.727626],[121.305375,23.72772],[121.305564,23.728264],[121.305759,23.728356]]],[[[121.303312,23.727968],[121.303216,23.727786],[121.302727,23.727691],[121.302729,23.72751],[121.302535,23.727328],[121.302339,23.727325],[121.30205,23.726961],[121.301754,23.727048],[121.30185,23.72723],[121.302046,23.727232],[121.30204,23.727683],[121.301843,23.727771],[121.301939,23.727953],[121.302233,23.727956],[121.302232,23.728047],[121.302526,23.72805],[121.302525,23.72814],[121.302917,23.728144],[121.302918,23.728054],[121.303312,23.727968]]]]}},{"type":"Feature","properties":{"kind":"bare_dam","month":"2021-04","area_ha":25.91},"geometry":{"type":"MultiPolygon","coordinates":[[[[121.300859,23.690196],[121.301446,23.690293],[121.301546,23.690113],[121.301253,23.69002],[121.301254,23.68993],[121.30096,23.689926],[121.300767,23.689744],[121.300472,23.68974],[121.300471,23.689831],[121.300374,23.689739],[121.298708,23.689721],[121.298607,23.6899],[121.298018,23.689984],[121.29762,23.690431],[121.297718,23.690432],[121.297712,23.690884],[121.297809,23.690975],[121.2983,23.69089],[121.298301,23.6908],[121.298694,23.690804],[121.298692,23.690895],[121.298889,23.690897],[121.298884,23.691258],[121.299078,23.691441],[121.29947,23.691445],[121.299471,23.691355],[121.299666,23.691447],[121.299765,23.691358],[121.299672,23.690996],[121.299868,23.690998],[121.300059,23.691361],[121.301334,23.691375],[121.301527,23.691558],[121.301822,23.691561],[121.301823,23.691471],[121.302214,23.691565],[121.302314,23.691386],[121.301924,23.691201],[121.302024,23.691112],[121.301928,23.69093],[121.301438,23.690925],[121.301439,23.690835],[121.301143,23.690922],[121.300853,23.690648],[121.300855,23.690467],[121.300562,23.690373],[121.300565,23.690193],[121.300661,23.690284],[121.300858,23.690286],[121.300859,23.690196]],[[121.300565,23.690193],[121.300468,23.690102],[121.300566,23.690103],[121.300565,23.690193]],[[121.300362,23.690732],[121.300555,23.690915],[121.300359,23.690913],[121.300362,23.690732]],[[121.299578,23.690634],[121.299581,23.690453],[121.299288,23.690359],[121.299289,23.690269],[121.300272,23.690099],[121.300267,23.690461],[121.30007,23.690549],[121.300164,23.690821],[121.299968,23.690818],[121.299872,23.690637],[121.299578,23.690634]],[[121.298997,23.690085],[121.298996,23.690176],[121.299192,23.690178],[121.29919,23.690358],[121.298799,23.690264],[121.298801,23.690083],[121.298997,23.690085]]],[[[121.30319,23.691937],[121.303578,23.692213],[121.303774,23.692215],[121.303775,23.692124],[121.304166,23.692219],[121.304168,23.692129],[121.304659,23.692044],[121.304759,23.691864],[121.304564,23.691772],[121.304563,23.691862],[121.303777,23.692034],[121.303584,23.691761],[121.303388,23.691759],[121.303488,23.691579],[121.303195,23.691486],[121.303197,23.691396],[121.303,23.691393],[121.302999,23.691484],[121.302412,23.691387],[121.302313,23.691476],[121.302409,23.691658],[121.303192,23.691757],[121.30319,23.691937]],[[121.303192,23.691757],[121.303291,23.691668],[121.30329,23.691758],[121.303192,23.691757]]],[[[121.298384,23.691975],[121.298284,23.692154],[121.298479,23.692247],[121.298579,23.692067],[121.298384,23.691975]]],[[[121.298675,23.692249],[121.298474,23.692608],[121.298572,23.692609],[121.298666,23.692971],[121.29915,23.693428],[121.299543,23.693342],[121.299541,23.693523],[121.299736,23.693615],[121.299733,23.693796],[121.299537,23.693794],[121.299344,23.693611],[121.299244,23.6937],[121.299339,23.693972],[121.299535,23.693974],[121.299536,23.693884],[121.299829,23.693977],[121.299928,23.693888],[121.299834,23.693616],[121.300128,23.693619],[121.300321,23.693892],[121.300713,23.693897],[121.30071,23.694077],[121.3011,23.694262],[121.301199,23.694173],[121.301105,23.693901],[121.301301,23.693903],[121.3013,23.693994],[121.301497,23.693905],[121.301013,23.693449],[121.300817,23.693446],[121.300526,23.693172],[121.300528,23.692992],[121.300333,23.692899],[121.300337,23.692628],[121.300143,23.692446],[121.299751,23.692441],[121.299657,23.692169],[121.299068,23.692163],[121.299071,23.691982],[121.298876,23.69189],[121.298578,23.692158],[121.298675,23.692249]],[[121.300328,23.693351],[121.300427,23.693262],[121.300426,23.693352],[121.300328,23.693351]],[[121.300329,23.69326],[121.300232,23.693169],[121.30033,23.69317],[121.300329,23.69326]],[[121.299357,23.692618],[121.29926,23.692526],[121.299358,23.692527],[121.299357,23.692618]]],[[[121.303151,23.694917],[121.30325,23.694828],[121.303156,23.694556],[121.302567,23.694549],[121.302468,23.694638],[121.302661,23.694911],[121.30276,23.694822],[121.303151,23.694917]]],[[[121.30266,23.695002],[121.302853,23.695184],[121.302954,23.695005],[121.302759,23.694913],[121.30266,23.695002]]],[[[121.303247,23.695098],[121.303052,23.695006],[121.302951,23.695186],[121.303146,23.695278],[121.303247,23.695098]]],[[[121.298965,23.700108],[121.298777,23.699474],[121.298975,23.699386],[121.299081,23.698755],[121.299377,23.698578],[121.29938,23.698397],[121.299479,23.698308],[121.299969,23.698313],[121.300267,23.698046],[121.300463,23.698048],[121.300657,23.698231],[121.301049,23.698235],[121.30214,23.697254],[121.302336,23.697256],[121.302733,23.696899],[121.302929,23.696901],[121.303128,23.696723],[121.303131,23.696452],[121.303229,23.696453],[121.303333,23.696002],[121.303431,23.696003],[121.30324,23.69564],[121.302943,23.695818],[121.30294,23.696088],[121.302744,23.696086],[121.302248,23.696532],[121.302245,23.696713],[121.301848,23.69707],[121.301846,23.69725],[121.301452,23.697427],[121.301453,23.697336],[121.300766,23.697329],[121.300768,23.697238],[121.300374,23.697324],[121.300375,23.697234],[121.299885,23.697229],[121.299886,23.697138],[121.299591,23.697226],[121.299498,23.696863],[121.299206,23.69668],[121.299306,23.6965],[121.299111,23.696408],[121.299025,23.695504],[121.29883,23.695411],[121.29874,23.694778],[121.298546,23.694595],[121.298349,23.694684],[121.298347,23.694864],[121.298151,23.694862],[121.29815,23.694952],[121.297955,23.69486],[121.297657,23.695127],[121.297749,23.69558],[121.297847,23.695581],[121.297745,23.695941],[121.298036,23.696125],[121.298124,23.696939],[121.298511,23.697304],[121.298507,23.697665],[121.298409,23.697664],[121.298307,23.697934],[121.2986,23.698027],[121.298599,23.698118],[121.298205,23.698204],[121.298202,23.698474],[121.298005,23.698563],[121.298097,23.699015],[121.2979,23.699103],[121.297897,23.699284],[121.2976,23.699551],[121.297207,23.699547],[121.297107,23.699727],[121.297204,23.699818],[121.297792,23.699824],[121.29798,23.700459],[121.299157,23.700472],[121.299159,23.700291],[121.298965,23.700108]],[[121.298699,23.697938],[121.299095,23.697672],[121.298999,23.69749],[121.299196,23.697402],[121.299194,23.697582],[121.299487,23.697676],[121.299486,23.697766],[121.298699,23.697938]],[[121.300957,23.697782],[121.301056,23.697693],[121.301055,23.697783],[121.300957,23.697782]],[[121.299879,23.69768],[121.299683,23.697678],[121.299684,23.697588],[121.299882,23.6975],[121.299879,23.69768]],[[121.29872,23.696313],[121.298523,23.696401],[121.298627,23.695951],[121.298725,23.695952],[121.29872,23.696313]]],[[[121.295743,23.699079],[121.295942,23.698811],[121.296332,23.698996],[121.296434,23.698726],[121.296337,23.698635],[121.296043,23.698631],[121.296041,23.698722],[121.295748,23.698628],[121.295352,23.698985],[121.295155,23.698983],[121.295055,23.699162],[121.295446,23.699257],[121.295447,23.699167],[121.295743,23.699079]]],[[[121.295057,23.698982],[121.294863,23.698889],[121.294762,23.699069],[121.294957,23.699161],[121.295057,23.698982]]],[[[121.311591,23.686792],[121.311491,23.686881],[121.311587,23.687063],[121.31139,23.687151],[121.311386,23.687422],[121.311288,23.687421],[121.311382,23.687783],[121.311678,23.687605],[121.31178,23.687336],[121.312172,23.68734],[121.312267,23.687522],[121.312465,23.687433],[121.312274,23.68698],[121.312077,23.687068],[121.311982,23.686886],[121.311784,23.686975],[121.311591,23.686792]],[[121.311784,23.686975],[121.311685,23.687064],[121.311686,23.686973],[121.311784,23.686975]]],[[[121.308802,23.690102],[121.308706,23.690011],[121.308508,23.690099],[121.308603,23.690371],[121.3088,23.690283],[121.308802,23.690102]]],[[[121.30829,23.691813],[121.308589,23.691455],[121.308785,23.691457],[121.308983,23.691278],[121.308987,23.691008],[121.308889,23.691006],[121.30899,23.690737],[121.308892,23.690736],[121.308799,23.690373],[121.308602,23.690462],[121.308598,23.690732],[121.3085,23.690731],[121.308595,23.691003],[121.307999,23.691539],[121.308094,23.69181],[121.30829,23.691813]],[[121.308693,23.691004],[121.308792,23.690915],[121.308791,23.691005],[121.308693,23.691004]]],[[[121.310647,23.691567],[121.310356,23.691293],[121.31016,23.691291],[121.309961,23.69147],[121.310252,23.691744],[121.310647,23.691567]]],[[[121.310833,23.692292],[121.31123,23.691935],[121.311136,23.691663],[121.31094,23.691661],[121.31074,23.69193],[121.310445,23.692017],[121.310637,23.69229],[121.310833,23.692292]]],[[[121.30691,23.692339],[121.307307,23.691982],[121.307212,23.691801],[121.306131,23.69197],[121.306132,23.691879],[121.305839,23.691786],[121.305744,23.691514],[121.305645,23.691603],[121.305352,23.69151],[121.305154,23.691688],[121.305152,23.691869],[121.304757,23.692045],[121.304755,23.692225],[121.305048,23.692319],[121.305348,23.691871],[121.305739,23.691965],[121.305932,23.692148],[121.305929,23.692419],[121.305831,23.692418],[121.305928,23.692509],[121.305925,23.69269],[121.305827,23.692689],[121.305922,23.692961],[121.306118,23.692963],[121.306417,23.692605],[121.306613,23.692607],[121.306811,23.692429],[121.306814,23.692248],[121.30691,23.692339]],[[121.306814,23.692248],[121.306717,23.692157],[121.306815,23.692158],[121.306814,23.692248]]],[[[121.305915,23.693502],[121.30572,23.69341],[121.30562,23.693589],[121.305815,23.693682],[121.305915,23.693502]]],[[[121.30422,23.695651],[121.304715,23.695295],[121.304818,23.694935],[121.304915,23.695026],[121.305112,23.694938],[121.305314,23.694489],[121.305806,23.694314],[121.305813,23.693772],[121.305716,23.693681],[121.305421,23.693768],[121.305222,23.694037],[121.305026,23.694034],[121.304826,23.694303],[121.30463,23.694301],[121.304134,23.694747],[121.304032,23.695017],[121.303639,23.695103],[121.303731,23.695555],[121.30422,23.695651]]],[[[121.30353,23.695914],[121.303627,23.696006],[121.303823,23.696008],[121.303925,23.695738],[121.303632,23.695644],[121.303533,23.695734],[121.30353,23.695914]]]]}},{"type":"Feature","properties":{"kind":"water","month":"2021-04","area_ha":0.1},"geometry":{"type":"Polygon","coordinates":[[[121.298699,23.697938],[121.2988,23.697759],[121.299487,23.697676],[121.299486,23.697766],[121.298699,23.697938]]]}}]}