{"type":"FeatureCollection","features":[{"type":"Feature","properties":{"kind":"bare_slide","month":"2022-10","area_ha":115.57},"geometry":{"type":"MultiPolygon","coordinates":[[[[121.29919,23.705438],[121.299092,23.705437],[121.299197,23.704897],[121.299395,23.704809],[121.299397,23.704628],[121.299595,23.70445],[121.299601,23.703998],[121.299699,23.703999],[121.299605,23.703727],[121.29941,23.703635],[121.299412,23.703454],[121.299217,23.703362],[121.299224,23.70282],[121.299126,23.702819],[121.299133,23.702277],[121.299035,23.702276],[121.299042,23.701734],[121.29914,23.701736],[121.299243,23.701375],[121.298753,23.70137],[121.298657,23.701188],[121.297971,23.701181],[121.298063,23.701633],[121.298161,23.701634],[121.298155,23.702086],[121.298056,23.702175],[121.298154,23.702176],[121.298243,23.7029],[121.298532,23.703264],[121.298529,23.703535],[121.298819,23.703809],[121.299015,23.703811],[121.299103,23.704625],[121.299005,23.704624],[121.298798,23.705434],[121.298014,23.705425],[121.297518,23.705871],[121.297811,23.705965],[121.297906,23.706147],[121.298493,23.706243],[121.298489,23.706605],[121.298684,23.706697],[121.298986,23.706068],[121.299084,23.706069],[121.298992,23.705617],[121.29919,23.705438]],[[121.298992,23.705617],[121.298895,23.705525],[121.298993,23.705526],[121.298992,23.705617]],[[121.299019,23.70354],[121.298922,23.703449],[121.29902,23.70345],[121.299019,23.70354]]],[[[121.297632,23.712194],[121.298128,23.711748],[121.29813,23.711567],[121.298329,23.711389],[121.29844,23.710397],[121.29815,23.710032],[121.297855,23.710119],[121.298054,23.709851],[121.297859,23.709758],[121.297765,23.709486],[121.297666,23.709575],[121.297471,23.709483],[121.297477,23.709031],[121.297576,23.708942],[121.297381,23.70885],[121.29738,23.70894],[121.297084,23.709027],[121.297082,23.709208],[121.296884,23.709386],[121.296982,23.709387],[121.297076,23.709659],[121.297272,23.709661],[121.297269,23.709932],[121.297561,23.710116],[121.297654,23.710478],[121.297849,23.710571],[121.297738,23.711563],[121.297247,23.711648],[121.297245,23.711738],[121.296755,23.711733],[121.296653,23.712002],[121.29675,23.712094],[121.297339,23.7121],[121.297338,23.71219],[121.297632,23.712194]]],[[[121.292239,23.712134],[121.292437,23.711956],[121.292439,23.711775],[121.292732,23.711869],[121.292734,23.711778],[121.293127,23.711693],[121.293227,23.711513],[121.293621,23.711427],[121.293721,23.711248],[121.293526,23.711155],[121.293525,23.711245],[121.293132,23.711331],[121.293031,23.711511],[121.292541,23.711505],[121.29254,23.711596],[121.292146,23.711682],[121.292044,23.712042],[121.292239,23.712134]]],[[[121.29838,23.715001],[121.298282,23.715],[121.298191,23.714457],[121.298094,23.714366],[121.297897,23.714454],[121.297802,23.714182],[121.297704,23.714181],[121.297706,23.714],[121.297901,23.714093],[121.298002,23.713913],[121.297612,23.713729],[121.29751,23.713998],[121.297412,23.713997],[121.297409,23.714268],[121.297211,23.714356],[121.297209,23.714537],[121.297697,23.714723],[121.298181,23.71518],[121.29838,23.715001]]],[[[121.283859,23.715473],[121.284356,23.714937],[121.284359,23.714756],[121.284164,23.714664],[121.284269,23.714123],[121.284565,23.713946],[121.284375,23.713492],[121.282987,23.71465],[121.282981,23.715102],[121.283078,23.715193],[121.283569,23.715108],[121.283567,23.715289],[121.283469,23.715288],[121.283563,23.71556],[121.283859,23.715473]]],[[[121.284849,23.722256],[121.284949,23.722077],[121.285145,23.722079],[121.285039,23.72271],[121.285233,23.722893],[121.285527,23.722896],[121.285623,23.723077],[121.286016,23.722992],[121.28621,23.723174],[121.286602,23.723179],[121.2869,23.722911],[121.286902,23.72273],[121.287195,23.722824],[121.287394,23.722646],[121.287396,23.722465],[121.287692,23.722378],[121.287693,23.722288],[121.287889,23.72229],[121.287985,23.722472],[121.288182,23.722383],[121.288473,23.722658],[121.288573,23.722478],[121.288769,23.72248],[121.288968,23.722302],[121.289069,23.722032],[121.289363,23.722035],[121.289662,23.721677],[121.290055,23.721682],[121.290051,23.721953],[121.289756,23.72204],[121.289557,23.722218],[121.289555,23.722399],[121.289359,23.722396],[121.289257,23.722666],[121.288961,23.722844],[121.289348,23.723209],[121.289547,23.723031],[121.289549,23.72285],[121.289945,23.722584],[121.289947,23.722403],[121.290045,23.722404],[121.289949,23.722222],[121.290246,23.722045],[121.290248,23.721865],[121.290444,23.721867],[121.290841,23.72151],[121.290844,23.721329],[121.290454,23.721144],[121.290456,23.720964],[121.290554,23.720965],[121.290466,23.720242],[121.290664,23.720063],[121.290768,23.719613],[121.290965,23.719525],[121.291072,23.718894],[121.291171,23.718805],[121.291661,23.71881],[121.29186,23.718632],[121.291768,23.718179],[121.291966,23.718001],[121.29197,23.71773],[121.292265,23.717643],[121.292459,23.717825],[121.292657,23.717647],[121.292662,23.717286],[121.292564,23.717285],[121.292664,23.717105],[121.292858,23.717288],[121.293153,23.717201],[121.293156,23.71702],[121.292863,23.716927],[121.292864,23.716837],[121.292668,23.716834],[121.292469,23.717013],[121.292572,23.716653],[121.292377,23.71656],[121.292179,23.716739],[121.292176,23.716919],[121.291979,23.717007],[121.291876,23.717368],[121.291385,23.717452],[121.290988,23.717809],[121.290596,23.717805],[121.290397,23.717983],[121.290395,23.718164],[121.29,23.71834],[121.290095,23.718612],[121.290386,23.718796],[121.290286,23.718975],[121.289992,23.718972],[121.28989,23.719242],[121.289596,23.719239],[121.289595,23.719329],[121.289302,23.719235],[121.289203,23.719325],[121.289012,23.718871],[121.289409,23.718514],[121.289412,23.718334],[121.289706,23.718337],[121.289807,23.718067],[121.290005,23.717979],[121.289816,23.717435],[121.290112,23.717258],[121.290117,23.716897],[121.290411,23.7169],[121.29061,23.716721],[121.290612,23.716541],[121.291105,23.716366],[121.291206,23.716096],[121.291404,23.716008],[121.291406,23.715827],[121.291803,23.71547],[121.292097,23.715474],[121.292098,23.715383],[121.292292,23.715566],[121.292488,23.715568],[121.292588,23.715389],[121.292981,23.715393],[121.293076,23.715575],[121.293568,23.71549],[121.293569,23.7154],[121.293961,23.715404],[121.293759,23.715853],[121.293661,23.715852],[121.293757,23.716034],[121.29425,23.715859],[121.294547,23.715591],[121.29494,23.715595],[121.295035,23.715777],[121.295231,23.715779],[121.295228,23.71605],[121.295423,23.716142],[121.295622,23.715874],[121.295041,23.715326],[121.294845,23.715323],[121.294846,23.715233],[121.294159,23.715316],[121.294063,23.715134],[121.294161,23.715135],[121.294163,23.714955],[121.294359,23.714957],[121.294756,23.7146],[121.294952,23.714602],[121.295352,23.714065],[121.295942,23.713891],[121.295948,23.713439],[121.296246,23.713172],[121.296254,23.71254],[121.295961,23.712446],[121.295758,23.712986],[121.295464,23.712982],[121.295463,23.713073],[121.294971,23.713158],[121.29497,23.713248],[121.294677,23.713154],[121.294377,23.713603],[121.293589,23.713865],[121.293192,23.714222],[121.292311,23.714122],[121.29221,23.714301],[121.292404,23.714484],[121.292208,23.714482],[121.292207,23.714572],[121.292011,23.71457],[121.291819,23.714206],[121.291524,23.714294],[121.291525,23.714203],[121.291035,23.714198],[121.290938,23.714106],[121.290738,23.714375],[121.290444,23.714372],[121.290344,23.714551],[121.289951,23.714547],[121.289851,23.714727],[121.289168,23.714448],[121.28877,23.714895],[121.288476,23.714892],[121.288475,23.714982],[121.288378,23.714891],[121.287004,23.714966],[121.286903,23.715145],[121.286313,23.715319],[121.286408,23.715501],[121.286801,23.715505],[121.286602,23.715684],[121.2866,23.715864],[121.286892,23.716048],[121.286889,23.716229],[121.286497,23.716224],[121.286397,23.716404],[121.28571,23.716396],[121.286107,23.71604],[121.286112,23.715678],[121.286309,23.71559],[121.286213,23.715409],[121.285329,23.715579],[121.285228,23.715759],[121.284835,23.715845],[121.284536,23.716203],[121.28434,23.716201],[121.28424,23.71629],[121.284235,23.716741],[121.284331,23.716833],[121.284232,23.716922],[121.284037,23.716829],[121.283243,23.717543],[121.283334,23.718086],[121.283136,23.718264],[121.283234,23.718265],[121.283328,23.718537],[121.283031,23.718805],[121.283125,23.719077],[121.282829,23.719254],[121.282826,23.719435],[121.282728,23.719433],[121.282726,23.719614],[121.282528,23.719702],[121.282427,23.719972],[121.281935,23.720057],[121.281737,23.720235],[121.281732,23.720596],[121.282023,23.72087],[121.282317,23.720874],[121.282417,23.720694],[121.282811,23.720608],[121.282914,23.720248],[121.28311,23.72025],[121.283606,23.719804],[121.283608,23.719624],[121.283804,23.719626],[121.2842,23.719359],[121.284105,23.719178],[121.284497,23.719182],[121.284689,23.719455],[121.284984,23.719458],[121.285083,23.719369],[121.284987,23.719188],[121.285183,23.71919],[121.285078,23.71973],[121.285273,23.719823],[121.285173,23.720002],[121.285368,23.720095],[121.285365,23.720275],[121.285168,23.720363],[121.285162,23.720815],[121.285064,23.720814],[121.28496,23.721264],[121.284564,23.721531],[121.284461,23.721891],[121.284264,23.721979],[121.284262,23.722159],[121.284063,23.722338],[121.284355,23.722522],[121.284459,23.722071],[121.284655,23.722073],[121.284849,23.722256]],[[121.288573,23.722478],[121.288476,23.722387],[121.288574,23.722388],[121.288573,23.722478]],[[121.288476,23.722387],[121.288379,23.722295],[121.288282,23.722204],[121.288478,23.722206],[121.288476,23.722387]],[[121.284655,23.722073],[121.284754,23.721984],[121.284753,23.722075],[121.284655,23.722073]],[[121.284754,23.721984],[121.284854,23.721895],[121.284852,23.721985],[121.284754,23.721984]],[[121.285544,23.721632],[121.285541,23.721812],[121.285245,23.72199],[121.285252,23.721448],[121.285644,23.721452],[121.285642,23.721633],[121.285544,23.721632]],[[121.287601,23.721835],[121.287504,23.721744],[121.287602,23.721745],[121.287601,23.721835]],[[121.289179,23.72113],[121.289181,23.72095],[121.289378,23.720952],[121.289375,23.721132],[121.289179,23.72113]],[[121.288997,23.720045],[121.288996,23.720135],[121.289192,23.720137],[121.28919,23.720318],[121.288796,23.720404],[121.288703,23.720041],[121.288997,23.720045]],[[121.290176,23.719877],[121.290079,23.719786],[121.290177,23.719787],[121.290176,23.719877]],[[121.28371,23.719354],[121.283709,23.719444],[121.283315,23.71953],[121.283319,23.719259],[121.28371,23.719354]],[[121.29018,23.719606],[121.290182,23.719426],[121.29028,23.719427],[121.290278,23.719607],[121.29018,23.719606]],[[121.290281,23.719337],[121.290284,23.719156],[121.290382,23.719157],[121.290379,23.719338],[121.290281,23.719337]],[[121.290675,23.719251],[121.290677,23.71907],[121.290775,23.719071],[121.290773,23.719252],[121.290675,23.719251]],[[121.284401,23.719],[121.284112,23.718636],[121.284503,23.718731],[121.284695,23.719004],[121.284401,23.719]],[[121.288227,23.718953],[121.288426,23.718684],[121.288621,23.718776],[121.288422,23.719045],[121.288227,23.718953]],[[121.287252,23.71849],[121.287351,23.718401],[121.287546,23.718494],[121.287445,23.718763],[121.28725,23.718671],[121.287252,23.71849]],[[121.288236,23.71823],[121.288533,23.718053],[121.288628,23.718235],[121.288231,23.718591],[121.288236,23.71823]],[[121.287261,23.717768],[121.287165,23.717677],[121.287263,23.717678],[121.287261,23.717768]],[[121.289037,23.716975],[121.289041,23.716704],[121.289334,23.716798],[121.289135,23.716976],[121.289132,23.717247],[121.288937,23.717154],[121.288939,23.716974],[121.289037,23.716975]],[[121.28845,23.716878],[121.288548,23.716879],[121.288546,23.71706],[121.288448,23.717059],[121.28845,23.716878]],[[121.28845,23.716878],[121.288353,23.716787],[121.288451,23.716788],[121.28845,23.716878]],[[121.285513,23.716484],[121.285511,23.716665],[121.285216,23.716662],[121.285317,23.716482],[121.285513,23.716484]],[[121.290221,23.716446],[121.290124,23.716355],[121.290222,23.716356],[121.290221,23.716446]],[[121.289048,23.716162],[121.289052,23.715801],[121.289249,23.715803],[121.289244,23.716165],[121.289048,23.716162]],[[121.290621,23.715819],[121.290527,23.715547],[121.290234,23.715453],[121.290138,23.715271],[121.290535,23.714915],[121.290632,23.715006],[121.291123,23.714921],[121.291121,23.715102],[121.291316,23.715194],[121.29131,23.715646],[121.291016,23.715642],[121.290816,23.715911],[121.290522,23.715908],[121.290621,23.715819]],[[121.294468,23.714145],[121.294371,23.714054],[121.294469,23.714055],[121.294468,23.714145]]],[[[121.292123,23.720982],[121.291831,23.720798],[121.291731,23.720978],[121.292023,23.721162],[121.292123,23.720982]]],[[[121.294412,23.725974],[121.294513,23.725794],[121.294905,23.725799],[121.294906,23.725708],[121.295297,23.725803],[121.295298,23.725713],[121.295692,23.725627],[121.296076,23.726263],[121.296762,23.726271],[121.296862,23.726182],[121.296772,23.725548],[121.296674,23.725547],[121.296579,23.725275],[121.296285,23.725272],[121.296288,23.725001],[121.296583,23.725005],[121.29658,23.725185],[121.296775,23.725278],[121.297074,23.72492],[121.297367,23.725013],[121.297469,23.724743],[121.297865,23.724477],[121.297872,23.723935],[121.297773,23.723934],[121.297883,23.723032],[121.297785,23.723031],[121.297691,23.722759],[121.297493,23.722847],[121.297587,23.72321],[121.297191,23.723476],[121.297287,23.723658],[121.297678,23.723752],[121.297574,23.724203],[121.297375,23.724381],[121.297082,23.724288],[121.297081,23.724378],[121.296688,23.724464],[121.29669,23.724283],[121.296988,23.724016],[121.296991,23.723745],[121.296701,23.723471],[121.296502,23.723649],[121.296109,23.723735],[121.295915,23.723552],[121.295923,23.72292],[121.29563,23.722827],[121.295632,23.722646],[121.295439,23.722464],[121.295441,23.722283],[121.295837,23.722016],[121.295839,23.721836],[121.296137,23.721568],[121.296628,23.721483],[121.29663,23.721393],[121.297021,23.721488],[121.297022,23.721397],[121.297317,23.72131],[121.297223,23.721038],[121.297024,23.721217],[121.296829,23.721124],[121.296931,23.720855],[121.297127,23.720857],[121.297126,23.720947],[121.297323,23.720859],[121.297228,23.720587],[121.29713,23.720586],[121.297133,23.720405],[121.297231,23.720406],[121.297134,23.720315],[121.297147,23.719322],[121.297049,23.719321],[121.296954,23.719049],[121.296659,23.719136],[121.296853,23.719319],[121.296849,23.71959],[121.296551,23.719857],[121.296548,23.720128],[121.296351,23.720216],[121.296348,23.720397],[121.296543,23.720489],[121.29654,23.72076],[121.296244,23.720847],[121.296144,23.721027],[121.295948,23.721024],[121.295846,23.721294],[121.295449,23.721651],[121.294665,23.721642],[121.294666,23.721552],[121.294372,23.721549],[121.294373,23.721459],[121.293981,23.721454],[121.293683,23.721722],[121.293392,23.721448],[121.293195,23.721536],[121.292806,23.721261],[121.29291,23.72081],[121.29262,23.720536],[121.292518,23.720806],[121.292322,23.720804],[121.29222,23.721074],[121.292122,23.721073],[121.292217,23.721344],[121.291822,23.721521],[121.292016,23.721703],[121.292013,23.721884],[121.292305,23.722068],[121.292303,23.722248],[121.292107,23.722246],[121.292106,23.722337],[121.29191,23.722334],[121.291814,23.722153],[121.29142,23.722239],[121.291423,23.722058],[121.291131,23.721874],[121.290929,23.722324],[121.290831,23.722322],[121.290826,23.722684],[121.29043,23.72295],[121.290329,23.72322],[121.290133,23.723218],[121.289934,23.723396],[121.29003,23.723578],[121.289833,23.723666],[121.289928,23.723848],[121.290224,23.723761],[121.290219,23.724122],[121.289922,23.724299],[121.290018,23.724481],[121.290217,23.724302],[121.29061,23.724216],[121.290712,23.723946],[121.290908,23.723949],[121.2911,23.724222],[121.291393,23.724315],[121.291391,23.724496],[121.291,23.724401],[121.290898,23.724671],[121.290502,23.724937],[121.290598,23.725119],[121.290891,23.725213],[121.290889,23.725393],[121.290593,23.72548],[121.290786,23.725753],[121.291275,23.725849],[121.291477,23.7254],[121.291874,23.725043],[121.29207,23.725045],[121.292064,23.725497],[121.292163,23.725498],[121.292352,23.726041],[121.293333,23.725962],[121.293231,23.726322],[121.293525,23.726325],[121.293527,23.726145],[121.29392,23.726149],[121.293922,23.725969],[121.294412,23.725974]],[[121.29227,23.724776],[121.291975,23.724863],[121.292077,23.724503],[121.292274,23.724506],[121.29227,23.724776]],[[121.295704,23.724724],[121.296096,23.724728],[121.296095,23.724819],[121.295702,23.724814],[121.295704,23.724724]],[[121.295708,23.724363],[121.296103,23.724187],[121.296101,23.724367],[121.295608,23.724542],[121.295611,23.724271],[121.295708,23.724363]],[[121.295324,23.723727],[121.295519,23.723819],[121.295418,23.724089],[121.295224,23.723906],[121.295324,23.723727]],[[121.293777,23.721994],[121.293877,23.721905],[121.293876,23.721995],[121.293777,23.721994]]],[[[121.289346,23.72339],[121.289152,23.723207],[121.288854,23.723474],[121.289147,23.723568],[121.289346,23.72339]]],[[[121.300333,23.70807],[121.300431,23.708071],[121.300335,23.707889],[121.29965,23.707791],[121.299362,23.707337],[121.299263,23.707426],[121.298774,23.70733],[121.29858,23.707147],[121.298582,23.706967],[121.29868,23.706968],[121.298586,23.706696],[121.29819,23.706962],[121.298481,23.707237],[121.298575,23.707508],[121.298966,23.707603],[121.298865,23.707873],[121.299158,23.707966],[121.299252,23.708238],[121.299648,23.707972],[121.299937,23.708336],[121.300232,23.708339],[121.300333,23.70807]],[[121.299257,23.707877],[121.299259,23.707697],[121.299357,23.707698],[121.299355,23.707878],[121.299257,23.707877]]],[[[121.30137,23.711332],[121.301175,23.711239],[121.300984,23.710786],[121.300403,23.710238],[121.300207,23.710235],[121.300112,23.709963],[121.299531,23.709415],[121.299335,23.709413],[121.299336,23.709323],[121.299139,23.709411],[121.299623,23.709868],[121.299715,23.71032],[121.30001,23.710324],[121.300202,23.710597],[121.300496,23.7106],[121.30069,23.710783],[121.300686,23.711144],[121.300979,23.711237],[121.301171,23.71151],[121.30137,23.711332]]],[[[121.301464,23.711604],[121.301269,23.711511],[121.301169,23.711691],[121.301364,23.711783],[121.301464,23.711604]]],[[[121.301429,23.714312],[121.301727,23.714045],[121.301733,23.713593],[121.30193,23.713505],[121.302033,23.713145],[121.301935,23.713144],[121.301842,23.712691],[121.301358,23.712235],[121.301064,23.712231],[121.300964,23.712321],[121.300959,23.712772],[121.300761,23.71286],[121.300757,23.713221],[121.30095,23.713404],[121.300947,23.713675],[121.301239,23.713859],[121.301234,23.71422],[121.301136,23.714219],[121.301033,23.714579],[121.301326,23.714672],[121.301429,23.714312]]],[[[121.302122,23.721363],[121.302024,23.721362],[121.301933,23.720819],[121.302031,23.72082],[121.302035,23.72055],[121.302133,23.720551],[121.302239,23.71992],[121.302044,23.719827],[121.301842,23.720277],[121.301744,23.720275],[121.301739,23.720637],[121.301641,23.720636],[121.301539,23.720996],[121.301734,23.721088],[121.30173,23.721359],[121.301924,23.721542],[121.302122,23.721363]]],[[[121.30056,23.720804],[121.300759,23.720626],[121.300661,23.720625],[121.300667,23.720173],[121.300376,23.719899],[121.300177,23.720078],[121.300175,23.720258],[121.299979,23.720256],[121.29978,23.720435],[121.299778,23.720615],[121.29968,23.720614],[121.299678,23.720795],[121.299379,23.721152],[121.299374,23.721514],[121.299276,23.721513],[121.299268,23.722145],[121.299463,23.722237],[121.299362,23.722416],[121.299749,23.722872],[121.300146,23.722515],[121.299952,23.722333],[121.299954,23.722152],[121.300052,23.722153],[121.300155,23.721793],[121.300352,23.721705],[121.300364,23.720802],[121.30017,23.720619],[121.300465,23.720623],[121.30056,23.720804]],[[121.300172,23.720529],[121.300071,23.720709],[121.299973,23.720708],[121.299975,23.720527],[121.300172,23.720529]]],[[[121.302989,23.722637],[121.302886,23.722997],[121.302595,23.722723],[121.302398,23.722811],[121.302394,23.723082],[121.302,23.723258],[121.302097,23.72335],[121.301994,23.72371],[121.302481,23.723986],[121.302477,23.724257],[121.302671,23.724439],[121.302868,23.724351],[121.302872,23.72408],[121.30297,23.724082],[121.303063,23.724444],[121.303258,23.724536],[121.303357,23.724447],[121.303269,23.723724],[121.303565,23.723546],[121.303371,23.723364],[121.303375,23.723093],[121.303474,23.723003],[121.303669,23.723096],[121.303771,23.722826],[121.303577,23.722643],[121.304166,23.72256],[121.304268,23.72229],[121.304171,23.722198],[121.303877,23.722195],[121.303876,23.722285],[121.302896,23.722184],[121.302797,23.722274],[121.302701,23.722092],[121.302408,23.721998],[121.302308,23.722178],[121.302989,23.722637]],[[121.302795,23.722454],[121.302894,23.722365],[121.302893,23.722455],[121.302795,23.722454]]],[[[121.305572,23.727632],[121.305478,23.72736],[121.305283,23.727267],[121.305285,23.727087],[121.305091,23.726904],[121.3047,23.726809],[121.304604,23.726628],[121.304407,23.726716],[121.304502,23.726988],[121.304205,23.727165],[121.3043,23.727437],[121.304594,23.72744],[121.304694,23.727261],[121.304988,23.727264],[121.305375,23.72772],[121.305572,23.727632]]],[[[121.303015,23.728145],[121.303215,23.727877],[121.302728,23.727601],[121.302927,23.727422],[121.302929,23.727242],[121.302637,23.727058],[121.302535,23.727328],[121.302339,23.727325],[121.301951,23.72705],[121.301851,23.727139],[121.301944,23.727592],[121.301745,23.72777],[121.302136,23.727865],[121.30233,23.728048],[121.302722,23.728052],[121.302721,23.728142],[121.302918,23.728054],[121.303015,23.728145]]]]}},{"type":"Feature","properties":{"kind":"bare_dam","month":"2022-10","area_ha":22.08},"geometry":{"type":"MultiPolygon","coordinates":[[[[121.298757,23.693514],[121.298853,23.693605],[121.298753,23.693785],[121.299044,23.694059],[121.299829,23.693977],[121.299928,23.693888],[121.299833,23.693707],[121.300127,23.69371],[121.300126,23.6938],[121.300322,23.693802],[121.300417,23.693984],[121.300712,23.693987],[121.301002,23.694261],[121.301104,23.693991],[121.301301,23.693903],[121.301205,23.693722],[121.301009,23.693719],[121.300428,23.693171],[121.300336,23.692719],[121.300142,23.692536],[121.299751,23.692441],[121.299753,23.692261],[121.29956,23.692078],[121.299068,23.692163],[121.299071,23.691982],[121.298488,23.691525],[121.298388,23.691704],[121.29868,23.691888],[121.298677,23.692068],[121.298286,23.691974],[121.298185,23.692244],[121.298478,23.692337],[121.298472,23.692789],[121.298955,23.693336],[121.298757,23.693514]],[[121.301104,23.693991],[121.301007,23.6939],[121.301105,23.693901],[121.301104,23.693991]],[[121.298478,23.692337],[121.298577,23.692248],[121.298576,23.692338],[121.298478,23.692337]],[[121.298954,23.693426],[121.299051,23.693517],[121.298953,23.693516],[121.298954,23.693426]],[[121.299346,23.69343],[121.299247,23.693519],[121.299248,23.693429],[121.299346,23.69343]],[[121.300231,23.693259],[121.300426,23.693352],[121.300424,23.693442],[121.300228,23.69344],[121.300231,23.693259]],[[121.299646,23.692982],[121.299547,23.693071],[121.299548,23.692981],[121.299646,23.692982]]],[[[121.298724,23.696042],[121.298921,23.695954],[121.298825,23.695772],[121.299023,23.695684],[121.299025,23.695504],[121.298831,23.695321],[121.298635,23.695319],[121.298536,23.695408],[121.298534,23.695589],[121.298728,23.695681],[121.298627,23.695951],[121.298724,23.696042]]],[[[121.298248,23.694953],[121.298055,23.69468],[121.29776,23.694767],[121.297854,23.695039],[121.297558,23.695217],[121.297555,23.695397],[121.297654,23.695398],[121.297648,23.69585],[121.297548,23.695939],[121.297743,23.696031],[121.297836,23.696484],[121.29803,23.696576],[121.298025,23.697028],[121.298316,23.697212],[121.298314,23.697392],[121.298508,23.697575],[121.298505,23.697755],[121.298307,23.697934],[121.2986,23.698027],[121.298699,23.697938],[121.298606,23.697576],[121.298898,23.69776],[121.298999,23.69749],[121.299193,23.697673],[121.299389,23.697675],[121.299489,23.697495],[121.299295,23.697403],[121.299205,23.69677],[121.298818,23.696314],[121.298622,23.696312],[121.298423,23.696581],[121.298228,23.696488],[121.298329,23.696218],[121.298426,23.69631],[121.298623,23.696222],[121.298627,23.695951],[121.298239,23.695585],[121.298539,23.695137],[121.298148,23.695042],[121.298248,23.694953]],[[121.298148,23.695042],[121.298049,23.695132],[121.29805,23.695041],[121.298148,23.695042]],[[121.298049,23.695132],[121.29795,23.695221],[121.297951,23.695131],[121.298049,23.695132]]],[[[121.299979,23.697591],[121.300276,23.697323],[121.300082,23.697141],[121.299886,23.697138],[121.299987,23.696959],[121.299792,23.696867],[121.299693,23.696956],[121.299789,23.697047],[121.299687,23.697407],[121.29998,23.697501],[121.299979,23.697591]]],[[[121.296432,23.698816],[121.296239,23.698633],[121.295845,23.698719],[121.296136,23.698994],[121.296332,23.698996],[121.296432,23.698816]]],[[[121.299157,23.700472],[121.298868,23.700017],[121.298776,23.699564],[121.298975,23.699386],[121.299081,23.698755],[121.299278,23.698667],[121.29928,23.698486],[121.299576,23.698399],[121.299577,23.698309],[121.300165,23.698315],[121.300166,23.698225],[121.300852,23.698323],[121.300853,23.698233],[121.301246,23.698147],[121.301445,23.697968],[121.301447,23.697788],[121.301644,23.6977],[121.30155,23.697428],[121.300961,23.697421],[121.300465,23.697867],[121.299877,23.697861],[121.299876,23.697951],[121.299485,23.697856],[121.299484,23.697947],[121.299189,23.697944],[121.299089,23.698123],[121.298893,23.698121],[121.298793,23.6983],[121.298301,23.698385],[121.298198,23.698745],[121.297902,23.698923],[121.297998,23.699104],[121.298195,23.699016],[121.298193,23.699197],[121.297897,23.699284],[121.297795,23.699644],[121.2976,23.699551],[121.297499,23.699731],[121.297791,23.699915],[121.297882,23.700458],[121.299157,23.700472]]],[[[121.29525,23.699255],[121.295643,23.699169],[121.295842,23.69899],[121.295844,23.69881],[121.295649,23.698717],[121.295252,23.699074],[121.295056,23.699072],[121.294863,23.698889],[121.294665,23.698977],[121.294858,23.69925],[121.295054,23.699253],[121.295055,23.699162],[121.295251,23.699164],[121.29525,23.699255]]],[[[121.312752,23.687978],[121.312655,23.687887],[121.312758,23.687527],[121.312467,23.687253],[121.312374,23.686891],[121.312277,23.686799],[121.311787,23.686794],[121.311687,23.686883],[121.311494,23.6867],[121.311391,23.687061],[121.311586,23.687153],[121.311784,23.686975],[121.311977,23.687248],[121.312271,23.687251],[121.312465,23.687433],[121.312265,23.687702],[121.312558,23.687796],[121.312459,23.687885],[121.312555,23.688067],[121.312752,23.687978]]],[[[121.302898,23.691754],[121.30348,23.692211],[121.303872,23.692216],[121.303873,23.692125],[121.304265,23.69222],[121.304364,23.692131],[121.304268,23.691949],[121.303875,23.692035],[121.303876,23.691945],[121.303289,23.691848],[121.303389,23.691669],[121.303195,23.691486],[121.302999,23.691484],[121.302998,23.691574],[121.302802,23.691572],[121.302608,23.691389],[121.302411,23.691477],[121.302218,23.691204],[121.302022,23.691202],[121.301829,23.691019],[121.301729,23.691109],[121.301436,23.691015],[121.301438,23.690925],[121.301044,23.691011],[121.300657,23.690645],[121.300468,23.690102],[121.300664,23.690104],[121.30076,23.690285],[121.30125,23.690291],[121.30135,23.690111],[121.300959,23.690017],[121.300765,23.689834],[121.299492,23.68973],[121.299392,23.689909],[121.299196,23.689907],[121.2991,23.689725],[121.298708,23.689721],[121.298607,23.6899],[121.298215,23.689896],[121.298115,23.690076],[121.297919,23.690074],[121.297522,23.69043],[121.297613,23.690973],[121.297807,23.691156],[121.298003,23.691158],[121.298202,23.690889],[121.298791,23.690896],[121.298785,23.691347],[121.299078,23.691441],[121.299076,23.691531],[121.299665,23.691537],[121.299764,23.691448],[121.299669,23.691176],[121.299963,23.69118],[121.300058,23.691452],[121.300942,23.691371],[121.30094,23.691461],[121.301529,23.691468],[121.301527,23.691558],[121.302214,23.691565],[121.302408,23.691748],[121.302898,23.691754]],[[121.303093,23.691846],[121.303192,23.691757],[121.303191,23.691847],[121.303093,23.691846]],[[121.299776,23.690545],[121.299778,23.690365],[121.29968,23.690364],[121.29978,23.690184],[121.300269,23.69028],[121.300066,23.69082],[121.299776,23.690545]],[[121.299483,23.690452],[121.299386,23.690361],[121.299484,23.690362],[121.299483,23.690452]],[[121.298896,23.690355],[121.298898,23.690175],[121.299094,23.690177],[121.299092,23.690357],[121.298896,23.690355]]],[[[121.307502,23.692075],[121.307798,23.691988],[121.307703,23.691716],[121.307505,23.691894],[121.307408,23.691803],[121.307014,23.691889],[121.30711,23.692071],[121.307404,23.692074],[121.307405,23.691984],[121.307502,23.692075]]],[[[121.306414,23.692785],[121.306613,23.692607],[121.306518,23.692335],[121.306914,23.692068],[121.306818,23.691887],[121.306622,23.691885],[121.306424,23.692063],[121.305837,23.691966],[121.305741,23.691785],[121.305544,23.691873],[121.305931,23.692238],[121.305928,23.692509],[121.30583,23.692508],[121.305925,23.69269],[121.306123,23.692602],[121.306218,23.692783],[121.306414,23.692785]]],[[[121.304729,23.694212],[121.304233,23.694658],[121.30384,23.694744],[121.303837,23.694924],[121.303935,23.694925],[121.303933,23.695106],[121.303736,23.695194],[121.303828,23.695647],[121.304026,23.695468],[121.304515,23.695564],[121.305012,23.695118],[121.305114,23.694758],[121.305311,23.69467],[121.305216,23.694488],[121.304922,23.694485],[121.304924,23.694304],[121.304729,23.694212]],[[121.304922,23.694485],[121.304822,23.694574],[121.304824,23.694484],[121.304922,23.694485]],[[121.304822,23.694574],[121.304723,23.694663],[121.304724,23.694573],[121.304822,23.694574]],[[121.304723,23.694663],[121.304624,23.694752],[121.304625,23.694662],[121.304723,23.694663]],[[121.304322,23.695381],[121.304225,23.69529],[121.304323,23.695291],[121.304322,23.695381]],[[121.304621,23.695023],[121.304524,23.694932],[121.304622,23.694933],[121.304621,23.695023]]],[[[121.303626,23.696096],[121.303824,23.695918],[121.303533,23.695734],[121.303432,23.695913],[121.303626,23.696096]]],[[[121.303239,23.69573],[121.302843,23.695997],[121.302841,23.696178],[121.302644,23.696175],[121.302248,23.696532],[121.302245,23.696713],[121.301848,23.69707],[121.301943,23.697342],[121.302434,23.697257],[121.302634,23.696988],[121.30283,23.69699],[121.303028,23.696812],[121.302836,23.696539],[121.302934,23.69654],[121.303037,23.69618],[121.303233,23.696182],[121.303431,23.696003],[121.303239,23.69573]]]]}},{"type":"Feature","properties":{"kind":"water","month":"2022-10","area_ha":1.84},"geometry":{"type":"MultiPolygon","coordinates":[[[[121.306618,23.692246],[121.306517,23.692425],[121.306811,23.692429],[121.306814,23.692248],[121.306618,23.692246]]],[[[121.305816,23.693592],[121.30562,23.693589],[121.305615,23.693951],[121.305419,23.693948],[121.305513,23.69422],[121.305315,23.694399],[121.305707,23.694403],[121.305816,23.693592]]],[[[121.305218,23.694307],[121.304924,23.694304],[121.304922,23.694485],[121.305314,23.694489],[121.305218,23.694307]]],[[[121.30492,23.694575],[121.304824,23.694484],[121.304822,23.694574],[121.30492,23.694575]]],[[[121.304724,23.694573],[121.304821,23.694664],[121.304822,23.694574],[121.304724,23.694573]]],[[[121.304722,23.694753],[121.304625,23.694662],[121.304624,23.694752],[121.304722,23.694753]]],[[[121.298702,23.697758],[121.298704,23.697577],[121.298606,23.697576],[121.298604,23.697756],[121.298702,23.697758]]],[[[121.298404,23.698025],[121.2984,23.698296],[121.298793,23.6983],[121.298795,23.69812],[121.299089,23.698123],[121.299189,23.697944],[121.299484,23.697947],[121.299485,23.697856],[121.299876,23.697951],[121.299878,23.69777],[121.299975,23.697862],[121.300465,23.697867],[121.30037,23.697686],[121.300664,23.697689],[121.300862,23.69751],[121.300666,23.697508],[121.300667,23.697418],[121.300471,23.697416],[121.30047,23.697506],[121.300177,23.697413],[121.300077,23.697592],[121.299686,23.697497],[121.299584,23.697767],[121.299487,23.697676],[121.298702,23.697758],[121.298699,23.697938],[121.298404,23.698025]]],[[[121.298302,23.698295],[121.298399,23.698386],[121.2984,23.698296],[121.298302,23.698295]]],[[[121.311881,23.687066],[121.311587,23.687063],[121.311486,23.687332],[121.311976,23.687338],[121.311881,23.687066]]],[[[121.311387,23.687331],[121.311484,23.687423],[121.311486,23.687332],[121.311387,23.687331]]],[[[121.308505,23.69037],[121.308603,23.690371],[121.308606,23.6901],[121.308508,23.690099],[121.308505,23.69037]]],[[[121.308795,23.690644],[121.308697,23.690643],[121.308701,23.690372],[121.308603,23.690371],[121.308594,23.691094],[121.308888,23.691097],[121.308795,23.690644]]],[[[121.308591,23.691274],[121.308394,23.691362],[121.308392,23.691543],[121.308589,23.691455],[121.308591,23.691274]]],[[[121.307994,23.69199],[121.308192,23.691812],[121.308392,23.691543],[121.308097,23.69154],[121.3078,23.691807],[121.307798,23.691988],[121.307994,23.69199]]],[[[121.307404,23.692074],[121.307503,23.691985],[121.307405,23.691984],[121.307404,23.692074]]],[[[121.306816,23.692067],[121.306814,23.692248],[121.307403,23.692164],[121.307404,23.692074],[121.30711,23.692071],[121.307111,23.69198],[121.306816,23.692067]]]]}}]}