{"type":"FeatureCollection","features":[{"type":"Feature","properties":{"kind":"bare_slide","month":"2022-05","area_ha":41.5},"geometry":{"type":"MultiPolygon","coordinates":[[[[121.300332,23.70816],[121.300724,23.708164],[121.301015,23.708438],[121.301212,23.70835],[121.301118,23.708078],[121.300729,23.707803],[121.300435,23.7078],[121.300334,23.707979],[121.30004,23.707976],[121.300041,23.707886],[121.29965,23.707791],[121.29946,23.707338],[121.299264,23.707335],[121.299263,23.707426],[121.29897,23.707332],[121.29887,23.707421],[121.298677,23.707239],[121.298684,23.706697],[121.298782,23.706698],[121.298785,23.706427],[121.299083,23.70616],[121.299088,23.705798],[121.298893,23.705706],[121.298895,23.705525],[121.29919,23.705438],[121.299093,23.705347],[121.299196,23.704987],[121.299294,23.704988],[121.299397,23.704628],[121.299594,23.70454],[121.299605,23.703727],[121.299217,23.703362],[121.299321,23.702911],[121.299126,23.702819],[121.299133,23.702277],[121.299035,23.702276],[121.299041,23.701825],[121.299139,23.701826],[121.299243,23.701375],[121.298753,23.70137],[121.298657,23.701188],[121.298069,23.701182],[121.298063,23.701633],[121.298161,23.701634],[121.298055,23.702265],[121.298153,23.702266],[121.298243,23.7029],[121.298341,23.702901],[121.298337,23.703172],[121.298435,23.703173],[121.298529,23.703535],[121.299111,23.703993],[121.299102,23.704715],[121.298903,23.704893],[121.298897,23.705345],[121.298798,23.705434],[121.298014,23.705425],[121.297518,23.705871],[121.297905,23.706237],[121.298004,23.706148],[121.298493,23.706243],[121.298486,23.706785],[121.298192,23.706782],[121.297994,23.70696],[121.297991,23.707141],[121.298088,23.707232],[121.298384,23.707145],[121.298575,23.707508],[121.298966,23.707603],[121.298865,23.707873],[121.299155,23.708147],[121.299546,23.708242],[121.299745,23.708063],[121.300034,23.708428],[121.30023,23.70843],[121.300332,23.70816]],[[121.298545,23.702271],[121.298448,23.702179],[121.298546,23.702181],[121.298545,23.702271]],[[121.29855,23.70191],[121.298453,23.701818],[121.298551,23.701819],[121.29855,23.70191]],[[121.298356,23.701727],[121.298359,23.701456],[121.298457,23.701457],[121.298454,23.701728],[121.298356,23.701727]]],[[[121.29783,23.712015],[121.298326,23.711569],[121.298441,23.710306],[121.298149,23.710122],[121.298151,23.709942],[121.297764,23.709576],[121.297566,23.709665],[121.297475,23.709122],[121.297573,23.709123],[121.297576,23.708942],[121.297875,23.708584],[121.297484,23.70849],[121.297185,23.708848],[121.297181,23.709119],[121.297082,23.709208],[121.296887,23.709115],[121.296786,23.709385],[121.297173,23.709751],[121.297369,23.709753],[121.297268,23.710022],[121.297849,23.710571],[121.297738,23.711563],[121.297247,23.711648],[121.297245,23.711738],[121.296755,23.711733],[121.296652,23.712093],[121.296749,23.712184],[121.297241,23.712099],[121.297239,23.712189],[121.297729,23.712285],[121.29783,23.712015]],[[121.298135,23.711206],[121.298038,23.711115],[121.298136,23.711116],[121.298135,23.711206]],[[121.298039,23.711024],[121.298042,23.710844],[121.298238,23.710846],[121.298235,23.711026],[121.298039,23.711024]]],[[[121.292535,23.711957],[121.292437,23.711956],[121.292537,23.711776],[121.292928,23.711871],[121.293029,23.711691],[121.293719,23.711428],[121.293819,23.711249],[121.293428,23.711154],[121.293031,23.711511],[121.292443,23.711504],[121.292342,23.711684],[121.292047,23.711771],[121.292141,23.712133],[121.292435,23.712136],[121.292535,23.711957]]],[[[121.298383,23.71473],[121.297992,23.714636],[121.297993,23.714545],[121.298289,23.714458],[121.298192,23.714367],[121.298292,23.714188],[121.297613,23.713638],[121.297209,23.714537],[121.297403,23.71472],[121.297794,23.714814],[121.298083,23.715179],[121.298379,23.715091],[121.298383,23.71473]],[[121.297996,23.714365],[121.297899,23.714273],[121.297997,23.714275],[121.297996,23.714365]]],[[[121.291164,23.719346],[121.291759,23.718811],[121.291953,23.718994],[121.29215,23.718906],[121.29186,23.718632],[121.291864,23.71827],[121.292062,23.718182],[121.292066,23.717821],[121.292556,23.717917],[121.292754,23.717738],[121.292758,23.717468],[121.293052,23.717471],[121.29325,23.717292],[121.293253,23.717112],[121.293154,23.717111],[121.293255,23.716931],[121.29306,23.716839],[121.293063,23.716568],[121.293556,23.716393],[121.294449,23.71559],[121.294841,23.715594],[121.29484,23.715685],[121.295231,23.715779],[121.295325,23.716141],[121.295819,23.715876],[121.295723,23.715694],[121.295428,23.715781],[121.295139,23.715327],[121.294845,23.715323],[121.294846,23.715233],[121.294061,23.715315],[121.294062,23.715224],[121.29416,23.715226],[121.294163,23.714955],[121.294853,23.714691],[121.295352,23.714065],[121.295646,23.714068],[121.295647,23.713978],[121.295942,23.713891],[121.295945,23.71371],[121.296043,23.713711],[121.295948,23.713439],[121.296146,23.713351],[121.296148,23.713171],[121.296346,23.712992],[121.29635,23.712721],[121.296252,23.71272],[121.296353,23.71245],[121.296257,23.712359],[121.295862,23.712535],[121.295758,23.712986],[121.295465,23.712892],[121.295068,23.713249],[121.294775,23.713155],[121.294577,23.713334],[121.294574,23.713514],[121.293589,23.713865],[121.293192,23.714222],[121.292311,23.714122],[121.29221,23.714301],[121.292405,23.714394],[121.292403,23.714574],[121.292204,23.714753],[121.292008,23.71475],[121.292109,23.714571],[121.291819,23.714206],[121.291524,23.714294],[121.291525,23.714203],[121.291036,23.714108],[121.290836,23.714376],[121.290542,23.714373],[121.290441,23.714643],[121.289951,23.714547],[121.289851,23.714727],[121.289262,23.71481],[121.288964,23.715078],[121.28906,23.71526],[121.288961,23.715258],[121.288858,23.715709],[121.28866,23.715797],[121.288658,23.715977],[121.289049,23.716072],[121.289151,23.715802],[121.289249,23.715803],[121.289343,23.716075],[121.289145,23.716254],[121.289243,23.716255],[121.289336,23.716617],[121.289631,23.71653],[121.28993,23.716172],[121.290226,23.716085],[121.29032,23.716357],[121.290125,23.716265],[121.289828,23.716532],[121.290021,23.716715],[121.290318,23.716538],[121.290411,23.7169],[121.290608,23.716812],[121.290612,23.716541],[121.291105,23.716366],[121.291206,23.716096],[121.291602,23.715829],[121.291604,23.715649],[121.291803,23.71547],[121.291999,23.715473],[121.292099,23.715293],[121.29239,23.715567],[121.292685,23.71548],[121.292687,23.71539],[121.292981,23.715393],[121.293076,23.715575],[121.293863,23.715403],[121.29386,23.715674],[121.293762,23.715673],[121.29356,23.716122],[121.293364,23.71612],[121.293165,23.716298],[121.292872,23.716205],[121.292873,23.716114],[121.292578,23.716201],[121.292576,23.716382],[121.292179,23.716739],[121.291875,23.717458],[121.291483,23.717454],[121.291184,23.717811],[121.290594,23.717895],[121.290396,23.718074],[121.290393,23.718254],[121.290098,23.718341],[121.290191,23.718703],[121.290386,23.718796],[121.290383,23.719067],[121.290577,23.719249],[121.290873,23.719072],[121.29077,23.719432],[121.290964,23.719615],[121.291162,23.719527],[121.291164,23.719346]],[[121.291265,23.719076],[121.291169,23.718985],[121.291267,23.718986],[121.291265,23.719076]],[[121.29127,23.718715],[121.291367,23.718807],[121.291269,23.718806],[121.29127,23.718715]],[[121.291368,23.718716],[121.291467,23.718627],[121.291466,23.718718],[121.291368,23.718716]],[[121.292767,23.716745],[121.292665,23.717015],[121.292567,23.717014],[121.292571,23.716743],[121.292767,23.716745]],[[121.28964,23.715898],[121.289637,23.716079],[121.289441,23.716076],[121.289442,23.715986],[121.28964,23.715898]],[[121.290334,23.715274],[121.290436,23.715004],[121.290827,23.715098],[121.290927,23.714919],[121.291123,23.714921],[121.291121,23.715102],[121.291316,23.715194],[121.29131,23.715646],[121.290917,23.715732],[121.290815,23.716001],[121.290422,23.716087],[121.290525,23.715727],[121.290234,23.715453],[121.289939,23.71554],[121.289941,23.71536],[121.290334,23.715274]],[[121.289936,23.715721],[121.28974,23.715719],[121.289741,23.715628],[121.289939,23.71554],[121.289936,23.715721]],[[121.289452,23.715264],[121.289454,23.715083],[121.289552,23.715084],[121.28955,23.715265],[121.289452,23.715264]],[[121.293375,23.715217],[121.293278,23.715126],[121.293376,23.715127],[121.293375,23.715217]],[[121.293771,23.71495],[121.293868,23.715042],[121.29377,23.715041],[121.293771,23.71495]],[[121.293869,23.714951],[121.293968,23.714862],[121.293967,23.714953],[121.293869,23.714951]],[[121.29447,23.713965],[121.294468,23.714145],[121.294271,23.714234],[121.294273,23.714053],[121.29447,23.713965]],[[121.295557,23.713345],[121.29546,23.713253],[121.295558,23.713254],[121.295557,23.713345]]],[[[121.296036,23.721748],[121.296233,23.72175],[121.296333,23.72157],[121.296626,23.721664],[121.296726,23.721484],[121.297118,23.721579],[121.297316,23.721401],[121.297221,23.721129],[121.297023,23.721307],[121.296828,23.721215],[121.29693,23.720945],[121.297126,23.720947],[121.297125,23.721037],[121.297322,23.720949],[121.297324,23.720769],[121.297226,23.720768],[121.297328,23.720498],[121.297133,23.720405],[121.297143,23.719593],[121.297241,23.719594],[121.297147,23.719322],[121.296851,23.719409],[121.296848,23.71968],[121.296551,23.719857],[121.296548,23.720128],[121.296351,23.720216],[121.296347,23.720487],[121.296542,23.720579],[121.296539,23.72085],[121.296342,23.720848],[121.296242,23.721028],[121.295948,23.721024],[121.295749,23.721203],[121.295746,23.721474],[121.295549,23.721562],[121.295546,23.721742],[121.29574,23.721925],[121.295936,23.721927],[121.296036,23.721748]]],[[[121.300047,23.722605],[121.300145,23.722606],[121.300054,23.722063],[121.300351,23.721795],[121.30036,23.721163],[121.300756,23.720806],[121.300667,23.720173],[121.300473,23.719991],[121.300177,23.720078],[121.29978,23.720435],[121.299678,23.720795],[121.29948,23.720883],[121.299374,23.721514],[121.299276,23.721513],[121.299269,23.722054],[121.299464,23.722147],[121.299458,23.722598],[121.299846,23.722964],[121.300043,23.722875],[121.300047,23.722605]],[[121.300463,23.720713],[121.300367,23.720622],[121.300465,23.720623],[121.300463,23.720713]]],[[[121.296821,23.721756],[121.296626,23.721664],[121.296526,23.721843],[121.296721,23.721936],[121.296821,23.721756]]],[[[121.296916,23.722028],[121.296721,23.721936],[121.29662,23.722115],[121.296815,23.722208],[121.296916,23.722028]]],[[[121.301176,23.711149],[121.299723,23.709779],[121.299628,23.709507],[121.299432,23.709504],[121.299336,23.709323],[121.299139,23.709411],[121.299623,23.709868],[121.299619,23.710229],[121.299812,23.710412],[121.300203,23.710506],[121.300299,23.710688],[121.300495,23.71069],[121.300879,23.711326],[121.301075,23.711329],[121.301176,23.711149]]],[[[121.301326,23.714672],[121.301525,23.714494],[121.301528,23.714223],[121.301727,23.714045],[121.30173,23.713774],[121.302028,23.713506],[121.302034,23.713055],[121.301549,23.712598],[121.301552,23.712417],[121.30126,23.712234],[121.300863,23.71259],[121.300957,23.712862],[121.30076,23.71295],[121.300857,23.713042],[121.300757,23.713221],[121.300855,23.713222],[121.300851,23.713493],[121.301046,23.713586],[121.301044,23.713766],[121.301239,23.713859],[121.301233,23.71431],[121.301036,23.714398],[121.301033,23.714579],[121.301326,23.714672]],[[121.301437,23.71368],[121.30134,23.713589],[121.301438,23.71359],[121.301437,23.71368]],[[121.301633,23.713682],[121.301536,23.713591],[121.301635,23.713592],[121.301633,23.713682]]],[[[121.302315,23.721636],[121.30212,23.721544],[121.302028,23.721091],[121.30193,23.72109],[121.301933,23.720819],[121.302232,23.720461],[121.302239,23.71992],[121.302044,23.719827],[121.301842,23.720277],[121.301744,23.720275],[121.301739,23.720637],[121.301641,23.720636],[121.301539,23.720996],[121.301734,23.721088],[121.301729,23.721449],[121.302116,23.721815],[121.302315,23.721636]]],[[[121.304559,23.722564],[121.30466,23.722294],[121.304465,23.722202],[121.304266,23.72247],[121.304559,23.722564]]],[[[121.304073,23.722197],[121.304072,23.722288],[121.303385,23.72228],[121.303387,23.72219],[121.303091,23.722277],[121.303092,23.722187],[121.302505,23.72209],[121.302411,23.721818],[121.302213,23.721906],[121.302308,23.722178],[121.302503,23.72227],[121.302499,23.722541],[121.302596,23.722633],[121.302794,23.722544],[121.302987,23.722727],[121.302983,23.723088],[121.302692,23.722814],[121.302496,23.722812],[121.302394,23.723082],[121.301999,23.723348],[121.302095,23.72344],[121.301996,23.723529],[121.30209,23.723891],[121.30248,23.724076],[121.302476,23.724347],[121.30267,23.72453],[121.302866,23.724532],[121.302966,23.724352],[121.303257,23.724626],[121.303454,23.724538],[121.303457,23.724358],[121.303263,23.724175],[121.303265,23.723994],[121.303363,23.723996],[121.303268,23.723814],[121.303564,23.723637],[121.303566,23.723456],[121.303371,23.723364],[121.303374,23.723183],[121.303767,23.723097],[121.303675,23.722644],[121.303871,23.722647],[121.304267,23.72238],[121.304073,23.722197]],[[121.302967,23.724262],[121.302871,23.724171],[121.302969,23.724172],[121.302967,23.724262]]],[[[121.301475,23.725871],[121.301869,23.725785],[121.301768,23.725965],[121.301963,23.726057],[121.302063,23.725968],[121.30197,23.725515],[121.302168,23.725427],[121.302165,23.725608],[121.30236,23.7257],[121.30246,23.725611],[121.302364,23.725429],[121.302663,23.725071],[121.302469,23.724889],[121.302271,23.725067],[121.301879,23.724973],[121.30178,23.725062],[121.301875,23.725334],[121.301577,23.725601],[121.301381,23.725599],[121.30118,23.725958],[121.301375,23.726051],[121.301475,23.725871]]],[[[121.305865,23.727725],[121.304993,23.726903],[121.304797,23.726901],[121.304506,23.726627],[121.304708,23.726177],[121.304415,23.726084],[121.304316,23.726173],[121.30441,23.726445],[121.304213,23.726533],[121.304504,23.726807],[121.304402,23.727077],[121.304793,23.727172],[121.305372,23.7279],[121.305764,23.727995],[121.305863,23.727906],[121.305865,23.727725]]],[[[121.303113,23.728147],[121.303214,23.727967],[121.30302,23.727784],[121.30253,23.727779],[121.30243,23.727868],[121.302237,23.727685],[121.302338,23.727416],[121.302144,23.727233],[121.301947,23.727321],[121.30204,23.727683],[121.301745,23.72777],[121.301841,23.727952],[121.302135,23.727955],[121.302134,23.728045],[121.302428,23.728049],[121.302427,23.728139],[121.302721,23.728142],[121.302722,23.728052],[121.303113,23.728147]]]]}},{"type":"Feature","properties":{"kind":"bare_dam","month":"2022-05","area_ha":23.28},"geometry":{"type":"MultiPolygon","coordinates":[[[[121.300127,23.69371],[121.300417,23.693984],[121.300712,23.693987],[121.300806,23.694259],[121.301002,23.694261],[121.301104,23.693991],[121.301298,23.694174],[121.301495,23.694086],[121.301205,23.693722],[121.301009,23.693719],[121.300428,23.693171],[121.300336,23.692719],[121.300142,23.692536],[121.29975,23.692532],[121.299752,23.692351],[121.299459,23.692258],[121.29946,23.692167],[121.299067,23.692253],[121.298875,23.69198],[121.298579,23.692067],[121.298578,23.692158],[121.298481,23.692066],[121.298186,23.692153],[121.298282,23.692335],[121.298577,23.692248],[121.298472,23.692789],[121.298667,23.692881],[121.298664,23.693062],[121.299052,23.693427],[121.299248,23.693429],[121.299249,23.693339],[121.299542,23.693432],[121.299244,23.6937],[121.299338,23.694062],[121.299634,23.693885],[121.299539,23.693703],[121.300127,23.69371]],[[121.301104,23.693991],[121.301007,23.6939],[121.301105,23.693901],[121.301104,23.693991]],[[121.300423,23.693532],[121.300326,23.693441],[121.300424,23.693442],[121.300423,23.693532]],[[121.300328,23.693351],[121.300231,23.693259],[121.300329,23.69326],[121.300328,23.693351]],[[121.299938,23.693166],[121.299841,23.693075],[121.299939,23.693076],[121.299938,23.693166]],[[121.299449,23.69307],[121.29945,23.69298],[121.299744,23.692983],[121.299743,23.693073],[121.299449,23.69307]]],[[[121.299828,23.694068],[121.299928,23.693888],[121.299733,23.693796],[121.299633,23.693975],[121.299828,23.694068]]],[[[121.299605,23.696142],[121.299903,23.695874],[121.299905,23.695694],[121.299514,23.695599],[121.29941,23.69605],[121.299605,23.696142]]],[[[121.298725,23.695952],[121.298922,23.695864],[121.298825,23.695772],[121.298926,23.695593],[121.298731,23.6955],[121.298838,23.694779],[121.298545,23.694686],[121.298347,23.694864],[121.298344,23.695045],[121.298147,23.695133],[121.29805,23.695041],[121.298152,23.694772],[121.297957,23.694679],[121.297854,23.695039],[121.297657,23.695127],[121.297655,23.695308],[121.297753,23.695309],[121.297646,23.69594],[121.297937,23.696214],[121.298218,23.69721],[121.298509,23.697485],[121.298804,23.697397],[121.298703,23.697667],[121.298898,23.69776],[121.298999,23.69749],[121.299295,23.697403],[121.299495,23.697044],[121.299398,23.696953],[121.299201,23.697041],[121.299205,23.69677],[121.299107,23.696769],[121.29911,23.696498],[121.299012,23.696497],[121.298918,23.696225],[121.29862,23.696492],[121.298425,23.6964],[121.298527,23.69613],[121.298625,23.696131],[121.298628,23.69586],[121.298725,23.695952]],[[121.29853,23.695859],[121.298532,23.695679],[121.298728,23.695681],[121.298727,23.695771],[121.29853,23.695859]],[[121.298517,23.696853],[121.29852,23.696672],[121.298618,23.696673],[121.298615,23.696854],[121.298517,23.696853]]],[[[121.299684,23.697588],[121.299391,23.697494],[121.299393,23.697404],[121.299195,23.697492],[121.299486,23.697766],[121.299684,23.697588]]],[[[121.298282,23.69983],[121.297988,23.699827],[121.297893,23.699645],[121.297695,23.699733],[121.297882,23.700458],[121.299157,23.700472],[121.298966,23.700018],[121.298868,23.700017],[121.298872,23.699746],[121.298774,23.699745],[121.298776,23.699564],[121.299075,23.699206],[121.29918,23.698666],[121.299377,23.698578],[121.29938,23.698397],[121.301147,23.698236],[121.301345,23.698057],[121.301348,23.697877],[121.301153,23.697784],[121.301352,23.697516],[121.301157,23.697423],[121.301057,23.697603],[121.300763,23.6976],[121.300465,23.697867],[121.299288,23.697945],[121.299186,23.698214],[121.298893,23.698121],[121.298695,23.698299],[121.298691,23.69857],[121.298396,23.698657],[121.298392,23.698928],[121.29849,23.698929],[121.298585,23.699201],[121.298389,23.699199],[121.29839,23.699109],[121.298193,23.699197],[121.298386,23.699379],[121.298285,23.699649],[121.298479,23.699832],[121.298474,23.700193],[121.298376,23.700192],[121.298282,23.69983]],[[121.298386,23.699379],[121.298486,23.69929],[121.298484,23.699381],[121.298386,23.699379]],[[121.298572,23.700194],[121.29857,23.700375],[121.298472,23.700374],[121.298474,23.700193],[121.298572,23.700194]],[[121.29808,23.700279],[121.298083,23.700099],[121.298181,23.7001],[121.298179,23.70028],[121.29808,23.700279]]],[[[121.295352,23.698985],[121.295056,23.699072],[121.295057,23.698982],[121.294764,23.698888],[121.294664,23.699068],[121.294858,23.69925],[121.295054,23.699253],[121.295055,23.699162],[121.295544,23.699258],[121.295843,23.6989],[121.295452,23.698805],[121.295352,23.698985]]],[[[121.296234,23.698995],[121.29662,23.69945],[121.296818,23.699362],[121.296239,23.698633],[121.295846,23.698629],[121.295746,23.698809],[121.296234,23.698995]]],[[[121.31276,23.687346],[121.312467,23.687253],[121.312277,23.686799],[121.311787,23.686794],[121.311785,23.686884],[121.311492,23.686791],[121.311389,23.687241],[121.311291,23.68724],[121.311284,23.687782],[121.311479,23.687874],[121.311778,23.687426],[121.31227,23.687341],[121.312367,23.687432],[121.312265,23.687702],[121.312653,23.688068],[121.312752,23.687978],[121.31276,23.687346]]],[[[121.308991,23.690646],[121.308893,23.690645],[121.3088,23.690283],[121.308605,23.690191],[121.308501,23.690641],[121.308794,23.690735],[121.308793,23.690825],[121.308991,23.690646]]],[[[121.299872,23.690637],[121.299779,23.690275],[121.30017,23.690369],[121.300168,23.69055],[121.30007,23.690549],[121.300162,23.691001],[121.299865,23.691178],[121.300058,23.691452],[121.301431,23.691467],[121.301526,23.691648],[121.30192,23.691562],[121.301918,23.691653],[121.3028,23.691752],[121.302799,23.691843],[121.303093,23.691846],[121.303291,23.691668],[121.303195,23.691486],[121.302704,23.691571],[121.302608,23.691389],[121.302411,23.691477],[121.302315,23.691296],[121.30202,23.691383],[121.301925,23.691111],[121.30163,23.691198],[121.30134,23.690924],[121.301044,23.691011],[121.300758,23.690376],[121.300858,23.690286],[121.301445,23.690383],[121.301545,23.690204],[121.301252,23.69011],[121.301253,23.69002],[121.300959,23.690017],[121.300765,23.689834],[121.298708,23.689721],[121.298607,23.6899],[121.298215,23.689896],[121.298115,23.690076],[121.297919,23.690074],[121.297521,23.690521],[121.297619,23.690522],[121.297614,23.690883],[121.297808,23.691066],[121.298498,23.690802],[121.298496,23.690893],[121.298789,23.690986],[121.298882,23.691439],[121.299762,23.691629],[121.299862,23.691449],[121.299764,23.691448],[121.299769,23.691087],[121.299575,23.690904],[121.299872,23.690637]],[[121.299675,23.690725],[121.299578,23.690634],[121.299676,23.690635],[121.299675,23.690725]],[[121.298898,23.690175],[121.299092,23.690357],[121.298896,23.690355],[121.298898,23.690175]]],[[[121.30829,23.691813],[121.308982,23.691369],[121.308888,23.691097],[121.308788,23.691186],[121.308495,23.691092],[121.308099,23.691449],[121.308096,23.69163],[121.30829,23.691813]]],[[[121.306315,23.692875],[121.306613,23.692607],[121.306619,23.692156],[121.306718,23.692066],[121.306621,23.691975],[121.306425,23.691973],[121.306424,23.692063],[121.305935,23.691967],[121.305646,23.691513],[121.305547,23.691602],[121.305352,23.69151],[121.305251,23.691779],[121.304953,23.692047],[121.304757,23.692045],[121.304661,23.691863],[121.304072,23.691947],[121.303873,23.692125],[121.303485,23.69185],[121.30319,23.691937],[121.303479,23.692302],[121.303675,23.692304],[121.303676,23.692214],[121.304165,23.692309],[121.304364,23.692131],[121.304658,23.692134],[121.30485,23.692407],[121.305246,23.69214],[121.305248,23.69196],[121.305445,23.691962],[121.305443,23.692052],[121.305834,23.692147],[121.305832,23.692328],[121.30593,23.692329],[121.305827,23.692689],[121.305924,23.69278],[121.306121,23.692692],[121.306315,23.692875]]],[[[121.303828,23.695647],[121.304225,23.69529],[121.304419,23.695473],[121.304615,23.695475],[121.304616,23.695384],[121.305108,23.695209],[121.305014,23.694937],[121.305211,23.694849],[121.305213,23.694669],[121.305706,23.694493],[121.30561,23.694312],[121.305414,23.69431],[121.305712,23.694042],[121.305618,23.69368],[121.305122,23.694126],[121.304532,23.6943],[121.304332,23.694569],[121.30384,23.694744],[121.303933,23.695106],[121.303638,23.695193],[121.303735,23.695284],[121.303634,23.695464],[121.303828,23.695647]],[[121.304424,23.695021],[121.304328,23.69493],[121.304426,23.694931],[121.304424,23.695021]],[[121.305216,23.694488],[121.305119,23.694397],[121.305217,23.694398],[121.305216,23.694488]]],[[[121.30204,23.697433],[121.302534,23.697168],[121.302634,23.696988],[121.303027,23.696902],[121.30303,23.696721],[121.302836,23.696539],[121.303032,23.696541],[121.30323,23.696362],[121.303234,23.696092],[121.303332,23.696093],[121.303239,23.69573],[121.303042,23.695728],[121.302844,23.695907],[121.302841,23.696178],[121.302644,23.696175],[121.302248,23.696532],[121.302145,23.696892],[121.301749,23.697159],[121.301844,23.697431],[121.30204,23.697433]]],[[[121.300274,23.697504],[121.300374,23.697324],[121.300081,23.697231],[121.300085,23.69696],[121.299793,23.696776],[121.299589,23.697406],[121.299782,23.697589],[121.300274,23.697504]]]]}},{"type":"Feature","properties":{"kind":"water","month":"2022-05","area_ha":1.59},"geometry":{"type":"MultiPolygon","coordinates":[[[[121.298728,23.695681],[121.298532,23.695679],[121.29853,23.695859],[121.298628,23.69586],[121.298728,23.695681]]],[[[121.298628,23.69586],[121.298425,23.6964],[121.29862,23.696492],[121.298723,23.696132],[121.298821,23.696133],[121.298726,23.695862],[121.298628,23.69586]]],[[[121.298706,23.697396],[121.298704,23.697577],[121.298802,23.697578],[121.298804,23.697397],[121.298706,23.697396]]],[[[121.301057,23.697603],[121.301058,23.697513],[121.300764,23.697509],[121.300765,23.697419],[121.300471,23.697416],[121.30047,23.697506],[121.300275,23.697414],[121.300274,23.697504],[121.299684,23.697588],[121.299583,23.697858],[121.299781,23.697679],[121.299977,23.697681],[121.299975,23.697862],[121.300465,23.697867],[121.300466,23.697777],[121.300662,23.697779],[121.300665,23.697599],[121.301057,23.697603]],[[121.300172,23.697774],[121.300273,23.697594],[121.300469,23.697596],[121.300466,23.697777],[121.300172,23.697774]]],[[[121.298604,23.697756],[121.298702,23.697758],[121.298704,23.697577],[121.298606,23.697576],[121.298604,23.697756]]],[[[121.298695,23.698299],[121.298893,23.698121],[121.299186,23.698214],[121.299288,23.697945],[121.299582,23.697948],[121.299487,23.697676],[121.298702,23.697758],[121.298695,23.698299]]],[[[121.2986,23.698027],[121.298305,23.698114],[121.298304,23.698205],[121.298596,23.698298],[121.2986,23.698027]]],[[[121.298285,23.699649],[121.298194,23.699106],[121.298489,23.699019],[121.298396,23.698657],[121.298691,23.69857],[121.298695,23.698299],[121.298596,23.698298],[121.298594,23.698479],[121.298496,23.698478],[121.298498,23.698297],[121.2984,23.698296],[121.298398,23.698477],[121.298202,23.698474],[121.298096,23.699105],[121.2979,23.699103],[121.297893,23.699645],[121.297991,23.699646],[121.297988,23.699827],[121.298282,23.69983],[121.298376,23.700192],[121.298474,23.700193],[121.298479,23.699832],[121.298285,23.699649]]],[[[121.298474,23.700193],[121.298472,23.700374],[121.29857,23.700375],[121.298572,23.700194],[121.298474,23.700193]]]]}}]}