{"type":"FeatureCollection","features":[{"type":"Feature","properties":{"kind":"bare_slide","month":"2022-11","area_ha":23.34},"geometry":{"type":"MultiPolygon","coordinates":[[[[121.298786,23.706337],[121.298688,23.706336],[121.298691,23.706155],[121.298984,23.706249],[121.299088,23.705798],[121.298991,23.705707],[121.298695,23.705794],[121.298698,23.705614],[121.298796,23.705615],[121.2987,23.705433],[121.298014,23.705425],[121.297912,23.705695],[121.297519,23.705781],[121.297808,23.706146],[121.298495,23.706153],[121.298592,23.706244],[121.298492,23.706334],[121.298586,23.706696],[121.298783,23.706608],[121.298786,23.706337]],[[121.298692,23.706065],[121.298694,23.705884],[121.29889,23.705887],[121.298888,23.706067],[121.298692,23.706065]]],[[[121.296945,23.712186],[121.297045,23.712097],[121.29773,23.712195],[121.297831,23.711925],[121.298326,23.711569],[121.298441,23.710306],[121.298247,23.710124],[121.298049,23.710302],[121.297852,23.7103],[121.297757,23.710118],[121.297559,23.710206],[121.297654,23.710478],[121.297849,23.710571],[121.297745,23.711021],[121.297939,23.711204],[121.297741,23.711292],[121.297639,23.711652],[121.297247,23.711648],[121.297245,23.711738],[121.29695,23.711825],[121.296948,23.712006],[121.296851,23.711914],[121.296653,23.712002],[121.296749,23.712184],[121.296848,23.712095],[121.296945,23.712186]],[[121.297635,23.711923],[121.297538,23.711831],[121.297636,23.711833],[121.297635,23.711923]]],[[[121.295152,23.714334],[121.29545,23.714066],[121.295942,23.713891],[121.295947,23.71353],[121.296144,23.713441],[121.296148,23.713171],[121.296346,23.712992],[121.296157,23.712448],[121.295862,23.712535],[121.295959,23.712627],[121.295856,23.712987],[121.295464,23.712982],[121.295265,23.713161],[121.294971,23.713158],[121.29497,23.713248],[121.294677,23.713154],[121.294578,23.713244],[121.294965,23.713609],[121.294476,23.713513],[121.294475,23.713604],[121.294181,23.7136],[121.293982,23.713779],[121.294175,23.714052],[121.294473,23.713784],[121.294767,23.713787],[121.294568,23.713966],[121.294665,23.714057],[121.294564,23.714327],[121.294857,23.714421],[121.294952,23.714602],[121.29515,23.714514],[121.295152,23.714334]]],[[[121.298,23.714004],[121.297613,23.713638],[121.297511,23.713908],[121.297413,23.713907],[121.297409,23.714268],[121.297111,23.714536],[121.297404,23.714629],[121.297403,23.71472],[121.297697,23.714723],[121.298083,23.715179],[121.298279,23.715181],[121.298379,23.715091],[121.298284,23.71482],[121.298186,23.714818],[121.298292,23.714188],[121.297901,23.714093],[121.298,23.714004]],[[121.297901,23.714093],[121.297802,23.714182],[121.297803,23.714092],[121.297901,23.714093]]],[[[121.282417,23.720694],[121.282712,23.720697],[121.283009,23.72043],[121.282914,23.720248],[121.283208,23.720251],[121.283506,23.719984],[121.283508,23.719803],[121.283705,23.719715],[121.28361,23.719534],[121.283216,23.719619],[121.283218,23.719439],[121.283417,23.71926],[121.283322,23.718989],[121.283126,23.718986],[121.283026,23.719166],[121.28283,23.719164],[121.282631,23.719342],[121.282824,23.719615],[121.282427,23.719972],[121.282133,23.719969],[121.281737,23.720235],[121.281732,23.720596],[121.282023,23.72087],[121.282219,23.720873],[121.282417,23.720694]],[[121.283016,23.719888],[121.283014,23.720069],[121.282818,23.720067],[121.282819,23.719976],[121.283016,23.719888]]],[[[121.285431,23.722714],[121.28563,23.722536],[121.285535,23.722264],[121.285632,23.722355],[121.285928,23.722268],[121.285734,23.722085],[121.285736,23.721905],[121.285639,23.721813],[121.285246,23.721899],[121.28535,23.721449],[121.285156,23.721266],[121.284665,23.721351],[121.284361,23.72207],[121.284063,23.722338],[121.284453,23.722523],[121.284557,23.722072],[121.284655,23.722073],[121.28475,23.722345],[121.285047,23.722078],[121.285244,23.72208],[121.285241,23.722261],[121.285044,23.722349],[121.28504,23.72262],[121.285431,23.722714]]],[[[121.286703,23.722999],[121.2869,23.722911],[121.286902,23.72273],[121.286611,23.722547],[121.286713,23.722187],[121.28652,23.722004],[121.286323,23.722002],[121.286224,23.722091],[121.28632,23.722273],[121.286123,23.722361],[121.286315,23.722634],[121.286021,23.72263],[121.285827,23.722448],[121.285629,23.722626],[121.285626,23.722807],[121.286017,23.722901],[121.286016,23.722992],[121.28641,23.722906],[121.286407,23.723086],[121.286309,23.723085],[121.286405,23.723267],[121.286601,23.723269],[121.286703,23.722999]]],[[[121.288357,23.724011],[121.288359,23.72383],[121.288558,23.723652],[121.288754,23.723654],[121.288755,23.723564],[121.289048,23.723657],[121.289446,23.72321],[121.289251,23.723118],[121.288854,23.723474],[121.288757,23.723383],[121.288168,23.723467],[121.28787,23.723734],[121.287865,23.724096],[121.28806,23.724188],[121.288061,23.724098],[121.288357,23.724011]]],[[[121.291399,23.723864],[121.291205,23.723681],[121.290911,23.723678],[121.290525,23.723222],[121.289935,23.723306],[121.289638,23.723573],[121.289244,23.723659],[121.28934,23.723841],[121.289634,23.723844],[121.289632,23.724025],[121.289433,23.724203],[121.289428,23.724564],[121.289231,23.724653],[121.289229,23.724833],[121.289815,23.72502],[121.289918,23.72466],[121.290408,23.724666],[121.290404,23.724936],[121.290502,23.724937],[121.290402,23.725117],[121.290891,23.725213],[121.290889,23.725393],[121.290693,23.725391],[121.290592,23.725571],[121.290786,23.725753],[121.291081,23.725666],[121.291275,23.725849],[121.291378,23.725489],[121.292069,23.725135],[121.291978,23.724593],[121.291688,23.724318],[121.291393,23.724315],[121.291493,23.724226],[121.291399,23.723864]],[[121.291392,23.724406],[121.291195,23.724494],[121.291387,23.724767],[121.290992,23.725033],[121.290701,23.724759],[121.290703,23.724578],[121.290901,23.72449],[121.290806,23.724218],[121.291103,23.724041],[121.291392,23.724406]],[[121.289726,23.724297],[121.289825,23.724208],[121.289824,23.724298],[121.289726,23.724297]]],[[[121.299139,23.701826],[121.299243,23.701375],[121.298753,23.70137],[121.298657,23.701188],[121.298167,23.701183],[121.298261,23.701455],[121.298553,23.701639],[121.298453,23.701818],[121.298258,23.701726],[121.298159,23.701815],[121.298254,23.701997],[121.298057,23.702085],[121.298149,23.702537],[121.298247,23.702538],[121.298243,23.7029],[121.298532,23.703264],[121.298529,23.703535],[121.299013,23.703992],[121.299211,23.703813],[121.299308,23.703905],[121.299506,23.703816],[121.299412,23.703454],[121.299217,23.703362],[121.299223,23.70291],[121.299028,23.702818],[121.298927,23.703088],[121.298731,23.703086],[121.298735,23.702724],[121.298637,23.702723],[121.29864,23.702543],[121.298833,23.702725],[121.299129,23.702638],[121.299133,23.702277],[121.298938,23.702185],[121.299041,23.701825],[121.299139,23.701826]],[[121.298938,23.702185],[121.298839,23.702274],[121.29884,23.702184],[121.298938,23.702185]],[[121.298921,23.703539],[121.298923,23.703359],[121.299021,23.70336],[121.299019,23.70354],[121.298921,23.703539]],[[121.298546,23.702181],[121.298645,23.702091],[121.298644,23.702182],[121.298546,23.702181]],[[121.298351,23.702088],[121.298354,23.701907],[121.298452,23.701909],[121.298547,23.70209],[121.298351,23.702088]]],[[[121.298774,23.70733],[121.29858,23.707147],[121.298683,23.706787],[121.298488,23.706695],[121.298289,23.706873],[121.298286,23.707144],[121.298481,23.707237],[121.298575,23.707508],[121.298774,23.70733]]],[[[121.29965,23.707791],[121.299362,23.707337],[121.29887,23.707421],[121.298868,23.707602],[121.298966,23.707603],[121.298865,23.707873],[121.299158,23.707966],[121.299252,23.708238],[121.299547,23.708151],[121.29955,23.707971],[121.299648,23.707972],[121.299552,23.70779],[121.29965,23.707791]],[[121.299257,23.707877],[121.299258,23.707787],[121.299454,23.707789],[121.299453,23.707879],[121.299257,23.707877]]],[[[121.299647,23.708062],[121.300034,23.708428],[121.30023,23.70843],[121.300432,23.70798],[121.300335,23.707889],[121.300236,23.707978],[121.299747,23.707883],[121.299647,23.708062]]],[[[121.301273,23.71124],[121.300788,23.710784],[121.300791,23.710603],[121.300403,23.710238],[121.300207,23.710235],[121.300112,23.709963],[121.299628,23.709507],[121.299432,23.709504],[121.299239,23.709231],[121.299042,23.70932],[121.299623,23.709868],[121.299619,23.710229],[121.299421,23.710317],[121.299517,23.710499],[121.299715,23.71032],[121.300107,23.710415],[121.300299,23.710688],[121.300593,23.710691],[121.300782,23.711235],[121.300979,23.711237],[121.301074,23.711419],[121.301273,23.71124]]],[[[121.301841,23.712782],[121.301358,23.712235],[121.301162,23.712232],[121.300864,23.7125],[121.300959,23.712772],[121.300761,23.71286],[121.300757,23.713221],[121.300855,23.713222],[121.300852,23.713403],[121.30095,23.713404],[121.300948,23.713585],[121.301238,23.713949],[121.301233,23.71431],[121.301036,23.714398],[121.30113,23.71467],[121.301326,23.714672],[121.301525,23.714494],[121.301529,23.714133],[121.301727,23.714045],[121.30173,23.713774],[121.301928,23.713686],[121.30193,23.713505],[121.302128,23.713327],[121.302034,23.713055],[121.301839,23.712962],[121.301841,23.712782]],[[121.301549,23.712598],[121.30145,23.712687],[121.301451,23.712597],[121.301549,23.712598]]],[[[121.298335,23.718432],[121.298831,23.717986],[121.298834,23.717805],[121.299032,23.717627],[121.298939,23.717265],[121.298742,23.717353],[121.298738,23.717624],[121.298442,23.717801],[121.298439,23.717982],[121.298143,23.718159],[121.29814,23.71834],[121.297942,23.718518],[121.298234,23.718702],[121.298335,23.718432]]],[[[121.302121,23.721454],[121.301933,23.720819],[121.302031,23.72082],[121.302135,23.72037],[121.302233,23.720371],[121.302239,23.71992],[121.302142,23.719828],[121.301945,23.719916],[121.301943,23.720097],[121.301744,23.720275],[121.301638,23.720906],[121.30154,23.720905],[121.301924,23.721542],[121.302121,23.721454]]],[[[121.299953,23.722242],[121.300155,23.721793],[121.300352,23.721705],[121.30026,23.721252],[121.300358,23.721254],[121.30046,23.720984],[121.300169,23.72071],[121.299972,23.720798],[121.299778,23.720615],[121.29958,23.720794],[121.299477,23.721154],[121.299379,23.721152],[121.299375,23.721423],[121.299277,23.721422],[121.299269,23.722054],[121.299463,23.722237],[121.299562,23.722148],[121.299953,23.722242]]]]}},{"type":"Feature","properties":{"kind":"bare_dam","month":"2022-11","area_ha":18.03},"geometry":{"type":"MultiPolygon","coordinates":[[[[121.300369,23.690191],[121.300175,23.690008],[121.300276,23.689738],[121.299884,23.689734],[121.29998,23.689916],[121.299781,23.690094],[121.300172,23.690189],[121.300171,23.690279],[121.300369,23.690191]]],[[[121.300419,23.693894],[121.300417,23.693984],[121.300615,23.693896],[121.300904,23.69426],[121.301101,23.694172],[121.301104,23.693991],[121.300812,23.693808],[121.300911,23.693718],[121.300815,23.693537],[121.300519,23.693714],[121.29994,23.692985],[121.299449,23.69307],[121.299647,23.692892],[121.299455,23.692619],[121.299751,23.692441],[121.299753,23.692261],[121.299657,23.692169],[121.299166,23.692164],[121.299167,23.692074],[121.299464,23.691896],[121.299368,23.691715],[121.299764,23.691448],[121.299767,23.691177],[121.300252,23.691634],[121.300448,23.691636],[121.300548,23.691457],[121.30094,23.691461],[121.300939,23.691551],[121.301529,23.691468],[121.301827,23.69111],[121.300851,23.690828],[121.300561,23.690464],[121.300168,23.69055],[121.300067,23.690729],[121.299871,23.690727],[121.299872,23.690637],[121.299577,23.690724],[121.299287,23.69045],[121.299289,23.690269],[121.299582,23.690363],[121.299682,23.690183],[121.299488,23.69],[121.299291,23.690089],[121.299002,23.689724],[121.298708,23.689721],[121.298607,23.6899],[121.298117,23.689895],[121.297522,23.69043],[121.297519,23.690611],[121.297618,23.690612],[121.297613,23.690973],[121.297807,23.691156],[121.298003,23.691158],[121.2983,23.69089],[121.298496,23.690893],[121.29869,23.691075],[121.298587,23.691435],[121.29839,23.691523],[121.298485,23.691795],[121.298188,23.691973],[121.298084,23.692423],[121.298475,23.692518],[121.298375,23.692697],[121.298859,23.693154],[121.298752,23.693875],[121.299045,23.693969],[121.299044,23.694059],[121.299338,23.694062],[121.299337,23.694153],[121.299926,23.694069],[121.300028,23.693799],[121.300419,23.693894]],[[121.300028,23.693799],[121.299931,23.693708],[121.300029,23.693709],[121.300028,23.693799]],[[121.299444,23.693431],[121.299345,23.693521],[121.299346,23.69343],[121.299444,23.693431]],[[121.301139,23.691283],[121.300943,23.691281],[121.300944,23.69119],[121.30114,23.691192],[121.301139,23.691283]],[[121.300848,23.691009],[121.300749,23.691098],[121.30075,23.691008],[121.300848,23.691009]],[[121.300458,23.690824],[121.300359,23.690913],[121.30036,23.690823],[121.300458,23.690824]]],[[[121.300525,23.693263],[121.300429,23.693081],[121.300232,23.693169],[121.300328,23.693351],[121.300525,23.693263]]],[[[121.299291,23.697674],[121.299393,23.697404],[121.299295,23.697403],[121.299299,23.697042],[121.299104,23.696949],[121.299108,23.696678],[121.299011,23.696587],[121.298716,23.696674],[121.29862,23.696492],[121.298227,23.696578],[121.298229,23.696398],[121.298327,23.696399],[121.298329,23.696218],[121.298134,23.696126],[121.298234,23.696037],[121.298238,23.695676],[121.29814,23.695675],[121.298244,23.695224],[121.297953,23.69495],[121.297756,23.695038],[121.297759,23.694858],[121.297564,23.694765],[121.297464,23.694854],[121.297555,23.695397],[121.29775,23.69549],[121.297852,23.69522],[121.298047,23.695312],[121.297948,23.695401],[121.298042,23.695673],[121.297943,23.695763],[121.297748,23.69567],[121.29755,23.695849],[121.29784,23.696123],[121.297836,23.696484],[121.29803,23.696576],[121.297928,23.696936],[121.298316,23.697212],[121.29841,23.697574],[121.298608,23.697395],[121.298804,23.697397],[121.299095,23.697672],[121.299291,23.697674]],[[121.297756,23.695038],[121.297657,23.695127],[121.297658,23.695037],[121.297756,23.695038]],[[121.298999,23.69749],[121.299098,23.697401],[121.299097,23.697491],[121.298999,23.69749]],[[121.29871,23.697126],[121.298809,23.697036],[121.298808,23.697127],[121.29871,23.697126]],[[121.298711,23.697035],[121.298516,23.696943],[121.298518,23.696762],[121.298713,23.696855],[121.298711,23.697035]]],[[[121.300655,23.698321],[121.301246,23.698147],[121.301446,23.697878],[121.301349,23.697787],[121.300859,23.697781],[121.300857,23.697872],[121.300465,23.697867],[121.300464,23.697958],[121.300269,23.697865],[121.300169,23.698045],[121.299974,23.697952],[121.299775,23.698131],[121.299871,23.698312],[121.300361,23.698318],[121.300363,23.698227],[121.300657,23.698231],[121.300655,23.698321]]],[[[121.29906,23.70038],[121.298966,23.700018],[121.298673,23.699924],[121.298676,23.699744],[121.298975,23.699386],[121.299081,23.698755],[121.299278,23.698667],[121.29928,23.698486],[121.298891,23.698301],[121.298692,23.69848],[121.298497,23.698387],[121.298396,23.698657],[121.298298,23.698656],[121.298584,23.699291],[121.298484,23.699381],[121.298289,23.699288],[121.298188,23.699558],[121.29809,23.699557],[121.298086,23.699828],[121.297793,23.699734],[121.297693,23.699914],[121.297986,23.700007],[121.297882,23.700458],[121.298961,23.700469],[121.29906,23.70038]],[[121.298375,23.700282],[121.298275,23.700372],[121.298277,23.700281],[121.298375,23.700282]],[[121.298767,23.700287],[121.298571,23.700284],[121.298572,23.700194],[121.298768,23.700196],[121.298767,23.700287]]],[[[121.312173,23.68725],[121.312371,23.687071],[121.312277,23.686799],[121.311983,23.686796],[121.311784,23.686975],[121.311977,23.687248],[121.312173,23.68725]]],[[[121.307897,23.691899],[121.308096,23.69163],[121.307901,23.691537],[121.307702,23.691806],[121.307897,23.691899]]],[[[121.305238,23.692773],[121.305237,23.692863],[121.305434,23.692775],[121.30524,23.692592],[121.305342,23.692322],[121.305049,23.692229],[121.305149,23.692049],[121.304758,23.691955],[121.304663,23.691773],[121.304466,23.691771],[121.304366,23.69195],[121.303974,23.691946],[121.303586,23.691581],[121.303292,23.691577],[121.303198,23.691305],[121.303002,23.691303],[121.302901,23.691483],[121.302608,23.691389],[121.302609,23.691299],[121.30251,23.691388],[121.302217,23.691295],[121.302216,23.691385],[121.301823,23.691471],[121.301918,23.691653],[121.303093,23.691846],[121.303479,23.692302],[121.303675,23.692304],[121.303676,23.692214],[121.304165,23.692309],[121.304266,23.69213],[121.304462,23.692132],[121.304164,23.6924],[121.30426,23.692581],[121.304848,23.692588],[121.304943,23.69286],[121.305238,23.692773]],[[121.304756,23.692135],[121.304657,23.692224],[121.304557,23.692314],[121.30456,23.692133],[121.304756,23.692135]]],[[[121.306022,23.692781],[121.306315,23.692875],[121.306514,23.692696],[121.306421,23.692244],[121.30662,23.692065],[121.306718,23.692066],[121.306714,23.692337],[121.306908,23.69252],[121.307007,23.692431],[121.307104,23.692522],[121.307498,23.692436],[121.307696,23.692258],[121.307502,23.692075],[121.307702,23.691806],[121.307409,23.691713],[121.307307,23.691982],[121.307114,23.6918],[121.30672,23.691886],[121.306719,23.691976],[121.306622,23.691885],[121.306523,23.691974],[121.305837,23.691966],[121.305736,23.692146],[121.305834,23.692147],[121.305929,23.692419],[121.305831,23.692418],[121.305727,23.692868],[121.305922,23.692961],[121.306022,23.692781]]],[[[121.304719,23.695024],[121.304716,23.695205],[121.30452,23.695203],[121.304322,23.695381],[121.304417,23.695563],[121.30511,23.695119],[121.305014,23.694937],[121.305211,23.694849],[121.305213,23.694669],[121.305706,23.694493],[121.305708,23.694313],[121.305515,23.69413],[121.305812,23.693862],[121.305816,23.693592],[121.306014,23.693413],[121.30592,23.693141],[121.305722,23.693229],[121.30572,23.69341],[121.305622,23.693409],[121.30562,23.693589],[121.305321,23.693947],[121.304927,23.694033],[121.304827,23.694213],[121.304631,23.694211],[121.304234,23.694567],[121.30433,23.694749],[121.304722,23.694753],[121.304623,23.694843],[121.304621,23.695023],[121.304719,23.695024]],[[121.305512,23.694311],[121.305316,23.694308],[121.305217,23.694398],[121.305219,23.694217],[121.305513,23.69422],[121.305512,23.694311]],[[121.305217,23.694398],[121.305118,23.694487],[121.305119,23.694397],[121.305217,23.694398]],[[121.304722,23.694753],[121.304821,23.694664],[121.30482,23.694755],[121.304722,23.694753]]]]}},{"type":"Feature","properties":{"kind":"water","month":"2022-11","area_ha":5.25},"geometry":{"type":"MultiPolygon","coordinates":[[[[121.303823,23.696008],[121.30412,23.69583],[121.304123,23.69556],[121.304319,23.695562],[121.304323,23.695291],[121.304716,23.695205],[121.304624,23.694752],[121.303938,23.694745],[121.304035,23.694836],[121.303928,23.695467],[121.30383,23.695466],[121.303728,23.695826],[121.303532,23.695824],[121.303431,23.696003],[121.303823,23.696008]],[[121.304127,23.695289],[121.304129,23.695108],[121.304227,23.695109],[121.304225,23.69529],[121.304127,23.695289]]],[[[121.298329,23.696218],[121.298628,23.69586],[121.298733,23.69532],[121.298145,23.695313],[121.298242,23.695405],[121.298234,23.696037],[121.298134,23.696126],[121.298329,23.696218]]],[[[121.29872,23.696313],[121.298818,23.696314],[121.298824,23.695863],[121.298627,23.695951],[121.298524,23.696311],[121.298229,23.696398],[121.298227,23.696578],[121.298718,23.696494],[121.29872,23.696313]]],[[[121.301349,23.697787],[121.30135,23.697696],[121.301841,23.697611],[121.301944,23.697251],[121.302336,23.697256],[121.302339,23.697075],[121.303028,23.696812],[121.303032,23.696541],[121.30313,23.696542],[121.303234,23.696092],[121.303332,23.696093],[121.303236,23.695911],[121.30304,23.695909],[121.302936,23.696359],[121.302445,23.696444],[121.302243,23.696893],[121.301449,23.697607],[121.301352,23.697516],[121.300861,23.697601],[121.300765,23.697419],[121.300372,23.697505],[121.300178,23.697322],[121.299785,23.697408],[121.299782,23.697589],[121.299879,23.69768],[121.300175,23.697593],[121.300368,23.697776],[121.300366,23.697956],[121.300857,23.697872],[121.300859,23.697781],[121.301349,23.697787]]],[[[121.298996,23.697761],[121.298901,23.697489],[121.298608,23.697395],[121.298604,23.697756],[121.298801,23.697668],[121.298798,23.697849],[121.298896,23.69785],[121.298996,23.697761]]],[[[121.2986,23.698027],[121.298697,23.698119],[121.298698,23.698028],[121.2986,23.698027]]],[[[121.291831,23.698224],[121.29144,23.698129],[121.291438,23.69831],[121.291732,23.698313],[121.292023,23.698587],[121.292026,23.698316],[121.29183,23.698314],[121.291831,23.698224]]],[[[121.292218,23.698679],[121.292023,23.698587],[121.29202,23.698768],[121.292511,23.698773],[121.292513,23.698592],[121.292219,23.698589],[121.292218,23.698679]]],[[[121.298398,23.698477],[121.298496,23.698478],[121.298498,23.698297],[121.298695,23.698299],[121.298599,23.698118],[121.298004,23.698653],[121.297897,23.699284],[121.297799,23.699283],[121.297596,23.699822],[121.297695,23.699733],[121.298086,23.699828],[121.29809,23.699557],[121.298188,23.699558],[121.298293,23.699017],[121.298391,23.699018],[121.298395,23.698747],[121.298296,23.698746],[121.298398,23.698477]]],[[[121.298391,23.699018],[121.298488,23.69911],[121.298489,23.699019],[121.298391,23.699018]]],[[[121.295348,23.699256],[121.295546,23.699077],[121.295549,23.698897],[121.295353,23.698895],[121.295154,23.699073],[121.295152,23.699254],[121.295348,23.699256]]],[[[121.311394,23.68679],[121.311491,23.686881],[121.311492,23.686791],[121.311394,23.68679]]],[[[121.311686,23.686973],[121.311687,23.686883],[121.311491,23.686881],[121.31149,23.686971],[121.311686,23.686973]]],[[[121.31227,23.687341],[121.312272,23.68716],[121.311977,23.687248],[121.311978,23.687157],[121.31188,23.687156],[121.311881,23.687066],[121.311783,23.687065],[121.311784,23.686975],[121.311686,23.686973],[121.311586,23.687153],[121.31139,23.687151],[121.311285,23.687692],[121.311481,23.687694],[121.311682,23.687335],[121.312172,23.68734],[121.312169,23.687521],[121.312366,23.687523],[121.312458,23.687975],[121.312556,23.687976],[121.312562,23.687525],[121.312464,23.687524],[121.312466,23.687343],[121.31227,23.687341]]],[[[121.310882,23.6885],[121.31118,23.688232],[121.311182,23.688052],[121.310887,23.688139],[121.310785,23.688408],[121.31059,23.688316],[121.310392,23.688494],[121.31039,23.688675],[121.310882,23.6885]]],[[[121.30839,23.691633],[121.308687,23.691456],[121.30869,23.691185],[121.308888,23.691097],[121.308606,23.6901],[121.308508,23.690099],[121.308592,23.691184],[121.308197,23.69145],[121.308194,23.691631],[121.308294,23.691542],[121.30839,23.691633]]],[[[121.308191,23.691902],[121.308193,23.691721],[121.307898,23.691808],[121.307897,23.691899],[121.307702,23.691806],[121.307502,23.692075],[121.308191,23.691902]]],[[[121.306811,23.692429],[121.306718,23.692066],[121.30662,23.692065],[121.306618,23.692246],[121.306421,23.692244],[121.306417,23.692605],[121.306613,23.692607],[121.306811,23.692429]]],[[[121.305713,23.693952],[121.305515,23.69413],[121.30561,23.694312],[121.305708,23.694313],[121.305713,23.693952]]],[[[121.305219,23.694217],[121.305217,23.694398],[121.305512,23.694311],[121.305513,23.69422],[121.305219,23.694217]]],[[[121.305217,23.694398],[121.305118,23.694487],[121.305216,23.694488],[121.305217,23.694398]]]]}}]}