{"type":"FeatureCollection","features":[{"type":"Feature","properties":{"kind":"bare_slide","month":"2022-09","area_ha":85.73},"geometry":{"type":"MultiPolygon","coordinates":[[[[121.297338,23.71219],[121.29773,23.712195],[121.297831,23.711925],[121.298326,23.711569],[121.298441,23.710306],[121.297955,23.70994],[121.297958,23.709759],[121.297764,23.709576],[121.297665,23.709666],[121.29747,23.709573],[121.297577,23.708852],[121.297775,23.708674],[121.29797,23.708766],[121.298072,23.708496],[121.29817,23.708497],[121.298077,23.708135],[121.297879,23.708223],[121.297975,23.708405],[121.297384,23.708579],[121.297382,23.70876],[121.297185,23.708848],[121.297181,23.709119],[121.296885,23.709296],[121.296979,23.709568],[121.297173,23.709751],[121.297369,23.709753],[121.297268,23.710022],[121.297561,23.710116],[121.297654,23.710478],[121.297946,23.710662],[121.297844,23.710932],[121.297746,23.710931],[121.297738,23.711563],[121.296656,23.711822],[121.296749,23.712184],[121.297043,23.712187],[121.297045,23.712097],[121.297339,23.7121],[121.297338,23.71219]]],[[[121.292635,23.711777],[121.292634,23.711868],[121.29283,23.71187],[121.292931,23.71169],[121.293621,23.711427],[121.293721,23.711248],[121.293526,23.711155],[121.293525,23.711245],[121.293132,23.711331],[121.293031,23.711511],[121.292541,23.711505],[121.29254,23.711596],[121.292146,23.711682],[121.292045,23.711951],[121.292337,23.712135],[121.292439,23.711775],[121.292635,23.711777]]],[[[121.283958,23.715384],[121.283867,23.714841],[121.284061,23.715024],[121.284258,23.714935],[121.284064,23.714753],[121.283971,23.71439],[121.284467,23.713945],[121.284372,23.713763],[121.283978,23.713849],[121.283779,23.714117],[121.283582,23.714115],[121.282987,23.71465],[121.282983,23.714921],[121.283177,23.715104],[121.283376,23.714926],[121.283667,23.71511],[121.283665,23.71529],[121.283468,23.715378],[121.283563,23.71556],[121.28376,23.715562],[121.283958,23.715384]]],[[[121.285418,23.716213],[121.285612,23.716395],[121.285713,23.716216],[121.285518,23.716123],[121.285418,23.716213]]],[[[121.285039,23.72271],[121.285233,23.722893],[121.286114,23.722993],[121.28621,23.723174],[121.286504,23.723178],[121.287,23.722732],[121.287003,23.722551],[121.287198,23.722643],[121.287396,23.722465],[121.287602,23.721745],[121.287699,23.721836],[121.287896,23.721748],[121.288089,23.722021],[121.28858,23.721936],[121.288679,23.721847],[121.288683,23.721576],[121.288488,23.721484],[121.288588,23.721304],[121.288784,23.721307],[121.288685,23.721396],[121.288781,23.721577],[121.289174,23.721491],[121.289172,23.721672],[121.289366,23.721855],[121.289759,23.721769],[121.28986,23.721589],[121.29015,23.721863],[121.290346,23.721866],[121.290545,23.721687],[121.290547,23.721507],[121.290644,23.721598],[121.290841,23.72151],[121.290747,23.721238],[121.290453,23.721235],[121.290455,23.721054],[121.290553,23.721055],[121.290463,23.720422],[121.290662,23.720244],[121.290766,23.719793],[121.290963,23.719705],[121.290968,23.719344],[121.291166,23.719166],[121.291071,23.718984],[121.29117,23.718895],[121.29166,23.7189],[121.291661,23.71881],[121.291857,23.718812],[121.292051,23.718995],[121.292152,23.718815],[121.29186,23.718632],[121.291968,23.71782],[121.292264,23.717733],[121.292457,23.717916],[121.292755,23.717648],[121.292663,23.717196],[121.292859,23.717198],[121.293053,23.717381],[121.293154,23.717111],[121.292861,23.717017],[121.292863,23.716927],[121.292667,23.716925],[121.292468,23.717103],[121.292571,23.716743],[121.292376,23.716651],[121.291875,23.717458],[121.291483,23.717454],[121.291184,23.717811],[121.290692,23.717896],[121.290393,23.718254],[121.29,23.71834],[121.290095,23.718612],[121.290386,23.718796],[121.290384,23.718976],[121.289992,23.718972],[121.289889,23.719332],[121.289201,23.719415],[121.289204,23.719234],[121.289009,23.719142],[121.289012,23.718871],[121.289408,23.718604],[121.289411,23.718424],[121.289804,23.718338],[121.289809,23.717977],[121.289907,23.717978],[121.289913,23.717526],[121.289816,23.717435],[121.28952,23.717522],[121.289523,23.717342],[121.289622,23.717252],[121.289719,23.717344],[121.290112,23.717258],[121.290115,23.717077],[121.289921,23.716894],[121.289627,23.716891],[121.289629,23.716711],[121.289824,23.716803],[121.289825,23.716713],[121.290121,23.716626],[121.290119,23.716716],[121.290411,23.7169],[121.29061,23.716721],[121.290612,23.716541],[121.291602,23.715829],[121.291705,23.715469],[121.291999,23.715473],[121.292099,23.715293],[121.29239,23.715567],[121.292588,23.715389],[121.292981,23.715393],[121.293076,23.715575],[121.293568,23.71549],[121.293569,23.7154],[121.293961,23.715404],[121.293959,23.715585],[121.293762,23.715673],[121.293857,23.715854],[121.294152,23.715858],[121.294449,23.71559],[121.29494,23.715595],[121.295035,23.715777],[121.295328,23.715871],[121.295228,23.71605],[121.295423,23.716142],[121.295622,23.715874],[121.295331,23.71569],[121.295333,23.715509],[121.295139,23.715327],[121.294845,23.715323],[121.294846,23.715233],[121.294061,23.715315],[121.294063,23.715134],[121.294161,23.715135],[121.294163,23.714955],[121.294359,23.714957],[121.294756,23.7146],[121.294952,23.714602],[121.295352,23.714065],[121.295646,23.714068],[121.295647,23.713978],[121.295942,23.713891],[121.296049,23.71326],[121.296246,23.713172],[121.296254,23.71254],[121.296157,23.712448],[121.295862,23.712535],[121.295958,23.712717],[121.295659,23.713075],[121.295464,23.712982],[121.295068,23.713249],[121.294676,23.713245],[121.294575,23.713424],[121.294868,23.713518],[121.294867,23.713608],[121.294378,23.713512],[121.294377,23.713603],[121.293589,23.713865],[121.293192,23.714222],[121.292311,23.714122],[121.29221,23.714301],[121.292405,23.714394],[121.292403,23.714574],[121.292204,23.714753],[121.292008,23.71475],[121.292012,23.714479],[121.291914,23.714478],[121.291819,23.714206],[121.291623,23.714204],[121.291622,23.714295],[121.290937,23.714197],[121.290441,23.714643],[121.29005,23.714548],[121.289851,23.714727],[121.289947,23.714908],[121.289361,23.714721],[121.289062,23.715079],[121.288965,23.714988],[121.288475,23.714982],[121.288375,23.715071],[121.28828,23.71489],[121.288181,23.714979],[121.287986,23.714886],[121.287885,23.715066],[121.287001,23.715146],[121.286902,23.715236],[121.286997,23.715508],[121.286699,23.715775],[121.28699,23.716049],[121.287381,23.716144],[121.287278,23.716504],[121.287957,23.717053],[121.287855,23.717413],[121.28756,23.71741],[121.287272,23.716955],[121.286977,23.717042],[121.286679,23.71731],[121.286485,23.717127],[121.286584,23.717038],[121.286489,23.716856],[121.286293,23.716854],[121.286291,23.716945],[121.285997,23.716941],[121.285998,23.716851],[121.285409,23.716935],[121.28541,23.716845],[121.285214,23.716842],[121.284817,23.717199],[121.284815,23.71738],[121.284617,23.717468],[121.28452,23.717376],[121.284523,23.717196],[121.284621,23.717197],[121.284526,23.716925],[121.284725,23.716747],[121.284921,23.716749],[121.28492,23.716839],[121.285117,23.716751],[121.284926,23.716388],[121.285219,23.716481],[121.285318,23.716392],[121.285222,23.71621],[121.286013,23.715768],[121.285917,23.715586],[121.285425,23.715671],[121.285226,23.715939],[121.284932,23.715936],[121.284633,23.716294],[121.284337,23.716381],[121.284334,23.716652],[121.284236,23.716651],[121.284331,23.716833],[121.283839,23.717008],[121.283243,23.717543],[121.283239,23.717904],[121.283337,23.717905],[121.283233,23.718355],[121.283428,23.718448],[121.283423,23.718809],[121.283226,23.718897],[121.283321,23.719079],[121.283123,23.719257],[121.28322,23.719349],[121.283418,23.71917],[121.284103,23.719268],[121.284401,23.719],[121.284402,23.71891],[121.284109,23.718817],[121.28382,23.718452],[121.283624,23.71845],[121.283729,23.717909],[121.283924,23.718002],[121.284023,23.717913],[121.283927,23.717731],[121.284225,23.717463],[121.284516,23.717738],[121.284415,23.717917],[121.284706,23.718191],[121.284902,23.718193],[121.285101,23.718015],[121.284907,23.717832],[121.285106,23.717564],[121.285401,23.717567],[121.285594,23.71775],[121.285197,23.718106],[121.285293,23.718288],[121.285096,23.718376],[121.285093,23.718557],[121.285287,23.718739],[121.284991,23.718917],[121.284988,23.719097],[121.285183,23.71919],[121.285181,23.71937],[121.285375,23.719553],[121.285369,23.720005],[121.285467,23.720006],[121.285464,23.720186],[121.285267,23.720274],[121.285359,23.720727],[121.285064,23.720814],[121.28496,23.721264],[121.284663,23.721441],[121.284661,23.721622],[121.284364,23.721799],[121.284361,23.72207],[121.284064,23.722248],[121.284258,23.72243],[121.284656,23.721983],[121.28485,23.722166],[121.285245,23.72199],[121.285241,23.722261],[121.285044,23.722349],[121.285039,23.72271]],[[121.289762,23.721588],[121.289763,23.721498],[121.289565,23.721586],[121.28947,23.721404],[121.289177,23.721311],[121.28918,23.72104],[121.288887,23.720946],[121.288891,23.720676],[121.288697,23.720493],[121.288499,23.720671],[121.288305,23.720489],[121.288009,23.720576],[121.287719,23.720301],[121.28752,23.72048],[121.287128,23.720475],[121.287525,23.720119],[121.287527,23.719938],[121.287237,23.719664],[121.287038,23.719842],[121.286843,23.71975],[121.286846,23.719569],[121.286944,23.71957],[121.28685,23.719208],[121.287044,23.719391],[121.287339,23.719304],[121.287337,23.719485],[121.287239,23.719483],[121.287335,23.719665],[121.287533,23.719487],[121.288022,23.719582],[121.288018,23.719944],[121.28792,23.719942],[121.288015,23.720124],[121.288311,23.720037],[121.288312,23.719947],[121.288409,23.720038],[121.288606,23.71995],[121.288315,23.719676],[121.28832,23.719315],[121.288517,23.719227],[121.288611,23.719589],[121.288708,23.71968],[121.288905,23.719592],[121.288903,23.719773],[121.289097,23.719865],[121.288997,23.720045],[121.289388,23.720139],[121.289386,23.72032],[121.289187,23.720498],[121.289284,23.72059],[121.28958,23.720503],[121.289381,23.720681],[121.289378,23.720952],[121.289571,23.721135],[121.289769,23.721047],[121.290059,23.721321],[121.289762,23.721588]],[[121.288499,23.720671],[121.288595,23.720763],[121.288497,23.720762],[121.288499,23.720671]],[[121.290217,23.716717],[121.290317,23.716628],[121.290315,23.716718],[121.290217,23.716717]],[[121.290317,23.716628],[121.290416,23.716539],[121.290415,23.716629],[121.290317,23.716628]],[[121.287855,23.717413],[121.287951,23.717505],[121.287853,23.717504],[121.287855,23.717413]],[[121.285592,23.71793],[121.285891,23.717572],[121.286087,23.717574],[121.285985,23.717844],[121.285592,23.71793]],[[121.284754,23.721984],[121.284854,23.721895],[121.284852,23.721985],[121.284754,23.721984]],[[121.285251,23.721538],[121.285644,23.721452],[121.285641,23.721723],[121.285343,23.721991],[121.285245,23.72199],[121.285251,23.721538]],[[121.285644,23.721452],[121.285743,23.721363],[121.285742,23.721453],[121.285644,23.721452]],[[121.285831,23.722177],[121.28593,23.722088],[121.285929,23.722178],[121.285831,23.722177]],[[121.287008,23.72219],[121.287107,23.722101],[121.287106,23.722191],[121.287008,23.72219]],[[121.285637,23.721994],[121.285736,23.721905],[121.285735,23.721995],[121.285637,23.721994]],[[121.288189,23.721842],[121.288288,23.721753],[121.288287,23.721843],[121.288189,23.721842]],[[121.286725,23.721284],[121.286822,23.721375],[121.286724,23.721374],[121.286725,23.721284]],[[121.286627,23.721283],[121.286533,23.721011],[121.286731,23.720832],[121.286828,23.720924],[121.287123,23.720837],[121.287414,23.721111],[121.287313,23.72129],[121.287117,23.721288],[121.287218,23.721109],[121.286827,23.721014],[121.286725,23.721284],[121.286627,23.721283]],[[121.287414,23.721111],[121.287513,23.721022],[121.287612,23.720932],[121.28761,23.721113],[121.287414,23.721111]],[[121.288001,23.721208],[121.2881,23.721118],[121.288099,23.721209],[121.288001,23.721208]],[[121.285845,23.721093],[121.285944,23.721004],[121.285943,23.721094],[121.285845,23.721093]],[[121.288105,23.720757],[121.288201,23.720939],[121.288003,23.721027],[121.287909,23.720755],[121.288105,23.720757]],[[121.28634,23.720738],[121.286241,23.720827],[121.286242,23.720737],[121.28634,23.720738]],[[121.286342,23.720557],[121.28644,23.720558],[121.286343,23.720467],[121.286443,23.720378],[121.286351,23.719925],[121.286547,23.719927],[121.286544,23.720108],[121.286739,23.7202],[121.286735,23.720561],[121.286439,23.720648],[121.286438,23.720739],[121.28634,23.720738],[121.286342,23.720557]],[[121.290262,23.720781],[121.290362,23.720692],[121.290361,23.720782],[121.290262,23.720781]],[[121.285949,23.720643],[121.286048,23.720554],[121.286047,23.720644],[121.285949,23.720643]],[[121.289975,23.720236],[121.289875,23.720416],[121.289679,23.720413],[121.289779,23.720234],[121.289975,23.720236]],[[121.285955,23.720192],[121.286054,23.720102],[121.286053,23.720193],[121.285955,23.720192]],[[121.289685,23.719962],[121.289881,23.719964],[121.28988,23.720054],[121.289684,23.720052],[121.289685,23.719962]],[[121.289294,23.719867],[121.28949,23.71987],[121.289489,23.71996],[121.289292,23.719958],[121.289294,23.719867]],[[121.290277,23.719698],[121.290179,23.719697],[121.290182,23.719426],[121.29028,23.719427],[121.290277,23.719698]],[[121.290282,23.719246],[121.290381,23.719247],[121.29048,23.719158],[121.290378,23.719428],[121.29028,23.719427],[121.290282,23.719246]],[[121.285877,23.718656],[121.285975,23.718657],[121.28588,23.718385],[121.286079,23.718206],[121.286372,23.7183],[121.28657,23.718122],[121.286377,23.717939],[121.286477,23.717759],[121.286282,23.717667],[121.286284,23.717486],[121.286579,23.71749],[121.28658,23.717399],[121.286872,23.717583],[121.286771,23.717763],[121.286966,23.717855],[121.286668,23.718123],[121.286861,23.718396],[121.287254,23.71831],[121.287157,23.718218],[121.287258,23.718039],[121.287063,23.717946],[121.287165,23.717677],[121.287459,23.71768],[121.287357,23.71795],[121.287649,23.718133],[121.28755,23.718223],[121.287645,23.718404],[121.287843,23.718316],[121.287845,23.718136],[121.288044,23.717957],[121.288239,23.71805],[121.288339,23.71787],[121.288633,23.717873],[121.288631,23.718054],[121.288729,23.718055],[121.28863,23.718144],[121.288725,23.718326],[121.288428,23.718594],[121.288718,23.718868],[121.288519,23.719136],[121.288227,23.718953],[121.288326,23.718863],[121.28823,23.718682],[121.288033,23.71877],[121.288031,23.71895],[121.287733,23.719218],[121.287441,23.719034],[121.287347,23.718762],[121.287148,23.718941],[121.286757,23.718846],[121.286558,23.719024],[121.286463,23.718843],[121.286069,23.718929],[121.285877,23.718656]],[[121.286069,23.718929],[121.28597,23.719018],[121.285971,23.718928],[121.286069,23.718929]],[[121.283419,23.71908],[121.283519,23.718991],[121.283517,23.719081],[121.283419,23.71908]],[[121.28548,23.719012],[121.285579,23.718923],[121.285578,23.719014],[121.28548,23.719012]],[[121.290775,23.719071],[121.290874,23.718982],[121.290873,23.719072],[121.290775,23.719071]],[[121.291274,23.718444],[121.291373,23.718355],[121.291372,23.718446],[121.291274,23.718444]],[[121.285785,23.718203],[121.285588,23.718201],[121.285591,23.71802],[121.285689,23.718021],[121.285785,23.718203]],[[121.286178,23.718117],[121.285982,23.718115],[121.285983,23.718025],[121.28618,23.717937],[121.286178,23.718117]],[[121.283434,23.717996],[121.283533,23.717907],[121.283532,23.717998],[121.283434,23.717996]],[[121.289518,23.717703],[121.289616,23.717704],[121.289614,23.717884],[121.289516,23.717883],[121.289518,23.717703]],[[121.287949,23.717685],[121.288048,23.717596],[121.288047,23.717686],[121.287949,23.717685]],[[121.288734,23.717694],[121.288833,23.717605],[121.288832,23.717695],[121.288734,23.717694]],[[121.285894,23.717301],[121.285993,23.717302],[121.28599,23.717483],[121.285892,23.717482],[121.285894,23.717301]],[[121.289226,23.717519],[121.28903,23.717517],[121.289031,23.717426],[121.289229,23.717338],[121.289226,23.717519]],[[121.286287,23.717306],[121.286386,23.717217],[121.286385,23.717307],[121.286287,23.717306]],[[121.285799,23.71712],[121.285995,23.717122],[121.285994,23.717212],[121.285798,23.71721],[121.285799,23.71712]],[[121.28923,23.717248],[121.289036,23.717065],[121.289331,23.716978],[121.289329,23.717159],[121.28923,23.717248]],[[121.289331,23.716978],[121.289431,23.716889],[121.289429,23.716979],[121.289331,23.716978]],[[121.289332,23.716888],[121.289236,23.716797],[121.289334,23.716798],[121.289332,23.716888]],[[121.288351,23.716967],[121.28845,23.716878],[121.288449,23.716968],[121.288351,23.716967]],[[121.288943,23.716703],[121.289139,23.716705],[121.289136,23.716886],[121.28894,23.716884],[121.288943,23.716703]],[[121.287864,23.716691],[121.287963,23.716602],[121.287962,23.716692],[121.287864,23.716691]],[[121.289532,23.716619],[121.289336,23.716617],[121.289142,23.716434],[121.289534,23.716439],[121.289532,23.716619]],[[121.287671,23.716418],[121.287771,23.716329],[121.287769,23.716419],[121.287671,23.716418]],[[121.288555,23.716338],[121.288654,23.716248],[121.288653,23.716339],[121.288555,23.716338]],[[121.29032,23.716357],[121.290419,23.716268],[121.290418,23.716358],[121.29032,23.716357]],[[121.288067,23.716152],[121.287968,23.716241],[121.287969,23.71615],[121.288067,23.716152]],[[121.288067,23.716152],[121.288166,23.716062],[121.288165,23.716153],[121.288067,23.716152]],[[121.28993,23.716172],[121.290126,23.716174],[121.290125,23.716265],[121.289929,23.716262],[121.28993,23.716172]],[[121.289244,23.716165],[121.289048,23.716162],[121.289151,23.715802],[121.289249,23.715803],[121.289244,23.716165]],[[121.290325,23.715996],[121.290525,23.715727],[121.290331,23.715545],[121.290035,23.715632],[121.290034,23.715722],[121.28974,23.715719],[121.289741,23.715628],[121.290535,23.714915],[121.290632,23.715006],[121.290926,23.715009],[121.290927,23.714919],[121.291222,23.714922],[121.29122,23.715013],[121.291418,23.714924],[121.291515,23.715016],[121.291512,23.715196],[121.291315,23.715284],[121.291309,23.715736],[121.291212,23.715645],[121.290917,23.715732],[121.290618,23.716089],[121.290325,23.715996]],[[121.288368,23.715613],[121.288565,23.715615],[121.288563,23.715706],[121.288367,23.715703],[121.288368,23.715613]],[[121.287982,23.715157],[121.288179,23.715069],[121.288275,23.715251],[121.288472,23.715163],[121.288568,23.715344],[121.288371,23.715433],[121.287982,23.715157]],[[121.288861,23.715438],[121.28896,23.715349],[121.288959,23.715439],[121.288861,23.715438]],[[121.288961,23.715258],[121.289061,23.715169],[121.28906,23.71526],[121.288961,23.715258]],[[121.29387,23.714861],[121.293968,23.714862],[121.293966,23.715043],[121.293868,23.715042],[121.29387,23.714861]],[[121.29279,23.71494],[121.29289,23.71485],[121.292889,23.714941],[121.29279,23.71494]],[[121.29437,23.714144],[121.294271,23.714234],[121.294272,23.714143],[121.29437,23.714144]],[[121.294372,23.713964],[121.29447,23.713965],[121.29457,23.713876],[121.294468,23.714145],[121.29437,23.714144],[121.294372,23.713964]]],[[[121.284505,23.71855],[121.28412,23.718004],[121.283825,23.718091],[121.283917,23.718544],[121.284211,23.718547],[121.28421,23.718637],[121.284505,23.71855]]],[[[121.284004,23.719357],[121.283809,23.719265],[121.283709,23.719444],[121.283904,23.719537],[121.284004,23.719357]]],[[[121.282712,23.720697],[121.282814,23.720337],[121.283208,23.720251],[121.283406,23.720073],[121.283409,23.719892],[121.283606,23.719804],[121.28351,23.719623],[121.283216,23.719619],[121.28312,23.719438],[121.282922,23.719616],[121.282726,23.719614],[121.282427,23.719972],[121.282133,23.719969],[121.281737,23.720235],[121.281732,23.720596],[121.282023,23.72087],[121.282219,23.720873],[121.282417,23.720694],[121.282712,23.720697]],[[121.282917,23.719977],[121.282818,23.720067],[121.282819,23.719976],[121.282917,23.719977]],[[121.282917,23.719977],[121.283016,23.719888],[121.283015,23.719978],[121.282917,23.719977]]],[[[121.292911,23.72072],[121.292716,23.720628],[121.292419,23.720895],[121.292415,23.721166],[121.292317,23.721165],[121.292412,23.721437],[121.292117,23.721434],[121.29182,23.721701],[121.29211,23.721975],[121.292308,23.721887],[121.292305,23.722068],[121.292597,23.722252],[121.292498,23.722341],[121.292589,23.722884],[121.292491,23.722883],[121.292387,23.723333],[121.292774,23.723698],[121.292771,23.723969],[121.293063,23.724153],[121.293059,23.724424],[121.292663,23.72469],[121.29266,23.724961],[121.292953,23.725055],[121.292954,23.724965],[121.293641,23.724972],[121.29374,23.724883],[121.293736,23.725154],[121.293147,23.725238],[121.293146,23.725328],[121.292654,23.725413],[121.292653,23.725503],[121.292261,23.725499],[121.29216,23.725678],[121.292258,23.725679],[121.292255,23.72595],[121.292646,23.726045],[121.292645,23.726135],[121.29294,23.726048],[121.29304,23.725868],[121.293433,23.725873],[121.293329,23.726323],[121.293525,23.726325],[121.293527,23.726145],[121.29392,23.726149],[121.293922,23.725969],[121.294412,23.725974],[121.294522,23.725072],[121.294328,23.724889],[121.294627,23.724532],[121.294631,23.724261],[121.294925,23.724264],[121.294924,23.724354],[121.295121,23.724266],[121.29483,23.723992],[121.294933,23.723632],[121.29464,23.723538],[121.294644,23.723268],[121.295137,23.723002],[121.295145,23.72246],[121.295442,23.722193],[121.295347,23.722011],[121.295738,23.722106],[121.296432,23.721481],[121.296529,23.721573],[121.296725,23.721575],[121.296726,23.721484],[121.297019,23.721578],[121.297021,23.721488],[121.297316,23.721401],[121.297221,23.721129],[121.297023,23.721307],[121.296829,23.721124],[121.297029,23.720856],[121.297126,23.720947],[121.297323,23.720859],[121.297129,23.720676],[121.297132,23.720496],[121.29723,23.720497],[121.297232,23.720316],[121.297134,23.720315],[121.297244,23.719413],[121.297049,23.719321],[121.296954,23.719049],[121.296757,23.719137],[121.296854,23.719228],[121.296848,23.71968],[121.296651,23.719768],[121.296648,23.719949],[121.296349,23.720306],[121.296543,23.720489],[121.296539,23.72085],[121.296046,23.721026],[121.295944,23.721295],[121.295547,23.721652],[121.294563,23.721912],[121.294853,23.722277],[121.294849,23.722547],[121.294551,23.722815],[121.294355,23.722813],[121.294457,23.722543],[121.294555,23.722544],[121.294361,23.722361],[121.294063,23.722629],[121.294061,23.72281],[121.294256,23.722902],[121.294156,23.723082],[121.293959,23.723079],[121.293867,23.722627],[121.293575,23.722443],[121.293581,23.721992],[121.293386,23.721899],[121.293389,23.721719],[121.292904,23.721262],[121.292708,23.72126],[121.292907,23.721081],[121.292911,23.72072]],[[121.292708,23.72126],[121.292609,23.721349],[121.29261,23.721259],[121.292708,23.72126]],[[121.293044,23.725598],[121.293143,23.725508],[121.293142,23.725599],[121.293044,23.725598]],[[121.29393,23.725337],[121.294126,23.725339],[121.294125,23.725429],[121.293929,23.725427],[121.29393,23.725337]],[[121.293651,23.72416],[121.293356,23.724247],[121.293261,23.723975],[121.293654,23.723979],[121.293651,23.72416]],[[121.293847,23.724162],[121.293947,23.724073],[121.293945,23.724163],[121.293847,23.724162]],[[121.294243,23.723895],[121.294442,23.723717],[121.294438,23.723988],[121.294243,23.723895]],[[121.293853,23.72371],[121.29395,23.723802],[121.293852,23.723801],[121.293853,23.72371]],[[121.293853,23.72371],[121.293756,23.723619],[121.293854,23.72362],[121.293853,23.72371]],[[121.293167,23.723703],[121.293266,23.723614],[121.293265,23.723704],[121.293167,23.723703]],[[121.294345,23.723625],[121.29415,23.723533],[121.294152,23.723352],[121.294348,23.723355],[121.294345,23.723625]]],[[[121.290316,23.724213],[121.290512,23.724215],[121.29071,23.724037],[121.29052,23.723583],[121.290716,23.723585],[121.290812,23.723767],[121.291205,23.723681],[121.290819,23.723225],[121.290525,23.723222],[121.290423,23.723492],[121.290229,23.723309],[121.290032,23.723397],[121.29003,23.723578],[121.290225,23.72367],[121.290219,23.724122],[121.29002,23.7243],[121.290215,23.724393],[121.290316,23.724213]]],[[[121.291379,23.725399],[121.291578,23.72522],[121.291774,23.725222],[121.291972,23.725044],[121.291982,23.724322],[121.29218,23.724143],[121.291898,23.723237],[121.2917,23.723325],[121.291695,23.723777],[121.291793,23.723778],[121.291686,23.724409],[121.291587,23.724498],[121.291098,23.724402],[121.290602,23.724848],[121.290891,23.725213],[121.290889,23.725393],[121.290593,23.72548],[121.290786,23.725753],[121.291275,23.725849],[121.291379,23.725399]],[[121.29119,23.724855],[121.291289,23.724766],[121.291288,23.724856],[121.29119,23.724855]]],[[[121.295788,23.725809],[121.295886,23.72581],[121.295882,23.72608],[121.296076,23.726263],[121.29637,23.726266],[121.296369,23.726357],[121.296762,23.726271],[121.296865,23.725911],[121.296767,23.72591],[121.296676,23.725367],[121.296971,23.72528],[121.297172,23.724921],[121.297367,23.725013],[121.297863,23.724567],[121.297869,23.724116],[121.297674,23.724023],[121.297374,23.724471],[121.296983,23.724377],[121.296883,23.724556],[121.296687,23.724554],[121.296591,23.724373],[121.296988,23.724016],[121.296991,23.723745],[121.296699,23.723561],[121.2966,23.72365],[121.296594,23.724102],[121.296397,23.72419],[121.296395,23.72437],[121.296101,23.724367],[121.296099,23.724457],[121.295805,23.724454],[121.295804,23.724544],[121.295119,23.724447],[121.294821,23.724714],[121.29511,23.725079],[121.295601,23.725084],[121.295704,23.724724],[121.296194,23.724729],[121.295598,23.725265],[121.295694,23.725446],[121.296089,23.72527],[121.296086,23.725451],[121.295791,23.725538],[121.295788,23.725809]],[[121.296395,23.72437],[121.296492,23.724462],[121.296394,23.724461],[121.296395,23.72437]],[[121.296089,23.72527],[121.296188,23.725181],[121.296187,23.725271],[121.296089,23.72527]],[[121.29657,23.725998],[121.296472,23.725997],[121.296376,23.725815],[121.296572,23.725817],[121.29657,23.725998]],[[121.296579,23.725275],[121.296382,23.725364],[121.296287,23.725092],[121.296581,23.725095],[121.296579,23.725275]]],[[[121.299196,23.704987],[121.299695,23.70436],[121.299598,23.704269],[121.299701,23.703909],[121.299409,23.703725],[121.299412,23.703454],[121.299217,23.703362],[121.299321,23.702911],[121.299126,23.702819],[121.299133,23.702277],[121.299035,23.702276],[121.299041,23.701825],[121.299139,23.701826],[121.299243,23.701375],[121.298753,23.70137],[121.298657,23.701188],[121.298069,23.701182],[121.298063,23.701633],[121.298161,23.701634],[121.298055,23.702265],[121.298153,23.702266],[121.298149,23.702537],[121.298247,23.702538],[121.298243,23.7029],[121.298532,23.703264],[121.298529,23.703535],[121.299111,23.703993],[121.299001,23.704894],[121.299196,23.704987]],[[121.299019,23.70354],[121.298922,23.703449],[121.29902,23.70345],[121.299019,23.70354]],[[121.298832,23.702816],[121.298735,23.702724],[121.298833,23.702725],[121.298832,23.702816]],[[121.298834,23.702635],[121.298738,23.702544],[121.298836,23.702545],[121.298834,23.702635]],[[121.298644,23.702182],[121.298547,23.70209],[121.298645,23.702091],[121.298644,23.702182]]],[[[121.298872,23.707331],[121.29858,23.707147],[121.298582,23.706967],[121.29868,23.706968],[121.298785,23.706427],[121.299083,23.70616],[121.299085,23.705979],[121.298987,23.705978],[121.299088,23.705798],[121.298893,23.705706],[121.298895,23.705525],[121.298992,23.705617],[121.299189,23.705529],[121.299095,23.705257],[121.298899,23.705255],[121.298798,23.705434],[121.298112,23.705427],[121.298111,23.705517],[121.297915,23.705515],[121.297814,23.705694],[121.297519,23.705781],[121.297906,23.706147],[121.298493,23.706243],[121.298486,23.706785],[121.298191,23.706872],[121.297991,23.707141],[121.298088,23.707232],[121.298384,23.707145],[121.298478,23.707417],[121.298771,23.707511],[121.298872,23.707331]],[[121.298791,23.705976],[121.29889,23.705887],[121.298889,23.705977],[121.298791,23.705976]]],[[[121.298865,23.707873],[121.299058,23.708056],[121.299254,23.708058],[121.29935,23.708239],[121.299648,23.707972],[121.299556,23.707519],[121.299362,23.707337],[121.29887,23.707421],[121.298868,23.707602],[121.298966,23.707603],[121.298865,23.707873]]],[[[121.30137,23.711332],[121.301175,23.711239],[121.300984,23.710786],[121.30011,23.710144],[121.300112,23.709963],[121.299821,23.70978],[121.299726,23.709508],[121.299432,23.709504],[121.299336,23.709323],[121.299139,23.709411],[121.299623,23.709868],[121.299619,23.710229],[121.299521,23.710228],[121.299616,23.71041],[121.299814,23.710321],[121.299812,23.710412],[121.300107,23.710415],[121.300299,23.710688],[121.300593,23.710691],[121.300686,23.711144],[121.300979,23.711237],[121.301171,23.71151],[121.30137,23.711332]]],[[[121.301525,23.714494],[121.301528,23.714223],[121.301727,23.714045],[121.301731,23.713684],[121.302029,23.713416],[121.302034,23.713055],[121.301452,23.712507],[121.301455,23.712326],[121.301162,23.712232],[121.30106,23.712502],[121.300962,23.712501],[121.300957,23.712862],[121.300859,23.712861],[121.300852,23.713403],[121.30095,23.713404],[121.301044,23.713766],[121.301239,23.713859],[121.301233,23.71431],[121.301135,23.714309],[121.301033,23.714579],[121.301326,23.714672],[121.301525,23.714494]]],[[[121.298382,23.714821],[121.298285,23.714729],[121.297991,23.714726],[121.297993,23.714545],[121.297799,23.714453],[121.297803,23.714092],[121.298002,23.713913],[121.297612,23.713729],[121.29751,23.713998],[121.297412,23.713997],[121.297409,23.714268],[121.297211,23.714356],[121.297209,23.714537],[121.297403,23.71472],[121.297697,23.714723],[121.298181,23.71518],[121.298379,23.715091],[121.298382,23.714821]]],[[[121.302122,23.721363],[121.302024,23.721362],[121.302028,23.721091],[121.30193,23.72109],[121.301934,23.720729],[121.302132,23.720641],[121.302239,23.71992],[121.302044,23.719827],[121.301842,23.720277],[121.301744,23.720275],[121.301636,23.721087],[121.301734,23.721088],[121.30173,23.721359],[121.301924,23.721542],[121.302122,23.721363]]],[[[121.299947,23.722694],[121.300047,23.722605],[121.299954,23.722152],[121.300052,23.722153],[121.300155,23.721793],[121.300352,23.721705],[121.300361,23.721073],[121.30046,23.720984],[121.300169,23.72071],[121.299972,23.720798],[121.299778,23.720615],[121.299479,23.720973],[121.299476,23.721244],[121.299378,23.721243],[121.299269,23.722054],[121.299464,23.722147],[121.299458,23.722598],[121.299749,23.722872],[121.299945,23.722874],[121.300044,23.722785],[121.299947,23.722694]]],[[[121.303455,23.724448],[121.303262,23.724265],[121.303269,23.723724],[121.303564,23.723637],[121.303566,23.723456],[121.303371,23.723364],[121.303375,23.723093],[121.303768,23.723007],[121.303675,23.722644],[121.30397,23.722557],[121.304071,23.722378],[121.303974,23.722287],[121.303287,23.722279],[121.303289,23.722189],[121.302797,23.722274],[121.302701,23.722092],[121.302408,23.721998],[121.302308,23.722178],[121.302503,23.72227],[121.302596,23.722633],[121.302794,23.722544],[121.302796,23.722364],[121.302992,23.722366],[121.302893,23.722455],[121.302984,23.722998],[121.302496,23.722812],[121.302394,23.723082],[121.302098,23.723259],[121.301995,23.723619],[121.302093,23.72362],[121.302188,23.723892],[121.302481,23.723986],[121.302574,23.724348],[121.30277,23.72435],[121.302872,23.72408],[121.30297,23.724082],[121.302966,23.724352],[121.30316,23.724535],[121.303356,23.724537],[121.303455,23.724448]]],[[[121.297972,23.723756],[121.297874,23.723755],[121.297884,23.722942],[121.297786,23.722941],[121.297887,23.722761],[121.297692,23.722669],[121.297593,23.722758],[121.297689,23.72285],[121.297586,23.7233],[121.297387,23.723478],[121.297191,23.723476],[121.297091,23.723656],[121.297187,23.723747],[121.297581,23.723661],[121.297773,23.723934],[121.297972,23.723756]]],[[[121.301477,23.725781],[121.301772,23.725694],[121.301966,23.725876],[121.302065,23.725787],[121.301968,23.725696],[121.302071,23.725336],[121.302364,23.725429],[121.302565,23.72507],[121.302468,23.724979],[121.302272,23.724977],[121.302271,23.725067],[121.301977,23.724974],[121.301875,23.725334],[121.301577,23.725601],[121.301381,23.725599],[121.30118,23.725958],[121.301375,23.726051],[121.301477,23.725781]]],[[[121.303115,23.728056],[121.303214,23.727967],[121.303118,23.727785],[121.302922,23.727783],[121.302923,23.727693],[121.302333,23.727777],[121.302238,23.727595],[121.302434,23.727597],[121.302534,23.727418],[121.302146,23.727143],[121.301948,23.727231],[121.301946,23.727411],[121.302044,23.727412],[121.30204,23.727683],[121.301843,23.727771],[121.301939,23.727953],[121.302136,23.727865],[121.30233,23.728048],[121.302526,23.72805],[121.302527,23.72796],[121.303115,23.728056]]]]}},{"type":"Feature","properties":{"kind":"bare_dam","month":"2022-09","area_ha":24.32},"geometry":{"type":"MultiPolygon","coordinates":[[[[121.302897,23.691844],[121.303389,23.691669],[121.303293,23.691487],[121.302802,23.691572],[121.302706,23.69139],[121.30251,23.691388],[121.302509,23.691478],[121.302315,23.691296],[121.30202,23.691383],[121.301925,23.691111],[121.30163,23.691198],[121.301438,23.690925],[121.301239,23.691103],[121.301043,23.691101],[121.301044,23.691011],[121.300749,23.691098],[121.300851,23.690828],[121.300752,23.690827],[121.300756,23.690556],[121.300465,23.690282],[121.300468,23.690102],[121.300761,23.690195],[121.30076,23.690285],[121.30125,23.690291],[121.30135,23.690111],[121.300959,23.690017],[121.300765,23.689834],[121.300373,23.68983],[121.300374,23.689739],[121.299982,23.689735],[121.299981,23.689825],[121.299884,23.689734],[121.298708,23.689721],[121.298607,23.6899],[121.298215,23.689896],[121.298115,23.690076],[121.297919,23.690074],[121.297522,23.69043],[121.297614,23.690883],[121.297712,23.690884],[121.297807,23.691156],[121.298005,23.690977],[121.298692,23.690895],[121.298691,23.690985],[121.298887,23.690987],[121.298785,23.691347],[121.298978,23.69153],[121.299665,23.691537],[121.299762,23.691629],[121.299861,23.69154],[121.299767,23.691177],[121.299963,23.69118],[121.300059,23.691361],[121.300451,23.691366],[121.30045,23.691456],[121.300942,23.691371],[121.30094,23.691461],[121.302018,23.691563],[121.302017,23.691654],[121.302214,23.691565],[121.302408,23.691748],[121.302898,23.691754],[121.302897,23.691844]],[[121.299875,23.690456],[121.29968,23.690364],[121.29978,23.690184],[121.300269,23.69028],[121.300266,23.690551],[121.300069,23.690639],[121.300066,23.69082],[121.299968,23.690818],[121.299875,23.690456]],[[121.299676,23.690635],[121.29948,23.690632],[121.299481,23.690542],[121.299678,23.690544],[121.299676,23.690635]],[[121.299092,23.690357],[121.298896,23.690355],[121.298898,23.690175],[121.299094,23.690177],[121.299092,23.690357]]],[[[121.303777,23.692034],[121.303484,23.691941],[121.303485,23.69185],[121.30319,23.691937],[121.30348,23.692211],[121.303676,23.692214],[121.303777,23.692034]]],[[[121.301302,23.693813],[121.301009,23.693719],[121.300428,23.693171],[121.30043,23.692991],[121.300235,23.692898],[121.300336,23.692719],[121.300142,23.692536],[121.299751,23.692441],[121.299558,23.692168],[121.299068,23.692163],[121.298974,23.691891],[121.298586,23.691526],[121.298389,23.691614],[121.298775,23.69207],[121.29848,23.692157],[121.298286,23.691974],[121.298185,23.692244],[121.298282,23.692335],[121.298577,23.692248],[121.298478,23.692337],[121.298472,23.692789],[121.299149,23.693518],[121.299444,23.693431],[121.299539,23.693703],[121.300225,23.693711],[121.300417,23.693984],[121.300712,23.693987],[121.300904,23.69426],[121.301101,23.694172],[121.301104,23.693991],[121.301302,23.693813]],[[121.301104,23.693991],[121.301007,23.6939],[121.301105,23.693901],[121.301104,23.693991]],[[121.300231,23.693259],[121.300426,23.693352],[121.300423,23.693532],[121.300228,23.69344],[121.300231,23.693259]],[[121.299547,23.693071],[121.299548,23.692981],[121.299744,23.692983],[121.299743,23.693073],[121.299547,23.693071]]],[[[121.297651,23.695579],[121.297748,23.69567],[121.29765,23.695669],[121.297548,23.695939],[121.297743,23.696031],[121.297836,23.696484],[121.29803,23.696576],[121.298027,23.696847],[121.298125,23.696848],[121.298218,23.69721],[121.298509,23.697485],[121.298705,23.697487],[121.298703,23.697667],[121.298898,23.69776],[121.298999,23.69749],[121.299196,23.697402],[121.299101,23.69722],[121.299299,23.697042],[121.299201,23.697041],[121.299109,23.696588],[121.298914,23.696496],[121.29882,23.696224],[121.298522,23.696491],[121.298328,23.696309],[121.298524,23.696311],[121.298626,23.696041],[121.298724,23.696042],[121.29853,23.695859],[121.298535,23.695498],[121.298923,23.695773],[121.299026,23.695413],[121.298635,23.695319],[121.298639,23.695048],[121.298248,23.694953],[121.298153,23.694681],[121.297958,23.694589],[121.297854,23.695039],[121.297657,23.695127],[121.297651,23.695579]],[[121.299101,23.69722],[121.299004,23.697129],[121.299102,23.69713],[121.299101,23.69722]],[[121.297854,23.695039],[121.297951,23.695131],[121.297853,23.69513],[121.297854,23.695039]],[[121.298418,23.696942],[121.298321,23.69685],[121.298419,23.696851],[121.298418,23.696942]],[[121.298713,23.696855],[121.298616,23.696763],[121.298714,23.696764],[121.298713,23.696855]]],[[[121.302041,23.697343],[121.302434,23.697257],[121.302634,23.696988],[121.30283,23.69699],[121.303128,23.696723],[121.303132,23.696361],[121.30323,23.696362],[121.303234,23.696092],[121.303332,23.696093],[121.303239,23.69573],[121.303042,23.695728],[121.302841,23.696178],[121.302644,23.696175],[121.302248,23.696532],[121.302145,23.696892],[121.301749,23.697159],[121.301648,23.697429],[121.301941,23.697522],[121.302041,23.697343]]],[[[121.300179,23.697232],[121.300081,23.697231],[121.300085,23.69696],[121.29989,23.696868],[121.299791,23.696957],[121.299785,23.697408],[121.300078,23.697502],[121.300179,23.697232]]],[[[121.298867,23.700107],[121.298965,23.700108],[121.298968,23.699928],[121.29887,23.699927],[121.298776,23.699564],[121.298975,23.699386],[121.299081,23.698755],[121.299278,23.698667],[121.29928,23.698486],[121.299576,23.698399],[121.299577,23.698309],[121.300361,23.698318],[121.300363,23.698227],[121.300852,23.698323],[121.300853,23.698233],[121.301147,23.698236],[121.301445,23.697968],[121.301447,23.697788],[121.301644,23.6977],[121.301548,23.697518],[121.301449,23.697607],[121.300959,23.697602],[121.300859,23.697781],[121.300371,23.697595],[121.300271,23.697685],[121.300367,23.697866],[121.299876,23.697951],[121.299875,23.698041],[121.299583,23.697858],[121.299582,23.697948],[121.299288,23.697945],[121.299088,23.698213],[121.298794,23.69821],[121.298793,23.6983],[121.298402,23.698206],[121.298403,23.698115],[121.298205,23.698204],[121.298203,23.698384],[121.298398,23.698477],[121.298099,23.698835],[121.298196,23.698926],[121.298097,23.699015],[121.29819,23.699377],[121.297992,23.699556],[121.2977,23.699372],[121.297499,23.699731],[121.297791,23.699915],[121.297788,23.700186],[121.297982,23.700278],[121.297882,23.700458],[121.298961,23.700469],[121.298867,23.700107]],[[121.298079,23.700369],[121.298082,23.700189],[121.29818,23.70019],[121.298177,23.70037],[121.298079,23.700369]],[[121.298187,23.699648],[121.298184,23.699829],[121.298086,23.699828],[121.298089,23.699647],[121.298187,23.699648]],[[121.298187,23.699648],[121.298286,23.699559],[121.298285,23.699649],[121.298187,23.699648]]],[[[121.295447,23.699167],[121.295643,23.699169],[121.295843,23.6989],[121.296332,23.698996],[121.296432,23.698816],[121.296239,23.698633],[121.295748,23.698628],[121.295252,23.699074],[121.294861,23.698979],[121.294863,23.698889],[121.294665,23.698977],[121.294858,23.69925],[121.295152,23.699254],[121.295151,23.699344],[121.295446,23.699257],[121.295447,23.699167]]],[[[121.311878,23.687337],[121.312074,23.687339],[121.312556,23.687976],[121.312753,23.687888],[121.312759,23.687437],[121.312467,23.687253],[121.312277,23.686799],[121.311787,23.686794],[121.311785,23.686884],[121.311492,23.686791],[121.311389,23.687241],[121.311291,23.68724],[121.311288,23.687421],[121.311386,23.687422],[121.311285,23.687692],[121.311578,23.687785],[121.311677,23.687696],[121.311581,23.687514],[121.311777,23.687516],[121.311878,23.687337]],[[121.311581,23.687514],[121.311484,23.687423],[121.311582,23.687424],[121.311581,23.687514]]],[[[121.310685,23.688588],[121.310881,23.68859],[121.31118,23.688232],[121.310985,23.68814],[121.310884,23.688319],[121.31059,23.688316],[121.310292,23.688674],[121.310487,23.688766],[121.310685,23.688588]]],[[[121.308811,23.68947],[121.309209,23.689023],[121.309113,23.688842],[121.308819,23.688838],[121.30862,23.689017],[121.308717,23.689108],[121.308616,23.689378],[121.308811,23.68947]],[[121.308912,23.689201],[121.308815,23.689109],[121.308913,23.68911],[121.308912,23.689201]]],[[[121.308093,23.691901],[121.308983,23.691278],[121.308987,23.691008],[121.308889,23.691006],[121.30899,23.690737],[121.308892,23.690736],[121.308896,23.690465],[121.308798,23.690464],[121.308512,23.689828],[121.308313,23.690007],[121.308507,23.69019],[121.308498,23.690912],[121.308595,23.691003],[121.3079,23.691628],[121.308093,23.691901]],[[121.308791,23.691005],[121.308694,23.690914],[121.308792,23.690915],[121.308791,23.691005]]],[[[121.304364,23.692131],[121.304658,23.692134],[121.304758,23.691955],[121.304661,23.691863],[121.304072,23.691947],[121.303774,23.692215],[121.304067,23.692308],[121.304068,23.692218],[121.304363,23.692221],[121.304364,23.692131]]],[[[121.306916,23.691888],[121.306228,23.692061],[121.306229,23.691971],[121.305935,23.691967],[121.305546,23.691692],[121.305252,23.691689],[121.305052,23.691958],[121.304757,23.692045],[121.304755,23.692225],[121.30495,23.692318],[121.305248,23.69196],[121.305543,23.691963],[121.305931,23.692238],[121.305829,23.692598],[121.305925,23.69269],[121.306123,23.692602],[121.306218,23.692783],[121.306414,23.692785],[121.306912,23.692249],[121.307107,23.692341],[121.307108,23.692251],[121.307697,23.692167],[121.307897,23.691899],[121.3078,23.691807],[121.307114,23.6918],[121.307013,23.691979],[121.306916,23.691888]],[[121.307013,23.691979],[121.30711,23.692071],[121.307012,23.69207],[121.307013,23.691979]],[[121.307012,23.69207],[121.306913,23.692159],[121.306914,23.692068],[121.307012,23.69207]]],[[[121.303724,23.696097],[121.30422,23.695651],[121.304224,23.69538],[121.304515,23.695564],[121.304616,23.695384],[121.304812,23.695387],[121.30511,23.695119],[121.305013,23.695028],[121.305114,23.694758],[121.30541,23.694671],[121.305708,23.694313],[121.305715,23.693771],[121.305813,23.693772],[121.305718,23.69359],[121.305122,23.694126],[121.304532,23.6943],[121.304233,23.694658],[121.30384,23.694744],[121.303933,23.695106],[121.303736,23.695194],[121.30373,23.695646],[121.303632,23.695644],[121.303529,23.696005],[121.303724,23.696097]]]]}},{"type":"Feature","properties":{"kind":"water","month":"2022-09","area_ha":1.44},"geometry":{"type":"MultiPolygon","coordinates":[[[[121.298535,23.695498],[121.29853,23.695859],[121.298726,23.695862],[121.298633,23.695499],[121.298535,23.695498]]],[[[121.298827,23.695682],[121.298727,23.695771],[121.298825,23.695772],[121.298827,23.695682]]],[[[121.298726,23.695862],[121.298724,23.696042],[121.298822,23.696043],[121.298824,23.695863],[121.298726,23.695862]]],[[[121.298724,23.696042],[121.298524,23.696311],[121.298328,23.696309],[121.298424,23.69649],[121.29872,23.696313],[121.298724,23.696042]]],[[[121.298607,23.697486],[121.298604,23.697756],[121.298702,23.697758],[121.298705,23.697487],[121.298607,23.697486]]],[[[121.30086,23.697691],[121.300761,23.69778],[121.300859,23.697781],[121.30086,23.697691]]],[[[121.299088,23.698213],[121.29909,23.698033],[121.299582,23.697948],[121.299583,23.697858],[121.299777,23.69804],[121.300367,23.697866],[121.300368,23.697776],[121.300172,23.697774],[121.300175,23.697593],[121.300469,23.697596],[121.300468,23.697687],[121.300861,23.697601],[121.300958,23.697692],[121.300959,23.697602],[121.301449,23.697607],[121.30145,23.697517],[121.300079,23.697411],[121.300078,23.697502],[121.299784,23.697499],[121.299683,23.697678],[121.298702,23.697758],[121.298699,23.697938],[121.298404,23.698025],[121.298402,23.698206],[121.298696,23.698209],[121.298695,23.698299],[121.299088,23.698213]]],[[[121.29819,23.699377],[121.298193,23.699197],[121.298095,23.699196],[121.298201,23.698565],[121.298005,23.698563],[121.297798,23.699373],[121.297896,23.699374],[121.297894,23.699555],[121.297992,23.699556],[121.297994,23.699375],[121.29819,23.699377]]]]}}]}