{"type":"FeatureCollection","features":[{"type":"Feature","properties":{"kind":"bare_slide","month":"2022-03","area_ha":118.43},"geometry":{"type":"MultiPolygon","coordinates":[[[[121.299132,23.702368],[121.299035,23.702276],[121.298838,23.702364],[121.29884,23.702184],[121.299038,23.702096],[121.299243,23.701375],[121.298753,23.70137],[121.298657,23.701188],[121.298069,23.701182],[121.298064,23.701543],[121.298162,23.701544],[121.298055,23.702265],[121.298153,23.702266],[121.298149,23.702537],[121.298343,23.70272],[121.298243,23.7029],[121.298532,23.703264],[121.298529,23.703535],[121.298819,23.703809],[121.299015,23.703811],[121.299103,23.704625],[121.299005,23.704624],[121.298798,23.705434],[121.298112,23.705427],[121.298111,23.705517],[121.297717,23.705603],[121.297518,23.705871],[121.297905,23.706237],[121.298004,23.706148],[121.298493,23.706243],[121.298486,23.706785],[121.298093,23.706871],[121.297991,23.707141],[121.298088,23.707232],[121.298384,23.707145],[121.298477,23.707507],[121.298574,23.707599],[121.298869,23.707512],[121.298966,23.707603],[121.298865,23.707873],[121.299448,23.70824],[121.29955,23.707971],[121.299648,23.707972],[121.299653,23.707611],[121.299362,23.707337],[121.299067,23.707424],[121.299068,23.707333],[121.298677,23.707239],[121.298684,23.706697],[121.298782,23.706698],[121.298785,23.706427],[121.299083,23.70616],[121.299085,23.705979],[121.298987,23.705978],[121.299088,23.705798],[121.298893,23.705706],[121.298895,23.705525],[121.298992,23.705617],[121.299189,23.705529],[121.299192,23.705348],[121.299093,23.705347],[121.299292,23.705169],[121.299196,23.704987],[121.299294,23.704988],[121.299297,23.704807],[121.299494,23.704719],[121.299496,23.704539],[121.299695,23.70436],[121.299701,23.703909],[121.29941,23.703635],[121.299412,23.703454],[121.299217,23.703362],[121.299321,23.702911],[121.299029,23.702728],[121.299129,23.702638],[121.299132,23.702368]],[[121.299029,23.702728],[121.29893,23.702817],[121.298931,23.702727],[121.299029,23.702728]],[[121.298889,23.705977],[121.298792,23.705885],[121.29889,23.705887],[121.298889,23.705977]],[[121.299019,23.70354],[121.298922,23.703449],[121.29902,23.70345],[121.299019,23.70354]],[[121.298831,23.702906],[121.298734,23.702815],[121.298832,23.702816],[121.298831,23.702906]],[[121.298736,23.702634],[121.29864,23.702543],[121.298738,23.702544],[121.298736,23.702634]]],[[[121.29783,23.712015],[121.298325,23.711659],[121.298331,23.711208],[121.298429,23.711209],[121.298441,23.710306],[121.297955,23.70994],[121.297862,23.709578],[121.297566,23.709665],[121.297569,23.709484],[121.297471,23.709483],[121.297475,23.709122],[121.297573,23.709123],[121.297676,23.708763],[121.29807,23.708677],[121.297975,23.708405],[121.297484,23.70849],[121.297382,23.70876],[121.297185,23.708848],[121.297082,23.709208],[121.296985,23.709116],[121.29669,23.709203],[121.296786,23.709385],[121.296982,23.709387],[121.296979,23.709568],[121.297173,23.709751],[121.297369,23.709753],[121.297268,23.710022],[121.297849,23.710571],[121.297738,23.711563],[121.296755,23.711733],[121.296652,23.712093],[121.296749,23.712184],[121.297241,23.712099],[121.297239,23.712189],[121.297729,23.712285],[121.29783,23.712015]],[[121.298135,23.711206],[121.298038,23.711115],[121.298136,23.711116],[121.298135,23.711206]]],[[[121.292535,23.711957],[121.292438,23.711866],[121.292928,23.711871],[121.293325,23.711514],[121.29362,23.711517],[121.294018,23.71107],[121.293823,23.710978],[121.293822,23.711068],[121.293231,23.711242],[121.293031,23.711511],[121.292443,23.711504],[121.292342,23.711684],[121.292047,23.711771],[121.292045,23.711951],[121.292239,23.712134],[121.292435,23.712136],[121.292535,23.711957]]],[[[121.290463,23.712927],[121.290663,23.712659],[121.290956,23.712752],[121.291154,23.712574],[121.29135,23.712576],[121.291544,23.712759],[121.291647,23.712399],[121.291259,23.712033],[121.290377,23.712023],[121.290375,23.712114],[121.290181,23.712021],[121.290081,23.71211],[121.290178,23.712202],[121.29017,23.712834],[121.290463,23.712927]]],[[[121.298383,23.71473],[121.298286,23.714639],[121.29809,23.714637],[121.298289,23.714458],[121.298292,23.714188],[121.298,23.714004],[121.297906,23.713732],[121.297613,23.713638],[121.29751,23.713998],[121.297412,23.713997],[121.297409,23.714268],[121.297111,23.714536],[121.296718,23.714622],[121.296616,23.714891],[121.297007,23.714986],[121.297207,23.714717],[121.297599,23.714722],[121.298083,23.715179],[121.298279,23.715181],[121.298379,23.715091],[121.298383,23.71473]]],[[[121.28396,23.715203],[121.284554,23.714848],[121.284458,23.714667],[121.284164,23.714664],[121.284069,23.714392],[121.284265,23.714394],[121.284459,23.714577],[121.284754,23.714489],[121.284757,23.714309],[121.284562,23.714216],[121.284567,23.713855],[121.284373,23.713673],[121.284274,23.713762],[121.284079,23.713669],[121.282888,23.71474],[121.282883,23.715101],[121.283078,23.715193],[121.283172,23.715465],[121.28337,23.715377],[121.283465,23.715559],[121.283858,23.715563],[121.28396,23.715203]],[[121.283374,23.715016],[121.283568,23.715199],[121.283372,23.715197],[121.283374,23.715016]]],[[[121.288553,23.724013],[121.288652,23.723924],[121.288656,23.723653],[121.28885,23.723836],[121.289145,23.723749],[121.289143,23.723929],[121.288945,23.724017],[121.289139,23.7242],[121.289339,23.723931],[121.289535,23.723933],[121.289729,23.724116],[121.28983,23.723846],[121.290126,23.723759],[121.29022,23.724031],[121.290023,23.724119],[121.289921,23.724389],[121.290214,23.724483],[121.290414,23.724214],[121.290709,23.724127],[121.290811,23.723857],[121.291005,23.72404],[121.291301,23.723863],[121.291207,23.723591],[121.291109,23.72359],[121.291113,23.723229],[121.291211,23.72323],[121.291116,23.723048],[121.290624,23.723133],[121.290426,23.723311],[121.290131,23.723308],[121.290133,23.723218],[121.289543,23.723301],[121.28945,23.722939],[121.289251,23.723118],[121.288957,23.723114],[121.288958,23.723024],[121.288467,23.723109],[121.288468,23.723019],[121.288175,23.722925],[121.288081,23.722563],[121.287885,23.722561],[121.287686,23.722829],[121.28749,23.722827],[121.287395,23.722555],[121.287493,23.722556],[121.287596,23.722196],[121.287793,23.722108],[121.287796,23.721928],[121.287992,23.72193],[121.288087,23.722111],[121.288187,23.722022],[121.288578,23.722117],[121.288781,23.721577],[121.288977,23.72158],[121.289072,23.721851],[121.28966,23.721858],[121.289661,23.721768],[121.289956,23.721681],[121.290247,23.721955],[121.290248,23.721865],[121.290642,23.721779],[121.290644,23.721598],[121.290841,23.72151],[121.290844,23.721329],[121.290551,23.721236],[121.290553,23.721055],[121.290651,23.721056],[121.290563,23.720333],[121.290661,23.720334],[121.290763,23.719974],[121.290961,23.719886],[121.291163,23.719437],[121.29146,23.719169],[121.291756,23.719082],[121.291759,23.718811],[121.291953,23.718994],[121.29215,23.718906],[121.29186,23.718632],[121.291863,23.718361],[121.292061,23.718273],[121.292063,23.718092],[121.292261,23.717914],[121.292456,23.718006],[121.292754,23.717738],[121.292756,23.717558],[121.292952,23.71756],[121.29325,23.717292],[121.293353,23.716932],[121.293062,23.716658],[121.293261,23.71648],[121.293457,23.716482],[121.293557,23.716303],[121.293753,23.716305],[121.293954,23.715946],[121.29415,23.715948],[121.294547,23.715591],[121.294841,23.715594],[121.29484,23.715685],[121.295231,23.715779],[121.295325,23.716141],[121.295521,23.716144],[121.295617,23.716325],[121.295814,23.716237],[121.295816,23.716057],[121.295718,23.716055],[121.29582,23.715786],[121.295723,23.715694],[121.295428,23.715781],[121.295333,23.715509],[121.295139,23.715327],[121.294845,23.715323],[121.294846,23.715233],[121.294159,23.715316],[121.294162,23.715045],[121.294457,23.714958],[121.294558,23.714778],[121.294754,23.714781],[121.29525,23.714335],[121.295352,23.714065],[121.295646,23.714068],[121.296042,23.713802],[121.295947,23.71353],[121.296045,23.713531],[121.296048,23.71335],[121.296346,23.712992],[121.29635,23.712721],[121.296252,23.71272],[121.296353,23.71245],[121.296257,23.712359],[121.296059,23.712447],[121.296057,23.712628],[121.295758,23.712986],[121.295465,23.712892],[121.295265,23.713161],[121.294971,23.713158],[121.29497,23.713248],[121.294775,23.713155],[121.294675,23.713335],[121.29487,23.713427],[121.294867,23.713608],[121.294575,23.713424],[121.29418,23.713691],[121.29359,23.713775],[121.293291,23.714132],[121.292312,23.714031],[121.292112,23.7143],[121.292405,23.714394],[121.292403,23.714574],[121.292207,23.714572],[121.292206,23.714662],[121.292011,23.71457],[121.291917,23.714208],[121.291231,23.7142],[121.291232,23.71411],[121.290841,23.714015],[121.290643,23.714193],[121.290348,23.71419],[121.290247,23.71446],[121.289953,23.714457],[121.289754,23.714635],[121.289264,23.71463],[121.289162,23.714899],[121.288966,23.714897],[121.288965,23.714988],[121.288868,23.714896],[121.288672,23.714894],[121.288671,23.714984],[121.288182,23.714889],[121.288081,23.715068],[121.287886,23.714976],[121.287786,23.715155],[121.287689,23.715064],[121.287003,23.715056],[121.286705,23.715324],[121.286899,23.715507],[121.2867,23.715685],[121.286698,23.715865],[121.287085,23.716231],[121.286594,23.716316],[121.286492,23.716586],[121.286003,23.71649],[121.285705,23.716757],[121.285703,23.716938],[121.285312,23.716843],[121.284915,23.7172],[121.284812,23.71756],[121.284909,23.717652],[121.285401,23.717567],[121.285496,23.717748],[121.285988,23.717664],[121.286084,23.717845],[121.285887,23.717843],[121.285787,23.718023],[121.285981,23.718205],[121.286177,23.718207],[121.286273,23.718389],[121.286471,23.718211],[121.287059,23.718217],[121.287154,23.718489],[121.287351,23.718401],[121.287354,23.718221],[121.287547,23.718403],[121.287743,23.718405],[121.288044,23.717957],[121.288237,23.71814],[121.288433,23.718142],[121.288334,23.718231],[121.28843,23.718413],[121.288332,23.718412],[121.288231,23.718591],[121.288036,23.718499],[121.287739,23.718767],[121.287636,23.719127],[121.28744,23.719124],[121.287439,23.719215],[121.287243,23.719213],[121.287344,23.718943],[121.287442,23.718944],[121.287347,23.718762],[121.28715,23.71876],[121.287149,23.71885],[121.286366,23.718751],[121.286264,23.719021],[121.285968,23.719198],[121.285775,23.718925],[121.286072,23.718748],[121.286074,23.718568],[121.28588,23.718385],[121.285586,23.718382],[121.285587,23.718291],[121.28539,23.718379],[121.285486,23.718561],[121.284893,23.718916],[121.284311,23.718367],[121.284511,23.718099],[121.284706,23.718191],[121.284808,23.717921],[121.284614,23.717739],[121.284418,23.717736],[121.284218,23.718005],[121.283926,23.717821],[121.283929,23.717641],[121.284622,23.717107],[121.284526,23.716925],[121.284725,23.716747],[121.284921,23.716749],[121.285023,23.716479],[121.285612,23.716395],[121.286009,23.716038],[121.286112,23.715678],[121.286604,23.715503],[121.286509,23.715322],[121.286017,23.715406],[121.285917,23.715586],[121.285525,23.715582],[121.285227,23.715849],[121.285031,23.715847],[121.28493,23.716027],[121.284734,23.716024],[121.284633,23.716294],[121.284535,23.716293],[121.284727,23.716566],[121.284529,23.716744],[121.284335,23.716562],[121.28404,23.716649],[121.283846,23.716466],[121.283449,23.716823],[121.283643,23.717006],[121.28394,23.716738],[121.283937,23.717009],[121.283641,23.717096],[121.283344,23.717363],[121.283341,23.717544],[121.283144,23.717632],[121.283142,23.717813],[121.28324,23.717814],[121.283135,23.718354],[121.28333,23.718447],[121.283424,23.718719],[121.283128,23.718896],[121.283123,23.719257],[121.282826,23.719435],[121.282824,23.719615],[121.282628,23.719613],[121.282428,23.719882],[121.281641,23.720053],[121.281635,23.720505],[121.282023,23.72087],[121.28281,23.720699],[121.283504,23.720074],[121.283507,23.719894],[121.283804,23.719626],[121.2841,23.719539],[121.284203,23.719179],[121.284692,23.719275],[121.284886,23.719457],[121.284986,23.719278],[121.285182,23.71928],[121.285579,23.718923],[121.285577,23.719104],[121.285479,23.719103],[121.285573,23.719375],[121.285376,23.719463],[121.285371,23.719824],[121.285173,23.720002],[121.284978,23.71991],[121.284977,23.72],[121.284682,23.719997],[121.284484,23.720175],[121.283697,23.720347],[121.283594,23.720707],[121.283887,23.720801],[121.283886,23.720891],[121.284184,23.720623],[121.284772,23.72063],[121.28477,23.720811],[121.284572,23.720899],[121.284464,23.72171],[121.283968,23.722156],[121.283964,23.722427],[121.284452,23.722613],[121.284552,23.722434],[121.284848,23.722346],[121.284845,23.722527],[121.28504,23.72262],[121.285135,23.722891],[121.285527,23.722896],[121.285623,23.723077],[121.286113,23.723083],[121.286112,23.723173],[121.286699,23.72327],[121.286698,23.72336],[121.286993,23.723273],[121.28699,23.723544],[121.287185,23.723637],[121.287182,23.723817],[121.287473,23.724091],[121.28806,23.724188],[121.288162,23.723918],[121.288259,23.72401],[121.288553,23.724013]],[[121.288977,23.72158],[121.289076,23.72149],[121.289075,23.721581],[121.288977,23.72158]],[[121.288179,23.715069],[121.288178,23.715159],[121.288472,23.715163],[121.28847,23.715343],[121.28798,23.715338],[121.287982,23.715157],[121.288179,23.715069]],[[121.286084,23.717845],[121.28618,23.717937],[121.286082,23.717936],[121.286084,23.717845]],[[121.287256,23.718219],[121.287258,23.718039],[121.287356,23.71804],[121.287354,23.718221],[121.287256,23.718219]],[[121.288331,23.718502],[121.288428,23.718594],[121.288329,23.718593],[121.288331,23.718502]],[[121.288428,23.718594],[121.288524,23.718685],[121.288426,23.718684],[121.288428,23.718594]],[[121.284511,23.718099],[121.284414,23.718007],[121.284512,23.718008],[121.284511,23.718099]],[[121.285271,23.720003],[121.28527,23.720094],[121.285466,23.720096],[121.285664,23.719917],[121.285857,23.720191],[121.285658,23.720369],[121.285464,23.720186],[121.285071,23.720272],[121.285073,23.720092],[121.285271,23.720003]],[[121.285069,23.720453],[121.284774,23.720449],[121.284776,23.720359],[121.285071,23.720272],[121.285069,23.720453]],[[121.288162,23.723918],[121.288065,23.723827],[121.288163,23.723828],[121.288162,23.723918]],[[121.287193,23.723005],[121.287096,23.722913],[121.287194,23.722914],[121.287193,23.723005]],[[121.286998,23.722912],[121.286901,23.722821],[121.286999,23.722822],[121.286998,23.722912]],[[121.285546,23.721451],[121.285443,23.721811],[121.285247,23.721809],[121.285251,23.721538],[121.285546,23.721451]],[[121.288189,23.721842],[121.288288,23.721753],[121.288287,23.721843],[121.288189,23.721842]],[[121.28819,23.721751],[121.288093,23.72166],[121.288191,23.721661],[121.28819,23.721751]],[[121.28957,23.721225],[121.289669,23.721136],[121.289863,23.721318],[121.290159,23.721231],[121.290156,23.721412],[121.289763,23.721498],[121.289764,23.721408],[121.289568,23.721405],[121.28957,23.721225]],[[121.288685,23.721396],[121.288588,23.721304],[121.288686,23.721305],[121.288685,23.721396]],[[121.288294,23.721301],[121.288197,23.72121],[121.288295,23.721211],[121.288294,23.721301]],[[121.289373,23.721313],[121.289177,23.721311],[121.289181,23.72095],[121.289376,23.721042],[121.289373,23.721313]],[[121.289083,23.720949],[121.288891,23.720676],[121.289187,23.720498],[121.289186,23.720589],[121.289382,23.720591],[121.28938,23.720771],[121.289083,23.720949]],[[121.289089,23.720497],[121.288992,23.720406],[121.288698,23.720403],[121.288699,23.720312],[121.288208,23.720397],[121.288209,23.720307],[121.287915,23.720304],[121.287916,23.720213],[121.288899,23.720044],[121.288898,23.720134],[121.289191,23.720227],[121.289089,23.720497]],[[121.289382,23.720591],[121.289481,23.720502],[121.28948,23.720592],[121.289382,23.720591]],[[121.28761,23.721113],[121.287513,23.721022],[121.287611,23.721023],[121.28761,23.721113]],[[121.288299,23.72094],[121.288202,23.720849],[121.2883,23.72085],[121.288299,23.72094]],[[121.286241,23.720827],[121.28634,23.720738],[121.286339,23.720828],[121.286241,23.720827]],[[121.286046,23.720734],[121.286047,23.720644],[121.286243,23.720646],[121.286242,23.720737],[121.286046,23.720734]],[[121.289578,23.720593],[121.289876,23.720325],[121.289878,23.720145],[121.290371,23.71997],[121.290369,23.72015],[121.289773,23.720685],[121.289578,23.720593]],[[121.286442,23.720468],[121.286444,23.720287],[121.28664,23.720289],[121.286638,23.72047],[121.286442,23.720468]],[[121.286446,23.720107],[121.286349,23.720015],[121.286447,23.720016],[121.286446,23.720107]],[[121.287727,23.719669],[121.287627,23.719849],[121.28743,23.719847],[121.287434,23.719576],[121.287727,23.719669]],[[121.286751,23.719297],[121.286354,23.719654],[121.286162,23.719381],[121.28636,23.719203],[121.286556,23.719205],[121.286555,23.719295],[121.286751,23.719297]],[[121.286751,23.719297],[121.28685,23.719208],[121.286849,23.719299],[121.286751,23.719297]],[[121.288417,23.719406],[121.288611,23.719589],[121.288413,23.719677],[121.288417,23.719406]],[[121.283515,23.719262],[121.28361,23.719534],[121.283315,23.71953],[121.283318,23.71935],[121.283515,23.719262]],[[121.287043,23.719481],[121.28714,23.719573],[121.287042,23.719572],[121.287043,23.719481]],[[121.287141,23.719482],[121.28724,23.719393],[121.287239,23.719483],[121.287141,23.719482]],[[121.289109,23.718962],[121.289408,23.718604],[121.289604,23.718607],[121.289603,23.718697],[121.289997,23.718611],[121.290092,23.718793],[121.290288,23.718795],[121.290287,23.718885],[121.289895,23.718881],[121.289792,23.719241],[121.289597,23.719148],[121.289497,23.719328],[121.289301,23.719326],[121.289304,23.719055],[121.289109,23.718962]],[[121.284307,23.718729],[121.2846,23.718822],[121.284597,23.719003],[121.284304,23.718909],[121.284307,23.718729]],[[121.288718,23.718868],[121.288621,23.718776],[121.288719,23.718777],[121.288718,23.718868]],[[121.290002,23.71816],[121.290005,23.717979],[121.290103,23.71798],[121.2901,23.718161],[121.290002,23.71816]],[[121.286868,23.717854],[121.286769,23.717943],[121.286475,23.71794],[121.286674,23.717671],[121.286868,23.717854]],[[121.286576,23.71767],[121.286579,23.71749],[121.286677,23.717491],[121.286674,23.717671],[121.286576,23.71767]],[[121.289516,23.717883],[121.289518,23.717703],[121.289616,23.717704],[121.289614,23.717884],[121.289516,23.717883]],[[121.290013,23.717347],[121.290117,23.716897],[121.290509,23.716901],[121.290612,23.716541],[121.291103,23.716456],[121.291205,23.716186],[121.291402,23.716098],[121.291405,23.715918],[121.291602,23.715829],[121.291604,23.715649],[121.291803,23.71547],[121.291999,23.715473],[121.292099,23.715293],[121.29239,23.715567],[121.292586,23.715569],[121.292687,23.71539],[121.292981,23.715393],[121.293075,23.715665],[121.293371,23.715578],[121.293372,23.715488],[121.293862,23.715493],[121.293759,23.715853],[121.293462,23.716121],[121.293265,23.716119],[121.293264,23.716209],[121.292677,23.716112],[121.292479,23.716291],[121.292475,23.716561],[121.29218,23.716649],[121.291876,23.717368],[121.291385,23.717452],[121.291086,23.71781],[121.290694,23.717806],[121.290795,23.717536],[121.2906,23.717444],[121.290599,23.717534],[121.290305,23.717531],[121.290006,23.717889],[121.290008,23.717708],[121.28991,23.717707],[121.289915,23.717346],[121.290013,23.717347]],[[121.28638,23.717668],[121.286382,23.717487],[121.28648,23.717488],[121.286478,23.717669],[121.28638,23.717668]],[[121.288832,23.717695],[121.288735,23.717604],[121.288833,23.717605],[121.288832,23.717695]],[[121.287951,23.717505],[121.287855,23.717413],[121.287953,23.717414],[121.287951,23.717505]],[[121.289226,23.717519],[121.289129,23.717427],[121.289227,23.717429],[121.289226,23.717519]],[[121.287567,23.716868],[121.287858,23.717143],[121.28766,23.717321],[121.287368,23.717137],[121.287567,23.716868]],[[121.287567,23.716868],[121.287471,23.716777],[121.287569,23.716778],[121.287567,23.716868]],[[121.285994,23.717212],[121.285897,23.717121],[121.285995,23.717122],[121.285994,23.717212]],[[121.289529,23.71689],[121.289728,23.716621],[121.290022,23.716625],[121.290123,23.716445],[121.290319,23.716447],[121.290217,23.716717],[121.289726,23.716802],[121.289329,23.717159],[121.289035,23.717156],[121.289136,23.716886],[121.289529,23.71689]],[[121.286882,23.716771],[121.287082,23.716502],[121.287278,23.716504],[121.287276,23.716685],[121.287374,23.716686],[121.287174,23.716954],[121.286882,23.716771]],[[121.289039,23.716794],[121.288943,23.716703],[121.289041,23.716704],[121.289039,23.716794]],[[121.289143,23.716344],[121.289337,23.716527],[121.289141,23.716525],[121.289143,23.716344]],[[121.290026,23.716354],[121.289929,23.716262],[121.290027,23.716264],[121.290026,23.716354]],[[121.290516,23.716359],[121.290419,23.716268],[121.290517,23.716269],[121.290516,23.716359]],[[121.29101,23.716094],[121.290913,23.716002],[121.291011,23.716004],[121.29101,23.716094]],[[121.290424,23.715907],[121.290521,23.715998],[121.290423,23.715997],[121.290424,23.715907]],[[121.290526,23.715637],[121.290624,23.715638],[121.290528,23.715456],[121.290037,23.715541],[121.290138,23.715271],[121.290436,23.715004],[121.290632,23.715006],[121.290631,23.715096],[121.291122,23.715011],[121.291316,23.715194],[121.29131,23.715646],[121.29082,23.71564],[121.290718,23.71591],[121.290522,23.715908],[121.290526,23.715637]],[[121.288566,23.715525],[121.288563,23.715706],[121.288367,23.715703],[121.288368,23.715613],[121.288566,23.715525]],[[121.288961,23.715258],[121.288959,23.715439],[121.288861,23.715438],[121.288863,23.715257],[121.288961,23.715258]],[[121.288961,23.715258],[121.289061,23.715169],[121.28906,23.71526],[121.288961,23.715258]],[[121.293771,23.71495],[121.293868,23.715042],[121.29377,23.715041],[121.293771,23.71495]],[[121.293869,23.714951],[121.293968,23.714862],[121.293967,23.714953],[121.293869,23.714951]],[[121.293968,23.714862],[121.294068,23.714773],[121.294066,23.714863],[121.293968,23.714862]],[[121.293876,23.71441],[121.293779,23.714318],[121.293877,23.714319],[121.293876,23.71441]],[[121.294469,23.714055],[121.294372,23.713964],[121.29447,23.713965],[121.294469,23.714055]]],[[[121.300043,23.722875],[121.300242,23.722697],[121.300152,23.722064],[121.300451,23.721706],[121.300459,23.721074],[121.300656,23.720986],[121.30076,23.720536],[121.300858,23.720537],[121.300474,23.7199],[121.300176,23.720168],[121.300079,23.720077],[121.299882,23.720165],[121.299779,23.720525],[121.299482,23.720792],[121.299477,23.721154],[121.299379,23.721152],[121.299374,23.721514],[121.299276,23.721513],[121.299269,23.722054],[121.299367,23.722055],[121.299362,23.722416],[121.299461,23.722418],[121.299554,23.72278],[121.300043,23.722875]]],[[[121.29245,23.726043],[121.292449,23.726133],[121.293332,23.726052],[121.293329,23.726323],[121.293525,23.726325],[121.293527,23.726145],[121.29392,23.726149],[121.293922,23.725969],[121.29451,23.725975],[121.294513,23.725794],[121.294709,23.725797],[121.29471,23.725706],[121.294417,23.725613],[121.294419,23.725432],[121.294517,23.725433],[121.294428,23.7248],[121.294526,23.724801],[121.294529,23.72453],[121.294627,23.724532],[121.294729,23.724262],[121.29522,23.724177],[121.295125,23.723995],[121.294928,23.723993],[121.294933,23.723632],[121.294835,23.723631],[121.294841,23.723179],[121.295137,23.723002],[121.295244,23.722371],[121.295442,23.722193],[121.295638,23.722195],[121.296136,23.721659],[121.296529,23.721573],[121.296526,23.721843],[121.296721,23.721936],[121.29682,23.721847],[121.296726,23.721484],[121.297118,23.721579],[121.297316,23.721401],[121.297221,23.721129],[121.297122,23.721218],[121.296829,23.721124],[121.297028,23.720946],[121.297125,23.721037],[121.297322,23.720949],[121.297324,23.720769],[121.297226,23.720768],[121.297329,23.720408],[121.297134,23.720315],[121.297143,23.719593],[121.297241,23.719594],[121.297147,23.719322],[121.296851,23.719409],[121.296848,23.71968],[121.296352,23.720126],[121.296449,23.720217],[121.296347,23.720487],[121.296542,23.720579],[121.296539,23.72085],[121.296342,23.720848],[121.296242,23.721028],[121.295948,23.721024],[121.295749,23.721203],[121.295845,23.721384],[121.295547,23.721652],[121.294563,23.721912],[121.294658,23.722184],[121.294853,23.722277],[121.294849,23.722547],[121.294651,23.722726],[121.294553,23.722725],[121.294558,23.722273],[121.294268,23.721999],[121.294072,23.721997],[121.29407,23.722087],[121.293777,23.721994],[121.293683,23.721722],[121.293389,23.721719],[121.292807,23.72117],[121.292907,23.721081],[121.292911,23.72072],[121.292813,23.720719],[121.292915,23.720449],[121.292818,23.720358],[121.292521,23.720535],[121.292416,23.721076],[121.291927,23.72098],[121.29193,23.720799],[121.292127,23.720711],[121.292031,23.72053],[121.291736,23.720617],[121.291733,23.720797],[121.291831,23.720798],[121.29173,23.721068],[121.291924,23.721251],[121.291921,23.721431],[121.291723,23.72161],[121.292015,23.721794],[121.292012,23.721974],[121.292206,23.722157],[121.292499,23.722251],[121.292386,23.723423],[121.292675,23.723788],[121.292572,23.724148],[121.292767,23.72424],[121.292765,23.724421],[121.292567,23.724599],[121.292563,23.72487],[121.292757,23.725053],[121.292953,23.725055],[121.292954,23.724965],[121.293541,23.725061],[121.293641,23.724972],[121.293638,23.725153],[121.293442,23.725151],[121.293441,23.725241],[121.29305,23.725146],[121.292948,23.725416],[121.292458,23.725411],[121.292457,23.725501],[121.292164,23.725407],[121.292166,23.725227],[121.291971,23.725134],[121.291977,23.724683],[121.292075,23.724684],[121.291981,23.724412],[121.292179,23.724234],[121.292187,23.723602],[121.292089,23.723601],[121.292093,23.72333],[121.291703,23.723145],[121.291602,23.723324],[121.2917,23.723325],[121.291788,23.724139],[121.291489,23.724497],[121.291195,23.724494],[121.291099,23.724312],[121.290902,23.7244],[121.290791,23.725392],[121.290595,23.72539],[121.290494,23.725569],[121.290688,23.725752],[121.290884,23.725754],[121.29098,23.725936],[121.291176,23.725938],[121.291272,23.72612],[121.291569,23.725852],[121.291862,23.725946],[121.29186,23.726126],[121.291562,23.726394],[121.292249,23.726402],[121.292156,23.726039],[121.29245,23.726043]],[[121.293335,23.725872],[121.293434,23.725783],[121.293433,23.725873],[121.293335,23.725872]],[[121.294028,23.725338],[121.294125,23.725429],[121.294027,23.725428],[121.294028,23.725338]],[[121.294028,23.725338],[121.293931,23.725246],[121.294029,23.725247],[121.294028,23.725338]],[[121.294165,23.722359],[121.293967,23.722538],[121.293969,23.722357],[121.294165,23.722359]],[[121.292022,23.721252],[121.29212,23.721253],[121.292117,23.721434],[121.292019,23.721433],[121.292022,23.721252]]],[[[121.296862,23.726182],[121.296869,23.72564],[121.296675,23.725457],[121.296973,23.725189],[121.297071,23.725191],[121.297165,23.725462],[121.297361,23.725465],[121.297461,23.725375],[121.297468,23.724834],[121.297664,23.724836],[121.297862,23.724657],[121.297867,23.724296],[121.297965,23.724297],[121.297967,23.724117],[121.297869,23.724116],[121.297979,23.723214],[121.297881,23.723213],[121.297887,23.722761],[121.29779,23.72267],[121.297492,23.722938],[121.297587,23.72321],[121.297389,23.723298],[121.297387,23.723478],[121.297092,23.723565],[121.297187,23.723747],[121.297677,23.723843],[121.297574,23.724203],[121.297281,23.724109],[121.296982,23.724467],[121.296687,23.724554],[121.296689,23.724374],[121.296886,23.724286],[121.297089,23.723746],[121.296603,23.72347],[121.296503,23.723559],[121.296594,23.724102],[121.296201,23.724188],[121.295804,23.724544],[121.29551,23.724541],[121.295511,23.724451],[121.295217,23.724448],[121.295218,23.724357],[121.295019,23.724536],[121.294923,23.724444],[121.294725,23.724533],[121.294819,23.724895],[121.295305,23.725171],[121.295301,23.725532],[121.295107,23.72535],[121.29491,23.725438],[121.2951,23.725891],[121.295394,23.725894],[121.295395,23.725804],[121.295884,23.7259],[121.295881,23.726171],[121.296272,23.726265],[121.296271,23.726356],[121.296565,23.726359],[121.296566,23.726269],[121.296862,23.726182]],[[121.296082,23.725812],[121.296475,23.725726],[121.296569,23.726088],[121.296372,23.726086],[121.296082,23.725812]],[[121.296378,23.725634],[121.296478,23.725545],[121.296476,23.725635],[121.296378,23.725634]],[[121.296383,23.725273],[121.296482,23.725184],[121.296481,23.725274],[121.296383,23.725273]]],[[[121.301213,23.70826],[121.300924,23.707895],[121.30063,23.707892],[121.300631,23.707802],[121.300435,23.7078],[121.300236,23.707978],[121.300139,23.707887],[121.299746,23.707973],[121.300132,23.708429],[121.30033,23.70834],[121.300431,23.708071],[121.300919,23.708257],[121.301014,23.708529],[121.301211,23.70844],[121.301213,23.70826]]],[[[121.30137,23.711332],[121.30011,23.710144],[121.300112,23.709963],[121.299919,23.709781],[121.299723,23.709779],[121.299628,23.709507],[121.299432,23.709504],[121.299336,23.709323],[121.299139,23.709411],[121.299623,23.709868],[121.299619,23.710229],[121.299521,23.710228],[121.299616,23.71041],[121.299715,23.71032],[121.300107,23.710415],[121.300299,23.710688],[121.300495,23.71069],[121.300689,23.710873],[121.300686,23.711144],[121.300879,23.711326],[121.301075,23.711329],[121.301171,23.71151],[121.30137,23.711332]]],[[[121.312064,23.710997],[121.311966,23.710996],[121.311971,23.710545],[121.311873,23.710544],[121.311974,23.710364],[121.31178,23.710182],[121.31129,23.710176],[121.311291,23.710086],[121.310995,23.710173],[121.311091,23.710355],[121.311287,23.710357],[121.311283,23.710718],[121.311576,23.710811],[121.311573,23.710992],[121.311768,23.711084],[121.311863,23.711356],[121.31206,23.711268],[121.312064,23.710997]]],[[[121.311265,23.712072],[121.311464,23.711894],[121.311566,23.711534],[121.311276,23.71126],[121.31128,23.710898],[121.310796,23.710442],[121.310694,23.710711],[121.310596,23.71071],[121.310492,23.711161],[121.310687,23.711253],[121.310684,23.711524],[121.310879,23.711616],[121.310875,23.711887],[121.31107,23.71198],[121.311165,23.712252],[121.311362,23.712164],[121.311265,23.712072]]],[[[121.301526,23.714404],[121.301831,23.713594],[121.302127,23.713417],[121.302131,23.713146],[121.301936,23.713054],[121.301842,23.712691],[121.301549,23.712598],[121.301456,23.712236],[121.301261,23.712143],[121.300864,23.7125],[121.300961,23.712591],[121.300852,23.713403],[121.30095,23.713404],[121.301044,23.713766],[121.301239,23.713859],[121.301232,23.7144],[121.301133,23.71449],[121.301327,23.714582],[121.301526,23.714404]]],[[[121.302122,23.721363],[121.302024,23.721362],[121.301933,23.720819],[121.302132,23.720641],[121.302239,23.71992],[121.302044,23.719827],[121.301842,23.720277],[121.301744,23.720275],[121.301739,23.720637],[121.301541,23.720815],[121.301537,23.721086],[121.301636,23.721087],[121.301826,23.721541],[121.302022,23.721543],[121.302122,23.721363]]],[[[121.302869,23.724261],[121.303257,23.724626],[121.303454,23.724538],[121.303457,23.724358],[121.303262,23.724265],[121.303269,23.723724],[121.303565,23.723546],[121.303371,23.723364],[121.303374,23.723183],[121.303668,23.723186],[121.303667,23.723276],[121.303864,23.723188],[121.303869,23.722827],[121.303675,23.722644],[121.303871,23.722647],[121.304071,23.722378],[121.303974,23.722287],[121.303287,23.722279],[121.303289,23.722189],[121.302797,23.722274],[121.302701,23.722092],[121.302408,23.721998],[121.302308,23.722178],[121.302503,23.72227],[121.302499,23.722541],[121.302596,23.722633],[121.302794,23.722544],[121.302987,23.722727],[121.302984,23.722998],[121.30269,23.722995],[121.302692,23.722814],[121.302497,23.722722],[121.302295,23.723171],[121.302099,23.723169],[121.3019,23.723347],[121.301897,23.723618],[121.302092,23.723711],[121.302186,23.723983],[121.302383,23.723985],[121.302475,23.724437],[121.302573,23.724438],[121.302667,23.72471],[121.302865,23.724622],[121.302869,23.724261]],[[121.302893,23.722455],[121.302796,23.722364],[121.302894,23.722365],[121.302893,23.722455]]],[[[121.301475,23.725871],[121.301771,23.725784],[121.301768,23.725965],[121.301963,23.726057],[121.302063,23.725968],[121.30197,23.725515],[121.302168,23.725427],[121.302165,23.725608],[121.30236,23.7257],[121.302464,23.72525],[121.302663,23.725071],[121.302469,23.724889],[121.30237,23.724978],[121.301879,23.724973],[121.30178,23.725062],[121.301875,23.725334],[121.301577,23.725601],[121.301282,23.725688],[121.301179,23.726048],[121.301374,23.726141],[121.301475,23.725871]]],[[[121.306057,23.728089],[121.305962,23.727817],[121.305476,23.72745],[121.305479,23.727269],[121.305188,23.726995],[121.304992,23.726993],[121.304603,23.726718],[121.304611,23.726086],[121.304416,23.725994],[121.304213,23.726533],[121.304504,23.726807],[121.304502,23.726988],[121.304205,23.727165],[121.304203,23.727346],[121.304398,23.727438],[121.304499,23.727168],[121.304891,23.727173],[121.304889,23.727353],[121.305084,23.727446],[121.305081,23.727717],[121.305468,23.728082],[121.305764,23.727995],[121.305957,23.728178],[121.306057,23.728089]]],[[[121.303113,23.728147],[121.303213,23.728057],[121.303118,23.727785],[121.30253,23.727779],[121.30243,23.727868],[121.302237,23.727685],[121.302436,23.727417],[121.302242,23.727234],[121.301947,23.727321],[121.302042,23.727593],[121.301745,23.72777],[121.301841,23.727952],[121.302233,23.727956],[121.302232,23.728047],[121.302526,23.72805],[121.302525,23.72814],[121.302721,23.728142],[121.302722,23.728052],[121.303113,23.728147]]]]}},{"type":"Feature","properties":{"kind":"bare_dam","month":"2022-03","area_ha":20.08},"geometry":{"type":"MultiPolygon","coordinates":[[[[121.302705,23.691481],[121.30202,23.691383],[121.301827,23.69111],[121.30163,23.691198],[121.30134,23.690924],[121.301044,23.691011],[121.300754,23.690737],[121.30076,23.690285],[121.30125,23.690291],[121.30135,23.690111],[121.300959,23.690017],[121.300765,23.689834],[121.298708,23.689721],[121.298607,23.6899],[121.298313,23.689897],[121.298213,23.690077],[121.297919,23.690074],[121.297621,23.690341],[121.297619,23.690522],[121.297717,23.690523],[121.297614,23.690883],[121.297808,23.691066],[121.298201,23.69098],[121.298301,23.6908],[121.298791,23.690896],[121.298887,23.690987],[121.298785,23.691347],[121.299078,23.691441],[121.299076,23.691531],[121.299273,23.691533],[121.299274,23.691443],[121.299665,23.691537],[121.299767,23.691177],[121.300058,23.691452],[121.301431,23.691467],[121.301526,23.691648],[121.30192,23.691562],[121.301918,23.691653],[121.302409,23.691658],[121.302408,23.691748],[121.302702,23.691751],[121.302801,23.691662],[121.302705,23.691481]],[[121.300066,23.69082],[121.299774,23.690636],[121.299874,23.690546],[121.299779,23.690275],[121.300269,23.69028],[121.300066,23.69082]],[[121.299675,23.690725],[121.299383,23.690541],[121.299386,23.690361],[121.299678,23.690544],[121.299675,23.690725]],[[121.2988,23.690173],[121.299094,23.690177],[121.299189,23.690449],[121.298798,23.690354],[121.2988,23.690173]],[[121.300566,23.690103],[121.300467,23.690192],[121.300468,23.690102],[121.300566,23.690103]]],[[[121.302995,23.691845],[121.303292,23.691577],[121.302999,23.691484],[121.3028,23.691752],[121.302995,23.691845]]],[[[121.301101,23.694172],[121.301007,23.6939],[121.301205,23.693722],[121.300912,23.693628],[121.300525,23.693263],[121.300239,23.692627],[121.300043,23.692625],[121.299947,23.692444],[121.299653,23.69244],[121.29946,23.692167],[121.299165,23.692254],[121.298875,23.69198],[121.29848,23.692157],[121.298577,23.692248],[121.298473,23.692698],[121.298668,23.692791],[121.298664,23.693062],[121.298957,23.693155],[121.299052,23.693427],[121.299542,23.693432],[121.299244,23.6937],[121.299339,23.693972],[121.299536,23.693884],[121.299539,23.693703],[121.300225,23.693711],[121.300417,23.693984],[121.300712,23.693987],[121.300904,23.69426],[121.301101,23.694172]],[[121.300231,23.693259],[121.300426,23.693352],[121.300423,23.693532],[121.300228,23.69344],[121.300231,23.693259]],[[121.299744,23.692983],[121.299644,23.693163],[121.299546,23.693162],[121.299548,23.692981],[121.299744,23.692983]],[[121.29984,23.693165],[121.299841,23.693075],[121.300037,23.693077],[121.300036,23.693167],[121.29984,23.693165]]],[[[121.302935,23.69645],[121.303032,23.696541],[121.30323,23.696362],[121.303234,23.696092],[121.303332,23.696093],[121.303239,23.69573],[121.303042,23.695728],[121.302841,23.696178],[121.302644,23.696175],[121.302248,23.696532],[121.302145,23.696892],[121.301749,23.697159],[121.301747,23.69734],[121.30204,23.697433],[121.302041,23.697343],[121.302434,23.697257],[121.302634,23.696988],[121.302928,23.696991],[121.30303,23.696721],[121.302737,23.696628],[121.302935,23.69645]],[[121.302737,23.696628],[121.302637,23.696717],[121.302639,23.696627],[121.302737,23.696628]]],[[[121.297949,23.695311],[121.297752,23.695399],[121.297646,23.69594],[121.29784,23.696123],[121.298036,23.696125],[121.298123,23.697029],[121.298511,23.697304],[121.298505,23.697755],[121.298308,23.697844],[121.298502,23.698026],[121.299097,23.697491],[121.299101,23.69722],[121.299003,23.697219],[121.299109,23.696588],[121.298816,23.696495],[121.298915,23.696405],[121.298925,23.695683],[121.298632,23.69559],[121.298635,23.695319],[121.298441,23.695136],[121.298146,23.695223],[121.298046,23.695403],[121.297949,23.695311]],[[121.298632,23.69559],[121.298532,23.695679],[121.298534,23.695589],[121.298632,23.69559]],[[121.298046,23.695403],[121.298143,23.695494],[121.298045,23.695493],[121.298046,23.695403]]],[[[121.2976,23.699551],[121.297303,23.699729],[121.297399,23.69991],[121.297498,23.699821],[121.297791,23.699915],[121.297882,23.700458],[121.298961,23.700469],[121.299061,23.70029],[121.298866,23.700197],[121.298968,23.699928],[121.29887,23.699927],[121.298776,23.699564],[121.299075,23.699206],[121.29908,23.698845],[121.299377,23.698578],[121.29938,23.698397],[121.299576,23.698399],[121.299577,23.698309],[121.30095,23.698324],[121.301545,23.697789],[121.30096,23.697511],[121.30086,23.697691],[121.300664,23.697689],[121.300465,23.697867],[121.300368,23.697776],[121.300269,23.697865],[121.299779,23.69786],[121.29978,23.697769],[121.299289,23.697854],[121.299189,23.697944],[121.299285,23.698125],[121.299087,23.698304],[121.298892,23.698211],[121.298692,23.69848],[121.298595,23.698388],[121.298398,23.698477],[121.29849,23.698929],[121.298195,23.699016],[121.298299,23.698566],[121.298202,23.698474],[121.298005,23.698563],[121.298002,23.698743],[121.297904,23.698742],[121.297997,23.699195],[121.2977,23.699372],[121.297796,23.699554],[121.2976,23.699551]],[[121.298195,23.699016],[121.298096,23.699105],[121.298097,23.699015],[121.298195,23.699016]],[[121.297795,23.699644],[121.297895,23.699464],[121.298092,23.699376],[121.29809,23.699557],[121.297795,23.699644]]],[[[121.299158,23.700381],[121.299059,23.70047],[121.299157,23.700472],[121.299158,23.700381]]],[[[121.312752,23.687978],[121.312759,23.687437],[121.312467,23.687253],[121.312471,23.686982],[121.31218,23.686708],[121.311787,23.686794],[121.311785,23.686884],[121.311589,23.686882],[121.311591,23.686792],[121.311393,23.68688],[121.311389,23.687241],[121.311291,23.68724],[121.311386,23.687422],[121.311584,23.687334],[121.311586,23.687153],[121.311977,23.687248],[121.312073,23.687429],[121.31227,23.687341],[121.312367,23.687432],[121.312265,23.687702],[121.31246,23.687795],[121.312458,23.687975],[121.312555,23.688067],[121.312752,23.687978]]],[[[121.308793,23.690825],[121.30899,23.690737],[121.308993,23.690556],[121.308604,23.690281],[121.3085,23.690731],[121.308597,23.690823],[121.308794,23.690735],[121.308793,23.690825]]],[[[121.307799,23.691898],[121.307702,23.691806],[121.307114,23.6918],[121.307013,23.691979],[121.307697,23.692167],[121.307799,23.691898]]],[[[121.305048,23.692319],[121.305149,23.692049],[121.305446,23.691872],[121.30535,23.69169],[121.305052,23.691958],[121.304757,23.692045],[121.304755,23.692225],[121.305048,23.692319]]],[[[121.304465,23.691861],[121.304464,23.691951],[121.303876,23.691945],[121.303875,23.692035],[121.303289,23.691848],[121.303188,23.692028],[121.303481,23.692121],[121.303577,23.692303],[121.303676,23.692214],[121.304165,23.692309],[121.304166,23.692219],[121.304757,23.692045],[121.304661,23.691863],[121.304465,23.691861]]],[[[121.306222,23.692512],[121.306518,23.692335],[121.306521,23.692154],[121.306716,23.692247],[121.307013,23.691979],[121.306818,23.691887],[121.30662,23.692065],[121.306523,23.691974],[121.306228,23.692061],[121.306229,23.691971],[121.305837,23.691966],[121.305741,23.691785],[121.305446,23.691872],[121.305541,23.692053],[121.305737,23.692056],[121.306222,23.692512]]],[[[121.30422,23.695651],[121.304321,23.695471],[121.304515,23.695564],[121.304616,23.695384],[121.304812,23.695387],[121.30511,23.695119],[121.305014,23.694937],[121.305211,23.694849],[121.305213,23.694669],[121.30502,23.694486],[121.305118,23.694487],[121.30512,23.694306],[121.305217,23.694398],[121.305414,23.69431],[121.305222,23.694037],[121.304926,23.694124],[121.304826,23.694303],[121.304532,23.6943],[121.304234,23.694567],[121.304232,23.694748],[121.304427,23.694841],[121.304422,23.695202],[121.304324,23.695201],[121.30423,23.694929],[121.303736,23.695194],[121.303732,23.695465],[121.303829,23.695556],[121.304026,23.695468],[121.30422,23.695651]],[[121.304321,23.695471],[121.304224,23.69538],[121.304322,23.695381],[121.304321,23.695471]],[[121.304026,23.695468],[121.304126,23.695379],[121.304124,23.695469],[121.304026,23.695468]],[[121.304723,23.694663],[121.304626,23.694572],[121.304724,23.694573],[121.304723,23.694663]]]]}},{"type":"Feature","properties":{"kind":"water","month":"2022-03","area_ha":1.04},"geometry":{"type":"MultiPolygon","coordinates":[[[[121.307109,23.692161],[121.307206,23.692252],[121.307207,23.692162],[121.307599,23.692166],[121.3076,23.692076],[121.306914,23.692068],[121.30691,23.692339],[121.307109,23.692161]]],[[[121.305712,23.694042],[121.305613,23.694131],[121.305513,23.69422],[121.30571,23.694222],[121.305712,23.694042]]],[[[121.305708,23.694313],[121.305415,23.694219],[121.305413,23.6944],[121.305707,23.694403],[121.305708,23.694313]]],[[[121.30512,23.694306],[121.305019,23.694576],[121.305412,23.69449],[121.305413,23.6944],[121.30512,23.694306]]],[[[121.304022,23.695829],[121.304123,23.69556],[121.303829,23.695556],[121.303726,23.695916],[121.304022,23.695829]]],[[[121.301841,23.697611],[121.301942,23.697432],[121.301747,23.69734],[121.301746,23.69743],[121.30155,23.697428],[121.301547,23.697608],[121.301253,23.697605],[121.301252,23.697695],[121.301841,23.697611]]],[[[121.301058,23.697513],[121.301057,23.697603],[121.301253,23.697605],[121.301254,23.697515],[121.301058,23.697513]]],[[[121.300273,23.697594],[121.300469,23.697596],[121.300662,23.697779],[121.300665,23.697599],[121.30086,23.697691],[121.30096,23.697511],[121.299981,23.69741],[121.299683,23.697678],[121.2988,23.697759],[121.298797,23.697939],[121.298993,23.697941],[121.298995,23.697851],[121.299288,23.697945],[121.299289,23.697854],[121.299583,23.697858],[121.299584,23.697767],[121.300269,23.697865],[121.300273,23.697594]],[[121.299781,23.697679],[121.299977,23.697681],[121.299976,23.697772],[121.29978,23.697769],[121.299781,23.697679]]]]}}]}