{"type":"FeatureCollection","features":[{"type":"Feature","properties":{"kind":"bare_slide","month":"2022-04","area_ha":33.09},"geometry":{"type":"MultiPolygon","coordinates":[[[[121.294952,23.714602],[121.295352,23.714065],[121.295646,23.714068],[121.295647,23.713978],[121.295942,23.713891],[121.296049,23.71326],[121.296346,23.712992],[121.29635,23.712721],[121.296252,23.71272],[121.296353,23.71245],[121.296257,23.712359],[121.29606,23.712357],[121.295862,23.712535],[121.295858,23.712806],[121.295664,23.712714],[121.295265,23.713161],[121.294971,23.713158],[121.29497,23.713248],[121.294775,23.713155],[121.294377,23.713603],[121.294181,23.7136],[121.293982,23.713779],[121.294077,23.714051],[121.294375,23.713783],[121.294571,23.713785],[121.294765,23.713968],[121.294467,23.714236],[121.294756,23.7146],[121.294952,23.714602]],[[121.294768,23.713697],[121.29477,23.713517],[121.294868,23.713518],[121.294866,23.713698],[121.294768,23.713697]],[[121.295557,23.713345],[121.29546,23.713253],[121.295558,23.713254],[121.295557,23.713345]]],[[[121.283962,23.715113],[121.284356,23.714937],[121.284066,23.714662],[121.284068,23.714482],[121.284363,23.714395],[121.284364,23.714305],[121.284461,23.714396],[121.284659,23.714308],[121.284661,23.714127],[121.284759,23.714128],[121.284666,23.713766],[121.28447,23.713764],[121.284369,23.713943],[121.284175,23.713761],[121.283979,23.713758],[121.282987,23.71465],[121.282981,23.715102],[121.283078,23.715193],[121.283274,23.715195],[121.283374,23.715016],[121.283667,23.71511],[121.283665,23.71529],[121.283468,23.715378],[121.283563,23.71556],[121.283957,23.715474],[121.283962,23.715113]]],[[[121.295912,23.716238],[121.295718,23.716055],[121.295721,23.715875],[121.295819,23.715876],[121.295723,23.715694],[121.295428,23.715781],[121.295139,23.715327],[121.294943,23.715325],[121.294745,23.715503],[121.29484,23.715685],[121.295231,23.715779],[121.295228,23.71605],[121.295521,23.716144],[121.295712,23.716507],[121.29591,23.716419],[121.295912,23.716238]]],[[[121.283337,23.717905],[121.283736,23.717368],[121.284029,23.717461],[121.284129,23.717282],[121.284326,23.717284],[121.284524,23.717106],[121.284431,23.716743],[121.284232,23.716922],[121.284037,23.716829],[121.283639,23.717276],[121.283443,23.717274],[121.283142,23.717813],[121.283337,23.717905]]],[[[121.282712,23.720697],[121.282812,23.720518],[121.283107,23.720431],[121.28311,23.72025],[121.283705,23.719715],[121.28361,23.719534],[121.283216,23.719619],[121.283319,23.719259],[121.283613,23.719263],[121.283708,23.719535],[121.284095,23.7199],[121.284292,23.719812],[121.284102,23.719358],[121.284004,23.719357],[121.284105,23.719178],[121.284399,23.719181],[121.284398,23.719271],[121.284595,23.719183],[121.284691,23.719365],[121.285084,23.719279],[121.284991,23.718917],[121.284498,23.719092],[121.284305,23.718819],[121.284109,23.718817],[121.284112,23.718636],[121.284407,23.718549],[121.28412,23.718004],[121.283825,23.718091],[121.283921,23.718182],[121.28382,23.718452],[121.283624,23.71845],[121.283627,23.718179],[121.283434,23.717996],[121.283138,23.718083],[121.283135,23.718354],[121.28333,23.718447],[121.283424,23.718719],[121.283128,23.718896],[121.283022,23.719437],[121.282526,23.719883],[121.281837,23.720056],[121.281736,23.720325],[121.281638,23.720324],[121.281732,23.720596],[121.282023,23.72087],[121.282219,23.720873],[121.282417,23.720694],[121.282712,23.720697]]],[[[121.28809,23.721931],[121.28819,23.721751],[121.287995,23.721659],[121.287895,23.721838],[121.28809,23.721931]]],[[[121.287896,23.721748],[121.287607,23.721384],[121.28741,23.721382],[121.287022,23.721106],[121.286928,23.720744],[121.286633,23.720831],[121.286827,23.721014],[121.286725,23.721284],[121.286434,23.72101],[121.286237,23.721098],[121.286329,23.72155],[121.286134,23.721458],[121.286234,23.721369],[121.286138,23.721187],[121.285939,23.721365],[121.285743,23.721363],[121.285551,23.72109],[121.285848,23.720823],[121.285555,23.720729],[121.28546,23.720547],[121.285264,23.720545],[121.284966,23.720813],[121.28506,23.721085],[121.284864,23.721082],[121.284865,23.720992],[121.284668,23.72108],[121.284764,23.721262],[121.284666,23.721261],[121.284663,23.721441],[121.284466,23.72153],[121.284463,23.7218],[121.284265,23.721889],[121.284263,23.722069],[121.283965,23.722337],[121.284355,23.722522],[121.284458,23.722162],[121.284654,23.722164],[121.284653,23.722254],[121.285144,23.722169],[121.285043,23.722439],[121.284945,23.722438],[121.284942,23.722618],[121.285136,23.722801],[121.286601,23.723269],[121.286703,23.722999],[121.2869,23.722911],[121.286902,23.72273],[121.287002,23.722641],[121.287197,23.722734],[121.287395,23.722555],[121.287503,23.721834],[121.287896,23.721748]],[[121.285434,23.722534],[121.285438,23.722172],[121.285636,23.722084],[121.28554,23.721903],[121.286032,23.721818],[121.286029,23.721998],[121.285832,23.722087],[121.285828,23.722357],[121.285926,23.722358],[121.285824,23.722719],[121.28563,23.722536],[121.285434,23.722534]],[[121.286616,23.722095],[121.286811,23.722188],[121.286905,23.72255],[121.286709,23.722548],[121.286712,23.722277],[121.286614,23.722276],[121.286616,23.722095]],[[121.286321,23.722182],[121.286221,23.722362],[121.286123,23.722361],[121.286125,23.72218],[121.286321,23.722182]],[[121.286425,23.721732],[121.286421,23.722003],[121.286323,23.722002],[121.286229,23.72173],[121.286425,23.721732]],[[121.285546,23.721451],[121.285642,23.721633],[121.285443,23.721811],[121.285247,23.721809],[121.285251,23.721538],[121.285546,23.721451]]],[[[121.290316,23.724213],[121.290512,23.724215],[121.29071,23.724037],[121.29052,23.723583],[121.290909,23.723858],[121.291003,23.72413],[121.291299,23.724043],[121.291302,23.723772],[121.291107,23.72368],[121.291112,23.723319],[121.29121,23.72332],[121.291313,23.72296],[121.291022,23.722686],[121.290825,23.722774],[121.290722,23.723134],[121.290526,23.723132],[121.290328,23.72331],[121.290033,23.723307],[121.289934,23.723396],[121.29003,23.723578],[121.289635,23.723754],[121.289731,23.723936],[121.290224,23.723761],[121.290124,23.72385],[121.29022,23.724031],[121.290023,23.724119],[121.29002,23.7243],[121.290215,23.724393],[121.290316,23.724213]]],[[[121.291378,23.725489],[121.291577,23.725311],[121.291773,23.725313],[121.29207,23.725045],[121.29178,23.724771],[121.291977,23.724683],[121.291982,23.724322],[121.292379,23.723965],[121.292381,23.723784],[121.292283,23.723783],[121.292383,23.723604],[121.29219,23.723421],[121.291894,23.723508],[121.291799,23.723326],[121.291601,23.723415],[121.291693,23.723867],[121.291791,23.723868],[121.291688,23.724318],[121.291489,23.724497],[121.291195,23.724494],[121.2911,23.724222],[121.290903,23.72431],[121.290898,23.724671],[121.290602,23.724848],[121.290599,23.725029],[121.290794,23.725121],[121.290993,23.724943],[121.291087,23.725215],[121.290889,23.725393],[121.290595,23.72539],[121.290494,23.725569],[121.290688,23.725752],[121.291275,23.725849],[121.291378,23.725489]],[[121.291385,23.724947],[121.291483,23.724948],[121.29148,23.725219],[121.291382,23.725218],[121.291385,23.724947]],[[121.291585,23.724679],[121.291684,23.724589],[121.291683,23.72468],[121.291585,23.724679]]],[[[121.294314,23.725973],[121.294515,23.725614],[121.29432,23.725521],[121.294122,23.7257],[121.294124,23.725519],[121.293736,23.725154],[121.293049,23.725236],[121.292948,23.725416],[121.292556,23.725412],[121.292555,23.725502],[121.292161,23.725588],[121.292256,23.72586],[121.292547,23.726134],[121.292841,23.726137],[121.292941,23.725958],[121.293433,23.725873],[121.293329,23.726323],[121.293525,23.726325],[121.293527,23.726145],[121.29392,23.726149],[121.293922,23.725969],[121.294314,23.725973]],[[121.293437,23.725512],[121.293537,23.725422],[121.293535,23.725513],[121.293437,23.725512]]],[[[121.299139,23.701826],[121.299243,23.701375],[121.298753,23.70137],[121.298657,23.701188],[121.297971,23.701181],[121.298063,23.701633],[121.298161,23.701634],[121.298054,23.702356],[121.298247,23.702538],[121.298243,23.7029],[121.298341,23.702901],[121.298627,23.703536],[121.298924,23.703268],[121.299119,23.703361],[121.299221,23.703091],[121.299319,23.703092],[121.299321,23.702911],[121.299126,23.702819],[121.299133,23.702277],[121.298938,23.702185],[121.299041,23.701825],[121.299139,23.701826]],[[121.298938,23.702185],[121.298839,23.702274],[121.29884,23.702184],[121.298938,23.702185]],[[121.298738,23.702544],[121.298637,23.702723],[121.298539,23.702722],[121.298541,23.702542],[121.298738,23.702544]],[[121.298446,23.70236],[121.298448,23.702179],[121.298546,23.702181],[121.298544,23.702361],[121.298446,23.70236]],[[121.298551,23.701819],[121.298454,23.701728],[121.298552,23.701729],[121.298551,23.701819]]],[[[121.299297,23.704807],[121.299594,23.70454],[121.299702,23.703819],[121.299216,23.703452],[121.298918,23.70372],[121.298916,23.7039],[121.29911,23.704083],[121.299102,23.704715],[121.299297,23.704807]]],[[[121.29955,23.707971],[121.299648,23.707972],[121.299653,23.707611],[121.299554,23.70761],[121.29946,23.707338],[121.299264,23.707335],[121.299263,23.707426],[121.29897,23.707332],[121.29887,23.707421],[121.298677,23.707239],[121.298684,23.706697],[121.298782,23.706698],[121.298785,23.706427],[121.299083,23.70616],[121.298991,23.705707],[121.299089,23.705708],[121.29919,23.705438],[121.299093,23.705347],[121.298897,23.705345],[121.298896,23.705435],[121.298014,23.705425],[121.297814,23.705694],[121.297519,23.705781],[121.297905,23.706237],[121.2982,23.70615],[121.298199,23.70624],[121.298492,23.706334],[121.298486,23.706785],[121.298387,23.706874],[121.298094,23.706781],[121.297991,23.707141],[121.298088,23.707232],[121.298384,23.707145],[121.298574,23.707599],[121.298673,23.70751],[121.298966,23.707603],[121.298865,23.707873],[121.299155,23.708147],[121.299448,23.70824],[121.29955,23.707971]],[[121.29889,23.705887],[121.298888,23.706067],[121.29879,23.706066],[121.298694,23.705884],[121.29889,23.705887]]],[[[121.301804,23.708086],[121.301905,23.707816],[121.301809,23.707725],[121.301513,23.707812],[121.301421,23.707359],[121.301225,23.707357],[121.301129,23.707175],[121.300638,23.70726],[121.300632,23.707712],[121.300827,23.707804],[121.300728,23.707893],[121.300823,23.708075],[121.301019,23.708077],[121.30112,23.707898],[121.301413,23.707991],[121.301507,23.708263],[121.301804,23.708086]]],[[[121.3004,23.710508],[121.300305,23.710236],[121.299723,23.709779],[121.299725,23.709598],[121.299238,23.709322],[121.299138,23.709501],[121.299623,23.709868],[121.299519,23.710318],[121.299616,23.71041],[121.299814,23.710321],[121.300202,23.710597],[121.3004,23.710508]]],[[[121.297729,23.712285],[121.298029,23.711837],[121.297738,23.711563],[121.296656,23.711822],[121.296749,23.712184],[121.297241,23.712099],[121.297239,23.712189],[121.297729,23.712285]]],[[[121.301045,23.713676],[121.301239,23.713859],[121.301232,23.7144],[121.301033,23.714579],[121.301326,23.714672],[121.301525,23.714494],[121.301629,23.714044],[121.301727,23.714045],[121.30163,23.713953],[121.301731,23.713684],[121.302128,23.713327],[121.302034,23.713055],[121.301741,23.712961],[121.30164,23.713141],[121.301052,23.713134],[121.300858,23.712952],[121.300757,23.713221],[121.300855,23.713222],[121.300851,23.713493],[121.301144,23.713587],[121.301045,23.713676]],[[121.301144,23.713587],[121.301243,23.713498],[121.301242,23.713588],[121.301144,23.713587]],[[121.301532,23.713952],[121.301435,23.713861],[121.301533,23.713862],[121.301532,23.713952]]],[[[121.298382,23.714821],[121.298284,23.71482],[121.29829,23.714368],[121.298192,23.714367],[121.298292,23.714188],[121.297999,23.714094],[121.298002,23.713913],[121.297711,23.713639],[121.297413,23.713907],[121.297409,23.714268],[121.297111,23.714536],[121.296817,23.714532],[121.296618,23.714711],[121.296909,23.714985],[121.297109,23.714716],[121.297404,23.714629],[121.297403,23.71472],[121.297697,23.714723],[121.298083,23.715179],[121.298379,23.715091],[121.298382,23.714821]],[[121.297996,23.714365],[121.297899,23.714273],[121.297997,23.714275],[121.297996,23.714365]]],[[[121.296725,23.721575],[121.296726,23.721484],[121.297118,23.721579],[121.297316,23.721401],[121.297221,23.721129],[121.297122,23.721218],[121.296829,23.721124],[121.297028,23.720946],[121.297125,23.721037],[121.297322,23.720949],[121.297329,23.720408],[121.297135,23.720225],[121.297143,23.719593],[121.297241,23.719594],[121.297148,23.719232],[121.296853,23.719319],[121.296849,23.71959],[121.296652,23.719678],[121.296549,23.720038],[121.296352,23.720126],[121.296539,23.72085],[121.296145,23.720936],[121.295947,23.721115],[121.296333,23.72157],[121.296432,23.721481],[121.296725,23.721575]]],[[[121.300356,23.721434],[121.300559,23.720895],[121.300756,23.720806],[121.300761,23.720445],[121.300663,23.720444],[121.300571,23.719992],[121.300277,23.719988],[121.300077,23.720257],[121.299782,23.720344],[121.299778,23.720615],[121.299581,23.720703],[121.299477,23.721154],[121.299379,23.721152],[121.299471,23.721605],[121.300354,23.721615],[121.300453,23.721525],[121.300356,23.721434]]]]}},{"type":"Feature","properties":{"kind":"bare_dam","month":"2022-04","area_ha":16.13},"geometry":{"type":"MultiPolygon","coordinates":[[[[121.301741,23.690206],[121.301252,23.69011],[121.301253,23.69002],[121.300762,23.690105],[121.300858,23.690286],[121.30125,23.690291],[121.301249,23.690381],[121.301641,23.690385],[121.301741,23.690206]]],[[[121.301878,23.694813],[121.302076,23.694634],[121.301589,23.694358],[121.301303,23.693723],[121.301107,23.693721],[121.301012,23.693539],[121.300815,23.693537],[121.300525,23.693263],[121.300527,23.693082],[121.300332,23.69299],[121.300336,23.692719],[121.300142,23.692536],[121.299751,23.692441],[121.299558,23.692168],[121.299165,23.692254],[121.298973,23.691981],[121.298776,23.691979],[121.298578,23.692158],[121.298384,23.691975],[121.298187,23.692063],[121.298282,23.692335],[121.298577,23.692248],[121.298472,23.692789],[121.298859,23.693154],[121.298857,23.693335],[121.299051,23.693517],[121.299444,23.693431],[121.299442,23.693612],[121.299244,23.6937],[121.299337,23.694153],[121.299535,23.693974],[121.299828,23.694068],[121.299927,23.693978],[121.299833,23.693707],[121.300224,23.693801],[121.300319,23.693983],[121.300712,23.693987],[121.300806,23.694259],[121.301002,23.694261],[121.301104,23.693991],[121.301202,23.693992],[121.301488,23.694628],[121.301682,23.69481],[121.301781,23.694721],[121.301878,23.694813]],[[121.299537,23.693794],[121.299539,23.693703],[121.299735,23.693705],[121.299733,23.693796],[121.299537,23.693794]]],[[[121.299605,23.696142],[121.299803,23.695964],[121.299905,23.695694],[121.299515,23.695509],[121.299416,23.695598],[121.29941,23.69605],[121.299605,23.696142]]],[[[121.299486,23.697766],[121.299684,23.697588],[121.299491,23.697405],[121.299295,23.697403],[121.299394,23.697314],[121.2994,23.696862],[121.299108,23.696678],[121.29911,23.696498],[121.298916,23.696315],[121.298619,23.696583],[121.298327,23.696399],[121.298329,23.696218],[121.298427,23.696219],[121.298433,23.695768],[121.298336,23.695677],[121.298436,23.695587],[121.298242,23.695405],[121.29844,23.695226],[121.298537,23.695318],[121.298734,23.69523],[121.29874,23.694778],[121.298447,23.694685],[121.298346,23.694954],[121.298148,23.695042],[121.298152,23.694772],[121.297957,23.694679],[121.297854,23.695039],[121.297657,23.695127],[121.297654,23.695398],[121.297752,23.695399],[121.297646,23.69594],[121.297937,23.696214],[121.298027,23.696847],[121.298125,23.696848],[121.298218,23.69721],[121.298509,23.697485],[121.298804,23.697397],[121.298802,23.697578],[121.298704,23.697577],[121.2988,23.697759],[121.299094,23.697762],[121.299194,23.697582],[121.299487,23.697676],[121.299486,23.697766]],[[121.299194,23.697582],[121.299097,23.697491],[121.299195,23.697492],[121.299194,23.697582]],[[121.298714,23.696764],[121.298713,23.696855],[121.298517,23.696853],[121.298518,23.696762],[121.298714,23.696764]],[[121.298714,23.696764],[121.298814,23.696675],[121.298812,23.696765],[121.298714,23.696764]]],[[[121.299782,23.697589],[121.300178,23.697322],[121.30018,23.697142],[121.299891,23.696777],[121.299695,23.696775],[121.299596,23.696864],[121.299693,23.696956],[121.299589,23.697406],[121.299782,23.697589]]],[[[121.296625,23.699089],[121.29643,23.698997],[121.296432,23.698816],[121.296239,23.698633],[121.295748,23.698628],[121.29555,23.698806],[121.295645,23.699078],[121.295843,23.6989],[121.296137,23.698903],[121.296427,23.699268],[121.296625,23.699089]]],[[[121.297882,23.700458],[121.298764,23.700467],[121.298963,23.700289],[121.298965,23.700108],[121.29877,23.700016],[121.29887,23.699927],[121.298776,23.699564],[121.298975,23.699386],[121.299081,23.698755],[121.299278,23.698667],[121.29938,23.698397],[121.299576,23.698399],[121.299577,23.698309],[121.299773,23.698311],[121.299772,23.698401],[121.299871,23.698312],[121.30095,23.698324],[121.301346,23.697967],[121.300959,23.697602],[121.300763,23.6976],[121.300465,23.697867],[121.30027,23.697775],[121.300269,23.697865],[121.299877,23.697861],[121.299876,23.697951],[121.299288,23.697945],[121.299186,23.698214],[121.298892,23.698211],[121.298693,23.69839],[121.298691,23.69857],[121.298594,23.698479],[121.298397,23.698567],[121.298491,23.698839],[121.298293,23.699017],[121.298097,23.699015],[121.298198,23.698745],[121.298004,23.698653],[121.2979,23.699103],[121.29819,23.699377],[121.298089,23.699647],[121.297893,23.699645],[121.297994,23.699375],[121.297799,23.699283],[121.297601,23.699461],[121.297598,23.699642],[121.297303,23.699729],[121.297399,23.69991],[121.29789,23.699826],[121.298084,23.700008],[121.297886,23.700187],[121.297882,23.700458]],[[121.29819,23.699377],[121.298291,23.699198],[121.298487,23.6992],[121.298484,23.699381],[121.29819,23.699377]],[[121.298487,23.6992],[121.298586,23.699111],[121.298585,23.699201],[121.298487,23.6992]],[[121.298279,23.700101],[121.298278,23.700191],[121.298082,23.700189],[121.298083,23.700099],[121.298279,23.700101]]],[[[121.295645,23.699078],[121.295451,23.698896],[121.295254,23.698984],[121.295348,23.699256],[121.295544,23.699258],[121.295645,23.699078]]],[[[121.302034,23.690299],[121.301839,23.690207],[121.301739,23.690386],[121.301934,23.690479],[121.302034,23.690299]]],[[[121.303773,23.692305],[121.304263,23.69231],[121.304364,23.692131],[121.304658,23.692134],[121.304754,23.692316],[121.305048,23.692319],[121.305149,23.692049],[121.305447,23.691781],[121.305252,23.691689],[121.304953,23.692047],[121.304757,23.692045],[121.304661,23.691863],[121.303777,23.692034],[121.303778,23.691944],[121.303387,23.691849],[121.303487,23.69167],[121.303293,23.691487],[121.302999,23.691484],[121.302998,23.691574],[121.302802,23.691572],[121.302706,23.69139],[121.302313,23.691476],[121.302314,23.691386],[121.30202,23.691383],[121.302119,23.691294],[121.302024,23.691112],[121.30163,23.691198],[121.301438,23.690925],[121.301044,23.691011],[121.300758,23.690376],[121.299867,23.691088],[121.299864,23.691269],[121.300155,23.691543],[121.300254,23.691454],[121.30045,23.691456],[121.300449,23.691546],[121.300548,23.691457],[121.30094,23.691461],[121.300939,23.691551],[121.301333,23.691466],[121.301428,23.691647],[121.30192,23.691562],[121.301918,23.691653],[121.3028,23.691752],[121.302799,23.691843],[121.30329,23.691758],[121.303188,23.692028],[121.303479,23.692302],[121.303675,23.692304],[121.303676,23.692214],[121.303773,23.692305]]],[[[121.306517,23.692425],[121.306716,23.692247],[121.30662,23.692065],[121.305934,23.692058],[121.30583,23.692508],[121.306025,23.692601],[121.306125,23.692421],[121.306517,23.692425]],[[121.306125,23.692421],[121.306028,23.69233],[121.306126,23.692331],[121.306125,23.692421]]],[[[121.304061,23.69276],[121.303966,23.692578],[121.303669,23.692755],[121.303863,23.692938],[121.303763,23.693118],[121.304056,23.693211],[121.30415,23.693483],[121.304349,23.693305],[121.304543,23.693397],[121.304843,23.692949],[121.30465,23.692766],[121.304454,23.692764],[121.304352,23.693034],[121.304254,23.693033],[121.304255,23.692942],[121.303962,23.692849],[121.304061,23.69276]],[[121.30445,23.693035],[121.304448,23.693215],[121.30435,23.693214],[121.304352,23.693034],[121.30445,23.693035]],[[121.304059,23.69294],[121.30396,23.693029],[121.303961,23.692939],[121.304059,23.69294]]],[[[121.305219,23.694217],[121.305124,23.694035],[121.304631,23.694211],[121.304333,23.694478],[121.304331,23.694659],[121.304525,23.694842],[121.304723,23.694663],[121.304917,23.694846],[121.305113,23.694848],[121.305313,23.694579],[121.30502,23.694486],[121.305022,23.694305],[121.305219,23.694217]],[[121.304723,23.694663],[121.304626,23.694572],[121.304724,23.694573],[121.304723,23.694663]],[[121.30502,23.694486],[121.30492,23.694575],[121.304922,23.694485],[121.30502,23.694486]]],[[[121.303828,23.695647],[121.304026,23.695468],[121.304029,23.695288],[121.304324,23.695201],[121.30423,23.694929],[121.303836,23.695015],[121.303638,23.695193],[121.303735,23.695284],[121.303633,23.695554],[121.303828,23.695647]]],[[[121.302732,23.696989],[121.302441,23.696715],[121.302542,23.696536],[121.302347,23.696443],[121.302047,23.696891],[121.302337,23.697165],[121.302534,23.697168],[121.302732,23.696989]]],[[[121.30283,23.69699],[121.303028,23.696812],[121.302834,23.696719],[121.302733,23.696899],[121.30283,23.69699]]]]}},{"type":"Feature","properties":{"kind":"water","month":"2022-04","area_ha":1.26},"geometry":{"type":"MultiPolygon","coordinates":[[[[121.30442,23.695382],[121.304517,23.695474],[121.304617,23.695294],[121.304421,23.695292],[121.304422,23.695202],[121.304029,23.695288],[121.304026,23.695468],[121.304223,23.69547],[121.304221,23.695561],[121.30442,23.695382]]],[[[121.301058,23.697513],[121.300569,23.697417],[121.300468,23.697687],[121.300662,23.697779],[121.300665,23.697599],[121.301057,23.697603],[121.301058,23.697513]]],[[[121.299979,23.697591],[121.299684,23.697588],[121.299584,23.697767],[121.29978,23.697769],[121.299979,23.697591]]],[[[121.30027,23.697775],[121.299977,23.697681],[121.299975,23.697862],[121.300269,23.697865],[121.30027,23.697775]]],[[[121.299288,23.697945],[121.299876,23.697951],[121.299878,23.69777],[121.299779,23.69786],[121.299583,23.697858],[121.299487,23.697676],[121.298702,23.697758],[121.298804,23.697397],[121.298607,23.697486],[121.298602,23.697847],[121.29899,23.698212],[121.299186,23.698214],[121.299288,23.697945]]],[[[121.298402,23.698206],[121.298304,23.698205],[121.298301,23.698385],[121.298496,23.698478],[121.298402,23.698206]]],[[[121.298392,23.698928],[121.298493,23.698749],[121.298395,23.698747],[121.298398,23.698477],[121.2983,23.698476],[121.298097,23.699015],[121.298392,23.698928]]],[[[121.307997,23.691719],[121.307801,23.691717],[121.307799,23.691898],[121.307897,23.691899],[121.307997,23.691719]]],[[[121.307305,23.692163],[121.307599,23.692166],[121.307601,23.691986],[121.307798,23.691988],[121.307799,23.691898],[121.307505,23.691894],[121.307502,23.692075],[121.307306,23.692073],[121.307305,23.692163]]],[[[121.306913,23.692159],[121.306816,23.692067],[121.306815,23.692158],[121.306913,23.692159]]],[[[121.307108,23.692251],[121.307304,23.692253],[121.307305,23.692163],[121.307111,23.69198],[121.306915,23.691978],[121.307108,23.692251]]],[[[121.30551,23.694491],[121.305708,23.694313],[121.305613,23.694131],[121.305513,23.69422],[121.30522,23.694127],[121.305315,23.694399],[121.305022,23.694305],[121.30502,23.694486],[121.30551,23.694491]]],[[[121.305019,23.694576],[121.304922,23.694485],[121.30492,23.694575],[121.305019,23.694576]]]]}}]}