{"type":"FeatureCollection","features":[{"type":"Feature","properties":{"kind":"bare_slide","month":"2022-01","area_ha":81.87},"geometry":{"type":"MultiPolygon","coordinates":[[[[121.297786,23.707861],[121.297882,23.708043],[121.298079,23.707955],[121.298086,23.707413],[121.297989,23.707321],[121.297694,23.707408],[121.297693,23.707499],[121.297201,23.707584],[121.297,23.707943],[121.297391,23.708037],[121.297393,23.707947],[121.297786,23.707861]]],[[[121.297927,23.712107],[121.29803,23.711747],[121.298127,23.711838],[121.298324,23.71175],[121.298329,23.711389],[121.298427,23.71139],[121.298531,23.710939],[121.298433,23.710938],[121.298441,23.710306],[121.297666,23.709575],[121.29727,23.709842],[121.297268,23.710022],[121.297849,23.710571],[121.297845,23.710842],[121.297943,23.710843],[121.297843,23.711022],[121.29794,23.711113],[121.297743,23.711202],[121.29774,23.711382],[121.297935,23.711475],[121.297933,23.711655],[121.29764,23.711562],[121.297639,23.711652],[121.296755,23.711733],[121.296652,23.712093],[121.296749,23.712184],[121.297241,23.712099],[121.297239,23.712189],[121.297534,23.712193],[121.297532,23.712283],[121.297729,23.712285],[121.297927,23.712107]],[[121.29804,23.710934],[121.29814,23.710845],[121.298138,23.710935],[121.29804,23.710934]],[[121.29766,23.710027],[121.297759,23.709938],[121.297758,23.710028],[121.29766,23.710027]]],[[[121.289977,23.712561],[121.290373,23.712294],[121.290276,23.712203],[121.290377,23.712023],[121.29028,23.711932],[121.289986,23.711929],[121.289984,23.712019],[121.289397,23.711922],[121.289293,23.712373],[121.289586,23.712466],[121.289585,23.712556],[121.289781,23.712559],[121.289782,23.712468],[121.289977,23.712561]]],[[[121.298117,23.71256],[121.297827,23.712286],[121.297629,23.712374],[121.297627,23.712555],[121.297918,23.712829],[121.298115,23.712741],[121.298117,23.71256]]],[[[121.295548,23.714067],[121.295549,23.713977],[121.295942,23.713891],[121.295945,23.71371],[121.296043,23.713711],[121.295948,23.713439],[121.296346,23.712992],[121.29635,23.712721],[121.296252,23.71272],[121.296158,23.712358],[121.295862,23.712535],[121.295958,23.712717],[121.29576,23.712805],[121.295758,23.712986],[121.295367,23.712891],[121.295068,23.713249],[121.294577,23.713334],[121.294672,23.713516],[121.295164,23.713431],[121.295358,23.713613],[121.295355,23.713794],[121.295059,23.713971],[121.295153,23.714243],[121.295352,23.714065],[121.295548,23.714067]]],[[[121.289276,23.713727],[121.289671,23.71346],[121.289676,23.713099],[121.289774,23.7131],[121.289678,23.712919],[121.28948,23.713097],[121.288892,23.713091],[121.288792,23.71318],[121.28879,23.71336],[121.28908,23.713725],[121.28898,23.713814],[121.288972,23.714446],[121.289069,23.714537],[121.289266,23.714449],[121.289276,23.713727]]],[[[121.298379,23.715091],[121.298382,23.714821],[121.298089,23.714727],[121.298291,23.714278],[121.297613,23.713638],[121.297209,23.714537],[121.2975,23.714811],[121.297696,23.714813],[121.298082,23.715269],[121.298379,23.715091]]],[[[121.292024,23.713577],[121.292025,23.713486],[121.291828,23.713574],[121.291634,23.713392],[121.291335,23.71375],[121.291331,23.71402],[121.290738,23.714375],[121.290832,23.714737],[121.291027,23.71483],[121.291024,23.71501],[121.290827,23.715098],[121.290921,23.71537],[121.290725,23.715368],[121.290724,23.715459],[121.290137,23.715362],[121.290034,23.715722],[121.28954,23.715987],[121.289733,23.71626],[121.289929,23.716262],[121.29003,23.716083],[121.290226,23.716085],[121.290321,23.716267],[121.290616,23.71627],[121.290815,23.716001],[121.291109,23.716005],[121.291107,23.716185],[121.291205,23.716186],[121.290907,23.716454],[121.290904,23.716725],[121.290607,23.716902],[121.290604,23.717173],[121.290406,23.717261],[121.290403,23.717532],[121.290206,23.71762],[121.2903,23.717892],[121.29079,23.717897],[121.29089,23.717808],[121.290795,23.717536],[121.290697,23.717535],[121.2908,23.717175],[121.290997,23.717087],[121.291001,23.716816],[121.291496,23.71646],[121.291402,23.716098],[121.291598,23.7161],[121.291797,23.715922],[121.2918,23.715651],[121.292098,23.715383],[121.292292,23.715566],[121.292586,23.715569],[121.292785,23.715391],[121.292977,23.715664],[121.293173,23.715666],[121.293372,23.715488],[121.293862,23.715493],[121.29386,23.715674],[121.293762,23.715673],[121.293857,23.715854],[121.294152,23.715858],[121.294548,23.715501],[121.294547,23.715591],[121.294841,23.715594],[121.29484,23.715685],[121.295231,23.715779],[121.295325,23.716141],[121.295522,23.716053],[121.295526,23.715782],[121.295041,23.715326],[121.294845,23.715323],[121.294652,23.71505],[121.294456,23.715048],[121.294355,23.715318],[121.294159,23.715316],[121.294162,23.715045],[121.294952,23.714602],[121.294955,23.714422],[121.294664,23.714148],[121.293978,23.71414],[121.29398,23.713959],[121.294078,23.71396],[121.293982,23.713779],[121.29359,23.713775],[121.293291,23.714132],[121.292801,23.714127],[121.292416,23.713581],[121.292024,23.713577]],[[121.293862,23.715493],[121.293961,23.715404],[121.29396,23.715494],[121.293862,23.715493]],[[121.292607,23.713944],[121.292508,23.714033],[121.292509,23.713943],[121.292607,23.713944]],[[121.291406,23.715827],[121.291405,23.715918],[121.291209,23.715915],[121.29121,23.715825],[121.291406,23.715827]]],[[[121.29187,23.717819],[121.292169,23.717461],[121.292263,23.717823],[121.292556,23.717917],[121.29325,23.717292],[121.293255,23.716931],[121.292964,23.716657],[121.293553,23.716664],[121.293652,23.716574],[121.293462,23.716121],[121.293265,23.716119],[121.293264,23.716209],[121.292383,23.716109],[121.292284,23.716198],[121.292477,23.716381],[121.292475,23.716561],[121.292279,23.716559],[121.292177,23.716829],[121.29198,23.716917],[121.291974,23.717369],[121.291483,23.717454],[121.291087,23.71772],[121.291085,23.717901],[121.291472,23.718266],[121.291964,23.718181],[121.29187,23.717819]],[[121.292469,23.717013],[121.292472,23.716832],[121.292668,23.716834],[121.292667,23.716925],[121.292469,23.717013]]],[[[121.286373,23.71821],[121.28687,23.717673],[121.287264,23.717587],[121.28717,23.717225],[121.286674,23.717671],[121.286282,23.717667],[121.286186,23.717485],[121.285989,23.717573],[121.286177,23.718207],[121.286373,23.71821]]],[[[121.285078,23.71973],[121.28508,23.71955],[121.284692,23.719275],[121.284593,23.719364],[121.284786,23.719547],[121.284685,23.719816],[121.28488,23.719909],[121.285078,23.71973]]],[[[121.284867,23.720902],[121.285461,23.720457],[121.285365,23.720275],[121.285067,23.720543],[121.284774,23.720449],[121.284776,23.720359],[121.285071,23.720272],[121.285073,23.720092],[121.285171,23.720093],[121.285076,23.719911],[121.284584,23.719996],[121.284484,23.720175],[121.284288,23.720173],[121.28399,23.720441],[121.284086,23.720622],[121.284772,23.72063],[121.284867,23.720902]]],[[[121.296726,23.721484],[121.297118,23.721579],[121.297316,23.721401],[121.297221,23.721129],[121.297023,23.721307],[121.296829,23.721124],[121.29693,23.720945],[121.297223,23.721038],[121.297325,23.720678],[121.297423,23.720679],[121.297427,23.720409],[121.297329,23.720408],[121.297237,23.719955],[121.297139,23.719954],[121.297143,23.719593],[121.297241,23.719594],[121.297147,23.719322],[121.296851,23.719409],[121.296849,23.71959],[121.296652,23.719678],[121.296649,23.719858],[121.296451,23.720037],[121.296448,23.720308],[121.296349,23.720306],[121.296347,23.720487],[121.296542,23.720579],[121.296539,23.72085],[121.29634,23.721029],[121.296632,23.721213],[121.29663,23.721393],[121.296432,23.721481],[121.296623,23.721935],[121.29682,23.721847],[121.296726,23.721484]]],[[[121.286901,23.722821],[121.287003,23.722551],[121.287198,23.722643],[121.287299,23.722374],[121.287497,23.722286],[121.2875,23.722015],[121.287402,23.722014],[121.287504,23.721744],[121.2877,23.721746],[121.287699,23.721836],[121.287896,23.721748],[121.288089,23.722021],[121.288481,23.722026],[121.288679,23.721847],[121.288682,23.721667],[121.288879,23.721578],[121.288783,23.721397],[121.288488,23.721484],[121.288588,23.721304],[121.288883,23.721308],[121.288978,23.721489],[121.289274,23.721402],[121.28918,23.72104],[121.288985,23.720948],[121.288989,23.720677],[121.288795,23.720494],[121.288109,23.720486],[121.288107,23.720577],[121.287716,23.720482],[121.287718,23.720392],[121.287521,23.72039],[121.287323,23.720568],[121.287128,23.720475],[121.287328,23.720207],[121.287719,23.720301],[121.28772,23.720211],[121.288014,23.720214],[121.288214,23.719946],[121.28841,23.719948],[121.288409,23.720038],[121.288704,23.719951],[121.288608,23.719769],[121.288215,23.719855],[121.288119,23.719674],[121.287825,23.719671],[121.287826,23.71958],[121.287629,23.719668],[121.287625,23.719939],[121.287429,23.719937],[121.287332,23.719846],[121.287434,23.719576],[121.287532,23.719577],[121.287436,23.719395],[121.28694,23.719841],[121.286842,23.71984],[121.286748,23.719568],[121.286451,23.719746],[121.286543,23.720198],[121.286836,23.720292],[121.286733,23.720652],[121.286341,23.720647],[121.286445,23.720197],[121.286251,23.720014],[121.285856,23.720281],[121.285853,23.720461],[121.286242,23.720737],[121.286235,23.721278],[121.285938,23.721456],[121.286029,23.721998],[121.285632,23.722355],[121.285143,23.722259],[121.284945,23.722438],[121.284942,23.722618],[121.285331,23.722894],[121.285821,23.722899],[121.285923,23.722629],[121.286219,23.722452],[121.286217,23.722633],[121.286119,23.722631],[121.286212,23.722994],[121.286703,23.722999],[121.286901,23.722821]],[[121.286915,23.721737],[121.286913,23.721918],[121.286815,23.721917],[121.286911,23.722098],[121.287207,23.721921],[121.287104,23.722281],[121.286615,23.722185],[121.286719,23.721735],[121.286915,23.721737]],[[121.288295,23.721211],[121.288392,23.721302],[121.288294,23.721301],[121.288295,23.721211]],[[121.286829,23.720833],[121.286828,23.720924],[121.286632,23.720921],[121.286633,23.720831],[121.286829,23.720833]],[[121.287809,23.720935],[121.28781,23.720844],[121.288105,23.720757],[121.288103,23.720938],[121.287809,23.720935]],[[121.287026,23.720745],[121.287123,23.720837],[121.287025,23.720836],[121.287026,23.720745]],[[121.288301,23.720759],[121.288398,23.720851],[121.2883,23.72085],[121.288301,23.720759]]],[[[121.296914,23.722119],[121.296721,23.721936],[121.296521,23.722205],[121.296716,23.722297],[121.296914,23.722119]]],[[[121.292108,23.722156],[121.291816,23.721972],[121.291713,23.722332],[121.291418,23.722419],[121.29151,23.722872],[121.291609,23.722783],[121.291803,23.722965],[121.292099,23.722878],[121.292108,23.722156]]],[[[121.291006,23.72395],[121.291003,23.72413],[121.291198,23.724223],[121.291301,23.723863],[121.291203,23.723862],[121.291207,23.723591],[121.291109,23.72359],[121.291113,23.723229],[121.291211,23.72323],[121.291116,23.723048],[121.290917,23.723226],[121.290525,23.723222],[121.290424,23.723402],[121.290228,23.723399],[121.29003,23.723578],[121.290224,23.723761],[121.290219,23.724122],[121.290022,23.72421],[121.290117,23.724391],[121.290313,23.724394],[121.29071,23.724037],[121.290714,23.723766],[121.291006,23.72395]],[[121.290714,23.723766],[121.290617,23.723675],[121.29052,23.723583],[121.290716,23.723585],[121.290714,23.723766]]],[[[121.294513,23.725794],[121.295003,23.7258],[121.295203,23.725531],[121.295791,23.725538],[121.295985,23.72572],[121.295978,23.726262],[121.296075,23.726353],[121.296174,23.726264],[121.296565,23.726359],[121.296966,23.725731],[121.297064,23.725732],[121.297158,23.726004],[121.297355,23.725916],[121.297458,23.725556],[121.29736,23.725555],[121.297267,23.725193],[121.296384,23.725183],[121.296288,23.725001],[121.295895,23.725087],[121.295701,23.724905],[121.296,23.724547],[121.295611,23.724271],[121.295614,23.724091],[121.295812,23.723912],[121.296303,23.723918],[121.296403,23.723738],[121.296796,23.723652],[121.296903,23.723022],[121.296805,23.72302],[121.296808,23.72275],[121.296324,23.722293],[121.295931,23.722288],[121.295831,23.722468],[121.295441,23.722283],[121.29544,23.722373],[121.295048,23.722369],[121.294848,23.722638],[121.294358,23.722632],[121.294356,23.722723],[121.294162,23.72263],[121.294061,23.72281],[121.293767,23.722806],[121.293568,23.722985],[121.293566,23.723165],[121.293664,23.723166],[121.293661,23.723437],[121.293856,23.72353],[121.293853,23.72371],[121.293258,23.724246],[121.292965,23.724152],[121.292666,23.72451],[121.29266,23.724961],[121.292952,23.725145],[121.292949,23.725326],[121.292259,23.725589],[121.29245,23.726043],[121.293137,23.72596],[121.293136,23.72605],[121.29343,23.726053],[121.293329,23.726323],[121.293525,23.726325],[121.293527,23.726145],[121.29392,23.726149],[121.293922,23.725969],[121.29451,23.725975],[121.294513,23.725794]],[[121.293739,23.724973],[121.293638,23.725153],[121.293344,23.725149],[121.293345,23.725059],[121.293739,23.724973]],[[121.29315,23.724967],[121.293247,23.725058],[121.293149,23.725057],[121.29315,23.724967]],[[121.294428,23.7248],[121.294724,23.724623],[121.29482,23.724805],[121.294523,23.724982],[121.294428,23.7248]],[[121.294231,23.724798],[121.294328,23.724889],[121.29423,23.724888],[121.294231,23.724798]],[[121.294824,23.724443],[121.294826,23.724353],[121.295023,23.724265],[121.295021,23.724446],[121.294824,23.724443]],[[121.294938,23.723271],[121.295425,23.723547],[121.295422,23.723728],[121.295029,23.723814],[121.294932,23.723722],[121.294938,23.723271]]],[[[121.290999,23.724491],[121.290799,23.72476],[121.290889,23.725393],[121.290693,23.725391],[121.290592,23.725571],[121.290786,23.725753],[121.291275,23.725849],[121.291378,23.725489],[121.29197,23.725225],[121.292072,23.724955],[121.291973,23.724954],[121.29188,23.724592],[121.291978,23.724593],[121.292081,23.724233],[121.292278,23.724144],[121.292181,23.724053],[121.292285,23.723603],[121.29209,23.72351],[121.292094,23.723239],[121.2919,23.723057],[121.291605,23.723144],[121.291702,23.723235],[121.291695,23.723777],[121.291793,23.723778],[121.291788,23.724139],[121.291591,23.724227],[121.291587,23.724498],[121.291391,23.724496],[121.29139,23.724586],[121.290999,23.724491]],[[121.291587,23.724498],[121.291684,23.724589],[121.291586,23.724588],[121.291587,23.724498]]],[[[121.298647,23.702001],[121.298945,23.701643],[121.299141,23.701645],[121.299243,23.701375],[121.298753,23.70137],[121.298657,23.701188],[121.297971,23.701181],[121.298063,23.701633],[121.298161,23.701634],[121.298055,23.702265],[121.298347,23.702449],[121.298342,23.70281],[121.298244,23.702809],[121.29834,23.702991],[121.29883,23.702996],[121.299028,23.702818],[121.298834,23.702635],[121.298838,23.702364],[121.298644,23.702182],[121.298448,23.702179],[121.29845,23.701999],[121.298647,23.702001]],[[121.298448,23.702179],[121.298349,23.702269],[121.29835,23.702178],[121.298448,23.702179]]],[[[121.298888,23.706067],[121.299086,23.705889],[121.299093,23.705347],[121.299291,23.705259],[121.299197,23.704897],[121.299594,23.70454],[121.2996,23.704088],[121.299698,23.704089],[121.299605,23.703727],[121.29941,23.703635],[121.299412,23.703454],[121.299217,23.703362],[121.29922,23.703181],[121.299026,23.702998],[121.298532,23.703264],[121.298529,23.703535],[121.299111,23.703993],[121.299103,23.704625],[121.298904,23.704803],[121.298897,23.705345],[121.298111,23.705517],[121.298108,23.705697],[121.298786,23.706337],[121.298984,23.706249],[121.298986,23.706068],[121.298888,23.706067]]],[[[121.301211,23.70844],[121.301116,23.708169],[121.300729,23.707803],[121.300337,23.707799],[121.300236,23.707978],[121.300139,23.707887],[121.299746,23.707973],[121.300132,23.708429],[121.300428,23.708342],[121.300332,23.70816],[121.300919,23.708257],[121.301014,23.708529],[121.301211,23.70844]]],[[[121.306004,23.709396],[121.306201,23.709308],[121.306107,23.709036],[121.305908,23.709214],[121.305712,23.709212],[121.305713,23.709122],[121.305419,23.709119],[121.305128,23.708845],[121.304833,23.708932],[121.304831,23.709112],[121.305315,23.709569],[121.305805,23.709574],[121.305902,23.709666],[121.306004,23.709396]]],[[[121.312444,23.711904],[121.312448,23.711634],[121.312645,23.711545],[121.312648,23.711275],[121.312455,23.711092],[121.312553,23.711093],[121.312556,23.710822],[121.312755,23.710644],[121.313047,23.710827],[121.313055,23.710195],[121.312859,23.710193],[121.31266,23.710372],[121.311778,23.710362],[121.311677,23.710542],[121.312163,23.710908],[121.311765,23.711355],[121.311374,23.711261],[121.311181,23.710988],[121.310985,23.710986],[121.310885,23.711165],[121.310395,23.711069],[121.310197,23.711248],[121.310195,23.711428],[121.310488,23.711522],[121.310777,23.711886],[121.311269,23.711801],[121.311462,23.711984],[121.311661,23.711806],[121.311564,23.711714],[121.311664,23.711535],[121.311959,23.711538],[121.311957,23.711628],[121.31225,23.711722],[121.312249,23.711812],[121.311856,23.711898],[121.311952,23.71208],[121.312444,23.711904]]],[[[121.311946,23.712531],[121.311948,23.712351],[121.311752,23.712348],[121.311452,23.712797],[121.311745,23.71289],[121.311848,23.71253],[121.311946,23.712531]]],[[[121.31105,23.713515],[121.311348,23.713247],[121.311254,23.712975],[121.311452,23.712797],[121.311355,23.712705],[121.311256,23.712794],[121.310865,23.7127],[121.310768,23.712609],[121.310966,23.71243],[121.310872,23.712158],[121.310678,23.711975],[121.310384,23.711972],[121.310185,23.712151],[121.310183,23.712331],[121.310669,23.712698],[121.310664,23.713059],[121.310467,23.713147],[121.310464,23.713328],[121.310856,23.713422],[121.310854,23.713513],[121.31105,23.713515]]],[[[121.301731,23.713684],[121.301929,23.713595],[121.301931,23.713415],[121.302129,23.713236],[121.301936,23.713054],[121.301939,23.712783],[121.301646,23.712689],[121.301358,23.712235],[121.301162,23.712232],[121.300864,23.7125],[121.300862,23.712681],[121.30096,23.712682],[121.300957,23.712862],[121.30076,23.71295],[121.300851,23.713493],[121.300949,23.713494],[121.301043,23.713857],[121.301333,23.714131],[121.301728,23.713954],[121.301731,23.713684]]],[[[121.310162,23.713956],[121.310461,23.713599],[121.310368,23.713236],[121.310076,23.713053],[121.309982,23.71269],[121.30959,23.712686],[121.309292,23.712954],[121.30929,23.713134],[121.309485,23.713227],[121.309478,23.713768],[121.309672,23.713951],[121.309771,23.713862],[121.310162,23.713956]],[[121.309772,23.713772],[121.309775,23.713591],[121.309873,23.713592],[121.309968,23.713774],[121.309772,23.713772]]],[[[121.301429,23.714312],[121.301235,23.71413],[121.301135,23.714309],[121.30133,23.714401],[121.301429,23.714312]]],[[[121.302314,23.721727],[121.302123,23.721273],[121.30193,23.72109],[121.301933,23.720819],[121.302232,23.720461],[121.30224,23.719829],[121.302338,23.719831],[121.302145,23.719648],[121.301846,23.720006],[121.301739,23.720637],[121.301641,23.720636],[121.301539,23.720996],[121.301637,23.720997],[121.301729,23.721449],[121.302116,23.721815],[121.302314,23.721727]]],[[[121.298485,23.722046],[121.29819,23.722042],[121.29809,23.722222],[121.297896,23.722039],[121.297699,23.722127],[121.297793,23.722399],[121.297991,23.722311],[121.297889,23.722581],[121.298083,23.722764],[121.298381,23.722496],[121.298676,23.722409],[121.298485,23.722046]]],[[[121.299264,23.722415],[121.298775,23.72232],[121.298675,23.722499],[121.298869,23.722682],[121.299065,23.722684],[121.299264,23.722415]]],[[[121.30601,23.724115],[121.30621,23.723846],[121.306406,23.723848],[121.306706,23.7234],[121.307197,23.723315],[121.307203,23.722864],[121.307008,23.722771],[121.307017,23.722049],[121.30692,23.721958],[121.306626,23.721954],[121.30613,23.7224],[121.306132,23.72222],[121.306036,23.722129],[121.305838,23.722217],[121.30555,23.721762],[121.305351,23.72194],[121.304959,23.721936],[121.304962,23.721756],[121.304767,23.721663],[121.304664,23.722023],[121.304567,23.721932],[121.304077,23.721926],[121.303779,23.722194],[121.303682,23.722103],[121.302896,23.722184],[121.302897,23.722094],[121.302603,23.722091],[121.302313,23.721817],[121.302212,23.721996],[121.302406,23.722179],[121.302399,23.722721],[121.302496,23.722812],[121.301903,23.723167],[121.301798,23.723707],[121.3017,23.723706],[121.301705,23.723255],[121.301805,23.723166],[121.301513,23.722982],[121.301621,23.72217],[121.301525,23.722079],[121.301327,23.722167],[121.301223,23.722618],[121.301126,23.722526],[121.30093,23.722524],[121.300929,23.722614],[121.300538,23.72252],[121.300641,23.72216],[121.300739,23.722161],[121.300448,23.721887],[121.300459,23.721074],[121.300755,23.720897],[121.300668,23.720083],[121.300474,23.7199],[121.300375,23.71999],[121.30018,23.719897],[121.299981,23.720076],[121.300077,23.720257],[121.299881,23.720255],[121.299779,23.720525],[121.299483,23.720702],[121.299374,23.721514],[121.299276,23.721513],[121.299267,23.722235],[121.299364,23.722326],[121.299659,23.722239],[121.299658,23.722329],[121.299952,23.722333],[121.300146,23.722515],[121.300136,23.723238],[121.299741,23.723504],[121.299736,23.723865],[121.299931,23.723958],[121.299927,23.724229],[121.300122,23.724321],[121.300113,23.725043],[121.300308,23.725136],[121.300206,23.725406],[121.300304,23.725407],[121.300301,23.725678],[121.300399,23.725679],[121.300199,23.725947],[121.300393,23.72613],[121.300885,23.726045],[121.300886,23.725955],[121.30108,23.726138],[121.30157,23.726143],[121.301571,23.726053],[121.301962,23.726147],[121.302062,23.726058],[121.302065,23.725787],[121.30246,23.725611],[121.302365,23.725339],[121.302861,23.724893],[121.302865,23.724622],[121.302964,23.724533],[121.303257,23.724626],[121.303455,23.724448],[121.303262,23.724265],[121.303264,23.724085],[121.303069,23.723992],[121.303074,23.723631],[121.303368,23.723634],[121.303471,23.723274],[121.303664,23.723457],[121.303764,23.723368],[121.303861,23.723459],[121.304449,23.723466],[121.304446,23.723737],[121.304639,23.723919],[121.304935,23.723832],[121.305225,23.724106],[121.305424,23.723928],[121.305815,23.724022],[121.305814,23.724113],[121.30601,23.724115]],[[121.305424,23.723928],[121.305327,23.723836],[121.305425,23.723838],[121.305424,23.723928]],[[121.30484,23.72356],[121.304937,23.723652],[121.304839,23.723651],[121.30484,23.72356]],[[121.305237,23.723203],[121.30514,23.723112],[121.304256,23.723193],[121.304259,23.723012],[121.304064,23.72292],[121.304068,23.722558],[121.304267,23.72238],[121.304561,23.722383],[121.304661,23.722204],[121.30525,23.72221],[121.305637,23.722576],[121.305634,23.722847],[121.305829,23.722939],[121.305822,23.723481],[121.305623,23.723659],[121.305427,23.723657],[121.305234,23.723474],[121.305237,23.723203]],[[121.301311,23.723431],[121.301408,23.723523],[121.30131,23.723521],[121.301311,23.723431]],[[121.300726,23.723154],[121.300823,23.723245],[121.300725,23.723244],[121.300726,23.723154]],[[121.302983,23.723088],[121.30308,23.72318],[121.302982,23.723179],[121.302983,23.723088]],[[121.306611,23.723128],[121.306708,23.723219],[121.30661,23.723218],[121.306611,23.723128]],[[121.302788,23.722996],[121.30279,23.722815],[121.302693,23.722724],[121.302889,23.722726],[121.302886,23.722997],[121.302788,23.722996]]],[[[121.299612,23.725851],[121.299321,23.725577],[121.299228,23.725214],[121.298934,23.725211],[121.298838,23.725029],[121.298544,23.725026],[121.298448,23.724845],[121.298153,23.724932],[121.298246,23.725294],[121.298639,23.725298],[121.298636,23.725479],[121.298734,23.72548],[121.298631,23.72584],[121.298825,23.726023],[121.299316,23.726028],[121.299317,23.725938],[121.299612,23.725851]]],[[[121.30499,23.727174],[121.30509,23.726994],[121.304797,23.726901],[121.304702,23.726629],[121.304604,23.726628],[121.304712,23.725907],[121.304517,23.725814],[121.304415,23.726084],[121.304317,23.726083],[121.30441,23.726445],[121.304212,23.726624],[121.304504,23.726807],[121.304502,23.726988],[121.304403,23.726987],[121.304499,23.727168],[121.304695,23.727171],[121.304696,23.72708],[121.30499,23.727174]]],[[[121.303025,23.727423],[121.302541,23.726876],[121.302451,23.726243],[121.302256,23.726151],[121.302051,23.726871],[121.302344,23.726964],[121.302729,23.72751],[121.302925,23.727512],[121.303025,23.727423]]],[[[121.305962,23.727817],[121.305573,23.727541],[121.305576,23.727361],[121.305382,23.727178],[121.304987,23.727354],[121.305081,23.727717],[121.305468,23.728082],[121.305764,23.727995],[121.305957,23.728178],[121.306057,23.728089],[121.305962,23.727817]]],[[[121.303113,23.728147],[121.303213,23.728057],[121.303118,23.727785],[121.30253,23.727779],[121.30243,23.727868],[121.302237,23.727685],[121.302436,23.727417],[121.302242,23.727234],[121.301947,23.727321],[121.302044,23.727412],[121.30204,23.727683],[121.301843,23.727771],[121.301939,23.727953],[121.302233,23.727956],[121.302232,23.728047],[121.302526,23.72805],[121.302525,23.72814],[121.302721,23.728142],[121.302722,23.728052],[121.303113,23.728147]]]]}},{"type":"Feature","properties":{"kind":"bare_dam","month":"2022-01","area_ha":14.59},"geometry":{"type":"MultiPolygon","coordinates":[[[[121.301348,23.690292],[121.301448,23.690112],[121.301254,23.68993],[121.301155,23.690019],[121.300959,23.690017],[121.30096,23.689926],[121.300567,23.690012],[121.300856,23.690377],[121.301348,23.690292]]],[[[121.299373,23.691354],[121.299178,23.691261],[121.299183,23.6909],[121.299479,23.690723],[121.299481,23.690542],[121.299288,23.690359],[121.299484,23.690362],[121.299483,23.690452],[121.29968,23.690364],[121.299682,23.690183],[121.29939,23.689999],[121.299492,23.68973],[121.298708,23.689721],[121.298607,23.6899],[121.298215,23.689896],[121.298213,23.690077],[121.297919,23.690074],[121.297621,23.690341],[121.297619,23.690522],[121.297913,23.690525],[121.297912,23.690615],[121.297616,23.690702],[121.297808,23.691066],[121.298498,23.690802],[121.298496,23.690893],[121.298889,23.690897],[121.298885,23.691168],[121.298787,23.691167],[121.298882,23.691439],[121.299273,23.691533],[121.299373,23.691354]],[[121.29909,23.690448],[121.298702,23.690172],[121.299192,23.690178],[121.29909,23.690448]]],[[[121.300255,23.691363],[121.300456,23.691004],[121.300262,23.690822],[121.300458,23.690824],[121.300457,23.690914],[121.300752,23.690827],[121.300659,23.690465],[121.300365,23.690462],[121.300066,23.69082],[121.29987,23.690817],[121.299871,23.690727],[121.299674,23.690815],[121.299767,23.691177],[121.299961,23.69136],[121.300255,23.691363]]],[[[121.300133,23.693258],[121.30033,23.69317],[121.300333,23.692899],[121.300235,23.692898],[121.300336,23.692719],[121.300239,23.692627],[121.300042,23.692716],[121.299558,23.692168],[121.299263,23.692255],[121.298973,23.691981],[121.29848,23.692157],[121.29829,23.691703],[121.297994,23.69179],[121.298188,23.691973],[121.298282,23.692335],[121.298381,23.692246],[121.298674,23.692339],[121.298571,23.692699],[121.298669,23.6927],[121.298666,23.692971],[121.29886,23.693064],[121.298954,23.693426],[121.299445,23.693341],[121.299735,23.693705],[121.299834,23.693616],[121.300225,23.693711],[121.300321,23.693892],[121.300517,23.693895],[121.300905,23.69417],[121.301005,23.694081],[121.301007,23.6939],[121.300909,23.693899],[121.30101,23.693629],[121.300717,23.693536],[121.300622,23.693354],[121.300324,23.693622],[121.299743,23.693073],[121.300037,23.693077],[121.300133,23.693258]],[[121.299744,23.692983],[121.299644,23.693163],[121.299546,23.693162],[121.299548,23.692981],[121.299744,23.692983]],[[121.300812,23.693808],[121.300715,23.693716],[121.300813,23.693717],[121.300812,23.693808]]],[[[121.298444,23.694955],[121.298056,23.69459],[121.297859,23.694678],[121.297952,23.69504],[121.298343,23.695135],[121.298444,23.694955]]],[[[121.297834,23.696574],[121.298221,23.69703],[121.298417,23.697032],[121.298418,23.696942],[121.298809,23.697036],[121.299009,23.696768],[121.298912,23.696676],[121.298714,23.696764],[121.298718,23.696494],[121.298524,23.696311],[121.298721,23.696223],[121.299011,23.696587],[121.299306,23.6965],[121.29931,23.696229],[121.298919,23.696135],[121.299023,23.695684],[121.29873,23.695591],[121.298731,23.6955],[121.298534,23.695589],[121.29834,23.695406],[121.29804,23.695854],[121.297845,23.695762],[121.297745,23.695941],[121.297939,23.696033],[121.29784,23.696123],[121.297834,23.696574]],[[121.298523,23.696401],[121.298424,23.69649],[121.298425,23.6964],[121.298523,23.696401]],[[121.297939,23.696033],[121.298039,23.695944],[121.298037,23.696035],[121.297939,23.696033]]],[[[121.301255,23.697424],[121.300764,23.697509],[121.300861,23.697601],[121.300854,23.698142],[121.301049,23.698235],[121.301445,23.697968],[121.301447,23.697788],[121.301645,23.697609],[121.301548,23.697518],[121.301351,23.697606],[121.301255,23.697424]],[[121.301351,23.697606],[121.301252,23.697695],[121.301253,23.697605],[121.301351,23.697606]]],[[[121.299157,23.700472],[121.298868,23.700017],[121.298877,23.699385],[121.298975,23.699386],[121.298978,23.699115],[121.299076,23.699116],[121.299081,23.698755],[121.299278,23.698667],[121.29938,23.698397],[121.299576,23.698399],[121.299774,23.698221],[121.300263,23.698317],[121.300364,23.698137],[121.299974,23.697952],[121.299873,23.698132],[121.299482,23.698037],[121.299382,23.698217],[121.298695,23.698299],[121.298502,23.698026],[121.2988,23.697759],[121.298508,23.697575],[121.298406,23.697845],[121.298209,23.697933],[121.298207,23.698113],[121.298498,23.698297],[121.298496,23.698478],[121.298002,23.698743],[121.298291,23.699198],[121.297995,23.699285],[121.297994,23.699375],[121.297799,23.699283],[121.2977,23.699372],[121.297796,23.699554],[121.297402,23.69964],[121.297302,23.699819],[121.297791,23.699915],[121.297882,23.700458],[121.299157,23.700472]]],[[[121.31138,23.687873],[121.311878,23.687337],[121.311781,23.687245],[121.311584,23.687334],[121.31139,23.687151],[121.311186,23.687781],[121.31138,23.687873]]],[[[121.302606,23.69157],[121.302313,23.691476],[121.302217,23.691295],[121.30202,23.691383],[121.301924,23.691201],[121.301629,23.691288],[121.301534,23.691016],[121.301435,23.691105],[121.30124,23.691013],[121.300845,23.69128],[121.30094,23.691461],[121.301529,23.691468],[121.301527,23.691558],[121.302018,23.691563],[121.302017,23.691654],[121.302214,23.691565],[121.302408,23.691748],[121.302606,23.69157]]],[[[121.30642,23.692334],[121.306714,23.692337],[121.306716,23.692247],[121.30691,23.692339],[121.307209,23.691981],[121.306818,23.691887],[121.306817,23.691977],[121.306425,23.691973],[121.306325,23.692152],[121.306029,23.692239],[121.306222,23.692512],[121.30642,23.692334]]],[[[121.305113,23.694848],[121.305313,23.694579],[121.305216,23.694488],[121.305019,23.694576],[121.304924,23.694304],[121.30463,23.694301],[121.304629,23.694391],[121.304333,23.694478],[121.304428,23.69475],[121.304626,23.694572],[121.304822,23.694574],[121.305113,23.694848]]],[[[121.303827,23.695737],[121.303925,23.695738],[121.303927,23.695557],[121.304024,23.695649],[121.304515,23.695564],[121.304715,23.695295],[121.304033,23.694926],[121.303736,23.695194],[121.30373,23.695646],[121.303532,23.695824],[121.303626,23.696096],[121.303823,23.696008],[121.303827,23.695737]]],[[[121.303332,23.696093],[121.303432,23.695913],[121.303141,23.695729],[121.303039,23.695999],[121.303136,23.696091],[121.303332,23.696093]]],[[[121.302841,23.696178],[121.302644,23.696175],[121.302248,23.696532],[121.302145,23.696892],[121.301749,23.697159],[121.301844,23.697431],[121.302434,23.697257],[121.302634,23.696988],[121.30283,23.69699],[121.303028,23.696812],[121.302835,23.696629],[121.302837,23.696448],[121.303032,23.696541],[121.30323,23.696362],[121.303233,23.696182],[121.303135,23.696181],[121.303039,23.695999],[121.302841,23.696178]]]]}},{"type":"Feature","properties":{"kind":"water","month":"2022-01","area_ha":0.95},"geometry":{"type":"MultiPolygon","coordinates":[[[[121.280353,23.691144],[121.280453,23.690964],[121.279967,23.690688],[121.28006,23.69105],[121.280157,23.691141],[121.280353,23.691144]]],[[[121.283487,23.691449],[121.283392,23.691177],[121.283294,23.691176],[121.283201,23.690814],[121.283006,23.690722],[121.283008,23.690541],[121.282616,23.690537],[121.282613,23.690807],[121.282906,23.690901],[121.282903,23.691082],[121.283099,23.691084],[121.283293,23.691266],[121.283291,23.691447],[121.283487,23.691449]]],[[[121.27937,23.691313],[121.27957,23.691045],[121.279276,23.691041],[121.279175,23.691221],[121.278881,23.691217],[121.278977,23.691399],[121.27937,23.691313]]],[[[121.284162,23.692269],[121.284263,23.69209],[121.284069,23.691907],[121.283873,23.691905],[121.283869,23.692176],[121.284065,23.692178],[121.284063,23.692359],[121.284259,23.692361],[121.284162,23.692269]]],[[[121.284647,23.692726],[121.284551,23.692545],[121.284259,23.692361],[121.284254,23.692722],[121.284647,23.692726]]],[[[121.284934,23.693271],[121.284739,23.693179],[121.28484,23.692909],[121.284547,23.692815],[121.284544,23.693086],[121.284642,23.693087],[121.284735,23.69345],[121.284931,23.693452],[121.284934,23.693271]]]]}}]}