{"type":"FeatureCollection","features":[{"type":"Feature","properties":{"kind":"bare_slide","month":"2022-07","area_ha":100.25},"geometry":{"type":"MultiPolygon","coordinates":[[[[121.298077,23.708135],[121.297979,23.708134],[121.298081,23.707774],[121.297791,23.7075],[121.2973,23.707494],[121.297003,23.707762],[121.297097,23.708034],[121.297491,23.707948],[121.297492,23.707858],[121.297786,23.707861],[121.297784,23.708042],[121.297882,23.708043],[121.29778,23.708312],[121.297877,23.708404],[121.298074,23.708316],[121.298077,23.708135]]],[[[121.297239,23.712189],[121.29773,23.712195],[121.298027,23.711927],[121.29803,23.711747],[121.298326,23.711569],[121.298441,23.710306],[121.298149,23.710122],[121.298151,23.709942],[121.297859,23.709758],[121.297765,23.709486],[121.297666,23.709575],[121.297471,23.709483],[121.297477,23.709031],[121.297575,23.709033],[121.297676,23.708763],[121.297972,23.708676],[121.297876,23.708494],[121.297386,23.708489],[121.297182,23.709028],[121.29669,23.709203],[121.297173,23.709751],[121.297369,23.709753],[121.297268,23.710022],[121.297849,23.710571],[121.297738,23.711563],[121.297639,23.711652],[121.297148,23.711647],[121.297147,23.711737],[121.29705,23.711645],[121.296559,23.71173],[121.296749,23.712184],[121.297043,23.712187],[121.297045,23.712097],[121.297241,23.712099],[121.297239,23.712189]]],[[[121.292439,23.711775],[121.29283,23.71187],[121.292931,23.71169],[121.293225,23.711694],[121.293325,23.711514],[121.293522,23.711516],[121.293721,23.711248],[121.293428,23.711154],[121.293031,23.711511],[121.292443,23.711504],[121.292342,23.711684],[121.292047,23.711771],[121.292044,23.712042],[121.292337,23.712135],[121.292439,23.711775]]],[[[121.283962,23.715113],[121.284259,23.714845],[121.284064,23.714753],[121.283971,23.71439],[121.284168,23.714302],[121.284171,23.714122],[121.284466,23.714035],[121.284372,23.713763],[121.283879,23.713938],[121.283779,23.714117],[121.283582,23.714115],[121.282987,23.71465],[121.283079,23.715103],[121.283275,23.715105],[121.283376,23.714926],[121.283667,23.71511],[121.283665,23.71529],[121.283468,23.715378],[121.283563,23.71556],[121.283858,23.715563],[121.283962,23.715113]]],[[[121.285047,23.722078],[121.285244,23.72208],[121.285241,23.722261],[121.285044,23.722349],[121.285136,23.722801],[121.285332,23.722803],[121.285331,23.722894],[121.285528,23.722806],[121.285623,23.723077],[121.285918,23.72299],[121.285917,23.723081],[121.286211,23.723084],[121.28621,23.723174],[121.286503,23.723268],[121.286702,23.723089],[121.286704,23.722909],[121.287,23.722732],[121.287003,23.722551],[121.2871,23.722642],[121.287395,23.722555],[121.287503,23.721834],[121.287896,23.721748],[121.288089,23.722021],[121.288287,23.721843],[121.28858,23.721936],[121.288682,23.721667],[121.288979,23.721399],[121.289174,23.721491],[121.289268,23.721854],[121.289562,23.721857],[121.28976,23.721679],[121.290055,23.721682],[121.29015,23.721863],[121.290346,23.721866],[121.290546,23.721597],[121.290742,23.721599],[121.290844,23.721329],[121.290454,23.721144],[121.290652,23.720966],[121.290564,23.720243],[121.290662,23.720244],[121.290765,23.719884],[121.291061,23.719706],[121.291067,23.719255],[121.291264,23.719167],[121.291169,23.718985],[121.291463,23.718988],[121.291464,23.718898],[121.291659,23.718991],[121.291759,23.718811],[121.291953,23.718994],[121.29215,23.718906],[121.292153,23.718725],[121.29186,23.718632],[121.291864,23.71827],[121.292062,23.718182],[121.292066,23.717821],[121.292361,23.717824],[121.292359,23.717915],[121.292655,23.717828],[121.292758,23.717468],[121.292954,23.71747],[121.293152,23.717291],[121.293156,23.71702],[121.292961,23.716928],[121.29306,23.716839],[121.292964,23.716657],[121.293163,23.716479],[121.293556,23.716393],[121.293756,23.716124],[121.293561,23.716032],[121.293165,23.716298],[121.292775,23.716113],[121.292477,23.716381],[121.292475,23.716561],[121.292179,23.716739],[121.292176,23.716919],[121.291978,23.717098],[121.291974,23.717369],[121.291483,23.717454],[121.291283,23.717722],[121.291087,23.71772],[121.290889,23.717898],[121.290496,23.717894],[121.290393,23.718254],[121.289903,23.718249],[121.289804,23.718338],[121.289915,23.717346],[121.290112,23.717258],[121.290117,23.716897],[121.290216,23.716807],[121.290411,23.7169],[121.29061,23.716721],[121.290612,23.716541],[121.291105,23.716366],[121.291206,23.716096],[121.291602,23.715829],[121.291705,23.715469],[121.291999,23.715473],[121.292099,23.715293],[121.292197,23.715294],[121.292292,23.715566],[121.292488,23.715568],[121.292687,23.71539],[121.292981,23.715393],[121.293076,23.715575],[121.293863,23.715403],[121.293759,23.715853],[121.293661,23.715852],[121.293757,23.716034],[121.293955,23.715855],[121.294152,23.715858],[121.294252,23.715678],[121.294448,23.71568],[121.294449,23.71559],[121.294841,23.715594],[121.29484,23.715685],[121.295231,23.715779],[121.295228,23.71605],[121.295423,23.716142],[121.295622,23.715874],[121.295331,23.71569],[121.295333,23.715509],[121.295139,23.715327],[121.294845,23.715323],[121.294749,23.715142],[121.294454,23.715229],[121.294453,23.715319],[121.294159,23.715316],[121.294063,23.715134],[121.294161,23.715135],[121.294163,23.714955],[121.294359,23.714957],[121.294756,23.7146],[121.294952,23.714602],[121.295352,23.714065],[121.295646,23.714068],[121.295647,23.713978],[121.295942,23.713891],[121.295945,23.71371],[121.296043,23.713711],[121.295948,23.713439],[121.296346,23.712992],[121.296255,23.712449],[121.29606,23.712357],[121.295862,23.712535],[121.295857,23.712897],[121.295465,23.712892],[121.295265,23.713161],[121.294677,23.713154],[121.294574,23.713514],[121.294378,23.713512],[121.294377,23.713603],[121.294181,23.7136],[121.293785,23.713867],[121.29359,23.713775],[121.293192,23.714222],[121.292703,23.714126],[121.292704,23.714036],[121.292605,23.714125],[121.292312,23.714031],[121.292112,23.7143],[121.292405,23.714394],[121.292403,23.714574],[121.292207,23.714572],[121.292206,23.714662],[121.292011,23.71457],[121.291917,23.714208],[121.291133,23.714199],[121.291036,23.714108],[121.290936,23.714287],[121.290444,23.714372],[121.290344,23.714551],[121.290051,23.714458],[121.289851,23.714727],[121.289361,23.714721],[121.288964,23.715078],[121.28906,23.71526],[121.288863,23.715257],[121.288769,23.714985],[121.288475,23.714982],[121.288375,23.715071],[121.288569,23.715254],[121.288469,23.715434],[121.28798,23.715338],[121.287982,23.715157],[121.28808,23.715158],[121.287984,23.714977],[121.287885,23.715066],[121.287003,23.715056],[121.286804,23.715235],[121.286897,23.715597],[121.2867,23.715685],[121.286698,23.715865],[121.287087,23.716141],[121.286985,23.71641],[121.287376,23.716505],[121.287569,23.716778],[121.28737,23.716957],[121.287076,23.716953],[121.286778,23.717221],[121.286485,23.717127],[121.286981,23.716681],[121.286984,23.716501],[121.28679,23.716318],[121.286493,23.716495],[121.286491,23.716676],[121.286293,23.716854],[121.286195,23.716853],[121.2861,23.716581],[121.285703,23.716938],[121.285409,23.716935],[121.28541,23.716845],[121.285019,23.71675],[121.284926,23.716388],[121.285122,23.71639],[121.285121,23.71648],[121.285317,23.716482],[121.285417,23.716303],[121.285612,23.716395],[121.285711,23.716306],[121.285618,23.715944],[121.285814,23.715946],[121.286013,23.715768],[121.285917,23.715586],[121.285327,23.71567],[121.284633,23.716294],[121.284437,23.716292],[121.284335,23.716562],[121.284237,23.716561],[121.284331,23.716833],[121.283839,23.717008],[121.283243,23.717543],[121.283334,23.718086],[121.283136,23.718264],[121.283331,23.718357],[121.283423,23.718809],[121.283226,23.718897],[121.283123,23.719257],[121.283318,23.71935],[121.283516,23.719171],[121.283904,23.719537],[121.284105,23.719178],[121.284498,23.719092],[121.284305,23.718819],[121.284109,23.718817],[121.284112,23.718636],[121.284407,23.718549],[121.284313,23.718277],[121.284511,23.718099],[121.284902,23.718193],[121.285001,23.718104],[121.284907,23.717832],[121.285105,23.717654],[121.285397,23.717838],[121.285199,23.718016],[121.285288,23.718649],[121.284993,23.718736],[121.284891,23.719006],[121.284694,23.719094],[121.28479,23.719276],[121.285085,23.719189],[121.285375,23.719553],[121.285272,23.719913],[121.285467,23.720006],[121.285464,23.720186],[121.285168,23.720363],[121.28536,23.720637],[121.285064,23.720814],[121.28496,23.721264],[121.284465,23.72162],[121.284461,23.721891],[121.284063,23.722338],[121.284355,23.722522],[121.284458,23.722162],[121.284656,23.721983],[121.28485,23.722166],[121.285046,23.722168],[121.285047,23.722078]],[[121.288287,23.721843],[121.28819,23.721751],[121.288288,23.721753],[121.288287,23.721843]],[[121.289706,23.718337],[121.290288,23.718795],[121.290286,23.718975],[121.289894,23.718971],[121.289791,23.719331],[121.289203,23.719325],[121.289009,23.719142],[121.289012,23.718871],[121.289408,23.718604],[121.289411,23.718424],[121.289705,23.718427],[121.289706,23.718337]],[[121.286491,23.716676],[121.286588,23.716767],[121.28649,23.716766],[121.286491,23.716676]],[[121.285417,23.716303],[121.28532,23.716211],[121.285418,23.716213],[121.285417,23.716303]],[[121.284754,23.721984],[121.284854,23.721895],[121.284852,23.721985],[121.284754,23.721984]],[[121.285642,23.721633],[121.285444,23.721721],[121.285442,23.721902],[121.285246,23.721899],[121.28535,23.721449],[121.285644,23.721452],[121.285642,23.721633]],[[121.288684,23.721486],[121.288488,23.721484],[121.28849,23.721303],[121.288784,23.721307],[121.288684,23.721486]],[[121.285847,23.720913],[121.286042,23.721005],[121.285941,23.721275],[121.285746,23.721183],[121.285847,23.720913]],[[121.289181,23.72095],[121.28889,23.720766],[121.28899,23.720586],[121.288796,23.720404],[121.287814,23.720483],[121.287621,23.7203],[121.28752,23.72048],[121.287128,23.720475],[121.287525,23.720119],[121.287434,23.719576],[121.287729,23.719489],[121.287728,23.719579],[121.288021,23.719673],[121.288019,23.719853],[121.287723,23.71994],[121.287818,23.720212],[121.288311,23.720037],[121.288312,23.719947],[121.288507,23.720039],[121.288607,23.71986],[121.288315,23.719676],[121.28832,23.719315],[121.288517,23.719227],[121.288611,23.719589],[121.288804,23.719772],[121.289001,23.719774],[121.288899,23.720044],[121.28929,23.720138],[121.289288,23.720319],[121.289089,23.720497],[121.289284,23.72059],[121.289279,23.720951],[121.289474,23.721043],[121.289373,23.721313],[121.289177,23.721311],[121.289181,23.72095]],[[121.290164,23.72078],[121.290262,23.720781],[121.29026,23.720962],[121.290162,23.720961],[121.290164,23.72078]],[[121.286543,23.720198],[121.286738,23.720291],[121.286735,23.720561],[121.28644,23.720558],[121.286446,23.720107],[121.286349,23.720015],[121.286546,23.720018],[121.286543,23.720198]],[[121.287043,23.719481],[121.28675,23.719388],[121.286752,23.719207],[121.286948,23.719209],[121.287044,23.719391],[121.287241,23.719303],[121.287238,23.719574],[121.286842,23.71984],[121.286844,23.71966],[121.287043,23.719481]],[[121.286554,23.719386],[121.286653,23.719296],[121.286652,23.719387],[121.286554,23.719386]],[[121.286277,23.718028],[121.286379,23.717758],[121.286477,23.717759],[121.286283,23.717577],[121.286286,23.717396],[121.286384,23.717397],[121.286382,23.717487],[121.286873,23.717493],[121.286965,23.717945],[121.286768,23.718033],[121.286765,23.718214],[121.286863,23.718215],[121.286958,23.718487],[121.287351,23.718401],[121.287157,23.718218],[121.287258,23.718039],[121.287063,23.717946],[121.287165,23.717677],[121.287459,23.71768],[121.287357,23.71795],[121.287649,23.718133],[121.28755,23.718223],[121.287645,23.718404],[121.287844,23.718226],[121.288237,23.71814],[121.288338,23.717961],[121.288631,23.718054],[121.288725,23.718326],[121.28843,23.718413],[121.288329,23.718593],[121.288036,23.718499],[121.288035,23.718589],[121.287544,23.718674],[121.287443,23.718854],[121.286954,23.718758],[121.286953,23.718848],[121.286658,23.718935],[121.286176,23.718298],[121.285881,23.718295],[121.285786,23.718113],[121.28559,23.718111],[121.285789,23.717842],[121.286277,23.718028]],[[121.285789,23.717842],[121.285692,23.717751],[121.285791,23.717752],[121.285789,23.717842]],[[121.28343,23.718267],[121.283529,23.718178],[121.283528,23.718268],[121.28343,23.718267]],[[121.283927,23.717731],[121.284125,23.717643],[121.284127,23.717462],[121.284419,23.717646],[121.284416,23.717827],[121.284218,23.718005],[121.283927,23.717731]],[[121.289519,23.717612],[121.289617,23.717613],[121.289614,23.717884],[121.289516,23.717883],[121.289519,23.717612]],[[121.283634,23.717638],[121.283734,23.717548],[121.283732,23.717639],[121.283634,23.717638]],[[121.285994,23.717212],[121.2858,23.717029],[121.285996,23.717032],[121.28619,23.717214],[121.28599,23.717483],[121.285794,23.717481],[121.285994,23.717212]],[[121.289128,23.717518],[121.289227,23.717429],[121.289226,23.717519],[121.289128,23.717518]],[[121.289618,23.717523],[121.28952,23.717522],[121.289524,23.717251],[121.28972,23.717253],[121.289618,23.717523]],[[121.287368,23.717137],[121.287566,23.716959],[121.287859,23.717052],[121.287857,23.717233],[121.287658,23.717411],[121.287368,23.717137]],[[121.289331,23.716978],[121.289232,23.717067],[121.289233,23.716977],[121.289331,23.716978]],[[121.289331,23.716978],[121.289431,23.716889],[121.289429,23.716979],[121.289331,23.716978]],[[121.292469,23.717013],[121.292768,23.716655],[121.292766,23.716836],[121.292668,23.716834],[121.292665,23.717015],[121.292469,23.717013]],[[121.290217,23.716717],[121.290317,23.716628],[121.290315,23.716718],[121.290217,23.716717]],[[121.29032,23.716357],[121.289928,23.716353],[121.289929,23.716262],[121.290323,23.716177],[121.29032,23.716357]],[[121.287183,23.716232],[121.287283,23.716143],[121.287281,23.716233],[121.287183,23.716232]],[[121.289244,23.716165],[121.289048,23.716162],[121.289151,23.715802],[121.289249,23.715803],[121.289244,23.716165]],[[121.289539,23.716078],[121.289638,23.715988],[121.289637,23.716079],[121.289539,23.716078]],[[121.290137,23.715362],[121.290436,23.715004],[121.290632,23.715006],[121.290631,23.715096],[121.291024,23.71501],[121.29112,23.715192],[121.291316,23.715194],[121.29131,23.715646],[121.291016,23.715642],[121.290717,23.716],[121.290422,23.716087],[121.290424,23.715907],[121.290522,23.715908],[121.290428,23.715636],[121.290527,23.715547],[121.29043,23.715455],[121.289939,23.71554],[121.289941,23.71536],[121.290137,23.715362]],[[121.289936,23.715721],[121.289838,23.71572],[121.28984,23.715539],[121.289939,23.71554],[121.289936,23.715721]],[[121.289447,23.715625],[121.289546,23.715536],[121.289545,23.715626],[121.289447,23.715625]],[[121.294372,23.713964],[121.29447,23.713965],[121.294468,23.714145],[121.29437,23.714144],[121.294372,23.713964]]],[[[121.284895,23.718735],[121.2847,23.718643],[121.2846,23.718822],[121.284795,23.718915],[121.284895,23.718735]]],[[[121.282712,23.720697],[121.283506,23.719984],[121.283508,23.719803],[121.283705,23.719715],[121.28361,23.719534],[121.283216,23.719619],[121.283022,23.719437],[121.282427,23.719972],[121.282133,23.719969],[121.281737,23.720235],[121.281733,23.720506],[121.281928,23.720598],[121.282023,23.72087],[121.282219,23.720873],[121.282417,23.720694],[121.282712,23.720697]],[[121.283016,23.719888],[121.282818,23.720067],[121.28282,23.719886],[121.283016,23.719888]]],[[[121.293672,23.722534],[121.293578,23.722262],[121.29348,23.722261],[121.293389,23.721719],[121.292806,23.721261],[121.292911,23.72072],[121.292618,23.720627],[121.29242,23.720805],[121.292315,23.721346],[121.291921,23.721431],[121.29182,23.721701],[121.292499,23.722251],[121.292387,23.723333],[121.292774,23.723698],[121.292771,23.723969],[121.293063,23.724153],[121.29306,23.724334],[121.292665,23.7246],[121.29266,23.724961],[121.292757,23.725053],[121.293739,23.724973],[121.293738,23.725064],[121.293442,23.725151],[121.293441,23.725241],[121.293148,23.725147],[121.292948,23.725416],[121.292261,23.725499],[121.29216,23.725678],[121.292258,23.725679],[121.292255,23.72595],[121.292548,23.726044],[121.292547,23.726134],[121.292841,23.726137],[121.293139,23.72587],[121.293433,23.725873],[121.293333,23.725962],[121.293429,23.726144],[121.293231,23.726322],[121.293525,23.726325],[121.293527,23.726145],[121.29392,23.726149],[121.293922,23.725969],[121.294413,23.725884],[121.294422,23.725252],[121.29452,23.725253],[121.294429,23.72471],[121.294725,23.724533],[121.294628,23.724441],[121.294729,23.724262],[121.294925,23.724264],[121.294924,23.724354],[121.295121,23.724266],[121.295123,23.724086],[121.294928,23.723993],[121.294933,23.723632],[121.294835,23.723631],[121.294841,23.723179],[121.295137,23.723002],[121.295145,23.72246],[121.295343,23.722282],[121.295539,23.722284],[121.295936,23.721927],[121.295938,23.721747],[121.296332,23.721661],[121.296432,23.721481],[121.296529,23.721573],[121.296725,23.721575],[121.296726,23.721484],[121.297019,23.721578],[121.297021,23.721488],[121.297316,23.721401],[121.29732,23.72113],[121.297221,23.721129],[121.297329,23.720408],[121.297134,23.720315],[121.297244,23.719413],[121.297049,23.719321],[121.296954,23.719049],[121.296757,23.719137],[121.296854,23.719228],[121.296848,23.71968],[121.296352,23.720126],[121.296347,23.720487],[121.296542,23.720579],[121.296539,23.72085],[121.295948,23.721024],[121.295647,23.721563],[121.29545,23.721561],[121.295252,23.721739],[121.294958,23.721736],[121.294957,23.721826],[121.294564,23.721822],[121.294465,23.721911],[121.294659,23.722094],[121.294558,23.722273],[121.294365,23.722091],[121.294169,23.722088],[121.294069,23.722178],[121.294163,23.72254],[121.293965,23.722628],[121.293963,23.722809],[121.293672,23.722534]],[[121.294657,23.722274],[121.294751,23.722546],[121.294554,23.722634],[121.294558,23.722273],[121.294657,23.722274]],[[121.294554,23.722634],[121.294455,23.722724],[121.294456,23.722633],[121.294554,23.722634]],[[121.294061,23.72281],[121.294059,23.72299],[121.293961,23.722989],[121.293963,23.722809],[121.294061,23.72281]],[[121.293167,23.723703],[121.293266,23.723614],[121.293265,23.723704],[121.293167,23.723703]],[[121.293952,23.723621],[121.294052,23.723532],[121.294051,23.723622],[121.293952,23.723621]],[[121.29693,23.720945],[121.297126,23.720947],[121.297024,23.721217],[121.296829,23.721124],[121.29693,23.720945]]],[[[121.297972,23.723756],[121.297874,23.723755],[121.29788,23.723303],[121.297978,23.723304],[121.297884,23.722942],[121.297591,23.722849],[121.297492,23.722938],[121.297587,23.72321],[121.297091,23.723656],[121.297187,23.723747],[121.297678,23.723752],[121.297773,23.723934],[121.297972,23.723756]]],[[[121.290512,23.724215],[121.29071,23.724037],[121.29052,23.723583],[121.290716,23.723585],[121.291005,23.72404],[121.291202,23.723952],[121.291105,23.723861],[121.291207,23.723591],[121.291012,23.723498],[121.291113,23.723229],[121.291211,23.72323],[121.291116,23.723048],[121.290917,23.723226],[121.290526,23.723132],[121.290426,23.723311],[121.290033,23.723307],[121.289934,23.723396],[121.29003,23.723578],[121.289635,23.723754],[121.289731,23.723936],[121.290224,23.723761],[121.290219,23.724122],[121.290022,23.72421],[121.290117,23.724391],[121.290316,23.724213],[121.290512,23.724215]]],[[[121.291379,23.725399],[121.291478,23.725309],[121.291773,23.725313],[121.29207,23.725045],[121.291973,23.724954],[121.291982,23.724322],[121.29208,23.724323],[121.292183,23.723963],[121.292084,23.723962],[121.29209,23.72351],[121.291801,23.723146],[121.291604,23.723234],[121.2917,23.723325],[121.291695,23.723777],[121.291793,23.723778],[121.291686,23.724409],[121.29149,23.724407],[121.291489,23.724497],[121.291,23.724401],[121.290898,23.724671],[121.290602,23.724848],[121.290891,23.725213],[121.290889,23.725393],[121.290593,23.72548],[121.290688,23.725752],[121.291275,23.725849],[121.291379,23.725399]]],[[[121.296761,23.726361],[121.296961,23.726092],[121.296863,23.726091],[121.296867,23.72573],[121.296769,23.725729],[121.296676,23.725367],[121.296971,23.72528],[121.297171,23.725011],[121.297269,23.725012],[121.297168,23.725282],[121.297264,23.725373],[121.297462,23.725285],[121.297367,23.725013],[121.297863,23.724567],[121.29787,23.724025],[121.297675,23.723933],[121.297375,23.724381],[121.29718,23.724289],[121.29708,23.724468],[121.296687,23.724554],[121.296689,23.724374],[121.296787,23.724375],[121.296789,23.724194],[121.297088,23.723836],[121.296603,23.72347],[121.296503,23.723559],[121.296593,23.724192],[121.296397,23.72419],[121.296199,23.724368],[121.295904,23.724365],[121.295804,23.724544],[121.29551,23.724541],[121.295511,23.724451],[121.29512,23.724356],[121.295018,23.724626],[121.294823,23.724534],[121.294723,23.724713],[121.29511,23.725079],[121.295601,23.725084],[121.295598,23.725265],[121.2954,23.725443],[121.295497,23.725534],[121.295694,23.725446],[121.295691,23.725717],[121.295789,23.725718],[121.295978,23.726262],[121.296664,23.72627],[121.296761,23.726361]],[[121.296383,23.725273],[121.296385,23.725093],[121.296581,23.725095],[121.296579,23.725275],[121.296383,23.725273]],[[121.295701,23.724905],[121.295704,23.724724],[121.296096,23.724728],[121.296093,23.724909],[121.295701,23.724905]]],[[[121.300822,23.708165],[121.301015,23.708438],[121.301212,23.70835],[121.301118,23.708078],[121.300827,23.707804],[121.299747,23.707883],[121.299363,23.707246],[121.299264,23.707335],[121.298774,23.70733],[121.29858,23.707147],[121.298785,23.706427],[121.298983,23.706339],[121.298792,23.705885],[121.298889,23.705977],[121.299086,23.705889],[121.298893,23.705706],[121.298895,23.705525],[121.298992,23.705617],[121.299189,23.705529],[121.299095,23.705257],[121.299193,23.705258],[121.299196,23.704987],[121.299294,23.704988],[121.299397,23.704628],[121.299594,23.70454],[121.299701,23.703909],[121.29941,23.703635],[121.299412,23.703454],[121.299217,23.703362],[121.299321,23.702911],[121.299126,23.702819],[121.29913,23.702548],[121.299032,23.702547],[121.299131,23.702458],[121.299041,23.701825],[121.299139,23.701826],[121.299243,23.701375],[121.298753,23.70137],[121.298657,23.701188],[121.298558,23.701278],[121.298461,23.701186],[121.297971,23.701181],[121.298063,23.701633],[121.298161,23.701634],[121.298054,23.702356],[121.298247,23.702538],[121.298337,23.703172],[121.298532,23.703264],[121.298529,23.703535],[121.29911,23.704083],[121.299103,23.704625],[121.299005,23.704624],[121.299001,23.704894],[121.298903,23.704893],[121.298897,23.705345],[121.298798,23.705434],[121.298014,23.705425],[121.297913,23.705605],[121.297717,23.705603],[121.297519,23.705781],[121.297905,23.706237],[121.298004,23.706148],[121.298493,23.706243],[121.298486,23.706785],[121.298094,23.706781],[121.297991,23.707141],[121.298088,23.707232],[121.298384,23.707145],[121.298574,23.707599],[121.298673,23.70751],[121.298966,23.707603],[121.298865,23.707873],[121.29935,23.708239],[121.299546,23.708242],[121.299745,23.708063],[121.300034,23.708428],[121.30023,23.70843],[121.300332,23.70816],[121.300822,23.708165]],[[121.298824,23.703448],[121.29902,23.70345],[121.299019,23.70354],[121.298823,23.703538],[121.298824,23.703448]],[[121.298541,23.702542],[121.29864,23.702543],[121.298637,23.702723],[121.298539,23.702722],[121.298541,23.702542]],[[121.298447,23.70227],[121.298349,23.702269],[121.298354,23.701907],[121.29855,23.70191],[121.298447,23.70227]],[[121.298359,23.701456],[121.298457,23.701457],[121.298454,23.701728],[121.298356,23.701727],[121.298359,23.701456]]],[[[121.301368,23.711422],[121.301177,23.711059],[121.300982,23.710966],[121.300984,23.710786],[121.30011,23.710144],[121.300017,23.709782],[121.299726,23.709508],[121.299335,23.709413],[121.299337,23.709233],[121.299142,23.70914],[121.299043,23.709229],[121.299138,23.709501],[121.299623,23.709868],[121.299519,23.710318],[121.299616,23.71041],[121.299814,23.710321],[121.299812,23.710412],[121.300203,23.710506],[121.300299,23.710688],[121.300495,23.71069],[121.300689,23.710873],[121.300781,23.711325],[121.301075,23.711329],[121.301171,23.71151],[121.301368,23.711422]]],[[[121.301464,23.711604],[121.301269,23.711511],[121.301169,23.711691],[121.301364,23.711783],[121.301464,23.711604]]],[[[121.301521,23.714765],[121.30162,23.714676],[121.301524,23.714584],[121.301529,23.714133],[121.301727,23.714045],[121.301731,23.713684],[121.302029,23.713416],[121.302034,23.713055],[121.301549,23.712598],[121.301552,23.712417],[121.30126,23.712234],[121.300962,23.712501],[121.300957,23.712862],[121.30076,23.71295],[121.300757,23.713221],[121.300855,23.713222],[121.300851,23.713493],[121.301046,23.713586],[121.301044,23.713766],[121.301239,23.713859],[121.301233,23.71431],[121.301036,23.714398],[121.301033,23.714579],[121.301227,23.714762],[121.301326,23.714672],[121.301521,23.714765]]],[[[121.298002,23.713913],[121.297711,23.713639],[121.297514,23.713727],[121.29751,23.713998],[121.297412,23.713997],[121.297409,23.714268],[121.297211,23.714356],[121.297209,23.714537],[121.297403,23.71472],[121.297697,23.714723],[121.298083,23.715179],[121.298279,23.715181],[121.298382,23.714821],[121.298188,23.714638],[121.297992,23.714636],[121.297993,23.714545],[121.298289,23.714458],[121.298192,23.714367],[121.298292,23.714188],[121.298195,23.714096],[121.297998,23.714184],[121.298002,23.713913]],[[121.297996,23.714365],[121.2978,23.714363],[121.297801,23.714272],[121.297998,23.714184],[121.297996,23.714365]]],[[[121.302122,23.721363],[121.302024,23.721362],[121.302028,23.721091],[121.30193,23.72109],[121.301934,23.720729],[121.302132,23.720641],[121.302239,23.71992],[121.302044,23.719827],[121.301842,23.720277],[121.301744,23.720275],[121.301739,23.720637],[121.301641,23.720636],[121.301539,23.720996],[121.301734,23.721088],[121.30173,23.721359],[121.301924,23.721542],[121.302122,23.721363]]],[[[121.300145,23.722606],[121.300054,23.722063],[121.300351,23.721795],[121.30036,23.721163],[121.300756,23.720806],[121.300667,23.720173],[121.300278,23.719898],[121.300081,23.719986],[121.300176,23.720168],[121.299581,23.720703],[121.299477,23.721154],[121.299379,23.721152],[121.299374,23.721514],[121.299276,23.721513],[121.299269,23.722054],[121.299367,23.722055],[121.299458,23.722598],[121.299749,23.722872],[121.299945,23.722874],[121.300047,23.722605],[121.300145,23.722606]],[[121.299973,23.720708],[121.300072,23.720618],[121.300071,23.720709],[121.299973,23.720708]]],[[[121.303455,23.724448],[121.303268,23.723814],[121.303565,23.723546],[121.303371,23.723364],[121.303374,23.723183],[121.303767,23.723097],[121.303675,23.722644],[121.304068,23.722558],[121.304169,23.722379],[121.304072,23.722288],[121.303484,23.722281],[121.303485,23.722191],[121.303191,23.722188],[121.303189,23.722278],[121.302896,23.722184],[121.302797,23.722274],[121.302701,23.722092],[121.302408,23.721998],[121.302308,23.722178],[121.302503,23.72227],[121.302499,23.722541],[121.302596,23.722633],[121.302892,23.722546],[121.302984,23.722998],[121.302496,23.722812],[121.302394,23.723082],[121.302,23.723258],[121.302097,23.72335],[121.301994,23.72371],[121.30248,23.724076],[121.302477,23.724257],[121.302671,23.724439],[121.302868,23.724351],[121.302871,23.724171],[121.30316,23.724535],[121.303356,23.724537],[121.303455,23.724448]],[[121.302795,23.722454],[121.302894,23.722365],[121.302893,23.722455],[121.302795,23.722454]]],[[[121.301477,23.725781],[121.301869,23.725785],[121.301768,23.725965],[121.301963,23.726057],[121.302065,23.725787],[121.302163,23.725788],[121.30197,23.725515],[121.302167,23.725517],[121.30236,23.7257],[121.30246,23.725611],[121.302365,23.725339],[121.302562,23.725251],[121.302566,23.72498],[121.302469,23.724889],[121.302271,23.725067],[121.301879,23.724973],[121.30178,23.725062],[121.301875,23.725334],[121.301676,23.725512],[121.30148,23.72551],[121.30118,23.725958],[121.301375,23.726051],[121.301477,23.725781]]],[[[121.305864,23.727816],[121.305476,23.72745],[121.305382,23.727178],[121.305186,23.727176],[121.304993,23.726903],[121.304797,23.726901],[121.304603,23.726718],[121.30451,23.726356],[121.304213,23.726533],[121.304504,23.726807],[121.304402,23.727077],[121.304891,23.727173],[121.305372,23.7279],[121.305765,23.727905],[121.305864,23.727816]]],[[[121.303113,23.728147],[121.303215,23.727877],[121.302922,23.727783],[121.302923,23.727693],[121.302629,23.72769],[121.302631,23.727509],[121.302728,23.727601],[121.302925,23.727512],[121.302735,23.727059],[121.302538,23.727147],[121.302534,23.727418],[121.302338,23.727416],[121.302242,23.727234],[121.301947,23.727321],[121.302042,23.727593],[121.301745,23.72777],[121.301841,23.727952],[121.302526,23.72805],[121.302525,23.72814],[121.302819,23.728143],[121.30282,23.728053],[121.303113,23.728147]],[[121.302432,23.727778],[121.302528,23.727869],[121.30243,23.727868],[121.302432,23.727778]],[[121.302432,23.727778],[121.302335,23.727687],[121.302238,23.727595],[121.302434,23.727597],[121.302432,23.727778]]]]}},{"type":"Feature","properties":{"kind":"bare_dam","month":"2022-07","area_ha":29.43},"geometry":{"type":"MultiPolygon","coordinates":[[[[121.302034,23.690299],[121.301839,23.690207],[121.301739,23.690386],[121.301934,23.690479],[121.302034,23.690299]]],[[[121.301198,23.694263],[121.301682,23.69481],[121.302075,23.694724],[121.301882,23.694451],[121.301589,23.694358],[121.301497,23.693905],[121.301303,23.693723],[121.300912,23.693628],[121.300525,23.693263],[121.300527,23.693082],[121.300332,23.69299],[121.300336,23.692719],[121.300142,23.692536],[121.299751,23.692441],[121.299558,23.692168],[121.299068,23.692163],[121.299071,23.691982],[121.298779,23.691799],[121.298782,23.691528],[121.298587,23.691435],[121.298389,23.691614],[121.298583,23.691796],[121.298579,23.692067],[121.298286,23.691974],[121.298185,23.692244],[121.298282,23.692335],[121.298479,23.692247],[121.298472,23.692789],[121.298859,23.693154],[121.298857,23.693335],[121.299052,23.693427],[121.29905,23.693608],[121.298853,23.693605],[121.298752,23.693875],[121.299045,23.693969],[121.299044,23.694059],[121.299241,23.693971],[121.299435,23.694154],[121.299535,23.693974],[121.299828,23.694068],[121.299927,23.693978],[121.299833,23.693707],[121.300029,23.693709],[121.300028,23.693799],[121.300322,23.693802],[121.300417,23.693984],[121.300712,23.693987],[121.300806,23.694259],[121.301002,23.694261],[121.301001,23.694351],[121.301198,23.694263]],[[121.301201,23.694083],[121.301299,23.694084],[121.301296,23.694264],[121.301198,23.694263],[121.301201,23.694083]],[[121.301201,23.694083],[121.301104,23.693991],[121.301202,23.693992],[121.301201,23.694083]],[[121.299443,23.693522],[121.299346,23.69343],[121.299444,23.693431],[121.299443,23.693522]],[[121.300328,23.693351],[121.300231,23.693259],[121.300329,23.69326],[121.300328,23.693351]]],[[[121.299705,23.695963],[121.299803,23.695964],[121.299905,23.695694],[121.299516,23.695419],[121.299313,23.695958],[121.299411,23.695959],[121.299506,23.696231],[121.299703,23.696143],[121.299705,23.695963]]],[[[121.298403,23.698115],[121.2987,23.697848],[121.298605,23.697666],[121.299094,23.697762],[121.299095,23.697672],[121.299487,23.697676],[121.299587,23.697496],[121.299393,23.697404],[121.299396,23.697133],[121.299494,23.697134],[121.2994,23.696862],[121.299205,23.69677],[121.299207,23.696589],[121.298916,23.696315],[121.299016,23.696226],[121.298921,23.695954],[121.299019,23.695955],[121.299123,23.695505],[121.298736,23.695139],[121.298838,23.694779],[121.298644,23.694596],[121.298448,23.694594],[121.298348,23.694774],[121.298154,23.694591],[121.297958,23.694589],[121.297854,23.695039],[121.297657,23.695127],[121.297555,23.695397],[121.297654,23.695398],[121.297646,23.69594],[121.297841,23.696032],[121.297837,23.696394],[121.298032,23.696486],[121.298027,23.696847],[121.298125,23.696848],[121.298025,23.697028],[121.29822,23.69712],[121.298217,23.697301],[121.298507,23.697665],[121.298208,23.698023],[121.298403,23.698115]],[[121.298802,23.697578],[121.298705,23.697487],[121.298803,23.697488],[121.298802,23.697578]],[[121.298615,23.696854],[121.298518,23.696762],[121.298616,23.696763],[121.298615,23.696854]],[[121.298822,23.696043],[121.298724,23.696042],[121.29872,23.696313],[121.298425,23.6964],[121.298628,23.69586],[121.298822,23.696043]],[[121.29853,23.695859],[121.298534,23.695589],[121.298632,23.69559],[121.298628,23.69586],[121.29853,23.695859]]],[[[121.299981,23.69741],[121.300274,23.697504],[121.300374,23.697324],[121.300082,23.697141],[121.300085,23.69696],[121.299697,23.696595],[121.299598,23.696684],[121.299695,23.696775],[121.299596,23.696864],[121.299593,23.697045],[121.299691,23.697046],[121.299589,23.697406],[121.299782,23.697589],[121.299981,23.69741]]],[[[121.294277,23.698702],[121.294082,23.69861],[121.293981,23.698789],[121.294176,23.698882],[121.294277,23.698702]]],[[[121.299062,23.7002],[121.298964,23.700199],[121.298968,23.699928],[121.29887,23.699927],[121.298776,23.699564],[121.298975,23.699386],[121.299081,23.698755],[121.299278,23.698667],[121.29928,23.698486],[121.299576,23.698399],[121.299577,23.698309],[121.300361,23.698318],[121.300363,23.698227],[121.300852,23.698323],[121.300853,23.698233],[121.301049,23.698235],[121.301644,23.6977],[121.30155,23.697428],[121.300863,23.69742],[121.300862,23.69751],[121.300568,23.697507],[121.300468,23.697687],[121.300273,23.697594],[121.300173,23.697683],[121.300269,23.697865],[121.300073,23.697863],[121.300072,23.697953],[121.299583,23.697858],[121.299582,23.697948],[121.299288,23.697945],[121.299088,23.698213],[121.298794,23.69821],[121.298793,23.6983],[121.2985,23.698207],[121.298399,23.698386],[121.298302,23.698295],[121.298105,23.698383],[121.298103,23.698564],[121.298005,23.698563],[121.2981,23.698744],[121.297903,23.698832],[121.297798,23.699373],[121.2976,23.699551],[121.297795,23.699644],[121.297993,23.699465],[121.298284,23.69974],[121.298579,23.699652],[121.298573,23.700104],[121.298767,23.700287],[121.298666,23.700466],[121.299157,23.700472],[121.299062,23.7002]],[[121.298095,23.699196],[121.298097,23.699015],[121.298293,23.699017],[121.298291,23.699198],[121.298095,23.699196]],[[121.298488,23.69911],[121.298391,23.699018],[121.298489,23.699019],[121.298488,23.69911]],[[121.298298,23.698656],[121.2983,23.698476],[121.298398,23.698477],[121.298396,23.698657],[121.298298,23.698656]]],[[[121.296818,23.699362],[121.296239,23.698633],[121.295748,23.698628],[121.295352,23.698985],[121.294861,23.698979],[121.294571,23.698705],[121.294275,23.698792],[121.294371,23.698974],[121.294567,23.698976],[121.294566,23.699067],[121.294762,23.699069],[121.294858,23.69925],[121.295152,23.699254],[121.295151,23.699344],[121.295544,23.699258],[121.295843,23.6989],[121.296137,23.698903],[121.29662,23.69945],[121.296818,23.699362]]],[[[121.298377,23.700102],[121.297991,23.699646],[121.297694,23.699823],[121.29779,23.700005],[121.297986,23.700007],[121.297788,23.700186],[121.297882,23.700458],[121.298372,23.700463],[121.298375,23.700282],[121.298277,23.700281],[121.298279,23.700101],[121.298377,23.700102]]],[[[121.312653,23.688068],[121.312752,23.687978],[121.312755,23.687708],[121.312657,23.687706],[121.31276,23.687346],[121.312371,23.687071],[121.312375,23.6868],[121.311984,23.686706],[121.311983,23.686796],[121.311687,23.686883],[121.311497,23.68643],[121.311302,23.686337],[121.3112,23.686697],[121.311393,23.68688],[121.31139,23.687151],[121.311292,23.68715],[121.311384,23.687602],[121.311187,23.68769],[121.311184,23.687871],[121.311379,23.687963],[121.311578,23.687785],[121.31158,23.687604],[121.311482,23.687603],[121.311586,23.687153],[121.31188,23.687156],[121.312073,23.687429],[121.312368,23.687342],[121.312266,23.687612],[121.312461,23.687704],[121.312458,23.687975],[121.312653,23.688068]],[[121.312461,23.687704],[121.31256,23.687615],[121.312559,23.687705],[121.312461,23.687704]]],[[[121.310585,23.688767],[121.311179,23.688322],[121.311083,23.688141],[121.31059,23.688316],[121.31039,23.688675],[121.310585,23.688767]]],[[[121.308793,23.690825],[121.30899,23.690737],[121.308993,23.690556],[121.308605,23.690191],[121.308506,23.69028],[121.3085,23.690731],[121.308597,23.690823],[121.308794,23.690735],[121.308793,23.690825]]],[[[121.308982,23.691369],[121.308889,23.691006],[121.308692,23.691095],[121.308596,23.690913],[121.308399,23.691001],[121.308396,23.691182],[121.308687,23.691456],[121.308982,23.691369]]],[[[121.306315,23.692875],[121.306613,23.692607],[121.306615,23.692426],[121.306517,23.692425],[121.306619,23.692156],[121.306716,23.692247],[121.306914,23.692068],[121.307207,23.692162],[121.307208,23.692072],[121.307502,23.692075],[121.307603,23.691895],[121.307506,23.691804],[121.306917,23.691798],[121.306719,23.691976],[121.306228,23.692061],[121.306229,23.691971],[121.305935,23.691967],[121.305841,23.691605],[121.30555,23.691421],[121.305154,23.691688],[121.305152,23.691869],[121.304953,23.692047],[121.304757,23.692045],[121.304661,23.691863],[121.304072,23.691947],[121.304071,23.692037],[121.303582,23.691942],[121.303583,23.691851],[121.303387,23.691849],[121.303487,23.69167],[121.303098,23.691395],[121.302999,23.691484],[121.302705,23.691481],[121.302706,23.69139],[121.302411,23.691477],[121.302218,23.691204],[121.302022,23.691202],[121.301829,23.691019],[121.301534,23.691016],[121.30144,23.690744],[121.300949,23.690829],[121.300858,23.690286],[121.301641,23.690385],[121.301741,23.690206],[121.301252,23.69011],[121.300863,23.689835],[121.298708,23.689721],[121.298607,23.6899],[121.298018,23.689984],[121.297522,23.69043],[121.29771,23.691065],[121.298102,23.691069],[121.298103,23.690979],[121.298496,23.690893],[121.298592,23.691074],[121.298788,23.691076],[121.298687,23.691346],[121.299174,23.691532],[121.299173,23.691622],[121.299369,23.691625],[121.299371,23.691534],[121.299762,23.691629],[121.299861,23.69154],[121.299767,23.691177],[121.299865,23.691178],[121.299863,23.691359],[121.300057,23.691542],[121.300253,23.691544],[121.300254,23.691454],[121.300351,23.691545],[121.301333,23.691466],[121.301428,23.691647],[121.30192,23.691562],[121.301918,23.691653],[121.302409,23.691658],[121.302408,23.691748],[121.3028,23.691752],[121.302799,23.691843],[121.30329,23.691758],[121.303188,23.692028],[121.303479,23.692302],[121.303774,23.692215],[121.303773,23.692305],[121.304165,23.692309],[121.304164,23.6924],[121.304361,23.692311],[121.304364,23.692131],[121.304658,23.692134],[121.304754,23.692316],[121.30495,23.692318],[121.305248,23.69196],[121.305543,23.691963],[121.30593,23.692329],[121.305831,23.692418],[121.305924,23.69278],[121.306121,23.692692],[121.306315,23.692875]],[[121.299975,23.690277],[121.299972,23.690548],[121.30007,23.690549],[121.300066,23.69082],[121.299872,23.690637],[121.299877,23.690276],[121.299975,23.690277]],[[121.298994,23.690356],[121.298897,23.690265],[121.298995,23.690266],[121.298994,23.690356]]],[[[121.310636,23.69238],[121.311131,23.692024],[121.311035,23.691843],[121.310839,23.69184],[121.310738,23.69211],[121.310641,23.692019],[121.310345,23.692106],[121.310636,23.69238]]],[[[121.304642,23.693398],[121.304741,23.693309],[121.304644,23.693217],[121.304743,23.693128],[121.30465,23.692766],[121.304454,23.692764],[121.304255,23.692942],[121.303967,23.692488],[121.303672,23.692575],[121.303665,23.693116],[121.303761,23.693208],[121.304056,23.693211],[121.304248,23.693484],[121.304642,23.693398]],[[121.304253,23.693123],[121.304254,23.693033],[121.30445,23.693035],[121.304449,23.693125],[121.304253,23.693123]]],[[[121.305311,23.69467],[121.305805,23.694404],[121.30571,23.694222],[121.305512,23.694311],[121.305515,23.69413],[121.305712,23.694042],[121.305618,23.69368],[121.305222,23.694037],[121.305026,23.694034],[121.304827,23.694213],[121.304533,23.69421],[121.304135,23.694657],[121.30384,23.694744],[121.303835,23.695105],[121.303638,23.695193],[121.303735,23.695284],[121.303633,23.695554],[121.30373,23.695646],[121.303829,23.695556],[121.304416,23.695653],[121.305012,23.695118],[121.305108,23.695209],[121.305306,23.695121],[121.305112,23.694938],[121.305311,23.69467]],[[121.305112,23.694938],[121.305013,23.695028],[121.305014,23.694937],[121.305112,23.694938]],[[121.30512,23.694306],[121.305218,23.694307],[121.305216,23.694488],[121.305118,23.694487],[121.30512,23.694306]]],[[[121.302237,23.697345],[121.302438,23.696986],[121.302633,23.697078],[121.302634,23.696988],[121.303027,23.696902],[121.30303,23.696721],[121.303128,23.696723],[121.303033,23.696451],[121.30323,23.696362],[121.303234,23.696092],[121.303332,23.696093],[121.303239,23.69573],[121.303042,23.695728],[121.302844,23.695907],[121.302841,23.696178],[121.302644,23.696175],[121.302248,23.696532],[121.302245,23.696713],[121.302048,23.696801],[121.302046,23.696982],[121.301749,23.697159],[121.301648,23.697429],[121.301941,23.697522],[121.302041,23.697343],[121.302237,23.697345]],[[121.302836,23.696539],[121.302935,23.69645],[121.302934,23.69654],[121.302836,23.696539]]]]}},{"type":"Feature","properties":{"kind":"water","month":"2022-07","area_ha":1.14},"geometry":{"type":"MultiPolygon","coordinates":[[[[121.298534,23.695589],[121.29853,23.695859],[121.298628,23.69586],[121.298632,23.69559],[121.298534,23.695589]]],[[[121.298528,23.69604],[121.298524,23.696311],[121.298425,23.6964],[121.29872,23.696313],[121.298726,23.695862],[121.298528,23.69604]]],[[[121.298703,23.697667],[121.298604,23.697756],[121.298702,23.697758],[121.298703,23.697667]]],[[[121.298696,23.698209],[121.298695,23.698299],[121.299088,23.698213],[121.299288,23.697945],[121.299582,23.697948],[121.299584,23.697767],[121.29978,23.697769],[121.299778,23.69795],[121.300072,23.697953],[121.300073,23.697863],[121.300269,23.697865],[121.300175,23.697593],[121.300468,23.697687],[121.300568,23.697507],[121.300862,23.69751],[121.300863,23.69742],[121.300275,23.697414],[121.300274,23.697504],[121.299981,23.69741],[121.300077,23.697592],[121.298702,23.697758],[121.298698,23.698028],[121.298503,23.697936],[121.298305,23.698114],[121.298302,23.698295],[121.298696,23.698209]],[[121.299975,23.697862],[121.299877,23.697861],[121.299879,23.69768],[121.299977,23.697681],[121.299975,23.697862]]],[[[121.298761,23.700738],[121.298567,23.700555],[121.298474,23.700193],[121.298279,23.700101],[121.298277,23.700281],[121.29847,23.700464],[121.298369,23.700734],[121.298566,23.700646],[121.29856,23.701097],[121.298461,23.701186],[121.298657,23.701188],[121.298663,23.700737],[121.298761,23.700738]]]]}}]}