{"type":"FeatureCollection","features":[{"type":"Feature","properties":{"kind":"bare_slide","month":"2022-08","area_ha":93.77},"geometry":{"type":"MultiPolygon","coordinates":[[[[121.298081,23.707774],[121.297791,23.7075],[121.297398,23.707496],[121.297003,23.707762],[121.297,23.707943],[121.297195,23.708035],[121.297197,23.707945],[121.297786,23.707861],[121.297784,23.708042],[121.297979,23.708134],[121.298078,23.708045],[121.298081,23.707774]]],[[[121.29773,23.712195],[121.297831,23.711925],[121.298326,23.711569],[121.298335,23.710937],[121.298433,23.710938],[121.298441,23.710306],[121.298052,23.710031],[121.298054,23.709851],[121.297859,23.709758],[121.297765,23.709486],[121.297666,23.709575],[121.297471,23.709483],[121.297577,23.708852],[121.297875,23.708584],[121.297972,23.708676],[121.298169,23.708588],[121.298077,23.708135],[121.29778,23.708312],[121.297778,23.708493],[121.297484,23.70849],[121.297186,23.708757],[121.297083,23.709117],[121.29669,23.709203],[121.296786,23.709385],[121.296982,23.709387],[121.296979,23.709568],[121.297173,23.709751],[121.297369,23.709753],[121.297268,23.710022],[121.297561,23.710116],[121.297654,23.710478],[121.297849,23.710571],[121.297844,23.710932],[121.297746,23.710931],[121.297738,23.711563],[121.297639,23.711652],[121.297148,23.711647],[121.297147,23.711737],[121.296658,23.711641],[121.296558,23.711821],[121.296656,23.711822],[121.296749,23.712184],[121.297043,23.712187],[121.297045,23.712097],[121.29773,23.712195]]],[[[121.292635,23.711777],[121.292634,23.711868],[121.29283,23.71187],[121.292931,23.71169],[121.293522,23.711516],[121.29382,23.711158],[121.293625,23.711066],[121.293328,23.711334],[121.293132,23.711331],[121.293031,23.711511],[121.292246,23.711593],[121.292047,23.711771],[121.292044,23.712042],[121.292337,23.712135],[121.292439,23.711775],[121.292635,23.711777]]],[[[121.283963,23.715022],[121.284258,23.714935],[121.284064,23.714753],[121.283971,23.71439],[121.284467,23.713945],[121.284372,23.713763],[121.283978,23.713849],[121.283779,23.714117],[121.283582,23.714115],[121.282987,23.71465],[121.282982,23.715012],[121.283176,23.715194],[121.283373,23.715106],[121.283376,23.714926],[121.283667,23.71511],[121.283665,23.71529],[121.283468,23.715378],[121.283563,23.71556],[121.283957,23.715474],[121.283963,23.715022]]],[[[121.288375,23.715071],[121.288182,23.714889],[121.288081,23.715068],[121.288276,23.715161],[121.288375,23.715071]]],[[[121.286281,23.717757],[121.286186,23.717485],[121.286385,23.717307],[121.286482,23.717398],[121.286679,23.71731],[121.286485,23.717127],[121.286488,23.716947],[121.286586,23.716948],[121.286491,23.716676],[121.286293,23.716854],[121.286096,23.716852],[121.285903,23.716669],[121.285703,23.716938],[121.285214,23.716842],[121.284817,23.717199],[121.284913,23.717381],[121.284714,23.717559],[121.284617,23.717468],[121.284322,23.717555],[121.284515,23.717828],[121.284713,23.717649],[121.284908,23.717742],[121.285008,23.717562],[121.285205,23.717565],[121.285203,23.717655],[121.285499,23.717568],[121.285788,23.717932],[121.286084,23.717845],[121.286179,23.718027],[121.286377,23.717939],[121.286379,23.717758],[121.286281,23.717757]],[[121.285892,23.717482],[121.285991,23.717393],[121.28599,23.717483],[121.285892,23.717482]],[[121.285897,23.717121],[121.286093,23.717123],[121.286092,23.717213],[121.285896,23.717211],[121.285897,23.717121]]],[[[121.285044,23.722349],[121.285136,23.722801],[121.285527,23.722896],[121.285623,23.723077],[121.286114,23.722993],[121.28621,23.723174],[121.286503,23.723268],[121.286702,23.723089],[121.286704,23.722909],[121.287,23.722732],[121.287003,23.722551],[121.2871,23.722642],[121.287395,23.722555],[121.287602,23.721745],[121.287699,23.721836],[121.287896,23.721748],[121.288089,23.722021],[121.288188,23.721932],[121.288383,23.722024],[121.28868,23.721757],[121.288683,23.721576],[121.288879,23.721578],[121.288979,23.721399],[121.289174,23.721491],[121.289172,23.721672],[121.289366,23.721855],[121.289661,23.721768],[121.289663,23.721587],[121.289177,23.721311],[121.289181,23.72095],[121.289085,23.720858],[121.288887,23.720946],[121.28889,23.720766],[121.288695,23.720673],[121.288794,23.720584],[121.288698,23.720403],[121.288009,23.720576],[121.287621,23.7203],[121.28752,23.72048],[121.287128,23.720475],[121.28713,23.720295],[121.287623,23.72012],[121.287429,23.719937],[121.287533,23.719487],[121.288021,23.719673],[121.287723,23.71994],[121.287818,23.720212],[121.288311,23.720037],[121.288312,23.719947],[121.288409,23.720038],[121.288606,23.71995],[121.288315,23.719676],[121.288419,23.719226],[121.288615,23.719228],[121.288611,23.719589],[121.288804,23.719772],[121.289001,23.719774],[121.288899,23.720044],[121.28929,23.720138],[121.289288,23.720319],[121.28919,23.720318],[121.289187,23.720498],[121.289381,23.720681],[121.289279,23.720951],[121.290058,23.721411],[121.289956,23.721681],[121.29015,23.721863],[121.290444,23.721867],[121.290546,23.721597],[121.290841,23.72151],[121.290844,23.721329],[121.290454,23.721144],[121.290652,23.720966],[121.290655,23.720785],[121.290461,23.720603],[121.290559,23.720604],[121.290564,23.720243],[121.290662,23.720244],[121.290865,23.719704],[121.291062,23.719616],[121.291068,23.719165],[121.291166,23.719166],[121.291071,23.718984],[121.29117,23.718895],[121.291659,23.718991],[121.291759,23.718811],[121.291953,23.718994],[121.29215,23.718906],[121.292153,23.718725],[121.29186,23.718632],[121.291864,23.71827],[121.292062,23.718182],[121.292066,23.717821],[121.292264,23.717733],[121.292359,23.717915],[121.292556,23.717917],[121.292758,23.717468],[121.29325,23.717292],[121.293253,23.717112],[121.292961,23.716928],[121.29306,23.716839],[121.292965,23.716567],[121.293655,23.716304],[121.293757,23.716034],[121.293955,23.715855],[121.294152,23.715858],[121.294252,23.715678],[121.294448,23.71568],[121.294449,23.71559],[121.29494,23.715595],[121.295035,23.715777],[121.295231,23.715779],[121.295325,23.716141],[121.295621,23.715964],[121.295139,23.715327],[121.294845,23.715323],[121.294749,23.715142],[121.294454,23.715229],[121.294453,23.715319],[121.294159,23.715316],[121.294063,23.715134],[121.294161,23.715135],[121.294163,23.714955],[121.294853,23.714691],[121.295352,23.714065],[121.295646,23.714068],[121.295647,23.713978],[121.295942,23.713891],[121.296049,23.71326],[121.296246,23.713172],[121.29625,23.712901],[121.296348,23.712902],[121.296255,23.712449],[121.29606,23.712357],[121.295862,23.712535],[121.295758,23.712986],[121.295465,23.712892],[121.295365,23.713072],[121.295169,23.71307],[121.29497,23.713248],[121.294677,23.713154],[121.294377,23.713603],[121.294181,23.7136],[121.293785,23.713867],[121.29359,23.713775],[121.293489,23.714044],[121.293293,23.714042],[121.293094,23.714221],[121.292703,23.714126],[121.292704,23.714036],[121.292605,23.714125],[121.292312,23.714031],[121.292112,23.7143],[121.292405,23.714394],[121.292403,23.714574],[121.292207,23.714572],[121.292106,23.714751],[121.292008,23.71475],[121.292013,23.714389],[121.291819,23.714206],[121.291133,23.714199],[121.291036,23.714108],[121.290936,23.714287],[121.290444,23.714372],[121.290344,23.714551],[121.290051,23.714458],[121.289753,23.714725],[121.289361,23.714721],[121.289062,23.715079],[121.288475,23.714982],[121.288375,23.715071],[121.288469,23.715434],[121.28798,23.715338],[121.287982,23.715157],[121.28808,23.715158],[121.287984,23.714977],[121.287003,23.715056],[121.286804,23.715235],[121.286897,23.715597],[121.2867,23.715685],[121.286698,23.715865],[121.287087,23.716141],[121.286987,23.71623],[121.287083,23.716412],[121.28728,23.716323],[121.287474,23.716506],[121.287567,23.716868],[121.287955,23.717234],[121.287756,23.717412],[121.28756,23.71741],[121.287367,23.717227],[121.287369,23.717047],[121.287076,23.716953],[121.286679,23.71731],[121.286873,23.717493],[121.286869,23.717764],[121.287064,23.717856],[121.287165,23.717677],[121.287459,23.71768],[121.287357,23.71795],[121.287648,23.718224],[121.287844,23.718226],[121.288044,23.717957],[121.288239,23.71805],[121.288737,23.717423],[121.288834,23.717515],[121.289227,23.717429],[121.289226,23.717519],[121.28873,23.717965],[121.288823,23.718327],[121.287934,23.718859],[121.288028,23.719131],[121.287731,23.719399],[121.287439,23.719215],[121.28694,23.719841],[121.286745,23.719749],[121.286944,23.71957],[121.286848,23.719389],[121.286649,23.719567],[121.286453,23.719565],[121.286353,23.719745],[121.286061,23.719561],[121.286459,23.719114],[121.286752,23.719207],[121.286853,23.719028],[121.286756,23.718936],[121.286558,23.719024],[121.286365,23.718842],[121.285968,23.719198],[121.285775,23.718925],[121.285972,23.718837],[121.286074,23.718568],[121.285879,23.718475],[121.285785,23.718203],[121.285587,23.718291],[121.285681,23.718653],[121.285482,23.718832],[121.285189,23.718738],[121.284891,23.719006],[121.285182,23.71928],[121.28518,23.719461],[121.285375,23.719553],[121.285371,23.719824],[121.285173,23.720002],[121.28527,23.720094],[121.285467,23.720006],[121.285464,23.720186],[121.285168,23.720363],[121.285261,23.720726],[121.284966,23.720813],[121.285063,23.720904],[121.28496,23.721264],[121.284465,23.72162],[121.284463,23.7218],[121.284364,23.721799],[121.284362,23.72198],[121.284063,23.722338],[121.284355,23.722522],[121.284459,23.722071],[121.284655,23.722073],[121.284849,23.722256],[121.285245,23.72199],[121.285242,23.72217],[121.285044,23.722349]],[[121.285879,23.718475],[121.28578,23.718564],[121.285781,23.718474],[121.285879,23.718475]],[[121.284655,23.722073],[121.284754,23.721984],[121.284753,23.722075],[121.284655,23.722073]],[[121.284757,23.721804],[121.284855,23.721805],[121.284852,23.721985],[121.284754,23.721984],[121.284757,23.721804]],[[121.285251,23.721538],[121.285644,23.721452],[121.285642,23.721633],[121.285343,23.721991],[121.285245,23.72199],[121.285251,23.721538]],[[121.288287,23.721843],[121.28819,23.721751],[121.288288,23.721753],[121.288287,23.721843]],[[121.288783,23.721397],[121.288488,23.721484],[121.28849,23.721303],[121.288784,23.721307],[121.288783,23.721397]],[[121.28614,23.721006],[121.285941,23.721275],[121.285649,23.721091],[121.285848,23.720823],[121.28614,23.721006]],[[121.285947,23.720824],[121.286048,23.720554],[121.286244,23.720556],[121.286045,23.720825],[121.285947,23.720824]],[[121.287315,23.7212],[121.287218,23.721109],[121.287316,23.72111],[121.287315,23.7212]],[[121.28761,23.721113],[121.287513,23.721022],[121.287611,23.721023],[121.28761,23.721113]],[[121.287809,23.720935],[121.288008,23.720666],[121.2883,23.72085],[121.2881,23.721118],[121.287809,23.720935]],[[121.286827,23.721014],[121.28673,23.720923],[121.286828,23.720924],[121.286827,23.721014]],[[121.286437,23.720829],[121.28634,23.720738],[121.286438,23.720739],[121.286437,23.720829]],[[121.286343,23.720467],[121.286443,23.720378],[121.286351,23.719925],[121.286547,23.719927],[121.286544,23.720108],[121.286739,23.7202],[121.286735,23.720561],[121.286341,23.720647],[121.28644,23.720558],[121.286343,23.720467]],[[121.290362,23.720692],[121.290265,23.720601],[121.290363,23.720602],[121.290362,23.720692]],[[121.289777,23.720415],[121.28968,23.720323],[121.289778,23.720324],[121.289777,23.720415]],[[121.285663,23.720008],[121.285863,23.719739],[121.286154,23.719923],[121.285955,23.720192],[121.285663,23.720008]],[[121.290368,23.72024],[121.290271,23.720149],[121.290369,23.72015],[121.290368,23.72024]],[[121.289684,23.720052],[121.289685,23.719962],[121.289881,23.719964],[121.28988,23.720054],[121.289684,23.720052]],[[121.28939,23.719959],[121.289294,23.719867],[121.289392,23.719868],[121.28939,23.719959]],[[121.289009,23.719142],[121.289012,23.718871],[121.289408,23.718604],[121.289411,23.718424],[121.289804,23.718338],[121.289809,23.717977],[121.289907,23.717978],[121.289913,23.717526],[121.289816,23.717435],[121.290112,23.717258],[121.290117,23.716897],[121.290216,23.716807],[121.290411,23.7169],[121.29061,23.716721],[121.290612,23.716541],[121.291105,23.716366],[121.291206,23.716096],[121.291602,23.715829],[121.291705,23.715469],[121.291999,23.715473],[121.292099,23.715293],[121.292197,23.715294],[121.292292,23.715566],[121.292488,23.715568],[121.292687,23.71539],[121.292981,23.715393],[121.293076,23.715575],[121.293863,23.715403],[121.293759,23.715853],[121.293562,23.715941],[121.29356,23.716122],[121.293364,23.71612],[121.293362,23.71621],[121.292677,23.716112],[121.292578,23.716201],[121.292475,23.716561],[121.292179,23.716739],[121.292176,23.716919],[121.292078,23.716918],[121.292076,23.717099],[121.291777,23.717457],[121.291285,23.717542],[121.291086,23.71781],[121.290594,23.717895],[121.290396,23.718074],[121.290393,23.718254],[121.289902,23.718339],[121.290096,23.718522],[121.290093,23.718702],[121.290288,23.718795],[121.290286,23.718975],[121.289894,23.718971],[121.289795,23.71906],[121.28989,23.719242],[121.289791,23.719331],[121.289596,23.719239],[121.289398,23.719417],[121.289201,23.719415],[121.289204,23.719234],[121.289009,23.719142]],[[121.290281,23.719337],[121.290284,23.719156],[121.290382,23.719157],[121.290379,23.719338],[121.290281,23.719337]],[[121.291373,23.718355],[121.291276,23.718264],[121.291374,23.718265],[121.291373,23.718355]],[[121.289419,23.717792],[121.289516,23.717883],[121.289418,23.717882],[121.289419,23.717792]],[[121.289519,23.717612],[121.289617,23.717613],[121.289615,23.717794],[121.289517,23.717793],[121.289519,23.717612]],[[121.28952,23.717522],[121.289524,23.717251],[121.289622,23.717252],[121.289618,23.717523],[121.28952,23.717522]],[[121.289431,23.716889],[121.289429,23.716979],[121.289133,23.717157],[121.289135,23.716976],[121.289431,23.716889]],[[121.292472,23.716832],[121.292768,23.716655],[121.292665,23.717015],[121.292469,23.717013],[121.292472,23.716832]],[[121.289039,23.716794],[121.288943,23.716703],[121.289041,23.716704],[121.289039,23.716794]],[[121.289628,23.716801],[121.289629,23.716711],[121.289825,23.716713],[121.289824,23.716803],[121.289628,23.716801]],[[121.290217,23.716717],[121.29022,23.716537],[121.290318,23.716538],[121.290315,23.716718],[121.290217,23.716717]],[[121.289532,23.716619],[121.289336,23.716617],[121.28924,23.716435],[121.289436,23.716438],[121.289532,23.716619]],[[121.28924,23.716435],[121.289143,23.716344],[121.289241,23.716345],[121.28924,23.716435]],[[121.289731,23.716441],[121.289634,23.716349],[121.289732,23.716351],[121.289731,23.716441]],[[121.290026,23.716354],[121.290125,23.716265],[121.290124,23.716355],[121.290026,23.716354]],[[121.290027,23.716264],[121.28993,23.716172],[121.290028,23.716173],[121.290027,23.716264]],[[121.289249,23.715803],[121.289245,23.716074],[121.289048,23.716162],[121.289051,23.715892],[121.289249,23.715803]],[[121.289637,23.716079],[121.28954,23.715987],[121.289638,23.715988],[121.289637,23.716079]],[[121.290236,23.715273],[121.290436,23.715004],[121.290632,23.715006],[121.290631,23.715096],[121.291024,23.71501],[121.29112,23.715192],[121.291316,23.715194],[121.29131,23.715646],[121.290918,23.715641],[121.290816,23.715911],[121.290618,23.716089],[121.290422,23.716087],[121.290424,23.715907],[121.290522,23.715908],[121.290428,23.715636],[121.290527,23.715547],[121.29043,23.715455],[121.289939,23.71554],[121.289941,23.71536],[121.290236,23.715273]],[[121.289936,23.715721],[121.289838,23.71572],[121.28984,23.715539],[121.289939,23.71554],[121.289936,23.715721]],[[121.289446,23.715715],[121.289449,23.715444],[121.289547,23.715446],[121.289544,23.715716],[121.289446,23.715715]],[[121.28729,23.715601],[121.287291,23.715511],[121.287487,23.715513],[121.287486,23.715603],[121.28729,23.715601]],[[121.288863,23.715257],[121.288865,23.715167],[121.289061,23.715169],[121.28906,23.71526],[121.288863,23.715257]],[[121.289551,23.715175],[121.289553,23.714994],[121.289651,23.714995],[121.289649,23.715176],[121.289551,23.715175]],[[121.293672,23.71504],[121.293769,23.715131],[121.293671,23.71513],[121.293672,23.71504]],[[121.29377,23.715041],[121.293869,23.714951],[121.293868,23.715042],[121.29377,23.715041]],[[121.293968,23.714862],[121.293871,23.714771],[121.29397,23.714772],[121.293968,23.714862]],[[121.294174,23.714142],[121.294176,23.713962],[121.294375,23.713783],[121.294667,23.713967],[121.294664,23.714148],[121.294466,23.714326],[121.294174,23.714142]],[[121.294671,23.713606],[121.294672,23.713516],[121.294868,23.713518],[121.294867,23.713608],[121.294671,23.713606]],[[121.295558,23.713254],[121.295462,23.713163],[121.29556,23.713164],[121.295558,23.713254]]],[[[121.284103,23.719268],[121.284402,23.71891],[121.284109,23.718817],[121.284113,23.718546],[121.284308,23.718638],[121.284408,23.718459],[121.28431,23.718458],[121.284314,23.718187],[121.283926,23.717821],[121.283929,23.717641],[121.284027,23.717642],[121.283931,23.71746],[121.284129,23.717282],[121.284422,23.717375],[121.28472,23.717108],[121.284624,23.716926],[121.28502,23.71666],[121.284926,23.716388],[121.285219,23.716481],[121.285318,23.716392],[121.285222,23.71621],[121.285418,23.716213],[121.285612,23.716395],[121.28591,23.716128],[121.285815,23.715856],[121.286112,23.715678],[121.286016,23.715497],[121.285525,23.715582],[121.285128,23.715938],[121.284734,23.716024],[121.284633,23.716294],[121.284535,23.716293],[121.284727,23.716566],[121.284529,23.716744],[121.284333,23.716742],[121.284232,23.716922],[121.283839,23.717008],[121.283243,23.717543],[121.283334,23.718086],[121.283136,23.718264],[121.283331,23.718357],[121.283424,23.718719],[121.283128,23.718896],[121.283223,23.719078],[121.283125,23.719077],[121.282922,23.719616],[121.282726,23.719614],[121.282427,23.719972],[121.282133,23.719969],[121.281737,23.720235],[121.281732,23.720596],[121.282023,23.72087],[121.282219,23.720873],[121.282417,23.720694],[121.282712,23.720697],[121.283406,23.720073],[121.283409,23.719892],[121.283606,23.719804],[121.28351,23.719623],[121.283216,23.719619],[121.28322,23.719349],[121.283516,23.719171],[121.28371,23.719354],[121.283708,23.719535],[121.283903,23.719627],[121.284002,23.719538],[121.283907,23.719266],[121.284103,23.719268]],[[121.283907,23.719266],[121.28381,23.719175],[121.283908,23.719176],[121.283907,23.719266]],[[121.282917,23.719977],[121.282818,23.720067],[121.282819,23.719976],[121.282917,23.719977]],[[121.282917,23.719977],[121.283016,23.719888],[121.283015,23.719978],[121.282917,23.719977]],[[121.283819,23.718543],[121.283918,23.718453],[121.283917,23.718544],[121.283819,23.718543]],[[121.285617,23.716034],[121.285518,23.716123],[121.285519,23.716033],[121.285617,23.716034]],[[121.285617,23.716034],[121.285716,23.715945],[121.285715,23.716035],[121.285617,23.716034]]],[[[121.294314,23.725973],[121.294422,23.725252],[121.29452,23.725253],[121.294429,23.72471],[121.294627,23.724532],[121.294631,23.724261],[121.294925,23.724264],[121.294924,23.724354],[121.295121,23.724266],[121.295123,23.724086],[121.294832,23.723902],[121.294931,23.723812],[121.294841,23.723179],[121.295137,23.723002],[121.295145,23.72246],[121.295441,23.722283],[121.295247,23.7221],[121.29525,23.72192],[121.295638,23.722195],[121.296432,23.721481],[121.296529,23.721573],[121.296725,23.721575],[121.296726,23.721484],[121.297019,23.721578],[121.297021,23.721488],[121.297316,23.721401],[121.297221,23.721129],[121.297122,23.721218],[121.296829,23.721124],[121.29693,23.720945],[121.297126,23.720947],[121.297125,23.721037],[121.297322,23.720949],[121.297325,23.720678],[121.297227,23.720677],[121.297329,23.720408],[121.297134,23.720315],[121.297244,23.719413],[121.297049,23.719321],[121.296954,23.719049],[121.296757,23.719137],[121.296849,23.71959],[121.296652,23.719678],[121.296549,23.720038],[121.296352,23.720126],[121.296539,23.72085],[121.295948,23.721024],[121.295547,23.721652],[121.295253,23.721649],[121.295252,23.721739],[121.294958,23.721736],[121.294957,23.721826],[121.294664,23.721733],[121.294465,23.721911],[121.294853,23.722277],[121.29485,23.722457],[121.294653,23.722545],[121.294551,23.722815],[121.294355,23.722813],[121.294457,23.722543],[121.294555,23.722544],[121.294558,23.722273],[121.294365,23.722091],[121.294169,23.722088],[121.294069,23.722178],[121.294164,23.72245],[121.293967,23.722538],[121.294063,23.722629],[121.293963,23.722809],[121.294157,23.722991],[121.293864,23.722898],[121.293868,23.722537],[121.293577,23.722353],[121.293486,23.72181],[121.292806,23.721261],[121.292911,23.72072],[121.292813,23.720719],[121.292719,23.720447],[121.292521,23.720535],[121.292617,23.720717],[121.29242,23.720805],[121.292315,23.721346],[121.291822,23.721521],[121.29182,23.721701],[121.292304,23.722158],[121.2925,23.72216],[121.292386,23.723423],[121.292774,23.723698],[121.292771,23.723969],[121.293063,23.724153],[121.29306,23.724334],[121.292665,23.7246],[121.29266,23.724961],[121.292757,23.725053],[121.293739,23.724973],[121.293441,23.725241],[121.293148,23.725147],[121.292948,23.725416],[121.292261,23.725499],[121.292161,23.725588],[121.292255,23.72595],[121.292449,23.726133],[121.292841,23.726137],[121.29304,23.725868],[121.293433,23.725873],[121.293329,23.726323],[121.293525,23.726325],[121.293527,23.726145],[121.29392,23.726149],[121.293922,23.725969],[121.294314,23.725973]],[[121.293931,23.725246],[121.294126,23.725339],[121.294124,23.725519],[121.293929,23.725427],[121.293931,23.725246]],[[121.29414,23.724255],[121.294042,23.724254],[121.294045,23.724074],[121.294143,23.724075],[121.29414,23.724255]],[[121.294143,23.724075],[121.294245,23.723715],[121.294149,23.723623],[121.293951,23.723711],[121.293954,23.723531],[121.294152,23.723352],[121.294348,23.723355],[121.294437,23.724078],[121.29434,23.723987],[121.294143,23.724075]],[[121.293951,23.723711],[121.293852,23.723801],[121.293853,23.72371],[121.293951,23.723711]]],[[[121.297972,23.723756],[121.297874,23.723755],[121.297884,23.722942],[121.297786,23.722941],[121.297887,23.722761],[121.297692,23.722669],[121.29759,23.722939],[121.297492,23.722938],[121.297587,23.72321],[121.297091,23.723656],[121.297187,23.723747],[121.297678,23.723752],[121.297773,23.723934],[121.297972,23.723756]]],[[[121.290512,23.724215],[121.29071,23.724037],[121.29052,23.723583],[121.290716,23.723585],[121.290812,23.723767],[121.291107,23.72368],[121.29111,23.723499],[121.291012,23.723498],[121.291113,23.723229],[121.291016,23.723137],[121.290525,23.723222],[121.290424,23.723402],[121.290033,23.723307],[121.289934,23.723396],[121.29003,23.723578],[121.289635,23.723754],[121.289731,23.723936],[121.290224,23.723761],[121.290219,23.724122],[121.290022,23.72421],[121.290117,23.724391],[121.290316,23.724213],[121.290512,23.724215]]],[[[121.291379,23.725399],[121.291478,23.725309],[121.291872,23.725224],[121.291982,23.724322],[121.29218,23.724143],[121.29209,23.72351],[121.291801,23.723146],[121.291604,23.723234],[121.2917,23.723325],[121.291695,23.723777],[121.291793,23.723778],[121.291686,23.724409],[121.291587,23.724498],[121.291195,23.724494],[121.291196,23.724403],[121.290901,23.72449],[121.290898,23.724671],[121.2907,23.724849],[121.290889,23.725393],[121.290595,23.72539],[121.290494,23.725569],[121.290688,23.725752],[121.291275,23.725849],[121.291379,23.725399]]],[[[121.296762,23.726271],[121.296862,23.726182],[121.296866,23.72582],[121.296768,23.725819],[121.296676,23.725367],[121.297073,23.72501],[121.297269,23.725012],[121.297267,23.725193],[121.297169,23.725192],[121.297264,23.725373],[121.297462,23.725285],[121.297367,23.725013],[121.297863,23.724567],[121.29787,23.724025],[121.297675,23.723933],[121.297375,23.724381],[121.297082,23.724288],[121.296883,23.724556],[121.296687,23.724554],[121.29669,23.724283],[121.296887,23.724195],[121.297089,23.723746],[121.296601,23.72356],[121.296502,23.723649],[121.296594,23.724102],[121.296398,23.7241],[121.296199,23.724368],[121.295904,23.724365],[121.295804,23.724544],[121.29512,23.724356],[121.294723,23.724713],[121.29511,23.725079],[121.295601,23.725084],[121.295597,23.725355],[121.295792,23.725447],[121.295691,23.725717],[121.295886,23.72581],[121.295978,23.726262],[121.296467,23.726358],[121.296468,23.726267],[121.296762,23.726271]],[[121.296573,23.725727],[121.296569,23.726088],[121.29647,23.726087],[121.296377,23.725725],[121.296573,23.725727]],[[121.296383,23.725273],[121.296385,23.725093],[121.296581,23.725095],[121.296579,23.725275],[121.296383,23.725273]],[[121.296093,23.724909],[121.2957,23.724995],[121.295704,23.724724],[121.296096,23.724728],[121.296093,23.724909]]],[[[121.298587,23.706606],[121.299083,23.70616],[121.298988,23.705888],[121.299086,23.705889],[121.299091,23.705528],[121.299189,23.705529],[121.299092,23.705437],[121.299197,23.704897],[121.299395,23.704809],[121.299397,23.704628],[121.299595,23.70445],[121.299601,23.703998],[121.299701,23.703909],[121.29941,23.703635],[121.299412,23.703454],[121.299217,23.703362],[121.299321,23.702911],[121.299126,23.702819],[121.29913,23.702548],[121.299032,23.702547],[121.299131,23.702458],[121.299042,23.701734],[121.29914,23.701736],[121.299243,23.701375],[121.298753,23.70137],[121.298657,23.701188],[121.297971,23.701181],[121.297967,23.701452],[121.298161,23.701634],[121.298052,23.702446],[121.298247,23.702538],[121.298243,23.7029],[121.298341,23.702901],[121.298337,23.703172],[121.298435,23.703173],[121.298529,23.703535],[121.29911,23.704083],[121.299103,23.704625],[121.299005,23.704624],[121.298798,23.705434],[121.298014,23.705425],[121.297518,23.705871],[121.297808,23.706146],[121.298493,23.706243],[121.298587,23.706606]],[[121.298791,23.705976],[121.29889,23.705887],[121.298889,23.705977],[121.298791,23.705976]],[[121.298824,23.703448],[121.29902,23.70345],[121.299019,23.70354],[121.298823,23.703538],[121.298824,23.703448]],[[121.298541,23.702542],[121.29864,23.702543],[121.298637,23.702723],[121.298442,23.702631],[121.298446,23.70236],[121.298544,23.702361],[121.298541,23.702542]],[[121.298836,23.702545],[121.298935,23.702456],[121.298934,23.702546],[121.298836,23.702545]],[[121.29845,23.701999],[121.29855,23.70191],[121.298548,23.702],[121.29845,23.701999]]],[[[121.29955,23.707971],[121.299748,23.707792],[121.29965,23.707791],[121.299461,23.707247],[121.298774,23.70733],[121.29858,23.707147],[121.298582,23.706967],[121.29868,23.706968],[121.298586,23.706696],[121.298387,23.706874],[121.298191,23.706872],[121.298192,23.706782],[121.297995,23.70687],[121.298088,23.707232],[121.298384,23.707145],[121.298574,23.707599],[121.298673,23.70751],[121.298966,23.707603],[121.298865,23.707873],[121.299155,23.708147],[121.299448,23.70824],[121.29955,23.707971]]],[[[121.300333,23.70807],[121.30092,23.708166],[121.301015,23.708438],[121.301212,23.70835],[121.301118,23.708078],[121.300827,23.707804],[121.300728,23.707893],[121.300435,23.7078],[121.300236,23.707978],[121.300139,23.707887],[121.299746,23.707973],[121.299744,23.708153],[121.300034,23.708428],[121.30033,23.70834],[121.300333,23.70807]]],[[[121.301464,23.711604],[121.30137,23.711332],[121.301175,23.711239],[121.300984,23.710786],[121.30011,23.710144],[121.300017,23.709782],[121.299726,23.709508],[121.299238,23.709322],[121.299138,23.709501],[121.299623,23.709868],[121.299619,23.710229],[121.299812,23.710412],[121.300107,23.710415],[121.300299,23.710688],[121.300495,23.71069],[121.300689,23.710873],[121.300684,23.711234],[121.300781,23.711325],[121.300979,23.711237],[121.301267,23.711692],[121.301464,23.711604]]],[[[121.301524,23.714584],[121.301529,23.714133],[121.301728,23.713954],[121.301731,23.713684],[121.302029,23.713416],[121.302034,23.713055],[121.301936,23.713054],[121.301842,23.712691],[121.301549,23.712598],[121.301552,23.712417],[121.301358,23.712235],[121.301162,23.712232],[121.30106,23.712502],[121.300962,23.712501],[121.300957,23.712862],[121.30076,23.71295],[121.300757,23.713221],[121.300855,23.713222],[121.300851,23.713493],[121.301046,23.713586],[121.301044,23.713766],[121.301239,23.713859],[121.301233,23.71431],[121.301036,23.714398],[121.301033,23.714579],[121.301227,23.714762],[121.301524,23.714584]]],[[[121.298382,23.714821],[121.298188,23.714638],[121.297992,23.714636],[121.297993,23.714545],[121.298289,23.714458],[121.298192,23.714367],[121.298292,23.714188],[121.297613,23.713638],[121.29751,23.713998],[121.297412,23.713997],[121.297409,23.714268],[121.297111,23.714536],[121.297404,23.714629],[121.297403,23.71472],[121.297697,23.714723],[121.298083,23.715179],[121.298379,23.715091],[121.298382,23.714821]],[[121.297998,23.714184],[121.297996,23.714365],[121.2978,23.714363],[121.297801,23.714272],[121.297998,23.714184]]],[[[121.302121,23.721454],[121.301934,23.720729],[121.302132,23.720641],[121.302135,23.72037],[121.302233,23.720371],[121.302239,23.71992],[121.302142,23.719828],[121.301945,23.719916],[121.301943,23.720097],[121.301744,23.720275],[121.301638,23.720906],[121.30154,23.720905],[121.301734,23.721088],[121.301729,23.721449],[121.302022,23.721543],[121.302121,23.721454]]],[[[121.300143,23.722696],[121.300147,23.722425],[121.299953,23.722242],[121.300051,23.722243],[121.300055,23.721973],[121.300351,23.721795],[121.30036,23.721163],[121.300756,23.720806],[121.300667,23.720173],[121.300569,23.720172],[121.300474,23.7199],[121.300081,23.719986],[121.300176,23.720168],[121.29978,23.720435],[121.299678,23.720795],[121.29948,23.720883],[121.299375,23.721423],[121.299277,23.721422],[121.299269,23.722054],[121.299367,23.722055],[121.299458,23.722598],[121.299749,23.722872],[121.299945,23.722874],[121.300143,23.722696]],[[121.300268,23.72062],[121.300465,23.720623],[121.300462,23.720803],[121.300266,23.720801],[121.300268,23.72062]],[[121.299973,23.720708],[121.300072,23.720618],[121.300071,23.720709],[121.299973,23.720708]]],[[[121.303455,23.724448],[121.303268,23.723814],[121.303565,23.723546],[121.303371,23.723364],[121.303374,23.723183],[121.303767,23.723097],[121.303675,23.722644],[121.304166,23.72256],[121.304168,23.722469],[121.304461,23.722563],[121.304561,23.722383],[121.304464,23.722292],[121.304365,23.722381],[121.303484,23.722281],[121.303485,23.722191],[121.302896,23.722184],[121.302797,23.722274],[121.302701,23.722092],[121.302408,23.721998],[121.302308,23.722178],[121.302503,23.72227],[121.302499,23.722541],[121.302596,23.722633],[121.302892,23.722546],[121.302984,23.722998],[121.302496,23.722812],[121.302394,23.723082],[121.302,23.723258],[121.301997,23.723439],[121.302095,23.72344],[121.301994,23.72371],[121.30248,23.724076],[121.302477,23.724257],[121.302671,23.724439],[121.303064,23.724353],[121.30316,23.724535],[121.303356,23.724537],[121.303455,23.724448]],[[121.302869,23.724261],[121.302969,23.724172],[121.302967,23.724262],[121.302869,23.724261]],[[121.302795,23.722454],[121.302894,23.722365],[121.302893,23.722455],[121.302795,23.722454]]],[[[121.301771,23.725784],[121.301768,23.725965],[121.301963,23.726057],[121.302063,23.725968],[121.30197,23.725515],[121.302168,23.725427],[121.302262,23.725699],[121.30246,23.725611],[121.302363,23.72552],[121.302365,23.725339],[121.302564,23.725161],[121.302469,23.724889],[121.302271,23.725067],[121.301879,23.724973],[121.30178,23.725062],[121.301875,23.725334],[121.301282,23.725688],[121.301179,23.726048],[121.301374,23.726141],[121.301477,23.725781],[121.301771,23.725784]]],[[[121.305765,23.727905],[121.305865,23.727725],[121.304993,23.726903],[121.304797,23.726901],[121.304509,23.726446],[121.304312,23.726444],[121.304212,23.726624],[121.304504,23.726807],[121.304402,23.727077],[121.304499,23.727168],[121.304795,23.727081],[121.305182,23.727447],[121.305082,23.727626],[121.305372,23.7279],[121.305472,23.727811],[121.305765,23.727905]]],[[[121.303113,23.728147],[121.303213,23.728057],[121.303118,23.727785],[121.302629,23.72769],[121.30243,23.727868],[121.302237,23.727685],[121.302436,23.727417],[121.302242,23.727234],[121.301947,23.727321],[121.302042,23.727593],[121.301745,23.72777],[121.301841,23.727952],[121.302526,23.72805],[121.302525,23.72814],[121.302819,23.728143],[121.30282,23.728053],[121.303113,23.728147]]]]}},{"type":"Feature","properties":{"kind":"bare_dam","month":"2022-08","area_ha":27.86},"geometry":{"type":"MultiPolygon","coordinates":[[[[121.302898,23.691754],[121.303479,23.692302],[121.303675,23.692304],[121.303676,23.692214],[121.304263,23.69231],[121.304364,23.692131],[121.304658,23.692134],[121.304754,23.692316],[121.30495,23.692318],[121.305248,23.69196],[121.305543,23.691963],[121.305638,23.692145],[121.305834,23.692147],[121.305929,23.692419],[121.306126,23.692331],[121.30632,23.692513],[121.306518,23.692335],[121.306421,23.692244],[121.306522,23.692064],[121.306425,23.691973],[121.305935,23.691967],[121.305648,23.691422],[121.305352,23.69151],[121.304855,23.692046],[121.304661,23.691863],[121.304465,23.691861],[121.304464,23.691951],[121.303582,23.691942],[121.303583,23.691851],[121.303387,23.691849],[121.303487,23.69167],[121.303293,23.691487],[121.302705,23.691481],[121.302706,23.69139],[121.302411,23.691477],[121.302122,23.691113],[121.301534,23.691016],[121.301439,23.690835],[121.301243,23.690832],[121.301044,23.691011],[121.301047,23.69083],[121.300852,23.690738],[121.300858,23.690286],[121.30125,23.690291],[121.30135,23.690111],[121.300862,23.689925],[121.300863,23.689835],[121.298708,23.689721],[121.298607,23.6899],[121.298018,23.689984],[121.297522,23.69043],[121.29771,23.691065],[121.298102,23.691069],[121.298103,23.690979],[121.298496,23.690893],[121.298495,23.690983],[121.298788,23.691076],[121.298687,23.691346],[121.29898,23.69144],[121.29927,23.691714],[121.299371,23.691534],[121.299567,23.691536],[121.299565,23.691627],[121.299861,23.69154],[121.299769,23.691087],[121.299575,23.690904],[121.299971,23.690638],[121.299876,23.690366],[121.299778,23.690365],[121.299779,23.690275],[121.299975,23.690277],[121.300162,23.691001],[121.299864,23.691269],[121.299962,23.69127],[121.300057,23.691542],[121.300942,23.691371],[121.30094,23.691461],[121.301333,23.691466],[121.301526,23.691648],[121.30192,23.691562],[121.301918,23.691653],[121.302898,23.691754]],[[121.303093,23.691846],[121.303192,23.691757],[121.303191,23.691847],[121.303093,23.691846]],[[121.300943,23.691281],[121.300846,23.691189],[121.300944,23.69119],[121.300943,23.691281]],[[121.298995,23.690266],[121.298898,23.690175],[121.298996,23.690176],[121.298995,23.690266]]],[[[121.298472,23.692789],[121.29876,23.693243],[121.299052,23.693427],[121.29905,23.693608],[121.298754,23.693695],[121.298752,23.693875],[121.298946,23.694058],[121.299435,23.694154],[121.299535,23.693974],[121.29983,23.693887],[121.299833,23.693707],[121.300127,23.69371],[121.300417,23.693984],[121.300712,23.693987],[121.300806,23.694259],[121.3011,23.694262],[121.301199,23.694173],[121.301104,23.693991],[121.3013,23.693994],[121.301299,23.694084],[121.301496,23.693996],[121.301303,23.693723],[121.301009,23.693719],[121.300428,23.693171],[121.300336,23.692719],[121.300142,23.692536],[121.299751,23.692441],[121.299558,23.692168],[121.299165,23.692254],[121.299071,23.691982],[121.298779,23.691799],[121.298685,23.691436],[121.298389,23.691614],[121.298583,23.691796],[121.29858,23.691977],[121.298286,23.691974],[121.298387,23.691794],[121.297998,23.691519],[121.297899,23.691608],[121.297992,23.691971],[121.298187,23.692063],[121.298282,23.692335],[121.298478,23.692337],[121.298472,23.692789]],[[121.301104,23.693991],[121.301007,23.6939],[121.301105,23.693901],[121.301104,23.693991]],[[121.29858,23.691977],[121.298677,23.692068],[121.298579,23.692067],[121.29858,23.691977]],[[121.298478,23.692337],[121.298577,23.692248],[121.298576,23.692338],[121.298478,23.692337]],[[121.299635,23.693795],[121.299539,23.693703],[121.299637,23.693704],[121.299635,23.693795]],[[121.299246,23.69361],[121.299248,23.693429],[121.299346,23.69343],[121.299344,23.693611],[121.299246,23.69361]],[[121.300326,23.693441],[121.300426,23.693352],[121.300424,23.693442],[121.300326,23.693441]],[[121.300328,23.693351],[121.300231,23.693259],[121.300329,23.69326],[121.300328,23.693351]]],[[[121.302076,23.694634],[121.301882,23.694451],[121.301686,23.694449],[121.301494,23.694176],[121.301296,23.694264],[121.301294,23.694445],[121.301585,23.694719],[121.301976,23.694814],[121.302076,23.694634]]],[[[121.299705,23.695963],[121.299803,23.695964],[121.299905,23.695694],[121.299515,23.695509],[121.299313,23.695958],[121.299411,23.695959],[121.299506,23.696231],[121.299703,23.696143],[121.299705,23.695963]]],[[[121.299094,23.697762],[121.299194,23.697582],[121.299487,23.697676],[121.299587,23.697496],[121.299295,23.697403],[121.299394,23.697314],[121.2994,23.696862],[121.299107,23.696769],[121.299014,23.696316],[121.298721,23.696223],[121.298523,23.696401],[121.298627,23.695951],[121.298822,23.696043],[121.29902,23.695865],[121.299027,23.695323],[121.298736,23.695139],[121.298838,23.694779],[121.298644,23.694596],[121.298448,23.694594],[121.298348,23.694774],[121.298154,23.694591],[121.297958,23.694589],[121.297854,23.695039],[121.297657,23.695127],[121.297646,23.69594],[121.29784,23.696123],[121.297836,23.696484],[121.29803,23.696576],[121.298027,23.696847],[121.298125,23.696848],[121.298218,23.69721],[121.29851,23.697394],[121.29841,23.697574],[121.298507,23.697665],[121.298704,23.697577],[121.2988,23.697759],[121.299094,23.697762]],[[121.299194,23.697582],[121.299097,23.697491],[121.299195,23.697492],[121.299194,23.697582]],[[121.298529,23.69595],[121.298532,23.695679],[121.298436,23.695587],[121.298728,23.695681],[121.298627,23.695951],[121.298529,23.69595]],[[121.298706,23.697396],[121.298804,23.697397],[121.298802,23.697578],[121.298704,23.697577],[121.298706,23.697396]]],[[[121.302436,23.697166],[121.302634,23.696988],[121.303027,23.696902],[121.303132,23.696361],[121.30323,23.696362],[121.303234,23.696092],[121.303332,23.696093],[121.303239,23.69573],[121.303042,23.695728],[121.302844,23.695907],[121.302841,23.696178],[121.302644,23.696175],[121.302248,23.696532],[121.302245,23.696713],[121.302048,23.696801],[121.302046,23.696982],[121.302239,23.697164],[121.302339,23.697075],[121.302436,23.697166]],[[121.302636,23.696807],[121.302639,23.696627],[121.302737,23.696628],[121.302734,23.696809],[121.302636,23.696807]]],[[[121.300373,23.697415],[121.300277,23.697233],[121.300081,23.697231],[121.300085,23.69696],[121.299697,23.696595],[121.299598,23.696684],[121.299695,23.696775],[121.299596,23.696864],[121.299593,23.697045],[121.299691,23.697046],[121.299589,23.697406],[121.29988,23.69759],[121.299981,23.69741],[121.300274,23.697504],[121.300373,23.697415]]],[[[121.299157,23.700472],[121.298776,23.699564],[121.298975,23.699386],[121.299081,23.698755],[121.299278,23.698667],[121.29928,23.698486],[121.299576,23.698399],[121.299577,23.698309],[121.300361,23.698318],[121.300363,23.698227],[121.30095,23.698324],[121.300951,23.698234],[121.301147,23.698236],[121.301445,23.697968],[121.301447,23.697788],[121.30204,23.697433],[121.301944,23.697251],[121.301748,23.697249],[121.301648,23.697429],[121.301157,23.697423],[121.301057,23.697603],[121.300274,23.697504],[121.300173,23.697683],[121.300077,23.697592],[121.299879,23.69768],[121.299876,23.697951],[121.299584,23.697767],[121.299484,23.697947],[121.299288,23.697945],[121.299187,23.698124],[121.298596,23.698298],[121.298496,23.698478],[121.298302,23.698295],[121.298105,23.698383],[121.298103,23.698564],[121.297904,23.698742],[121.297995,23.699285],[121.2977,23.699372],[121.297499,23.699731],[121.297888,23.700006],[121.297882,23.700458],[121.298176,23.700461],[121.298177,23.70037],[121.298274,23.700462],[121.299157,23.700472]],[[121.29857,23.700375],[121.298669,23.700286],[121.298668,23.700376],[121.29857,23.700375]],[[121.298391,23.699018],[121.29849,23.698929],[121.298489,23.699019],[121.298391,23.699018]]],[[[121.295446,23.699257],[121.295843,23.6989],[121.296332,23.698996],[121.296432,23.698816],[121.296239,23.698633],[121.295748,23.698628],[121.295252,23.699074],[121.294861,23.698979],[121.294863,23.698889],[121.294665,23.698977],[121.294858,23.69925],[121.295152,23.699254],[121.295153,23.699163],[121.295446,23.699257]]],[[[121.31276,23.687346],[121.312468,23.687163],[121.312278,23.686709],[121.311886,23.686705],[121.311687,23.686883],[121.311497,23.68643],[121.3114,23.686338],[121.311203,23.686426],[121.3112,23.686697],[121.311393,23.68688],[121.311285,23.687692],[121.311187,23.68769],[121.311282,23.687872],[121.311479,23.687874],[121.311677,23.687696],[121.311679,23.687515],[121.311876,23.687427],[121.311781,23.687245],[121.311584,23.687334],[121.311586,23.687153],[121.31188,23.687156],[121.311976,23.687338],[121.312172,23.68734],[121.312173,23.68725],[121.312368,23.687342],[121.312265,23.687702],[121.312653,23.688068],[121.312752,23.687978],[121.31276,23.687346]]],[[[121.310881,23.68859],[121.311179,23.688322],[121.311083,23.688141],[121.310887,23.688139],[121.310786,23.688318],[121.310491,23.688405],[121.310586,23.688677],[121.310881,23.68859]]],[[[121.310489,23.688586],[121.310294,23.688493],[121.310194,23.688673],[121.310388,23.688765],[121.310489,23.688586]]],[[[121.308793,23.690825],[121.308991,23.690646],[121.308893,23.690645],[121.3088,23.690283],[121.308605,23.690191],[121.308506,23.69028],[121.3085,23.690731],[121.308597,23.690823],[121.308794,23.690735],[121.308793,23.690825]]],[[[121.308194,23.691631],[121.308487,23.691724],[121.308589,23.691455],[121.308297,23.691271],[121.307801,23.691717],[121.308094,23.69181],[121.308194,23.691631]]],[[[121.3078,23.691807],[121.307703,23.691716],[121.307408,23.691803],[121.307407,23.691893],[121.307114,23.6918],[121.307013,23.691979],[121.30711,23.692071],[121.307405,23.691984],[121.307501,23.692165],[121.307697,23.692167],[121.3078,23.691807]]],[[[121.310636,23.69238],[121.311131,23.692024],[121.311035,23.691843],[121.310839,23.69184],[121.310738,23.69211],[121.310641,23.692019],[121.310345,23.692106],[121.310636,23.69238]]],[[[121.304743,23.693128],[121.30465,23.692766],[121.304454,23.692764],[121.304255,23.692942],[121.303967,23.692488],[121.303672,23.692575],[121.303665,23.693116],[121.303761,23.693208],[121.304056,23.693211],[121.304151,23.693393],[121.304543,23.693397],[121.304645,23.693127],[121.304743,23.693128]],[[121.304254,23.693033],[121.30445,23.693035],[121.304449,23.693125],[121.304253,23.693123],[121.304254,23.693033]]],[[[121.305113,23.694848],[121.305608,23.694492],[121.305415,23.694219],[121.305218,23.694307],[121.305216,23.694488],[121.30502,23.694486],[121.304925,23.694214],[121.304434,23.694299],[121.304135,23.694657],[121.30384,23.694744],[121.303934,23.695016],[121.303638,23.695193],[121.303634,23.695464],[121.304025,23.695559],[121.304024,23.695649],[121.30422,23.695651],[121.304321,23.695471],[121.304515,23.695564],[121.305012,23.695118],[121.305108,23.695209],[121.305306,23.695121],[121.305113,23.694848]],[[121.304223,23.69547],[121.304225,23.69529],[121.304323,23.695291],[121.304321,23.695471],[121.304223,23.69547]],[[121.305112,23.694938],[121.305013,23.695028],[121.305014,23.694937],[121.305112,23.694938]],[[121.304328,23.69493],[121.304427,23.694841],[121.304426,23.694931],[121.304328,23.69493]]]]}},{"type":"Feature","properties":{"kind":"water","month":"2022-08","area_ha":0.9},"geometry":{"type":"MultiPolygon","coordinates":[[[[121.298727,23.695771],[121.298632,23.69559],[121.298436,23.695587],[121.298529,23.69595],[121.298727,23.695771]]],[[[121.29872,23.696313],[121.298725,23.695952],[121.298627,23.695951],[121.298523,23.696401],[121.29872,23.696313]]],[[[121.298706,23.697396],[121.298704,23.697577],[121.298802,23.697578],[121.298804,23.697397],[121.298706,23.697396]]],[[[121.300567,23.697597],[121.301057,23.697603],[121.301058,23.697513],[121.300275,23.697414],[121.300274,23.697504],[121.300568,23.697507],[121.300567,23.697597]]],[[[121.299876,23.697951],[121.299879,23.69768],[121.300273,23.697594],[121.300177,23.697413],[121.299684,23.697588],[121.299778,23.69795],[121.299876,23.697951]]],[[[121.2988,23.697759],[121.298606,23.697576],[121.2986,23.698027],[121.298403,23.698115],[121.298398,23.698477],[121.298496,23.698478],[121.298498,23.698297],[121.298793,23.6983],[121.298794,23.69821],[121.299187,23.698124],[121.299189,23.697944],[121.299484,23.697947],[121.299388,23.697765],[121.299682,23.697768],[121.299683,23.697678],[121.2988,23.697759]]]]}}]}