{"type":"FeatureCollection","features":[{"type":"Feature","properties":{"kind":"bare_slide","month":"2022-02","area_ha":70.3},"geometry":{"type":"MultiPolygon","coordinates":[[[[121.29263,23.712229],[121.293028,23.711782],[121.293221,23.711964],[121.293418,23.711967],[121.293517,23.711877],[121.293423,23.711515],[121.29362,23.711517],[121.293918,23.711159],[121.293724,23.711067],[121.293722,23.711157],[121.293132,23.711331],[121.293031,23.711511],[121.292344,23.711594],[121.29224,23.712044],[121.292433,23.712227],[121.29263,23.712229]],[[121.292537,23.711776],[121.292634,23.711868],[121.292536,23.711867],[121.292537,23.711776]]],[[[121.298131,23.719062],[121.298338,23.718251],[121.29883,23.718076],[121.298834,23.717805],[121.298932,23.717807],[121.298837,23.717535],[121.298045,23.718158],[121.297942,23.718518],[121.297545,23.718875],[121.297836,23.719149],[121.298131,23.719062]]],[[[121.285281,23.719191],[121.285284,23.71901],[121.284893,23.718916],[121.284797,23.718734],[121.2846,23.718822],[121.284694,23.719094],[121.284401,23.719],[121.284403,23.71882],[121.284502,23.718821],[121.284504,23.71864],[121.284309,23.718548],[121.284409,23.718368],[121.283827,23.717911],[121.283734,23.717548],[121.283442,23.717364],[121.283243,23.717543],[121.283335,23.717995],[121.283137,23.718174],[121.283135,23.718354],[121.28333,23.718447],[121.283325,23.718808],[121.283128,23.718896],[121.283022,23.719437],[121.282725,23.719704],[121.282528,23.719702],[121.282428,23.719882],[121.281839,23.719965],[121.28164,23.720144],[121.281636,23.720415],[121.282023,23.72087],[121.282317,23.720874],[121.282318,23.720783],[121.28281,23.720699],[121.28291,23.720519],[121.283205,23.720432],[121.283408,23.719983],[121.284002,23.719538],[121.284105,23.719178],[121.284399,23.719181],[121.284398,23.719271],[121.284693,23.719184],[121.284886,23.719457],[121.285281,23.719191]],[[121.285084,23.719279],[121.284987,23.719188],[121.285085,23.719189],[121.285084,23.719279]],[[121.283417,23.71926],[121.283612,23.719353],[121.283611,23.719443],[121.283415,23.719441],[121.283417,23.71926]],[[121.283615,23.719082],[121.283519,23.718991],[121.283617,23.718992],[121.283615,23.719082]],[[121.283519,23.718991],[121.283422,23.718899],[121.28352,23.7189],[121.283519,23.718991]],[[121.283825,23.718091],[121.28382,23.718452],[121.283623,23.71854],[121.283526,23.718449],[121.283532,23.717998],[121.283825,23.718091]],[[121.283532,23.717998],[121.283435,23.717906],[121.283533,23.717907],[121.283532,23.717998]]],[[[121.285076,23.719911],[121.28488,23.719909],[121.284779,23.720088],[121.284583,23.720086],[121.284385,23.720264],[121.284288,23.720173],[121.284387,23.720084],[121.284294,23.719722],[121.284099,23.719629],[121.283996,23.719989],[121.28419,23.720172],[121.284092,23.720171],[121.283989,23.720531],[121.284477,23.720717],[121.284578,23.720447],[121.285071,23.720272],[121.285073,23.720092],[121.285171,23.720093],[121.285076,23.719911]]],[[[121.302411,23.721818],[121.302316,23.721546],[121.302025,23.721272],[121.302029,23.721001],[121.301931,23.721],[121.302032,23.72073],[121.302131,23.720731],[121.302134,23.72046],[121.302232,23.720461],[121.30224,23.719829],[121.302338,23.719831],[121.302145,23.719648],[121.301946,23.719826],[121.301842,23.720277],[121.301744,23.720275],[121.301739,23.720637],[121.301641,23.720636],[121.301537,23.721086],[121.301732,23.721178],[121.301729,23.721449],[121.302022,23.721543],[121.30202,23.721723],[121.302213,23.721906],[121.302411,23.721818]]],[[[121.293527,23.726145],[121.29392,23.726149],[121.293922,23.725969],[121.29451,23.725975],[121.294515,23.725614],[121.294908,23.725528],[121.295002,23.72589],[121.295883,23.72599],[121.295881,23.726171],[121.296075,23.726353],[121.29686,23.726272],[121.296856,23.726633],[121.297149,23.726726],[121.297347,23.726548],[121.297257,23.725915],[121.297456,23.725737],[121.298045,23.725653],[121.298238,23.725926],[121.298434,23.725928],[121.298628,23.726111],[121.299118,23.726116],[121.299214,23.726298],[121.299802,23.726304],[121.299898,23.726486],[121.300485,23.726583],[121.300678,23.726856],[121.30107,23.72686],[121.301067,23.727131],[121.301457,23.727316],[121.301453,23.727587],[121.301841,23.727952],[121.302135,23.727955],[121.302329,23.728138],[121.303211,23.728148],[121.303213,23.728057],[121.303508,23.72797],[121.303415,23.727608],[121.303612,23.72752],[121.303614,23.727339],[121.303419,23.727247],[121.303431,23.726344],[121.303628,23.726256],[121.303632,23.725985],[121.304127,23.725629],[121.304036,23.725086],[121.304233,23.724998],[121.304043,23.724545],[121.303749,23.724542],[121.303653,23.72436],[121.30336,23.724266],[121.303366,23.723815],[121.303563,23.723727],[121.303472,23.723184],[121.303666,23.723367],[121.303862,23.723369],[121.303966,23.722919],[121.304162,23.722921],[121.304263,23.722651],[121.30446,23.722653],[121.304758,23.722295],[121.304661,23.722204],[121.303287,23.722279],[121.303289,23.722189],[121.302798,23.722183],[121.302409,23.721908],[121.302308,23.722178],[121.302503,23.72227],[121.302595,23.722723],[121.302398,23.722811],[121.302295,23.723171],[121.301802,23.723346],[121.301421,23.722529],[121.301321,23.722619],[121.300635,23.722611],[121.300636,23.722521],[121.300244,23.722516],[121.300246,23.722336],[121.300148,23.722335],[121.300152,23.722064],[121.300448,23.721887],[121.300459,23.721074],[121.300856,23.720717],[121.300662,23.720535],[121.300668,23.720083],[121.300277,23.719988],[121.300176,23.720168],[121.29998,23.720166],[121.299782,23.720344],[121.299779,23.720525],[121.299681,23.720524],[121.299679,23.720704],[121.29938,23.721062],[121.299374,23.721514],[121.299276,23.721513],[121.299362,23.722416],[121.299461,23.722418],[121.299554,23.72278],[121.299749,23.722872],[121.299747,23.723053],[121.299452,23.72305],[121.299454,23.722959],[121.299062,23.722865],[121.298966,23.722773],[121.299068,23.722413],[121.298677,23.722319],[121.298577,23.722498],[121.298675,23.722499],[121.298671,23.72277],[121.298865,23.722953],[121.298566,23.723311],[121.298272,23.723307],[121.298176,23.723126],[121.297979,23.723214],[121.29779,23.72267],[121.297593,23.722758],[121.29759,23.722939],[121.297392,23.723117],[121.296709,23.722839],[121.295616,23.72391],[121.295126,23.723905],[121.294828,23.724173],[121.294045,23.724074],[121.293745,23.724522],[121.293548,23.72452],[121.293356,23.724247],[121.293159,23.724335],[121.292966,23.724062],[121.292672,23.724058],[121.292576,23.723877],[121.292184,23.723872],[121.291984,23.724141],[121.291887,23.72405],[121.29169,23.724138],[121.291688,23.724318],[121.291589,23.724317],[121.291683,23.72468],[121.291487,23.724677],[121.291391,23.724496],[121.291195,23.724494],[121.2913,23.723953],[121.291398,23.723954],[121.291402,23.723683],[121.291793,23.723778],[121.291893,23.723598],[121.291117,23.722958],[121.29112,23.722687],[121.290925,23.722594],[121.290929,23.722324],[121.289863,23.721318],[121.289373,23.721313],[121.289277,23.721131],[121.288787,23.721126],[121.288691,23.720944],[121.288005,23.720937],[121.287909,23.720755],[121.287419,23.72075],[121.287323,23.720568],[121.287029,23.720565],[121.286933,23.720383],[121.286639,23.72038],[121.285671,23.719376],[121.285475,23.719374],[121.285277,23.719552],[121.285371,23.719824],[121.285173,23.720002],[121.285466,23.720096],[121.285664,23.719917],[121.285857,23.720191],[121.285658,23.720369],[121.285267,23.720274],[121.285069,23.720453],[121.284965,23.720903],[121.284868,23.720812],[121.284671,23.7209],[121.284563,23.721621],[121.284265,23.721889],[121.284263,23.722069],[121.283968,23.722156],[121.284061,23.722518],[121.284452,23.722613],[121.284556,23.722163],[121.28475,23.722345],[121.285046,23.722168],[121.285044,23.722349],[121.284845,23.722527],[121.28504,23.72262],[121.285135,23.722891],[121.285625,23.722897],[121.285721,23.723079],[121.286211,23.723084],[121.286405,23.723267],[121.286699,23.72327],[121.287,23.722732],[121.287194,23.722914],[121.287392,23.722826],[121.287394,23.722646],[121.287492,23.722647],[121.287396,23.722465],[121.287494,23.722466],[121.287498,23.722195],[121.287596,23.722196],[121.287503,23.721834],[121.287992,23.72193],[121.288087,23.722111],[121.28848,23.722116],[121.288478,23.722206],[121.288675,23.722208],[121.288776,23.721939],[121.28907,23.721942],[121.289068,23.722122],[121.289166,23.722123],[121.289067,23.722213],[121.289164,23.722304],[121.289059,23.722845],[121.289254,23.722937],[121.289251,23.723118],[121.289153,23.723117],[121.289151,23.723297],[121.288855,23.723384],[121.28895,23.723656],[121.289544,23.723211],[121.289547,23.723031],[121.289844,23.722763],[121.29004,23.722765],[121.290141,23.722586],[121.290435,23.722589],[121.290429,23.72304],[121.290527,23.723041],[121.290426,23.723311],[121.290131,23.723308],[121.29003,23.723578],[121.289635,23.723754],[121.289633,23.723935],[121.289828,23.724027],[121.290027,23.723758],[121.290222,23.723851],[121.290219,23.724122],[121.289921,23.724389],[121.290017,23.724571],[121.290414,23.724214],[121.29061,23.724216],[121.290712,23.723946],[121.291005,23.72404],[121.291,23.724401],[121.290902,23.7244],[121.290898,23.724671],[121.2908,23.72467],[121.290889,23.725393],[121.290693,23.725391],[121.290591,23.725661],[121.290982,23.725755],[121.290981,23.725846],[121.291275,23.725849],[121.291477,23.7254],[121.291771,23.725403],[121.292069,23.725135],[121.292073,23.724865],[121.291878,23.724772],[121.29188,23.724592],[121.291978,23.724593],[121.29208,23.724323],[121.292375,23.724236],[121.29247,23.724508],[121.292665,23.7246],[121.29266,23.724961],[121.292758,23.724962],[121.292851,23.725325],[121.292556,23.725412],[121.292555,23.725502],[121.292163,23.725498],[121.292062,23.725677],[121.292547,23.726134],[121.292939,23.726138],[121.293039,23.725959],[121.293136,23.72605],[121.293333,23.725962],[121.293329,23.726323],[121.293525,23.726325],[121.293527,23.726145]],[[121.291683,23.72468],[121.29178,23.724771],[121.291682,23.72477],[121.291683,23.72468]],[[121.293333,23.725962],[121.293433,23.725873],[121.293432,23.725963],[121.293333,23.725962]],[[121.294624,23.724802],[121.29443,23.72462],[121.294432,23.724439],[121.294631,23.724261],[121.294827,23.724263],[121.295021,23.724446],[121.295018,23.724626],[121.29482,23.724805],[121.294624,23.724802]],[[121.301793,23.724069],[121.301499,23.724065],[121.301602,23.723705],[121.302091,23.723801],[121.302085,23.724252],[121.301889,23.72425],[121.301793,23.724069]],[[121.302984,23.722998],[121.302692,23.722814],[121.302694,23.722634],[121.30289,23.722636],[121.302984,23.722998]],[[121.28563,23.722536],[121.285532,23.722535],[121.285534,23.722354],[121.285632,23.722355],[121.28563,23.722536]],[[121.285737,23.721815],[121.285638,23.721904],[121.285639,23.721813],[121.285737,23.721815]],[[121.285349,23.721539],[121.285545,23.721542],[121.285446,23.721631],[121.285541,23.721812],[121.285247,23.721809],[121.285349,23.721539]],[[121.285939,23.721365],[121.285649,23.721091],[121.285847,23.720913],[121.286139,23.721097],[121.285939,23.721365]]]]}},{"type":"Feature","properties":{"kind":"bare_dam","month":"2022-02","area_ha":7.72},"geometry":{"type":"MultiPolygon","coordinates":[[[[121.300758,23.690376],[121.301349,23.690201],[121.301253,23.69002],[121.300862,23.689925],[121.300664,23.690104],[121.300758,23.690376]]],[[[121.302221,23.691024],[121.302718,23.690487],[121.302621,23.690396],[121.302625,23.690125],[121.302723,23.690126],[121.30263,23.689674],[121.302237,23.68976],[121.302236,23.68985],[121.302432,23.689852],[121.302427,23.690213],[121.302132,23.6903],[121.302325,23.690573],[121.302027,23.690841],[121.30193,23.69075],[121.301734,23.690748],[121.301733,23.690838],[121.301342,23.690743],[121.301142,23.691012],[121.301239,23.691103],[121.301925,23.691111],[121.301927,23.691021],[121.302221,23.691024]]],[[[121.300172,23.690189],[121.299979,23.690006],[121.300276,23.689738],[121.299394,23.689729],[121.29949,23.68991],[121.299785,23.689823],[121.299881,23.690005],[121.299488,23.69],[121.299388,23.69018],[121.299093,23.690267],[121.29909,23.690448],[121.298798,23.690354],[121.298801,23.690083],[121.298607,23.6899],[121.298215,23.689896],[121.298213,23.690077],[121.297919,23.690074],[121.29762,23.690431],[121.297717,23.690523],[121.298305,23.690529],[121.298405,23.69035],[121.298601,23.690352],[121.298795,23.690535],[121.298793,23.690715],[121.298594,23.690894],[121.298789,23.690986],[121.298884,23.691258],[121.299178,23.691261],[121.299277,23.691172],[121.299183,23.6909],[121.29958,23.690543],[121.299774,23.690636],[121.299876,23.690366],[121.300072,23.690368],[121.300172,23.690189]],[[121.299876,23.690366],[121.299779,23.690275],[121.299877,23.690276],[121.299876,23.690366]],[[121.299385,23.690451],[121.299288,23.690359],[121.299386,23.690361],[121.299385,23.690451]],[[121.299582,23.690363],[121.299485,23.690271],[121.299583,23.690272],[121.299582,23.690363]]],[[[121.300752,23.690827],[121.300661,23.690284],[121.300369,23.690191],[121.300071,23.690458],[121.300067,23.690729],[121.300261,23.690912],[121.300752,23.690827]]],[[[121.298223,23.696849],[121.298521,23.696582],[121.298327,23.696399],[121.29833,23.696128],[121.29882,23.696224],[121.298919,23.696135],[121.298922,23.695864],[121.298824,23.695863],[121.298925,23.695683],[121.29873,23.695591],[121.29863,23.69568],[121.298726,23.695862],[121.298432,23.695858],[121.298433,23.695768],[121.298139,23.695765],[121.297848,23.695491],[121.297646,23.69594],[121.298035,23.696215],[121.298033,23.696396],[121.297935,23.696395],[121.298028,23.696757],[121.298223,23.696849]]],[[[121.30095,23.698324],[121.301345,23.698057],[121.301348,23.697877],[121.301154,23.697694],[121.30086,23.697691],[121.300463,23.698048],[121.300267,23.698046],[121.300166,23.698225],[121.300263,23.698317],[121.30095,23.698324]]],[[[121.298288,23.699378],[121.297989,23.699736],[121.297793,23.699734],[121.2976,23.699551],[121.297302,23.699819],[121.297399,23.69991],[121.297596,23.699822],[121.297595,23.699913],[121.297986,23.700007],[121.297788,23.700186],[121.297882,23.700458],[121.29847,23.700464],[121.298867,23.700107],[121.29877,23.700016],[121.29887,23.699927],[121.298776,23.699564],[121.298973,23.699476],[121.29908,23.698845],[121.299379,23.698487],[121.298889,23.698392],[121.298491,23.698839],[121.298489,23.699019],[121.298587,23.69902],[121.298483,23.699471],[121.298288,23.699378]],[[121.298483,23.699471],[121.29858,23.699562],[121.298482,23.699561],[121.298483,23.699471]],[[121.298188,23.699558],[121.298285,23.699649],[121.298187,23.699648],[121.298188,23.699558]],[[121.298277,23.700281],[121.298179,23.70028],[121.298182,23.700009],[121.29828,23.70001],[121.298277,23.700281]]],[[[121.30221,23.691836],[121.302508,23.691569],[121.302415,23.691206],[121.301819,23.691742],[121.30221,23.691836]]],[[[121.303773,23.692305],[121.304263,23.69231],[121.304463,23.692042],[121.304366,23.69195],[121.303679,23.692033],[121.303485,23.69185],[121.30319,23.691937],[121.303285,23.692119],[121.303481,23.692121],[121.303577,23.692303],[121.303774,23.692215],[121.303773,23.692305]]],[[[121.304714,23.695385],[121.30511,23.695119],[121.305017,23.694666],[121.30482,23.694755],[121.304916,23.694936],[121.304618,23.695204],[121.304714,23.695385]]],[[[121.30452,23.695203],[121.304322,23.695381],[121.304517,23.695474],[121.304617,23.695294],[121.30452,23.695203]]],[[[121.303332,23.696093],[121.303432,23.695913],[121.303141,23.695729],[121.303039,23.695999],[121.303136,23.696091],[121.303332,23.696093]]],[[[121.302841,23.696178],[121.302644,23.696175],[121.302248,23.696532],[121.302245,23.696713],[121.302047,23.696891],[121.302239,23.697164],[121.302534,23.697168],[121.302733,23.696899],[121.30283,23.69699],[121.303027,23.696902],[121.302932,23.69672],[121.302832,23.69681],[121.302637,23.696717],[121.302739,23.696447],[121.302935,23.69645],[121.303136,23.696091],[121.302941,23.695998],[121.302841,23.696178]]]]}},{"type":"Feature","properties":{"kind":"water","month":"2022-02","area_ha":1.12},"geometry":{"type":"MultiPolygon","coordinates":[[[[121.304323,23.695291],[121.304521,23.695112],[121.304325,23.69511],[121.304323,23.695291]]],[[[121.301058,23.697513],[121.301155,23.697604],[121.301156,23.697514],[121.301058,23.697513]]],[[[121.300667,23.697418],[121.300471,23.697416],[121.300564,23.697778],[121.301056,23.697693],[121.300667,23.697418]]],[[[121.298399,23.698386],[121.2983,23.698476],[121.298298,23.698656],[121.298589,23.69884],[121.298693,23.69839],[121.298399,23.698386]],[[121.298592,23.698659],[121.298495,23.698568],[121.298593,23.698569],[121.298592,23.698659]]],[[[121.29849,23.698929],[121.298393,23.698838],[121.298392,23.698928],[121.29849,23.698929]]],[[[121.295448,23.699076],[121.295842,23.69899],[121.295844,23.69881],[121.295154,23.699073],[121.295152,23.699254],[121.295447,23.699167],[121.295448,23.699076]]],[[[121.297989,23.699736],[121.298189,23.699468],[121.297895,23.699464],[121.297896,23.699374],[121.297699,23.699462],[121.297793,23.699734],[121.297989,23.699736]]],[[[121.298188,23.699558],[121.298285,23.699649],[121.298286,23.699559],[121.298188,23.699558]]],[[[121.311978,23.687157],[121.311587,23.687063],[121.311486,23.687332],[121.311582,23.687424],[121.311976,23.687338],[121.311978,23.687157]]],[[[121.311384,23.687602],[121.31158,23.687604],[121.311582,23.687424],[121.311386,23.687422],[121.311384,23.687602]]],[[[121.308797,23.690554],[121.3086,23.690552],[121.30869,23.691185],[121.308886,23.691187],[121.308797,23.690554]]],[[[121.308292,23.691632],[121.30839,23.691633],[121.308393,23.691453],[121.308197,23.69145],[121.308095,23.69172],[121.3078,23.691807],[121.307798,23.691988],[121.308092,23.691991],[121.308094,23.69181],[121.30829,23.691813],[121.308292,23.691632]]],[[[121.30472,23.694934],[121.304916,23.694936],[121.304917,23.694846],[121.304721,23.694844],[121.30472,23.694934]]],[[[121.304521,23.695112],[121.304716,23.695205],[121.30472,23.694934],[121.304524,23.694932],[121.304521,23.695112]]],[[[121.304617,23.695294],[121.30452,23.695203],[121.304519,23.695293],[121.304617,23.695294]]]]}}]}