{"type":"FeatureCollection","features":[{"type":"Feature","properties":{"kind":"bare_slide","month":"2022-12","area_ha":88.98},"geometry":{"type":"MultiPolygon","coordinates":[[[[121.297577,23.708852],[121.297775,23.708674],[121.297872,23.708765],[121.29807,23.708677],[121.297976,23.708315],[121.297679,23.708582],[121.297482,23.70858],[121.297185,23.708848],[121.297181,23.709119],[121.296885,23.709296],[121.297173,23.709751],[121.29747,23.709573],[121.297475,23.709122],[121.297573,23.709123],[121.297577,23.708852]]],[[[121.297269,23.709932],[121.297364,23.710114],[121.297657,23.710207],[121.297751,23.71057],[121.297946,23.710662],[121.297943,23.710843],[121.297745,23.711021],[121.297737,23.711653],[121.297245,23.711738],[121.297244,23.711828],[121.296755,23.711733],[121.296656,23.711822],[121.296749,23.712184],[121.297043,23.712187],[121.297045,23.712097],[121.297632,23.712194],[121.298128,23.711748],[121.29813,23.711567],[121.298327,23.711479],[121.29844,23.710397],[121.298245,23.710304],[121.298247,23.710124],[121.297955,23.70994],[121.297861,23.709668],[121.29747,23.709573],[121.297367,23.709933],[121.297269,23.709932]],[[121.297242,23.712009],[121.297145,23.711917],[121.297243,23.711918],[121.297242,23.712009]]],[[[121.283959,23.715293],[121.284356,23.714937],[121.284261,23.714755],[121.284064,23.714753],[121.284069,23.714392],[121.284466,23.714035],[121.28447,23.713764],[121.284568,23.713765],[121.284472,23.713583],[121.284274,23.713762],[121.283979,23.713758],[121.282987,23.71465],[121.282981,23.715102],[121.283274,23.715195],[121.283563,23.71556],[121.283858,23.715563],[121.283959,23.715293]]],[[[121.295523,23.715963],[121.295425,23.715962],[121.295526,23.715782],[121.295138,23.715417],[121.294942,23.715415],[121.294749,23.715142],[121.294159,23.715316],[121.293861,23.715583],[121.293857,23.715854],[121.293759,23.715853],[121.293855,23.716035],[121.294247,23.716039],[121.294248,23.715949],[121.294544,23.715862],[121.294547,23.715591],[121.29494,23.715595],[121.295035,23.715777],[121.295328,23.715871],[121.295229,23.71596],[121.295325,23.716141],[121.295523,23.715963]]],[[[121.284203,23.719179],[121.284303,23.718999],[121.284108,23.718907],[121.284113,23.718546],[121.28431,23.718458],[121.284313,23.718277],[121.284511,23.718099],[121.285001,23.718104],[121.285102,23.717925],[121.284908,23.717742],[121.285106,23.717564],[121.285401,23.717567],[121.285593,23.71784],[121.285297,23.718017],[121.285394,23.718109],[121.285391,23.718289],[121.285194,23.718377],[121.285287,23.718739],[121.284991,23.718917],[121.284988,23.719097],[121.285376,23.719463],[121.28537,23.719914],[121.285271,23.720003],[121.285466,23.720096],[121.285566,23.719916],[121.28586,23.71992],[121.286053,23.720193],[121.285854,23.720371],[121.285463,23.720276],[121.285359,23.720727],[121.285064,23.720814],[121.285059,23.721175],[121.284961,23.721174],[121.284868,23.720812],[121.284673,23.720719],[121.284676,23.720448],[121.284288,23.720173],[121.284291,23.719902],[121.284097,23.71972],[121.2839,23.719808],[121.283898,23.719988],[121.284092,23.720171],[121.283989,23.720531],[121.284477,23.720717],[121.284474,23.720898],[121.284668,23.72108],[121.284461,23.721891],[121.284064,23.722248],[121.284354,23.722612],[121.284551,23.722524],[121.284454,23.722432],[121.284557,23.722072],[121.284655,23.722073],[121.28475,23.722345],[121.284948,23.722167],[121.285144,23.722169],[121.284943,23.722528],[121.285233,23.722893],[121.285527,23.722896],[121.285623,23.723077],[121.286211,23.723084],[121.286405,23.723267],[121.286601,23.723269],[121.286602,23.723179],[121.286797,23.723271],[121.286896,23.723182],[121.286802,23.72291],[121.2869,23.722911],[121.287003,23.722551],[121.287198,23.722643],[121.287299,23.722374],[121.287497,23.722286],[121.287503,23.721834],[121.287896,23.721748],[121.288089,23.722021],[121.28858,23.721936],[121.288683,23.721576],[121.28839,23.721483],[121.288588,23.721304],[121.288782,23.721487],[121.289174,23.721491],[121.288976,23.72167],[121.289072,23.721851],[121.28966,23.721858],[121.28976,23.721679],[121.290055,23.721682],[121.29015,23.721863],[121.290346,23.721866],[121.290348,23.721775],[121.290543,23.721868],[121.290642,23.721779],[121.290547,23.721507],[121.290644,23.721598],[121.290841,23.72151],[121.290747,23.721238],[121.290453,23.721235],[121.290456,23.720964],[121.290554,23.720965],[121.290463,23.720422],[121.290561,23.720423],[121.290565,23.720152],[121.290663,23.720153],[121.290668,23.719792],[121.290965,23.719525],[121.291071,23.718984],[121.29117,23.718895],[121.29166,23.7189],[121.291859,23.718722],[121.291768,23.718179],[121.291965,23.718091],[121.29197,23.71773],[121.292167,23.717642],[121.292169,23.717461],[121.292267,23.717462],[121.292264,23.717733],[121.292557,23.717827],[121.292661,23.717376],[121.292466,23.717284],[121.292472,23.716832],[121.292277,23.71674],[121.291875,23.717458],[121.291483,23.717454],[121.291283,23.717722],[121.291087,23.71772],[121.290889,23.717898],[121.290594,23.717895],[121.290396,23.718074],[121.290393,23.718254],[121.290001,23.71825],[121.289803,23.718428],[121.289898,23.71861],[121.290386,23.718796],[121.290384,23.718976],[121.289992,23.718972],[121.289889,23.719332],[121.289301,23.719326],[121.289011,23.718961],[121.290004,23.718069],[121.289817,23.717345],[121.290113,23.717167],[121.290117,23.716897],[121.29051,23.716811],[121.290613,23.716451],[121.290808,23.716543],[121.291404,23.716008],[121.291406,23.715827],[121.291702,23.71565],[121.291705,23.715469],[121.291999,23.715473],[121.292099,23.715293],[121.29239,23.715567],[121.292786,23.715301],[121.292982,23.715303],[121.293076,23.715575],[121.293568,23.71549],[121.293569,23.7154],[121.293961,23.715404],[121.294361,23.714867],[121.294853,23.714691],[121.29545,23.714066],[121.295942,23.713891],[121.295947,23.71353],[121.296045,23.713531],[121.296349,23.712812],[121.295958,23.712717],[121.295757,23.713076],[121.295267,23.713071],[121.294969,23.713338],[121.294676,23.713245],[121.294475,23.713604],[121.294181,23.7136],[121.294081,23.71378],[121.293589,23.713865],[121.293291,23.714132],[121.293289,23.714313],[121.293192,23.714222],[121.292408,23.714213],[121.292308,23.714302],[121.292403,23.714574],[121.292105,23.714842],[121.29191,23.714749],[121.292011,23.71457],[121.291816,23.714477],[121.291916,23.714298],[121.291721,23.714205],[121.291621,23.714385],[121.291328,23.714291],[121.291227,23.714471],[121.290936,23.714287],[121.290835,23.714466],[121.290639,23.714464],[121.290439,23.714733],[121.290244,23.714641],[121.290144,23.71482],[121.289948,23.714818],[121.289949,23.714728],[121.289751,23.714906],[121.289458,23.714812],[121.289358,23.714902],[121.289454,23.715083],[121.288573,23.714983],[121.288472,23.715163],[121.288765,23.715256],[121.288567,23.715435],[121.28798,23.715338],[121.287982,23.715157],[121.288179,23.715069],[121.288084,23.714888],[121.287786,23.715155],[121.287689,23.715064],[121.287297,23.715059],[121.287296,23.71515],[121.287003,23.715056],[121.286902,23.715236],[121.286511,23.715141],[121.286412,23.71523],[121.286506,23.715502],[121.286998,23.715417],[121.2867,23.715685],[121.286698,23.715865],[121.286892,23.716048],[121.287186,23.716051],[121.287281,23.716233],[121.286987,23.71623],[121.286986,23.71632],[121.286693,23.716227],[121.286592,23.716496],[121.286785,23.716679],[121.286587,23.716858],[121.286095,23.716942],[121.286001,23.71667],[121.285803,23.716759],[121.285801,23.716939],[121.285311,23.716934],[121.285214,23.716842],[121.284916,23.71711],[121.284914,23.717291],[121.284617,23.717468],[121.284424,23.717285],[121.284622,23.717107],[121.284526,23.716925],[121.284725,23.716747],[121.285018,23.71684],[121.285121,23.71648],[121.285317,23.716482],[121.285318,23.716392],[121.285611,23.716486],[121.285713,23.716216],[121.285519,23.716033],[121.286013,23.715768],[121.285917,23.715586],[121.285525,23.715582],[121.285226,23.715939],[121.284932,23.715936],[121.284633,23.716294],[121.284337,23.716381],[121.284331,23.716833],[121.284232,23.716922],[121.284036,23.71692],[121.283936,23.717099],[121.28364,23.717186],[121.283638,23.717367],[121.283343,23.717454],[121.283233,23.718355],[121.283428,23.718448],[121.283522,23.71872],[121.283227,23.718807],[121.283125,23.719077],[121.282631,23.719342],[121.282824,23.719615],[121.282427,23.719972],[121.281935,23.720057],[121.281635,23.720505],[121.282023,23.72087],[121.282219,23.720873],[121.282417,23.720694],[121.282712,23.720697],[121.28291,23.720519],[121.282914,23.720248],[121.283208,23.720251],[121.283703,23.719896],[121.283705,23.719715],[121.284002,23.719538],[121.283907,23.719266],[121.284203,23.719179]],[[121.287786,23.715155],[121.287883,23.715247],[121.287785,23.715245],[121.287786,23.715155]],[[121.286788,23.716499],[121.287279,23.716414],[121.287957,23.717053],[121.287955,23.717234],[121.287756,23.717412],[121.28756,23.71741],[121.287367,23.717227],[121.28737,23.716957],[121.286788,23.716499]],[[121.285121,23.71648],[121.285024,23.716389],[121.285122,23.71639],[121.285121,23.71648]],[[121.285518,23.716123],[121.285418,23.716213],[121.285319,23.716302],[121.285321,23.716121],[121.285518,23.716123]],[[121.283907,23.719266],[121.28381,23.719175],[121.283908,23.719176],[121.283907,23.719266]],[[121.285644,23.721452],[121.28574,23.721634],[121.285443,23.721811],[121.28535,23.721449],[121.285644,23.721452]],[[121.285648,23.721181],[121.28565,23.721001],[121.285848,23.720823],[121.28614,23.721006],[121.286138,23.721187],[121.285939,23.721365],[121.285648,23.721181]],[[121.28918,23.72104],[121.289279,23.720951],[121.289476,23.720953],[121.289372,23.721403],[121.289177,23.721311],[121.28918,23.72104]],[[121.287315,23.7212],[121.287218,23.721109],[121.287316,23.72111],[121.287315,23.7212]],[[121.286829,23.720833],[121.286925,23.721015],[121.286631,23.721012],[121.286632,23.720921],[121.286829,23.720833]],[[121.287611,23.721023],[121.287514,23.720931],[121.287612,23.720932],[121.287611,23.721023]],[[121.287122,23.720927],[121.287025,23.720836],[121.287123,23.720837],[121.287122,23.720927]],[[121.287907,23.720936],[121.287908,23.720845],[121.288104,23.720847],[121.288103,23.720938],[121.287907,23.720936]],[[121.288888,23.720856],[121.288985,23.720948],[121.288887,23.720946],[121.288888,23.720856]],[[121.288989,23.720677],[121.288795,23.720494],[121.287911,23.720574],[121.287816,23.720393],[121.288115,23.720035],[121.288703,23.720041],[121.288802,23.719952],[121.288801,23.720043],[121.289289,23.720229],[121.289187,23.720498],[121.289381,23.720681],[121.289183,23.720859],[121.288986,23.720857],[121.288989,23.720677]],[[121.286547,23.719927],[121.286543,23.720198],[121.286836,23.720292],[121.286834,23.720472],[121.286635,23.720651],[121.286341,23.720647],[121.286445,23.720197],[121.286251,23.720014],[121.286547,23.719927]],[[121.28625,23.720105],[121.286151,23.720194],[121.286152,23.720103],[121.28625,23.720105]],[[121.287521,23.72039],[121.287619,23.720391],[121.287519,23.72057],[121.287422,23.720479],[121.287127,23.720566],[121.287228,23.720296],[121.287524,23.720209],[121.287521,23.72039]],[[121.287228,23.720296],[121.287132,23.720205],[121.28723,23.720206],[121.287228,23.720296]],[[121.28968,23.720323],[121.289777,23.720415],[121.289679,23.720413],[121.28968,23.720323]],[[121.289778,23.720324],[121.290175,23.719967],[121.290079,23.719786],[121.290277,23.719698],[121.290272,23.720059],[121.289974,23.720326],[121.289778,23.720324]],[[121.283016,23.719888],[121.283014,23.720069],[121.282818,23.720067],[121.282819,23.719976],[121.283016,23.719888]],[[121.287434,23.719576],[121.287533,23.719487],[121.287729,23.719489],[121.287825,23.719671],[121.288021,23.719673],[121.288019,23.719853],[121.287526,23.720028],[121.287429,23.719937],[121.287434,23.719576]],[[121.286847,23.719479],[121.286652,23.719387],[121.286452,23.719655],[121.28616,23.719471],[121.286557,23.719115],[121.286462,23.718933],[121.286166,23.71902],[121.286066,23.7192],[121.285774,23.719016],[121.286072,23.718748],[121.286074,23.718568],[121.28549,23.7182],[121.28569,23.717931],[121.285884,23.718114],[121.28618,23.717937],[121.286178,23.718117],[121.28608,23.718116],[121.286176,23.718298],[121.286668,23.718123],[121.286958,23.718487],[121.287453,23.718131],[121.287647,23.718314],[121.287843,23.718316],[121.28814,23.718049],[121.288432,23.718232],[121.288527,23.718504],[121.288328,23.718683],[121.288034,23.71868],[121.287636,23.719127],[121.287345,23.718853],[121.286853,23.719028],[121.287045,23.719301],[121.287339,23.719304],[121.287237,23.719664],[121.286744,23.719839],[121.286746,23.719659],[121.286844,23.71966],[121.286847,23.719479]],[[121.288315,23.719676],[121.288319,23.719405],[121.288516,23.719317],[121.288514,23.719498],[121.288806,23.719681],[121.288803,23.719862],[121.288315,23.719676]],[[121.289784,23.719873],[121.289687,23.719781],[121.289785,23.719783],[121.289784,23.719873]],[[121.290278,23.719607],[121.290181,23.719516],[121.290279,23.719517],[121.290278,23.719607]],[[121.290682,23.718709],[121.290585,23.718617],[121.290683,23.718619],[121.290682,23.718709]],[[121.283819,23.718543],[121.283821,23.718362],[121.283919,23.718363],[121.283917,23.718544],[121.283819,23.718543]],[[121.290879,23.718621],[121.290782,23.718529],[121.29088,23.71853],[121.290879,23.718621]],[[121.291275,23.718354],[121.291278,23.718083],[121.291376,23.718084],[121.291373,23.718355],[121.291275,23.718354]],[[121.286477,23.717759],[121.286574,23.717851],[121.28677,23.717853],[121.28667,23.718032],[121.286475,23.71794],[121.286477,23.717759]],[[121.287065,23.717766],[121.287165,23.717677],[121.287459,23.71768],[121.287258,23.718039],[121.287063,23.717946],[121.287065,23.717766]],[[121.285791,23.717752],[121.285694,23.71766],[121.285792,23.717661],[121.285791,23.717752]],[[121.28442,23.717556],[121.284323,23.717465],[121.284421,23.717466],[121.28442,23.717556]],[[121.286381,23.717578],[121.286384,23.717397],[121.286482,23.717398],[121.286479,23.717579],[121.286381,23.717578]],[[121.285994,23.717212],[121.285897,23.717121],[121.285995,23.717122],[121.285994,23.717212]],[[121.286877,23.717132],[121.286781,23.71704],[121.286879,23.717041],[121.286877,23.717132]],[[121.289035,23.717156],[121.289036,23.717065],[121.289232,23.717067],[121.289231,23.717158],[121.289035,23.717156]],[[121.289623,23.717162],[121.289722,23.717073],[121.289721,23.717163],[121.289623,23.717162]],[[121.289526,23.717071],[121.289431,23.716889],[121.289629,23.716711],[121.289825,23.716713],[121.289526,23.717071]],[[121.289429,23.716979],[121.28933,23.717069],[121.289331,23.716978],[121.289429,23.716979]],[[121.288448,23.717059],[121.288351,23.716967],[121.288449,23.716968],[121.288448,23.717059]],[[121.289039,23.716794],[121.288943,23.716703],[121.289041,23.716704],[121.289039,23.716794]],[[121.287962,23.716692],[121.287865,23.716601],[121.287963,23.716602],[121.287962,23.716692]],[[121.289336,23.716617],[121.289337,23.716527],[121.289533,23.716529],[121.289532,23.716619],[121.289336,23.716617]],[[121.28767,23.716508],[121.287573,23.716417],[121.287671,23.716418],[121.28767,23.716508]],[[121.28924,23.716435],[121.289143,23.716344],[121.289241,23.716345],[121.28924,23.716435]],[[121.28983,23.716352],[121.289927,23.716443],[121.289829,23.716442],[121.28983,23.716352]],[[121.289929,23.716262],[121.290223,23.716266],[121.290326,23.715906],[121.290523,23.715818],[121.29043,23.715455],[121.290331,23.715545],[121.290136,23.715452],[121.290034,23.715722],[121.289936,23.715721],[121.289941,23.71536],[121.290137,23.715362],[121.290435,23.715094],[121.290437,23.714914],[121.290633,23.714916],[121.290632,23.715006],[121.291123,23.714921],[121.291121,23.715102],[121.291316,23.715194],[121.291408,23.715647],[121.291015,23.715733],[121.29032,23.716357],[121.289928,23.716353],[121.289929,23.716262]],[[121.288654,23.716248],[121.288557,23.716157],[121.288655,23.716158],[121.288654,23.716248]],[[121.289249,23.715803],[121.289244,23.716165],[121.289048,23.716162],[121.28905,23.715982],[121.289249,23.715803]],[[121.287485,23.715694],[121.28758,23.715875],[121.287383,23.715963],[121.287388,23.715602],[121.287584,23.715604],[121.287485,23.715694]],[[121.287776,23.715877],[121.28768,23.715786],[121.287778,23.715787],[121.287776,23.715877]],[[121.289644,23.715537],[121.289641,23.715808],[121.289444,23.715896],[121.289446,23.715715],[121.289644,23.715537]],[[121.287974,23.715789],[121.287877,23.715698],[121.287975,23.715699],[121.287974,23.715789]],[[121.287585,23.715514],[121.287488,23.715423],[121.287586,23.715424],[121.287585,23.715514]],[[121.28896,23.715349],[121.288863,23.715257],[121.288961,23.715258],[121.28896,23.715349]],[[121.289749,23.714996],[121.289747,23.715177],[121.289649,23.715176],[121.289553,23.714994],[121.289749,23.714996]],[[121.289946,23.714998],[121.289947,23.714908],[121.290143,23.71491],[121.290142,23.715001],[121.289946,23.714998]],[[121.292889,23.714941],[121.292792,23.714849],[121.29289,23.71485],[121.292889,23.714941]],[[121.294469,23.714055],[121.294372,23.713964],[121.29447,23.713965],[121.294469,23.714055]],[[121.294867,23.713608],[121.29477,23.713517],[121.294868,23.713518],[121.294867,23.713608]]],[[[121.296917,23.721938],[121.296722,23.721846],[121.29662,23.722115],[121.296815,23.722208],[121.296917,23.721938]]],[[[121.293922,23.725969],[121.294413,23.725884],[121.294522,23.725072],[121.294425,23.724981],[121.29413,23.725068],[121.294132,23.724887],[121.294526,23.724801],[121.294528,23.724621],[121.294725,23.724533],[121.294628,23.724441],[121.294729,23.724262],[121.295022,23.724355],[121.295019,23.724536],[121.294822,23.724624],[121.29482,23.724805],[121.295014,23.724987],[121.29521,23.724989],[121.295209,23.72508],[121.2957,23.724995],[121.295705,23.724634],[121.295217,23.724448],[121.295123,23.724086],[121.294928,23.723993],[121.294934,23.723542],[121.294642,23.723358],[121.294645,23.723177],[121.29484,23.72327],[121.295137,23.723002],[121.295245,23.722281],[121.295638,23.722195],[121.296136,23.721659],[121.296332,23.721661],[121.29653,23.721482],[121.296527,23.721753],[121.296722,23.721846],[121.296823,23.721576],[121.297316,23.721401],[121.297221,23.721129],[121.297122,23.721218],[121.296829,23.721124],[121.29693,23.720945],[121.297323,23.720859],[121.297129,23.720676],[121.297133,23.720405],[121.297231,23.720406],[121.297134,23.720315],[121.297145,23.719503],[121.297243,23.719504],[121.297245,23.719323],[121.297147,23.719322],[121.297052,23.71905],[121.296561,23.719135],[121.296558,23.719315],[121.29685,23.719499],[121.296848,23.71968],[121.296651,23.719768],[121.296648,23.719949],[121.296349,23.720306],[121.29664,23.720581],[121.296539,23.72085],[121.296046,23.721026],[121.295944,23.721295],[121.295747,23.721383],[121.295745,23.721564],[121.295549,23.721562],[121.295448,23.721741],[121.294958,23.721736],[121.294957,23.721826],[121.294465,23.721911],[121.294853,23.722277],[121.294849,23.722547],[121.294551,23.722815],[121.294355,23.722813],[121.294554,23.722634],[121.294558,23.722273],[121.294268,23.721999],[121.29407,23.722087],[121.294067,23.722358],[121.294165,23.722359],[121.294061,23.72281],[121.294255,23.722992],[121.293961,23.722989],[121.293964,23.722718],[121.293866,23.722717],[121.293968,23.722447],[121.293675,23.722354],[121.293679,23.721993],[121.293484,23.7219],[121.293487,23.72172],[121.292806,23.721261],[121.292905,23.721171],[121.292911,23.72072],[121.292814,23.720629],[121.292616,23.720807],[121.292322,23.720804],[121.29222,23.721074],[121.292026,23.720891],[121.291829,23.720979],[121.291924,23.721251],[121.292218,23.721254],[121.292215,23.721435],[121.291921,23.721431],[121.291821,23.721611],[121.292016,23.721703],[121.29211,23.721975],[121.292308,23.721887],[121.292305,23.722068],[121.2925,23.72216],[121.292589,23.722884],[121.292491,23.722883],[121.292386,23.723423],[121.292774,23.723698],[121.292771,23.723969],[121.293063,23.724153],[121.293059,23.724424],[121.292663,23.72469],[121.292661,23.724871],[121.292855,23.725054],[121.293149,23.725057],[121.29315,23.724967],[121.293443,23.72506],[121.293441,23.725241],[121.292359,23.7255],[121.292255,23.72595],[121.292743,23.726136],[121.29304,23.725868],[121.293434,23.725783],[121.293329,23.726323],[121.293525,23.726325],[121.293527,23.726145],[121.29392,23.726149],[121.293922,23.725969]],[[121.294028,23.725338],[121.293931,23.725246],[121.294029,23.725247],[121.294028,23.725338]],[[121.29325,23.724878],[121.293153,23.724786],[121.293251,23.724787],[121.29325,23.724878]],[[121.293839,23.724794],[121.293841,23.724613],[121.29394,23.724614],[121.293937,23.724795],[121.293839,23.724794]],[[121.29365,23.72425],[121.293261,23.723975],[121.293555,23.723978],[121.29365,23.72425]],[[121.293847,23.724162],[121.293849,23.724071],[121.294045,23.724074],[121.294043,23.724164],[121.293847,23.724162]],[[121.294243,23.723895],[121.294342,23.723806],[121.294442,23.723717],[121.294439,23.723897],[121.294243,23.723895]],[[121.294344,23.723716],[121.294149,23.723623],[121.294048,23.723803],[121.293852,23.723801],[121.293756,23.723619],[121.294051,23.723622],[121.294249,23.723444],[121.294346,23.723535],[121.294344,23.723716]],[[121.293379,23.722441],[121.293282,23.72235],[121.293381,23.722351],[121.293379,23.722441]],[[121.292708,23.72126],[121.292611,23.721168],[121.292709,23.721169],[121.292708,23.72126]]],[[[121.291475,23.72558],[121.29148,23.725219],[121.291286,23.725036],[121.291484,23.724858],[121.291775,23.725132],[121.291972,23.725044],[121.291982,23.724322],[121.29218,23.724143],[121.292185,23.723782],[121.292087,23.723781],[121.291995,23.723329],[121.291703,23.723145],[121.291602,23.723324],[121.2917,23.723325],[121.291788,23.724139],[121.29169,23.724138],[121.291686,23.724409],[121.291292,23.724585],[121.291294,23.724404],[121.291196,23.724403],[121.291302,23.723772],[121.291204,23.723771],[121.291208,23.7235],[121.29111,23.723499],[121.291212,23.723139],[121.291018,23.723047],[121.290819,23.723225],[121.290625,23.723043],[121.290427,23.723221],[121.290424,23.723402],[121.290131,23.723308],[121.29003,23.723578],[121.289931,23.723667],[121.289638,23.723573],[121.289536,23.723843],[121.289829,23.723937],[121.28983,23.723846],[121.290224,23.723761],[121.290219,23.724122],[121.290022,23.72421],[121.290215,23.724393],[121.290316,23.724213],[121.290512,23.724215],[121.29071,23.724037],[121.290713,23.723856],[121.290519,23.723673],[121.29052,23.723583],[121.290716,23.723585],[121.290811,23.723857],[121.290909,23.723858],[121.291001,23.724311],[121.290903,23.72431],[121.290898,23.724671],[121.290702,23.724669],[121.290703,23.724578],[121.290506,23.724667],[121.290501,23.725028],[121.290891,23.725213],[121.290889,23.725393],[121.290693,23.725391],[121.290592,23.725571],[121.290981,23.725846],[121.291275,23.725849],[121.291377,23.725579],[121.291475,23.72558]],[[121.29119,23.724855],[121.291289,23.724766],[121.291288,23.724856],[121.29119,23.724855]]],[[[121.295788,23.725809],[121.295886,23.72581],[121.295882,23.72608],[121.296076,23.726263],[121.29637,23.726266],[121.296369,23.726357],[121.296762,23.726271],[121.296865,23.725911],[121.296767,23.72591],[121.296676,23.725367],[121.296971,23.72528],[121.297172,23.724921],[121.297367,23.725013],[121.297863,23.724567],[121.297869,23.724116],[121.297674,23.724023],[121.297473,23.724382],[121.296983,23.724377],[121.296883,23.724556],[121.296687,23.724554],[121.29669,23.724283],[121.296988,23.724016],[121.296894,23.723654],[121.296699,23.723561],[121.2966,23.72365],[121.296593,23.724192],[121.296397,23.72419],[121.296297,23.724369],[121.295805,23.724454],[121.2959,23.724726],[121.296194,23.724729],[121.295598,23.725265],[121.295694,23.725446],[121.296088,23.72536],[121.296086,23.725451],[121.295791,23.725538],[121.295788,23.725809]],[[121.296088,23.72536],[121.296187,23.725271],[121.296186,23.725361],[121.296088,23.72536]],[[121.296189,23.725091],[121.296583,23.725005],[121.296579,23.725275],[121.296382,23.725364],[121.296383,23.725273],[121.296187,23.725271],[121.296189,23.725091]]],[[[121.299701,23.703909],[121.299409,23.703725],[121.299412,23.703454],[121.299217,23.703362],[121.299223,23.70291],[121.299125,23.702909],[121.299041,23.701825],[121.299139,23.701826],[121.299243,23.701375],[121.298753,23.70137],[121.298657,23.701188],[121.298069,23.701182],[121.29815,23.702447],[121.298248,23.702448],[121.298338,23.703081],[121.298532,23.703264],[121.298529,23.703535],[121.298819,23.703809],[121.299015,23.703811],[121.299013,23.703992],[121.299111,23.703993],[121.299103,23.704625],[121.299005,23.704624],[121.299001,23.704894],[121.298903,23.704893],[121.298995,23.705346],[121.299193,23.705258],[121.299197,23.704897],[121.299594,23.70454],[121.299502,23.704087],[121.299701,23.703909]],[[121.299502,23.704087],[121.299405,23.703996],[121.299503,23.703997],[121.299502,23.704087]],[[121.299308,23.703905],[121.299211,23.703813],[121.299309,23.703814],[121.299308,23.703905]],[[121.299019,23.70354],[121.298922,23.703449],[121.29902,23.70345],[121.299019,23.70354]],[[121.298831,23.702906],[121.298734,23.702815],[121.298832,23.702816],[121.298831,23.702906]]],[[[121.298678,23.707148],[121.298581,23.707057],[121.298679,23.707058],[121.298785,23.706427],[121.299083,23.70616],[121.299089,23.705708],[121.298991,23.705707],[121.298896,23.705435],[121.298014,23.705425],[121.297912,23.705695],[121.297617,23.705782],[121.297615,23.705963],[121.297808,23.706146],[121.298495,23.706153],[121.298486,23.706785],[121.298189,23.707053],[121.298479,23.707327],[121.298678,23.707148]],[[121.298791,23.705976],[121.298694,23.705884],[121.298792,23.705885],[121.298791,23.705976]]],[[[121.300596,23.710511],[121.30011,23.710144],[121.300017,23.709782],[121.299529,23.709596],[121.299336,23.709323],[121.299139,23.709411],[121.299623,23.709868],[121.299619,23.710229],[121.299421,23.710317],[121.299517,23.710499],[121.299715,23.71032],[121.300107,23.710415],[121.300299,23.710688],[121.300495,23.71069],[121.300596,23.710511]]],[[[121.301429,23.714312],[121.301727,23.714045],[121.301731,23.713684],[121.301929,23.713595],[121.30203,23.713326],[121.301932,23.713325],[121.301841,23.712782],[121.30126,23.712234],[121.300962,23.712501],[121.300852,23.713403],[121.30095,23.713404],[121.300948,23.713585],[121.301238,23.713949],[121.301232,23.7144],[121.301133,23.71449],[121.301327,23.714582],[121.301429,23.714312]]],[[[121.29838,23.715001],[121.298186,23.714818],[121.298291,23.714278],[121.298097,23.714095],[121.297802,23.714182],[121.298,23.714004],[121.297808,23.713731],[121.297513,23.713818],[121.297409,23.714268],[121.297211,23.714356],[121.297209,23.714537],[121.297403,23.71472],[121.297697,23.714723],[121.297793,23.714904],[121.297989,23.714907],[121.298083,23.715179],[121.298279,23.715181],[121.29838,23.715001]],[[121.297895,23.714544],[121.297898,23.714364],[121.297996,23.714365],[121.297993,23.714545],[121.297895,23.714544]]],[[[121.302123,23.721273],[121.302025,23.721272],[121.301933,23.720819],[121.302031,23.72082],[121.302135,23.72037],[121.302233,23.720371],[121.302239,23.71992],[121.302044,23.719827],[121.301842,23.720277],[121.301744,23.720275],[121.301739,23.720637],[121.301641,23.720636],[121.301539,23.720996],[121.301734,23.721088],[121.30173,23.721359],[121.301924,23.721542],[121.302121,23.721454],[121.302123,23.721273]]],[[[121.299949,23.722604],[121.300047,23.722605],[121.299954,23.722152],[121.300052,23.722153],[121.300155,23.721793],[121.300352,23.721705],[121.300356,23.721434],[121.300258,23.721433],[121.300362,23.720983],[121.300168,23.7208],[121.299971,23.720888],[121.299973,23.720708],[121.299778,23.720615],[121.29958,23.720794],[121.299477,23.721154],[121.299379,23.721152],[121.299269,23.722054],[121.299464,23.722147],[121.299458,23.722598],[121.299749,23.722872],[121.299946,23.722784],[121.299949,23.722604]]],[[[121.303357,23.724447],[121.303264,23.724085],[121.303166,23.724084],[121.303269,23.723724],[121.303564,23.723637],[121.303374,23.723183],[121.303472,23.723184],[121.303474,23.723003],[121.303571,23.723095],[121.303768,23.723007],[121.303675,23.722644],[121.304067,23.722649],[121.304266,23.72247],[121.30417,23.722289],[121.303778,23.722284],[121.303777,23.722375],[121.303385,23.72228],[121.303286,23.722369],[121.303092,23.722187],[121.302991,23.722456],[121.302893,23.722455],[121.302983,23.723088],[121.302787,23.723086],[121.302496,23.722812],[121.302394,23.723082],[121.302,23.723258],[121.302097,23.72335],[121.302094,23.72353],[121.301996,23.723529],[121.302091,23.723801],[121.302482,23.723896],[121.302477,23.724257],[121.302671,23.724439],[121.302868,23.724351],[121.302872,23.72408],[121.30297,23.724082],[121.30316,23.724535],[121.303357,23.724447]],[[121.303186,23.722549],[121.303285,23.72246],[121.303284,23.72255],[121.303186,23.722549]]],[[[121.303026,23.727333],[121.302637,23.727058],[121.302534,23.727418],[121.302436,23.727417],[121.302341,23.727235],[121.302144,23.727233],[121.301951,23.72705],[121.301848,23.72741],[121.302043,23.727503],[121.30204,23.727683],[121.301842,23.727862],[121.302233,23.727956],[121.302427,23.728139],[121.303113,23.728147],[121.303313,23.727878],[121.302727,23.727691],[121.302728,23.727601],[121.303023,23.727513],[121.303026,23.727333]],[[121.302728,23.727601],[121.302631,23.727509],[121.302729,23.72751],[121.302728,23.727601]],[[121.302333,23.727777],[121.302433,23.727688],[121.302432,23.727778],[121.302333,23.727777]]]]}},{"type":"Feature","properties":{"kind":"bare_dam","month":"2022-12","area_ha":11.61},"geometry":{"type":"MultiPolygon","coordinates":[[[[121.300172,23.690189],[121.300276,23.689738],[121.299982,23.689735],[121.299682,23.690183],[121.299779,23.690275],[121.300172,23.690189]]],[[[121.300556,23.690825],[121.300555,23.690915],[121.300752,23.690827],[121.300658,23.690555],[121.300168,23.69055],[121.300065,23.69091],[121.299871,23.690727],[121.299674,23.690815],[121.299287,23.69045],[121.298798,23.690354],[121.2988,23.690173],[121.298509,23.689899],[121.298313,23.689897],[121.298213,23.690077],[121.297919,23.690074],[121.297522,23.69043],[121.297614,23.690883],[121.297808,23.691066],[121.298004,23.691068],[121.298202,23.690889],[121.298889,23.690897],[121.298883,23.691348],[121.299076,23.691531],[121.299666,23.691447],[121.299765,23.691358],[121.299671,23.691086],[121.299867,23.691088],[121.300059,23.691361],[121.300354,23.691274],[121.300353,23.691364],[121.30104,23.691372],[121.301038,23.691462],[121.301529,23.691468],[121.301527,23.691558],[121.302018,23.691563],[121.302117,23.691474],[121.302021,23.691292],[121.301825,23.69129],[121.301826,23.6912],[121.301629,23.691288],[121.301436,23.691015],[121.301044,23.691011],[121.300949,23.690829],[121.30075,23.691008],[121.30026,23.691002],[121.300262,23.690822],[121.300556,23.690825]],[[121.30075,23.691008],[121.300847,23.691099],[121.300749,23.691098],[121.30075,23.691008]]],[[[121.300428,23.693171],[121.300336,23.692719],[121.300141,23.692626],[121.299842,23.692984],[121.300133,23.693258],[121.300428,23.693171]]],[[[121.301007,23.6939],[121.300324,23.693622],[121.299938,23.693166],[121.299644,23.693163],[121.299642,23.693253],[121.299448,23.69316],[121.29945,23.69298],[121.299647,23.692892],[121.299551,23.69271],[121.299749,23.692622],[121.299655,23.69226],[121.299459,23.692258],[121.29946,23.692167],[121.299067,23.692253],[121.298973,23.691981],[121.298776,23.691979],[121.298578,23.692158],[121.298473,23.692698],[121.298668,23.692791],[121.298666,23.692971],[121.298957,23.693155],[121.299052,23.693427],[121.299445,23.693341],[121.299442,23.693612],[121.299246,23.69361],[121.299247,23.693519],[121.298853,23.693605],[121.298851,23.693786],[121.299045,23.693969],[121.299828,23.694068],[121.299928,23.693888],[121.299635,23.693795],[121.299637,23.693704],[121.300225,23.693711],[121.300321,23.693892],[121.300615,23.693896],[121.300905,23.69417],[121.301007,23.6939]]],[[[121.300655,23.698321],[121.300951,23.698234],[121.300952,23.698143],[121.301246,23.698147],[121.301445,23.697968],[121.301448,23.697697],[121.30135,23.697696],[121.301255,23.697424],[121.30096,23.697511],[121.301153,23.697784],[121.300269,23.697865],[121.300169,23.698045],[121.299873,23.698132],[121.299969,23.698313],[121.300165,23.698315],[121.300166,23.698225],[121.300657,23.698231],[121.300655,23.698321]]],[[[121.297793,23.699734],[121.2976,23.699551],[121.297499,23.699731],[121.297791,23.699915],[121.297882,23.700458],[121.299157,23.700472],[121.298966,23.700018],[121.298868,23.700017],[121.298777,23.699474],[121.298975,23.699386],[121.299081,23.698755],[121.299179,23.698756],[121.29928,23.698486],[121.298302,23.698295],[121.298203,23.698384],[121.298289,23.699288],[121.29819,23.699377],[121.297799,23.699283],[121.297699,23.699462],[121.297992,23.699556],[121.297989,23.699736],[121.297793,23.699734]],[[121.297992,23.699556],[121.298091,23.699467],[121.29809,23.699557],[121.297992,23.699556]]],[[[121.312073,23.687429],[121.312369,23.687252],[121.312371,23.687071],[121.312178,23.686889],[121.311589,23.686882],[121.311591,23.686792],[121.311393,23.68688],[121.311487,23.687242],[121.311978,23.687157],[121.312073,23.687429]]],[[[121.302704,23.691571],[121.302313,23.691476],[121.302314,23.691386],[121.302117,23.691474],[121.302408,23.691748],[121.302604,23.69175],[121.302704,23.691571]]],[[[121.306514,23.692696],[121.306615,23.692426],[121.306323,23.692243],[121.306025,23.692601],[121.306218,23.692783],[121.306514,23.692696]]],[[[121.303724,23.696097],[121.303923,23.695919],[121.303926,23.695648],[121.30422,23.695651],[121.304221,23.695561],[121.304416,23.695653],[121.304715,23.695295],[121.30501,23.695208],[121.304915,23.695026],[121.305212,23.694759],[121.305117,23.694577],[121.30482,23.694755],[121.304719,23.695024],[121.304325,23.69511],[121.304326,23.69502],[121.304033,23.694926],[121.303736,23.695194],[121.30373,23.695646],[121.303632,23.695644],[121.303529,23.696005],[121.303724,23.696097]]],[[[121.301941,23.697522],[121.302139,23.697344],[121.302143,23.697073],[121.302534,23.697168],[121.302634,23.696988],[121.302929,23.696901],[121.302737,23.696628],[121.303034,23.69636],[121.303037,23.69618],[121.303333,23.696002],[121.303237,23.695821],[121.303041,23.695819],[121.302839,23.696268],[121.302545,23.696265],[121.302347,23.696443],[121.302344,23.696624],[121.302147,23.696712],[121.302145,23.696892],[121.301848,23.69707],[121.301746,23.69743],[121.301941,23.697522]]]]}},{"type":"Feature","properties":{"kind":"water","month":"2022-12","area_ha":1.94},"geometry":{"type":"MultiPolygon","coordinates":[[[[121.311581,23.687514],[121.311584,23.687334],[121.311683,23.687244],[121.311976,23.687338],[121.311978,23.687157],[121.311586,23.687153],[121.311384,23.687602],[121.311581,23.687514]]],[[[121.307896,23.691989],[121.308687,23.691456],[121.30869,23.691185],[121.308493,23.691273],[121.308491,23.691454],[121.308097,23.69154],[121.307996,23.691809],[121.3078,23.691807],[121.307896,23.691989]]],[[[121.304918,23.694756],[121.30492,23.694575],[121.305215,23.694578],[121.305216,23.694488],[121.305609,23.694402],[121.305711,23.694132],[121.305315,23.694399],[121.30512,23.694306],[121.305118,23.694487],[121.304825,23.694393],[121.304822,23.694574],[121.304528,23.694571],[121.304526,23.694751],[121.30472,23.694934],[121.304918,23.694756]]],[[[121.304427,23.694841],[121.304325,23.69511],[121.304719,23.695024],[121.30472,23.694934],[121.304427,23.694841]]],[[[121.303037,23.69618],[121.303034,23.69636],[121.302935,23.69645],[121.303131,23.696452],[121.303135,23.696181],[121.303037,23.69618]]],[[[121.302935,23.69645],[121.302735,23.696718],[121.30303,23.696721],[121.302935,23.69645]]],[[[121.299089,23.698123],[121.299087,23.698304],[121.299283,23.698306],[121.299284,23.698215],[121.299578,23.698219],[121.299876,23.697951],[121.300759,23.69787],[121.300761,23.69778],[121.301153,23.697784],[121.301154,23.697694],[121.300664,23.697689],[121.300764,23.697509],[121.300175,23.697593],[121.300177,23.697413],[121.299684,23.697588],[121.299584,23.697767],[121.298801,23.697668],[121.298796,23.698029],[121.299089,23.698123]]],[[[121.298796,23.698029],[121.298501,23.698117],[121.298498,23.698297],[121.298696,23.698209],[121.298693,23.69839],[121.298791,23.698391],[121.298796,23.698029]]],[[[121.298294,23.698927],[121.298196,23.698926],[121.298295,23.698837],[121.298299,23.698566],[121.298201,23.698565],[121.298098,23.698925],[121.298,23.698924],[121.297999,23.699014],[121.298195,23.699016],[121.298092,23.699376],[121.298289,23.699288],[121.298294,23.698927]]]]}}]}