{"type":"FeatureCollection","features":[{"type":"Feature","properties":{"kind":"bare_slide","month":"2022-06","area_ha":90.58},"geometry":{"type":"MultiPolygon","coordinates":[[[[121.292535,23.711957],[121.292437,23.711956],[121.292439,23.711775],[121.292928,23.711871],[121.293029,23.711691],[121.293522,23.711516],[121.29382,23.711158],[121.293625,23.711066],[121.293328,23.711334],[121.293132,23.711331],[121.293031,23.711511],[121.292443,23.711504],[121.292047,23.711771],[121.292141,23.712133],[121.292435,23.712136],[121.292535,23.711957]]],[[[121.283861,23.715292],[121.284258,23.714935],[121.284064,23.714753],[121.283971,23.71439],[121.284069,23.714392],[121.284171,23.714122],[121.284466,23.714035],[121.284372,23.713763],[121.283978,23.713849],[121.282986,23.714741],[121.283079,23.715103],[121.283275,23.715105],[121.283474,23.714927],[121.283764,23.715201],[121.283665,23.71529],[121.283761,23.715472],[121.283958,23.715384],[121.283861,23.715292]]],[[[121.288668,23.715165],[121.288475,23.714982],[121.288374,23.715162],[121.288569,23.715254],[121.288668,23.715165]]],[[[121.285418,23.716213],[121.285612,23.716395],[121.285713,23.716216],[121.285518,23.716123],[121.285418,23.716213]]],[[[121.28938,23.720771],[121.289378,23.720952],[121.289571,23.721135],[121.289767,23.721137],[121.289769,23.721047],[121.289964,23.721139],[121.290163,23.72087],[121.290261,23.720871],[121.290356,23.721143],[121.290652,23.720966],[121.290564,23.720243],[121.290861,23.719975],[121.290964,23.719615],[121.291162,23.719527],[121.291065,23.719435],[121.291169,23.718985],[121.291462,23.719079],[121.291859,23.718722],[121.291864,23.71827],[121.292062,23.718182],[121.292066,23.717821],[121.292556,23.717917],[121.292754,23.717738],[121.292758,23.717468],[121.29325,23.717292],[121.293062,23.716658],[121.293459,23.716301],[121.293655,23.716304],[121.293756,23.716124],[121.293659,23.716033],[121.293364,23.71612],[121.293362,23.71621],[121.292677,23.716112],[121.292475,23.716561],[121.292179,23.716739],[121.292175,23.71701],[121.292077,23.717009],[121.291875,23.717458],[121.291483,23.717454],[121.291184,23.717811],[121.290594,23.717895],[121.290396,23.718074],[121.290393,23.718254],[121.29,23.71834],[121.290093,23.718702],[121.290386,23.718796],[121.290384,23.718976],[121.289894,23.718971],[121.289795,23.71906],[121.289889,23.719332],[121.289399,23.719327],[121.2893,23.719416],[121.289011,23.718961],[121.289209,23.718873],[121.289411,23.718424],[121.289804,23.718338],[121.289915,23.717346],[121.290213,23.717078],[121.290117,23.716897],[121.290216,23.716807],[121.290411,23.7169],[121.29061,23.716721],[121.290612,23.716541],[121.290808,23.716543],[121.29091,23.716273],[121.291106,23.716275],[121.291602,23.715829],[121.291705,23.715469],[121.291999,23.715473],[121.292099,23.715293],[121.29239,23.715567],[121.292685,23.71548],[121.292687,23.71539],[121.292981,23.715393],[121.293076,23.715575],[121.293568,23.71549],[121.293569,23.7154],[121.293961,23.715404],[121.293959,23.715585],[121.293661,23.715852],[121.293757,23.716034],[121.293955,23.715855],[121.294349,23.715769],[121.294449,23.71559],[121.29494,23.715595],[121.294938,23.715686],[121.295231,23.715779],[121.295228,23.71605],[121.295423,23.716142],[121.295526,23.715782],[121.295331,23.71569],[121.295333,23.715509],[121.295139,23.715327],[121.294748,23.715232],[121.294749,23.715142],[121.294454,23.715229],[121.294453,23.715319],[121.294159,23.715316],[121.294163,23.714955],[121.294557,23.714869],[121.294756,23.7146],[121.294952,23.714602],[121.295151,23.714424],[121.295153,23.714243],[121.295451,23.713976],[121.295745,23.713979],[121.296043,23.713711],[121.295948,23.713439],[121.296046,23.71344],[121.296049,23.71326],[121.296246,23.713172],[121.29625,23.712901],[121.296348,23.712902],[121.296158,23.712358],[121.295862,23.712535],[121.295958,23.712717],[121.29586,23.712716],[121.295758,23.712986],[121.295465,23.712892],[121.295365,23.713072],[121.295169,23.71307],[121.29497,23.713248],[121.294775,23.713155],[121.294377,23.713603],[121.294181,23.7136],[121.293785,23.713867],[121.29359,23.713775],[121.293489,23.714044],[121.293193,23.714131],[121.293192,23.714222],[121.292703,23.714126],[121.292704,23.714036],[121.292605,23.714125],[121.292312,23.714031],[121.29221,23.714301],[121.292405,23.714394],[121.292403,23.714574],[121.292204,23.714753],[121.292106,23.714751],[121.292109,23.714571],[121.291819,23.714206],[121.291133,23.714199],[121.291036,23.714108],[121.290836,23.714376],[121.290542,23.714373],[121.290441,23.714643],[121.289951,23.714547],[121.289851,23.714727],[121.289262,23.71481],[121.289062,23.715079],[121.288668,23.715165],[121.288764,23.715347],[121.28847,23.715343],[121.288469,23.715434],[121.28798,23.715338],[121.287982,23.715157],[121.28808,23.715158],[121.287984,23.714977],[121.287786,23.715155],[121.287689,23.715064],[121.287101,23.715057],[121.286902,23.715236],[121.286997,23.715508],[121.2867,23.715685],[121.286698,23.715865],[121.286988,23.71614],[121.287381,23.716144],[121.28728,23.716323],[121.287085,23.716231],[121.286985,23.71641],[121.287082,23.716502],[121.287377,23.716415],[121.287472,23.716687],[121.287957,23.717053],[121.287955,23.717234],[121.287756,23.717412],[121.28756,23.71741],[121.287272,23.716955],[121.287076,23.716953],[121.286777,23.717311],[121.286581,23.717309],[121.286484,23.717218],[121.286486,23.717037],[121.286584,23.717038],[121.28649,23.716766],[121.286391,23.716855],[121.285902,23.71676],[121.285801,23.716939],[121.285116,23.716841],[121.284926,23.716388],[121.285122,23.71639],[121.285321,23.716121],[121.285518,23.716123],[121.285618,23.715944],[121.286111,23.715769],[121.286015,23.715587],[121.285623,23.715583],[121.285226,23.715939],[121.284832,23.716025],[121.284535,23.716293],[121.284728,23.716476],[121.284529,23.716744],[121.284333,23.716742],[121.284232,23.716922],[121.28374,23.717097],[121.283638,23.717367],[121.283343,23.717454],[121.28334,23.717634],[121.283242,23.717633],[121.283239,23.717904],[121.283337,23.717905],[121.283235,23.718175],[121.283332,23.718266],[121.283233,23.718355],[121.283428,23.718448],[121.283423,23.718809],[121.283226,23.718897],[121.283222,23.719168],[121.283124,23.719167],[121.28322,23.719349],[121.283418,23.71917],[121.284103,23.719268],[121.284204,23.719089],[121.284301,23.71918],[121.284498,23.719092],[121.284305,23.718819],[121.284109,23.718817],[121.284113,23.718546],[121.28421,23.718637],[121.284407,23.718549],[121.28431,23.718458],[121.284412,23.718188],[121.28383,23.71764],[121.283633,23.717728],[121.283636,23.717547],[121.28393,23.71755],[121.284129,23.717282],[121.284324,23.717374],[121.284524,23.717106],[121.28472,23.717108],[121.284914,23.717291],[121.284714,23.717559],[121.284617,23.717468],[121.28442,23.717556],[121.284516,23.717738],[121.284615,23.717648],[121.285006,23.717743],[121.285106,23.717564],[121.285499,23.717568],[121.285594,23.71775],[121.286082,23.717936],[121.28608,23.718116],[121.286274,23.718299],[121.286471,23.718211],[121.286473,23.71803],[121.286278,23.717938],[121.286378,23.717849],[121.286286,23.717396],[121.286382,23.717487],[121.286776,23.717401],[121.28697,23.717584],[121.28687,23.717673],[121.286966,23.717855],[121.287165,23.717677],[121.287459,23.71768],[121.287358,23.717859],[121.287746,23.718225],[121.288044,23.717957],[121.288337,23.718051],[121.288437,23.717871],[121.288633,23.717873],[121.288729,23.718055],[121.288631,23.718054],[121.288627,23.718325],[121.288329,23.718593],[121.288327,23.718773],[121.288619,23.718957],[121.28852,23.719046],[121.288611,23.719589],[121.2891,23.719685],[121.289097,23.719865],[121.288899,23.720044],[121.289388,23.720139],[121.289386,23.72032],[121.289678,23.720504],[121.28938,23.720771]],[[121.290118,23.716806],[121.290022,23.716625],[121.290318,23.716538],[121.290315,23.716718],[121.290118,23.716806]],[[121.286082,23.717936],[121.286182,23.717846],[121.28618,23.717937],[121.286082,23.717936]],[[121.2891,23.719685],[121.289199,23.719595],[121.289198,23.719686],[121.2891,23.719685]],[[121.289676,23.720594],[121.289773,23.720685],[121.289675,23.720684],[121.289676,23.720594]],[[121.289685,23.719962],[121.289881,23.719964],[121.28988,23.720054],[121.289684,23.720052],[121.289685,23.719962]],[[121.28939,23.719959],[121.28949,23.71987],[121.289489,23.71996],[121.28939,23.719959]],[[121.28343,23.718267],[121.283529,23.718178],[121.283528,23.718268],[121.28343,23.718267]],[[121.283728,23.718],[121.283532,23.717998],[121.283533,23.717907],[121.28373,23.717819],[121.283728,23.718]],[[121.28619,23.717214],[121.286089,23.717394],[121.285892,23.717482],[121.285995,23.717122],[121.28619,23.717214]],[[121.285995,23.717122],[121.285898,23.717031],[121.285996,23.717032],[121.285995,23.717122]],[[121.289128,23.717518],[121.289227,23.717429],[121.289226,23.717519],[121.289128,23.717518]],[[121.289522,23.717432],[121.289621,23.717343],[121.28962,23.717433],[121.289522,23.717432]],[[121.288253,23.716966],[121.288549,23.716789],[121.288742,23.717062],[121.288445,23.717239],[121.288253,23.716966]],[[121.284819,23.717019],[121.284919,23.716929],[121.284917,23.71702],[121.284819,23.717019]],[[121.289429,23.716979],[121.289529,23.71689],[121.289527,23.71698],[121.289429,23.716979]],[[121.292765,23.716926],[121.292567,23.717014],[121.29267,23.716654],[121.292768,23.716655],[121.292765,23.716926]],[[121.287864,23.716691],[121.287963,23.716602],[121.287962,23.716692],[121.287864,23.716691]],[[121.28748,23.716055],[121.287776,23.715877],[121.287969,23.71615],[121.287673,23.716328],[121.28748,23.716055]],[[121.289244,23.716165],[121.289048,23.716162],[121.289151,23.715802],[121.289249,23.715803],[121.289244,23.716165]],[[121.290428,23.715636],[121.290136,23.715452],[121.290034,23.715722],[121.289838,23.71572],[121.289941,23.71536],[121.290137,23.715362],[121.290436,23.715004],[121.291123,23.714921],[121.291121,23.715102],[121.291316,23.715194],[121.29131,23.715646],[121.291016,23.715642],[121.290618,23.716089],[121.290422,23.716087],[121.290424,23.715907],[121.290522,23.715908],[121.290428,23.715636]],[[121.289448,23.715535],[121.289546,23.715536],[121.289544,23.715716],[121.289446,23.715715],[121.289448,23.715535]],[[121.289649,23.715176],[121.289551,23.715175],[121.289452,23.715264],[121.289553,23.714994],[121.289651,23.714995],[121.289649,23.715176]],[[121.291415,23.715105],[121.291515,23.715016],[121.291513,23.715106],[121.291415,23.715105]],[[121.29377,23.715041],[121.293671,23.71513],[121.293672,23.71504],[121.29377,23.715041]],[[121.29377,23.715041],[121.293869,23.714951],[121.293868,23.715042],[121.29377,23.715041]],[[121.293869,23.714951],[121.293968,23.714862],[121.293967,23.714953],[121.293869,23.714951]],[[121.294467,23.714236],[121.294271,23.714234],[121.294372,23.713964],[121.29447,23.713965],[121.294467,23.714236]],[[121.294769,23.713607],[121.294868,23.713518],[121.294867,23.713608],[121.294769,23.713607]]],[[[121.291954,23.718903],[121.292153,23.718725],[121.291958,23.718633],[121.291857,23.718812],[121.291954,23.718903]]],[[[121.287342,23.719123],[121.287244,23.719122],[121.287343,23.719033],[121.287247,23.718851],[121.286854,23.718937],[121.287143,23.719302],[121.287342,23.719123]]],[[[121.284003,23.719448],[121.283809,23.719265],[121.283709,23.719444],[121.283904,23.719537],[121.284003,23.719448]]],[[[121.283307,23.720162],[121.283607,23.719714],[121.283216,23.719619],[121.283022,23.719437],[121.282427,23.719972],[121.281935,23.720057],[121.281737,23.720235],[121.281732,23.720596],[121.282219,23.720873],[121.282417,23.720694],[121.282712,23.720697],[121.283307,23.720162]],[[121.283011,23.72034],[121.282914,23.720248],[121.283012,23.720249],[121.283011,23.72034]],[[121.283014,23.720069],[121.282818,23.720067],[121.282819,23.719976],[121.283016,23.719888],[121.283014,23.720069]]],[[[121.285039,23.72271],[121.28543,23.722804],[121.285624,23.722987],[121.286114,23.722993],[121.286308,23.723175],[121.286602,23.723179],[121.286704,23.722909],[121.287,23.722732],[121.287003,23.722551],[121.287198,23.722643],[121.287396,23.722465],[121.287602,23.721745],[121.287896,23.721748],[121.288089,23.722021],[121.28858,23.721936],[121.28888,23.721488],[121.289174,23.721491],[121.289172,23.721672],[121.289366,23.721855],[121.289661,23.721768],[121.289177,23.721311],[121.28918,23.72104],[121.288887,23.720946],[121.288893,23.720495],[121.288796,23.720404],[121.2886,23.720401],[121.288204,23.720668],[121.288299,23.72094],[121.2881,23.721118],[121.287809,23.720935],[121.288007,23.720756],[121.287914,23.720394],[121.287128,23.720475],[121.28713,23.720295],[121.287326,23.720297],[121.287525,23.720119],[121.287433,23.719666],[121.287631,23.719488],[121.288022,23.719582],[121.288019,23.719853],[121.287821,23.719941],[121.287916,23.720213],[121.288312,23.719947],[121.288409,23.720038],[121.288704,23.719951],[121.288608,23.719769],[121.288315,23.719676],[121.288319,23.719405],[121.288517,23.719227],[121.288226,23.719043],[121.288325,23.718954],[121.28823,23.718682],[121.287934,23.718859],[121.28793,23.71913],[121.287732,23.719308],[121.287439,23.719215],[121.287237,23.719664],[121.287041,23.719662],[121.28694,23.719841],[121.286842,23.71984],[121.286847,23.719479],[121.286555,23.719295],[121.286853,23.719028],[121.28656,23.718934],[121.286561,23.718844],[121.286365,23.718842],[121.286066,23.7192],[121.285773,23.719106],[121.285672,23.719285],[121.285378,23.719282],[121.285379,23.719192],[121.285182,23.71928],[121.285472,23.719644],[121.285372,23.719734],[121.285464,23.720186],[121.285267,23.720274],[121.28536,23.720637],[121.285064,23.720814],[121.285059,23.721175],[121.284564,23.721531],[121.284361,23.72207],[121.284064,23.722248],[121.28416,23.722429],[121.284356,23.722431],[121.284656,23.721983],[121.28485,23.722166],[121.285046,23.722168],[121.285245,23.72199],[121.285241,23.722261],[121.285044,23.722349],[121.285039,23.72271]],[[121.284754,23.721984],[121.284854,23.721895],[121.284852,23.721985],[121.284754,23.721984]],[[121.285251,23.721538],[121.285644,23.721452],[121.285641,23.721723],[121.285343,23.721991],[121.285245,23.72199],[121.285251,23.721538]],[[121.288189,23.721842],[121.288288,23.721753],[121.288287,23.721843],[121.288189,23.721842]],[[121.28702,23.721197],[121.287316,23.72111],[121.28741,23.721382],[121.287213,23.72147],[121.28702,23.721197]],[[121.288784,23.721307],[121.288684,23.721486],[121.28839,23.721483],[121.288392,23.721302],[121.288489,23.721394],[121.288784,23.721307]],[[121.288392,23.721302],[121.288295,23.721211],[121.288393,23.721212],[121.288392,23.721302]],[[121.285847,23.720913],[121.286042,23.721005],[121.285941,23.721275],[121.285746,23.721183],[121.285847,23.720913]],[[121.286542,23.720288],[121.286348,23.720106],[121.286351,23.719925],[121.286547,23.719927],[121.286544,23.720108],[121.286836,23.720292],[121.286735,23.720561],[121.28644,23.720558],[121.286444,23.720287],[121.286542,23.720288]]],[[[121.290543,23.721868],[121.290644,23.721598],[121.290841,23.72151],[121.290844,23.721329],[121.290454,23.721144],[121.289956,23.721681],[121.29015,23.721863],[121.290346,23.721866],[121.290348,23.721775],[121.290543,23.721868]]],[[[121.290512,23.724215],[121.29071,23.724037],[121.29052,23.723583],[121.290716,23.723585],[121.291007,23.723859],[121.291204,23.723771],[121.291107,23.72368],[121.291113,23.723229],[121.291211,23.72323],[121.291116,23.723048],[121.290917,23.723226],[121.290526,23.723132],[121.290424,23.723402],[121.290328,23.72331],[121.290032,23.723397],[121.29003,23.723578],[121.290225,23.72367],[121.290219,23.724122],[121.29002,23.7243],[121.290215,23.724393],[121.290316,23.724213],[121.290512,23.724215]]],[[[121.291476,23.72549],[121.291478,23.725309],[121.291871,23.725314],[121.291972,23.725044],[121.29207,23.725045],[121.291982,23.724322],[121.292179,23.724234],[121.292185,23.723782],[121.292087,23.723781],[121.292092,23.72342],[121.291898,23.723237],[121.2917,23.723325],[121.291787,23.724229],[121.291689,23.724228],[121.291587,23.724498],[121.291098,23.724402],[121.2908,23.72467],[121.290697,23.72503],[121.290796,23.725031],[121.290889,23.725393],[121.290693,23.725391],[121.290592,23.725571],[121.290786,23.725753],[121.291275,23.725849],[121.291378,23.725489],[121.291476,23.72549]]],[[[121.298155,23.702086],[121.298057,23.702085],[121.298055,23.702265],[121.298153,23.702266],[121.298149,23.702537],[121.298247,23.702538],[121.298243,23.7029],[121.298532,23.703264],[121.298529,23.703535],[121.298819,23.703809],[121.299015,23.703811],[121.299013,23.703992],[121.299111,23.703993],[121.299103,23.704625],[121.299005,23.704624],[121.299,23.704985],[121.298902,23.704984],[121.298798,23.705434],[121.298014,23.705425],[121.297913,23.705605],[121.297717,23.705603],[121.297519,23.705781],[121.297905,23.706237],[121.298004,23.706148],[121.298493,23.706243],[121.298486,23.706785],[121.298095,23.706691],[121.297991,23.707141],[121.298088,23.707232],[121.298384,23.707145],[121.298575,23.707508],[121.298869,23.707512],[121.298966,23.707603],[121.298865,23.707873],[121.299158,23.707966],[121.29935,23.708239],[121.299546,23.708242],[121.299745,23.708063],[121.299937,23.708336],[121.30023,23.70843],[121.300332,23.70816],[121.300529,23.708072],[121.300528,23.708162],[121.300822,23.708165],[121.301113,23.708439],[121.301214,23.70817],[121.301116,23.708169],[121.301022,23.707897],[121.300826,23.707894],[121.300827,23.707804],[121.299845,23.707884],[121.299846,23.707793],[121.29965,23.707791],[121.299654,23.70752],[121.299556,23.707519],[121.299461,23.707247],[121.299263,23.707426],[121.298677,23.707239],[121.298684,23.706697],[121.298782,23.706698],[121.298785,23.706427],[121.299083,23.70616],[121.299088,23.705798],[121.298893,23.705706],[121.298895,23.705525],[121.298992,23.705617],[121.299189,23.705529],[121.299192,23.705348],[121.299093,23.705347],[121.299197,23.704897],[121.299395,23.704809],[121.299397,23.704628],[121.299595,23.70445],[121.299601,23.703998],[121.299701,23.703909],[121.29941,23.703635],[121.299412,23.703454],[121.299217,23.703362],[121.299322,23.702821],[121.299029,23.702728],[121.299129,23.702638],[121.299042,23.701734],[121.29914,23.701736],[121.299243,23.701375],[121.298753,23.70137],[121.298657,23.701188],[121.297971,23.701181],[121.298066,23.701363],[121.298362,23.701275],[121.298359,23.701456],[121.298162,23.701544],[121.298155,23.702086]],[[121.299029,23.702728],[121.29893,23.702817],[121.298931,23.702727],[121.299029,23.702728]],[[121.298359,23.701456],[121.298456,23.701547],[121.298358,23.701546],[121.298359,23.701456]],[[121.298009,23.705787],[121.29801,23.705696],[121.298206,23.705698],[121.298205,23.705789],[121.298009,23.705787]],[[121.29854,23.702632],[121.298541,23.702542],[121.298738,23.702544],[121.298736,23.702634],[121.29854,23.702632]]],[[[121.29773,23.712195],[121.297831,23.711925],[121.298326,23.711569],[121.298441,23.710306],[121.298149,23.710122],[121.298151,23.709942],[121.297859,23.709758],[121.297765,23.709486],[121.297666,23.709575],[121.297471,23.709483],[121.297477,23.709031],[121.297875,23.708584],[121.297386,23.708489],[121.297284,23.708758],[121.297186,23.708757],[121.297182,23.709028],[121.296789,23.709114],[121.296689,23.709294],[121.296982,23.709387],[121.296979,23.709568],[121.297173,23.709751],[121.297369,23.709753],[121.297269,23.709932],[121.297561,23.710116],[121.297654,23.710478],[121.297849,23.710571],[121.297738,23.711563],[121.297639,23.711652],[121.296658,23.711641],[121.296558,23.711821],[121.296656,23.711822],[121.296749,23.712184],[121.297043,23.712187],[121.297045,23.712097],[121.29773,23.712195]]],[[[121.301272,23.711331],[121.300984,23.710786],[121.300694,23.710512],[121.300498,23.710509],[121.30011,23.710144],[121.300112,23.709963],[121.299723,23.709779],[121.299628,23.709507],[121.299432,23.709504],[121.299238,23.709322],[121.299138,23.709501],[121.299623,23.709868],[121.299619,23.710229],[121.29942,23.710407],[121.299517,23.710499],[121.299715,23.71032],[121.300107,23.710415],[121.300202,23.710597],[121.300593,23.710691],[121.300782,23.711235],[121.300979,23.711237],[121.301074,23.711419],[121.301272,23.711331]]],[[[121.301326,23.714672],[121.301525,23.714494],[121.301528,23.714223],[121.301727,23.714045],[121.301731,23.713684],[121.301929,23.713595],[121.302034,23.713055],[121.301936,23.713054],[121.301842,23.712691],[121.301549,23.712598],[121.301552,23.712417],[121.301358,23.712235],[121.301162,23.712232],[121.300864,23.7125],[121.300957,23.712862],[121.30076,23.71295],[121.300757,23.713221],[121.300855,23.713222],[121.301044,23.713766],[121.301239,23.713859],[121.301233,23.71431],[121.301036,23.714398],[121.301033,23.714579],[121.301326,23.714672]]],[[[121.298383,23.71473],[121.298286,23.714639],[121.297992,23.714636],[121.297993,23.714545],[121.298289,23.714458],[121.298192,23.714367],[121.298292,23.714188],[121.297613,23.713638],[121.29751,23.713998],[121.297412,23.713997],[121.297409,23.714268],[121.297111,23.714536],[121.297404,23.714629],[121.297403,23.71472],[121.297697,23.714723],[121.298083,23.715179],[121.298379,23.715091],[121.298383,23.71473]],[[121.297898,23.714364],[121.297997,23.714275],[121.297996,23.714365],[121.297898,23.714364]]],[[[121.302121,23.721454],[121.301934,23.720729],[121.302132,23.720641],[121.302135,23.72037],[121.302233,23.720371],[121.302141,23.719919],[121.301944,23.720007],[121.301839,23.720547],[121.30164,23.720726],[121.30173,23.721359],[121.301924,23.721542],[121.302121,23.721454]]],[[[121.295441,23.722283],[121.296036,23.721748],[121.296233,23.72175],[121.296432,23.721481],[121.296627,23.721574],[121.296826,23.721395],[121.297019,23.721578],[121.297021,23.721488],[121.297316,23.721401],[121.29722,23.721219],[121.296925,23.721306],[121.296927,23.721126],[121.296829,23.721124],[121.297029,23.720856],[121.297126,23.720947],[121.297323,23.720859],[121.297228,23.720587],[121.29713,23.720586],[121.297146,23.719412],[121.297049,23.719321],[121.296851,23.719409],[121.296848,23.71968],[121.296651,23.719768],[121.296648,23.719949],[121.29645,23.720127],[121.296445,23.720488],[121.29664,23.720581],[121.296638,23.720761],[121.296342,23.720848],[121.296242,23.721028],[121.295948,23.721024],[121.295845,23.721384],[121.295547,23.721652],[121.294465,23.721911],[121.294756,23.722185],[121.295248,23.72201],[121.295246,23.722191],[121.295441,23.722283]],[[121.295248,23.72201],[121.295348,23.721921],[121.295347,23.722011],[121.295248,23.72201]]],[[[121.300145,23.722606],[121.300054,23.722063],[121.300351,23.721795],[121.30036,23.721163],[121.300756,23.720806],[121.300571,23.719992],[121.300177,23.720078],[121.29988,23.720345],[121.299876,23.720616],[121.299479,23.720973],[121.299371,23.721784],[121.299273,23.721783],[121.29927,23.721964],[121.299465,23.722056],[121.299459,23.722508],[121.299654,23.7226],[121.299652,23.722781],[121.299945,23.722874],[121.300047,23.722605],[121.300145,23.722606]],[[121.299972,23.720798],[121.300071,23.720709],[121.30007,23.720799],[121.299972,23.720798]],[[121.300365,23.720712],[121.300465,23.720623],[121.300463,23.720713],[121.300365,23.720712]]],[[[121.302866,23.724532],[121.302966,23.724352],[121.30316,23.724535],[121.303455,23.724448],[121.303362,23.724086],[121.303264,23.724085],[121.303363,23.723996],[121.303268,23.723814],[121.303564,23.723637],[121.303566,23.723456],[121.303371,23.723364],[121.303374,23.723183],[121.303473,23.723094],[121.303667,23.723276],[121.303864,23.723188],[121.303767,23.723097],[121.303868,23.722917],[121.303673,23.722825],[121.303675,23.722644],[121.303871,23.722647],[121.304071,23.722378],[121.303974,23.722287],[121.303385,23.72228],[121.303387,23.72219],[121.302798,23.722183],[121.302409,23.721908],[121.302308,23.722178],[121.302503,23.72227],[121.302597,23.722542],[121.302892,23.722546],[121.302984,23.722998],[121.302496,23.722812],[121.302394,23.723082],[121.302,23.723258],[121.302097,23.72335],[121.301995,23.723619],[121.30248,23.724076],[121.302475,23.724437],[121.302866,23.724532]],[[121.302869,23.724261],[121.302969,23.724172],[121.302967,23.724262],[121.302869,23.724261]]],[[[121.294412,23.725974],[121.294417,23.725613],[121.294319,23.725612],[121.294321,23.725431],[121.29452,23.725253],[121.294428,23.7248],[121.294626,23.724622],[121.29463,23.724351],[121.295121,23.724266],[121.295123,23.724086],[121.294928,23.723993],[121.294837,23.72345],[121.294935,23.723451],[121.294939,23.72318],[121.295136,23.723092],[121.295145,23.72246],[121.295244,23.722371],[121.294951,23.722278],[121.294653,23.722545],[121.294651,23.722726],[121.294455,23.722724],[121.294558,23.722273],[121.294365,23.722091],[121.294169,23.722088],[121.294069,23.722178],[121.294166,23.722269],[121.294163,23.72254],[121.294065,23.722539],[121.294156,23.723082],[121.294058,23.72308],[121.293864,23.722898],[121.293867,23.722627],[121.293577,23.722353],[121.293487,23.72172],[121.293,23.721443],[121.292913,23.72063],[121.292718,23.720537],[121.292616,23.720807],[121.292419,23.720895],[121.292315,23.721346],[121.291921,23.721431],[121.29182,23.721701],[121.292304,23.722158],[121.292597,23.722252],[121.292498,23.722341],[121.292494,23.722612],[121.292592,23.722613],[121.292483,23.723515],[121.292774,23.723698],[121.292771,23.723969],[121.293063,23.724153],[121.29306,23.724334],[121.292665,23.7246],[121.29266,23.724961],[121.292757,23.725053],[121.292953,23.725055],[121.293151,23.724876],[121.293543,23.724971],[121.293741,23.724793],[121.293736,23.725154],[121.293442,23.725151],[121.293441,23.725241],[121.293148,23.725147],[121.293046,23.725417],[121.292556,23.725412],[121.292555,23.725502],[121.292261,23.725499],[121.29216,23.725678],[121.29245,23.726043],[121.292744,23.726046],[121.292743,23.726136],[121.29304,23.725868],[121.293433,23.725873],[121.293329,23.726323],[121.293525,23.726325],[121.293527,23.726145],[121.29392,23.726149],[121.293922,23.725969],[121.294412,23.725974]],[[121.294125,23.725429],[121.294223,23.72543],[121.294221,23.725611],[121.294026,23.725518],[121.294031,23.725157],[121.294129,23.725158],[121.294125,23.725429]],[[121.294537,23.723898],[121.294439,23.723897],[121.29434,23.723987],[121.294442,23.723717],[121.29454,23.723718],[121.294537,23.723898]],[[121.293167,23.723703],[121.293266,23.723614],[121.293265,23.723704],[121.293167,23.723703]],[[121.294346,23.723535],[121.29415,23.723533],[121.294251,23.723263],[121.294349,23.723264],[121.294346,23.723535]]],[[[121.296762,23.726271],[121.296862,23.726182],[121.296774,23.725368],[121.29717,23.725101],[121.297172,23.724921],[121.297367,23.725013],[121.297468,23.724834],[121.297664,23.724836],[121.297862,23.724657],[121.297867,23.724296],[121.297965,23.724297],[121.297879,23.723393],[121.297977,23.723395],[121.297979,23.723214],[121.297881,23.723213],[121.297789,23.72276],[121.297591,23.722849],[121.297586,23.7233],[121.297092,23.723565],[121.297187,23.723747],[121.297678,23.723752],[121.297675,23.723933],[121.297773,23.723934],[121.297375,23.724381],[121.29718,23.724289],[121.296883,23.724556],[121.296688,23.724464],[121.296886,23.724286],[121.296989,23.723925],[121.297087,23.723927],[121.296699,23.723561],[121.296495,23.724191],[121.296299,23.724189],[121.296199,23.724368],[121.296002,23.724366],[121.295804,23.724544],[121.295216,23.724538],[121.295119,23.724447],[121.294821,23.724714],[121.29511,23.725079],[121.295699,23.725085],[121.2956,23.725174],[121.295597,23.725355],[121.295792,23.725447],[121.295691,23.725717],[121.295886,23.72581],[121.295882,23.72608],[121.296076,23.726263],[121.296468,23.726267],[121.296469,23.726177],[121.296762,23.726271]],[[121.296379,23.725544],[121.296574,23.725637],[121.296569,23.726088],[121.29647,23.726087],[121.296379,23.725544]],[[121.296385,23.725093],[121.296581,23.725095],[121.296579,23.725275],[121.296383,23.725273],[121.296385,23.725093]],[[121.2959,23.724726],[121.295997,23.724818],[121.296096,23.724728],[121.296093,23.724909],[121.295799,23.724906],[121.295704,23.724724],[121.2959,23.724726]]],[[[121.301869,23.725785],[121.301965,23.725967],[121.302162,23.725879],[121.302164,23.725698],[121.301969,23.725606],[121.30207,23.725426],[121.302359,23.72579],[121.302557,23.725702],[121.30246,23.725611],[121.302465,23.72516],[121.302564,23.725161],[121.302468,23.724979],[121.302369,23.725068],[121.301977,23.724974],[121.301874,23.725424],[121.30148,23.72551],[121.30118,23.725958],[121.301472,23.726142],[121.301575,23.725782],[121.301869,23.725785]]],[[[121.305278,23.727628],[121.305675,23.727272],[121.306263,23.727278],[121.306359,23.72746],[121.306555,23.727462],[121.306462,23.7271],[121.306658,23.727102],[121.306659,23.727012],[121.306267,23.727007],[121.306074,23.726734],[121.305681,23.72682],[121.305585,23.726639],[121.305194,23.726544],[121.304995,23.726722],[121.305189,23.726905],[121.305187,23.727086],[121.305089,23.727085],[121.304604,23.726628],[121.304709,23.726087],[121.304514,23.725995],[121.304316,23.726173],[121.304413,23.726265],[121.304309,23.726715],[121.304504,23.726807],[121.304502,23.726988],[121.304795,23.727081],[121.305278,23.727628]]]]}},{"type":"Feature","properties":{"kind":"bare_dam","month":"2022-06","area_ha":24.71},"geometry":{"type":"MultiPolygon","coordinates":[[[[121.30135,23.690111],[121.300959,23.690017],[121.300765,23.689834],[121.300372,23.68992],[121.300468,23.690102],[121.300665,23.690013],[121.300956,23.690287],[121.30125,23.690291],[121.30135,23.690111]]],[[[121.299862,23.691449],[121.299764,23.691448],[121.299769,23.691087],[121.299574,23.690995],[121.299773,23.690726],[121.29958,23.690543],[121.298799,23.690264],[121.2988,23.690173],[121.299192,23.690178],[121.299191,23.690268],[121.29929,23.690179],[121.299387,23.69027],[121.299486,23.690181],[121.300074,23.690187],[121.300176,23.689918],[121.299883,23.689824],[121.299884,23.689734],[121.298708,23.689721],[121.298607,23.6899],[121.298313,23.689897],[121.298312,23.689988],[121.297919,23.690074],[121.297522,23.69043],[121.297521,23.690521],[121.297815,23.690524],[121.297616,23.690702],[121.297614,23.690883],[121.297808,23.691066],[121.298201,23.69098],[121.298301,23.6908],[121.298498,23.690802],[121.298496,23.690893],[121.298694,23.690804],[121.298692,23.690895],[121.298889,23.690897],[121.298886,23.691077],[121.298788,23.691076],[121.298882,23.691439],[121.299078,23.691441],[121.299076,23.691531],[121.29947,23.691445],[121.299664,23.691628],[121.299862,23.691449]]],[[[121.303095,23.691665],[121.30329,23.691758],[121.30339,23.691578],[121.303293,23.691487],[121.302802,23.691572],[121.302706,23.69139],[121.302313,23.691476],[121.302218,23.691204],[121.302021,23.691292],[121.301829,23.691019],[121.301534,23.691016],[121.301439,23.690835],[121.301044,23.691011],[121.301047,23.69083],[121.300658,23.690555],[121.300563,23.690283],[121.300367,23.690281],[121.300369,23.690191],[121.300171,23.690279],[121.300267,23.690461],[121.30007,23.690549],[121.300066,23.69082],[121.299968,23.690818],[121.300064,23.691],[121.299867,23.691088],[121.299961,23.69136],[121.300157,23.691362],[121.300156,23.691453],[121.300255,23.691363],[121.300352,23.691455],[121.300744,23.691459],[121.300745,23.691369],[121.300842,23.69146],[121.301431,23.691467],[121.301526,23.691648],[121.301626,23.691559],[121.302214,23.691565],[121.302213,23.691656],[121.302508,23.691569],[121.302604,23.69175],[121.302898,23.691754],[121.302897,23.691844],[121.303095,23.691665]]],[[[121.304364,23.692131],[121.304757,23.692045],[121.304661,23.691863],[121.304072,23.691947],[121.304071,23.692037],[121.303974,23.691946],[121.303484,23.691941],[121.303485,23.69185],[121.30319,23.691937],[121.303285,23.692119],[121.303872,23.692216],[121.303871,23.692306],[121.304263,23.69231],[121.304364,23.692131]]],[[[121.301296,23.694264],[121.301104,23.693991],[121.3013,23.693994],[121.3014,23.693814],[121.301009,23.693719],[121.300428,23.693171],[121.300142,23.692536],[121.29975,23.692532],[121.299752,23.692351],[121.299558,23.692168],[121.299165,23.692254],[121.298973,23.691981],[121.29848,23.692157],[121.298577,23.692248],[121.298473,23.692698],[121.298668,23.692791],[121.298664,23.693062],[121.299052,23.693427],[121.299543,23.693342],[121.299637,23.693704],[121.299833,23.693707],[121.299834,23.693616],[121.300225,23.693711],[121.300417,23.693984],[121.300712,23.693987],[121.300709,23.694168],[121.3011,23.694262],[121.301099,23.694353],[121.301296,23.694264]],[[121.300328,23.693351],[121.300424,23.693442],[121.300326,23.693441],[121.300328,23.693351]],[[121.300328,23.693351],[121.300231,23.693259],[121.300329,23.69326],[121.300328,23.693351]],[[121.29945,23.69298],[121.299842,23.692984],[121.299841,23.693075],[121.299449,23.69307],[121.29945,23.69298]]],[[[121.301979,23.694543],[121.301686,23.694449],[121.301494,23.694176],[121.301296,23.694264],[121.301683,23.69472],[121.301879,23.694722],[121.301979,23.694543]]],[[[121.299605,23.696142],[121.299905,23.695694],[121.299515,23.695509],[121.299416,23.695598],[121.29941,23.69605],[121.299605,23.696142]]],[[[121.301841,23.697611],[121.301941,23.697522],[121.301943,23.697342],[121.302434,23.697257],[121.302536,23.696987],[121.30283,23.69699],[121.303028,23.696812],[121.302835,23.696629],[121.302837,23.696448],[121.303032,23.696541],[121.30323,23.696362],[121.303234,23.696092],[121.303431,23.696003],[121.303337,23.695732],[121.303042,23.695728],[121.302841,23.696178],[121.302644,23.696175],[121.302248,23.696532],[121.302145,23.696892],[121.30155,23.697428],[121.301645,23.697609],[121.301841,23.697611]]],[[[121.300277,23.697233],[121.300081,23.697231],[121.300085,23.69696],[121.299793,23.696776],[121.299694,23.696865],[121.299787,23.697228],[121.299589,23.697406],[121.299782,23.697589],[121.300274,23.697504],[121.300373,23.697415],[121.300277,23.697233]]],[[[121.297991,23.699646],[121.297792,23.699824],[121.297785,23.700366],[121.297882,23.700458],[121.298079,23.700369],[121.298084,23.700008],[121.298182,23.700009],[121.298176,23.700461],[121.299157,23.700472],[121.299062,23.7002],[121.298964,23.700199],[121.298968,23.699928],[121.298774,23.699745],[121.298777,23.699474],[121.299076,23.699116],[121.299081,23.698755],[121.299278,23.698667],[121.29928,23.698486],[121.299479,23.698308],[121.300263,23.698317],[121.300264,23.698226],[121.300852,23.698323],[121.301644,23.6977],[121.301452,23.697427],[121.30096,23.697511],[121.300766,23.697329],[121.300662,23.697779],[121.300564,23.697778],[121.30047,23.697506],[121.300274,23.697504],[121.300171,23.697864],[121.300073,23.697863],[121.299977,23.697681],[121.299683,23.697678],[121.299393,23.697404],[121.299495,23.697044],[121.299398,23.696953],[121.299201,23.697041],[121.299017,23.696136],[121.298919,23.696135],[121.299018,23.696045],[121.299027,23.695323],[121.298734,23.69523],[121.298838,23.694779],[121.298644,23.694596],[121.298347,23.694864],[121.298151,23.694862],[121.298056,23.69459],[121.297859,23.694678],[121.297854,23.695039],[121.297657,23.695127],[121.297655,23.695308],[121.297753,23.695309],[121.297646,23.69594],[121.297937,23.696214],[121.298123,23.697029],[121.29851,23.697394],[121.298306,23.698024],[121.298501,23.698117],[121.298699,23.697938],[121.298702,23.697758],[121.299094,23.697762],[121.299095,23.697672],[121.299487,23.697676],[121.299484,23.697947],[121.299189,23.697944],[121.299089,23.698123],[121.298598,23.698208],[121.298399,23.698386],[121.298395,23.698747],[121.298296,23.698746],[121.298202,23.698474],[121.298005,23.698563],[121.297901,23.699013],[121.298194,23.699106],[121.29838,23.699831],[121.298184,23.699829],[121.297991,23.699646]],[[121.30096,23.697511],[121.300861,23.697601],[121.300862,23.69751],[121.30096,23.697511]],[[121.29838,23.699831],[121.298477,23.699922],[121.298379,23.699921],[121.29838,23.699831]],[[121.298487,23.6992],[121.298586,23.699111],[121.298585,23.699201],[121.298487,23.6992]],[[121.298517,23.696853],[121.298616,23.696763],[121.298615,23.696854],[121.298517,23.696853]],[[121.298627,23.695951],[121.298821,23.696133],[121.298723,23.696132],[121.298621,23.696402],[121.298425,23.6964],[121.298627,23.695951]],[[121.298534,23.695589],[121.298632,23.69559],[121.298629,23.69577],[121.298531,23.695769],[121.298534,23.695589]]],[[[121.295446,23.699257],[121.295843,23.6989],[121.296332,23.698996],[121.296432,23.698816],[121.296239,23.698633],[121.295748,23.698628],[121.295352,23.698985],[121.294959,23.698981],[121.294961,23.69889],[121.294665,23.698977],[121.294858,23.69925],[121.295446,23.699257]]],[[[121.312074,23.687339],[121.31246,23.687795],[121.312458,23.687975],[121.312653,23.688068],[121.312752,23.687978],[121.31276,23.687346],[121.312468,23.687163],[121.312471,23.686982],[121.31218,23.686708],[121.311687,23.686883],[121.311494,23.6867],[121.311497,23.68643],[121.311302,23.686337],[121.311201,23.686607],[121.311299,23.686608],[121.311295,23.686879],[121.311393,23.68688],[121.311389,23.687241],[121.311291,23.68724],[121.311285,23.687692],[121.311186,23.687781],[121.311282,23.687872],[121.311578,23.687785],[121.311878,23.687337],[121.312074,23.687339]],[[121.311878,23.687337],[121.311781,23.687245],[121.311879,23.687246],[121.311878,23.687337]],[[121.311683,23.687244],[121.311586,23.687153],[121.311684,23.687154],[121.311683,23.687244]]],[[[121.310685,23.688588],[121.310881,23.68859],[121.31118,23.688232],[121.310887,23.688139],[121.310292,23.688674],[121.310487,23.688766],[121.310685,23.688588]]],[[[121.30889,23.690916],[121.308993,23.690556],[121.308798,23.690464],[121.308706,23.690011],[121.308414,23.689827],[121.308313,23.690007],[121.308507,23.69019],[121.308499,23.690822],[121.30889,23.690916]]],[[[121.308983,23.691278],[121.308889,23.691006],[121.308397,23.691091],[121.308687,23.691456],[121.308983,23.691278]]],[[[121.308388,23.691814],[121.308587,23.691635],[121.308493,23.691273],[121.308297,23.691271],[121.307901,23.691537],[121.308192,23.691812],[121.308388,23.691814]]],[[[121.310345,23.692106],[121.31025,23.691924],[121.309956,23.691921],[121.309957,23.691831],[121.30976,23.691919],[121.31005,23.692193],[121.310246,23.692195],[121.310345,23.692106]]],[[[121.306323,23.692243],[121.306522,23.692064],[121.306425,23.691973],[121.305935,23.691967],[121.305744,23.691514],[121.305352,23.69151],[121.305154,23.691688],[121.305152,23.691869],[121.304756,23.692135],[121.304852,23.692317],[121.305048,23.692319],[121.305248,23.69196],[121.305543,23.691963],[121.305541,23.692053],[121.305834,23.692147],[121.305831,23.692418],[121.306025,23.692601],[121.306221,23.692603],[121.306323,23.692243]]],[[[121.310636,23.69238],[121.311131,23.692024],[121.311035,23.691843],[121.310839,23.69184],[121.310738,23.69211],[121.310641,23.692019],[121.310345,23.692106],[121.310636,23.69238]]],[[[121.306514,23.692696],[121.30632,23.692513],[121.30622,23.692693],[121.306414,23.692785],[121.306514,23.692696]]],[[[121.30501,23.695208],[121.30511,23.695119],[121.305015,23.694847],[121.305313,23.694579],[121.305608,23.694492],[121.305511,23.694401],[121.305516,23.69404],[121.305713,23.693952],[121.305617,23.69377],[121.304927,23.694033],[121.304827,23.694213],[121.304533,23.69421],[121.304135,23.694657],[121.303939,23.694655],[121.30384,23.694744],[121.303933,23.695106],[121.303737,23.695104],[121.303637,23.695283],[121.303735,23.695284],[121.303828,23.695647],[121.303927,23.695557],[121.304122,23.69565],[121.304123,23.69556],[121.304515,23.695564],[121.304813,23.695296],[121.304719,23.695024],[121.30501,23.695208]],[[121.304719,23.695024],[121.304622,23.694933],[121.30472,23.694934],[121.304719,23.695024]]]]}},{"type":"Feature","properties":{"kind":"water","month":"2022-06","area_ha":0.77},"geometry":{"type":"MultiPolygon","coordinates":[[[[121.300275,23.697414],[121.300567,23.697597],[121.300564,23.697778],[121.300662,23.697779],[121.300667,23.697418],[121.300275,23.697414]]],[[[121.300175,23.697593],[121.300274,23.697504],[121.299882,23.6975],[121.299683,23.697678],[121.299977,23.697681],[121.300171,23.697864],[121.300175,23.697593]]],[[[121.299089,23.698123],[121.299189,23.697944],[121.299484,23.697947],[121.299487,23.697676],[121.298702,23.697758],[121.298698,23.698028],[121.298502,23.698026],[121.298402,23.698206],[121.299089,23.698123]]],[[[121.298497,23.698387],[121.298304,23.698205],[121.298296,23.698746],[121.298395,23.698747],[121.298399,23.698386],[121.298497,23.698387]]],[[[121.297997,23.699195],[121.297897,23.699284],[121.297995,23.699285],[121.297997,23.699195]]],[[[121.298289,23.699288],[121.298191,23.699287],[121.298194,23.699106],[121.297998,23.699104],[121.298184,23.699829],[121.29838,23.699831],[121.298284,23.69974],[121.298289,23.699288]]],[[[121.298477,23.699922],[121.29838,23.699831],[121.298379,23.699921],[121.298477,23.699922]]]]}}]}