{"type":"FeatureCollection","features":[{"type":"Feature","properties":{"kind":"bare_slide","month":"2023-08","area_ha":21.91},"geometry":{"type":"MultiPolygon","coordinates":[[[[121.297577,23.708852],[121.297775,23.708674],[121.298071,23.708587],[121.298074,23.708316],[121.298172,23.708317],[121.297979,23.708134],[121.298081,23.707774],[121.297791,23.7075],[121.297398,23.707496],[121.297002,23.707852],[121.297098,23.707944],[121.297491,23.707948],[121.297492,23.707858],[121.297883,23.707952],[121.297778,23.708493],[121.297384,23.708579],[121.297577,23.708852]]],[[[121.297369,23.709753],[121.297471,23.709483],[121.297276,23.70939],[121.297278,23.70921],[121.297376,23.709211],[121.29728,23.709029],[121.29669,23.709203],[121.297077,23.709569],[121.297172,23.709841],[121.297369,23.709753]]],[[[121.297958,23.709759],[121.297763,23.709667],[121.297662,23.709846],[121.297857,23.709939],[121.297958,23.709759]]],[[[121.297364,23.710114],[121.297661,23.709937],[121.297565,23.709755],[121.297369,23.709753],[121.29727,23.709842],[121.297364,23.710114]]],[[[121.297831,23.711925],[121.298326,23.711569],[121.298332,23.711118],[121.298531,23.710939],[121.29834,23.710486],[121.297746,23.710931],[121.297737,23.711653],[121.297247,23.711648],[121.297245,23.711738],[121.29695,23.711825],[121.296948,23.712006],[121.296753,23.711913],[121.296652,23.712093],[121.296749,23.712184],[121.296848,23.712095],[121.296945,23.712186],[121.297339,23.7121],[121.297338,23.71219],[121.297729,23.712285],[121.297831,23.711925]]],[[[121.294465,23.714416],[121.294853,23.714691],[121.294854,23.714601],[121.295445,23.714427],[121.295644,23.714249],[121.295647,23.713978],[121.295843,23.71398],[121.295945,23.71371],[121.296142,23.713622],[121.296246,23.713172],[121.296344,23.713173],[121.296353,23.71245],[121.296257,23.712359],[121.29596,23.712536],[121.295957,23.712807],[121.295858,23.712806],[121.295757,23.713076],[121.295365,23.713072],[121.294969,23.713338],[121.294677,23.713154],[121.294475,23.713604],[121.294181,23.7136],[121.293883,23.713868],[121.293491,23.713864],[121.293391,23.714043],[121.2929,23.714038],[121.292805,23.713856],[121.292314,23.713851],[121.292313,23.713941],[121.291922,23.713846],[121.291822,23.714026],[121.292115,23.714119],[121.292209,23.714391],[121.292405,23.714394],[121.292403,23.714574],[121.292204,23.714753],[121.292008,23.71475],[121.292109,23.714571],[121.292011,23.71457],[121.292014,23.714299],[121.29182,23.714116],[121.291622,23.714295],[121.291525,23.714203],[121.291328,23.714291],[121.291325,23.714472],[121.291811,23.714838],[121.291708,23.715199],[121.291902,23.715381],[121.292098,23.715383],[121.292199,23.715204],[121.292395,23.715206],[121.292587,23.715479],[121.292981,23.715393],[121.293076,23.715575],[121.293961,23.715404],[121.293959,23.715585],[121.293762,23.715673],[121.293855,23.716035],[121.294345,23.71604],[121.294346,23.71595],[121.294642,23.715863],[121.294644,23.715682],[121.294938,23.715686],[121.295034,23.715867],[121.295231,23.715779],[121.295328,23.715871],[121.295228,23.71605],[121.295521,23.716144],[121.295617,23.716325],[121.295814,23.716237],[121.295721,23.715875],[121.296014,23.715968],[121.296215,23.715519],[121.296312,23.715611],[121.296608,23.715523],[121.296713,23.714983],[121.297006,23.715076],[121.297403,23.71472],[121.297794,23.714814],[121.297791,23.714995],[121.29818,23.71527],[121.298671,23.715275],[121.298669,23.715366],[121.298867,23.715277],[121.298673,23.715095],[121.298675,23.714914],[121.298383,23.71473],[121.298292,23.714188],[121.297999,23.714094],[121.297713,23.713459],[121.297516,23.713547],[121.29751,23.713998],[121.297412,23.713997],[121.297309,23.714357],[121.297111,23.714536],[121.296817,23.714532],[121.296518,23.71489],[121.296322,23.714888],[121.29622,23.715158],[121.296414,23.715341],[121.296315,23.71543],[121.29612,23.715337],[121.295624,23.715784],[121.295428,23.715781],[121.295333,23.715509],[121.295042,23.715235],[121.294844,23.715414],[121.294648,23.715412],[121.294649,23.715321],[121.294255,23.715407],[121.294553,23.71514],[121.294556,23.714959],[121.294265,23.714685],[121.294462,23.714597],[121.294465,23.714416]],[[121.297403,23.71472],[121.297306,23.714628],[121.297404,23.714629],[121.297403,23.71472]],[[121.294366,23.714415],[121.294173,23.714232],[121.294175,23.714052],[121.294472,23.713875],[121.294665,23.714057],[121.294663,23.714238],[121.294366,23.714415]],[[121.293082,23.715123],[121.292985,23.715032],[121.293083,23.715033],[121.293082,23.715123]],[[121.292694,23.714848],[121.292695,23.714758],[121.292891,23.71476],[121.29289,23.71485],[121.292694,23.714848]],[[121.294066,23.714863],[121.29397,23.714772],[121.294068,23.714773],[121.294066,23.714863]],[[121.294964,23.713699],[121.294867,23.713608],[121.294965,23.713609],[121.294964,23.713699]]],[[[121.297232,23.720316],[121.297134,23.720315],[121.297245,23.719323],[121.297147,23.719322],[121.297052,23.71905],[121.29666,23.719046],[121.296558,23.719315],[121.296753,23.719408],[121.29675,23.719679],[121.296455,23.719766],[121.296255,23.720035],[121.296546,23.720309],[121.29684,23.720312],[121.296935,23.720494],[121.297132,23.720496],[121.297232,23.720316]]],[[[121.298941,23.702004],[121.299039,23.702005],[121.299042,23.701734],[121.29914,23.701736],[121.299243,23.701375],[121.298753,23.70137],[121.298657,23.701188],[121.297971,23.701181],[121.298243,23.7029],[121.298341,23.702901],[121.298337,23.703172],[121.298532,23.703264],[121.298627,23.703536],[121.298924,23.703268],[121.299119,23.703361],[121.299222,23.703001],[121.29932,23.703002],[121.299029,23.702728],[121.299038,23.702096],[121.298941,23.702004]],[[121.299029,23.702728],[121.29893,23.702817],[121.298931,23.702727],[121.299029,23.702728]],[[121.298928,23.702997],[121.298829,23.703087],[121.29883,23.702996],[121.298928,23.702997]]],[[[121.298887,23.706157],[121.298985,23.706159],[121.298888,23.706067],[121.298991,23.705707],[121.299189,23.705529],[121.299197,23.704897],[121.299295,23.704898],[121.2992,23.704716],[121.298902,23.704984],[121.298797,23.705524],[121.2987,23.705433],[121.29821,23.705428],[121.298111,23.705517],[121.298401,23.705791],[121.298203,23.705969],[121.298297,23.706241],[121.298495,23.706153],[121.298492,23.706334],[121.298785,23.706427],[121.298887,23.706157]]],[[[121.300887,23.710694],[121.300403,23.710238],[121.300207,23.710235],[121.300114,23.709873],[121.299821,23.70978],[121.299726,23.709508],[121.299529,23.709596],[121.299144,23.70905],[121.298946,23.709138],[121.29914,23.709321],[121.299138,23.709501],[121.299719,23.710049],[121.299322,23.710406],[121.299418,23.710588],[121.299614,23.71059],[121.299715,23.71032],[121.299814,23.710321],[121.299812,23.710412],[121.300107,23.710415],[121.300299,23.710688],[121.300593,23.710691],[121.300689,23.710873],[121.300887,23.710694]]],[[[121.303006,23.713698],[121.303498,23.713613],[121.303697,23.713344],[121.304089,23.713348],[121.304488,23.712901],[121.304293,23.712809],[121.304192,23.712988],[121.303898,23.712985],[121.303798,23.713164],[121.303503,23.713161],[121.303403,23.713341],[121.303011,23.713336],[121.30301,23.713427],[121.302717,23.713333],[121.302613,23.713783],[121.302906,23.713877],[121.303006,23.713698]]],[[[121.301325,23.714763],[121.301726,23.714135],[121.30173,23.713774],[121.302027,23.713596],[121.302133,23.712966],[121.301553,23.712327],[121.30126,23.712234],[121.300962,23.712501],[121.301057,23.712773],[121.300858,23.712952],[121.300851,23.713493],[121.301045,23.713676],[121.301342,23.713499],[121.301338,23.713769],[121.301141,23.713858],[121.301238,23.713949],[121.301232,23.7144],[121.301033,23.714579],[121.301325,23.714763]],[[121.301545,23.712959],[121.301546,23.712869],[121.301742,23.712871],[121.301741,23.712961],[121.301545,23.712959]],[[121.301548,23.712688],[121.301451,23.712597],[121.301549,23.712598],[121.301548,23.712688]]],[[[121.299038,23.717176],[121.299634,23.71664],[121.299637,23.716369],[121.299539,23.716368],[121.299641,23.716099],[121.299936,23.716012],[121.299843,23.715649],[121.299546,23.715827],[121.299544,23.716007],[121.299346,23.716095],[121.299144,23.716545],[121.298849,23.716632],[121.298745,23.717082],[121.299038,23.717176]]],[[[121.297839,23.718878],[121.298035,23.71888],[121.298234,23.718702],[121.298336,23.718342],[121.298831,23.717986],[121.298834,23.717805],[121.299032,23.717627],[121.298939,23.717265],[121.298742,23.717353],[121.298739,23.717533],[121.298442,23.717801],[121.298339,23.718161],[121.297546,23.718785],[121.297641,23.719056],[121.297839,23.718878]]]]}},{"type":"Feature","properties":{"kind":"bare_dam","month":"2023-08","area_ha":13.19},"geometry":{"type":"MultiPolygon","coordinates":[[[[121.300321,23.693892],[121.300319,23.693983],[121.300712,23.693987],[121.300806,23.694259],[121.301199,23.694173],[121.30091,23.693809],[121.300616,23.693805],[121.300325,23.693531],[121.300623,23.693264],[121.300527,23.693082],[121.300331,23.69308],[121.300133,23.693258],[121.29994,23.692985],[121.299646,23.692982],[121.299163,23.692435],[121.298772,23.69234],[121.298872,23.692161],[121.299167,23.692074],[121.298975,23.691801],[121.298681,23.691798],[121.29858,23.691977],[121.298384,23.691975],[121.298289,23.691793],[121.297993,23.69188],[121.298187,23.692063],[121.298184,23.692334],[121.29828,23.692425],[121.298478,23.692337],[121.298472,23.692789],[121.298859,23.693154],[121.298855,23.693515],[121.298757,23.693514],[121.29885,23.693876],[121.299047,23.693788],[121.299045,23.693969],[121.299338,23.694062],[121.299337,23.694153],[121.299631,23.694156],[121.299829,23.693977],[121.300121,23.694161],[121.300221,23.693982],[121.300028,23.693799],[121.300321,23.693892]],[[121.299832,23.693797],[121.299833,23.693707],[121.300029,23.693709],[121.300028,23.693799],[121.299832,23.693797]],[[121.299444,23.693431],[121.299345,23.693521],[121.299346,23.69343],[121.299444,23.693431]]],[[[121.29823,23.696308],[121.298137,23.695945],[121.297743,23.696031],[121.29784,23.696123],[121.297736,23.696573],[121.298028,23.696757],[121.297928,23.696936],[121.29822,23.69712],[121.298313,23.697482],[121.298704,23.697577],[121.298902,23.697399],[121.298997,23.697671],[121.299487,23.697676],[121.299587,23.697496],[121.299295,23.697403],[121.299297,23.697222],[121.299495,23.697044],[121.298916,23.696315],[121.299016,23.696226],[121.298919,23.696135],[121.299027,23.695323],[121.298734,23.69523],[121.29874,23.694778],[121.298643,23.694687],[121.298445,23.694865],[121.298249,23.694863],[121.297958,23.694589],[121.297854,23.695039],[121.298049,23.695132],[121.298047,23.695312],[121.298241,23.695495],[121.298139,23.695765],[121.298236,23.695856],[121.298433,23.695768],[121.298336,23.695677],[121.298439,23.695317],[121.298732,23.69541],[121.298633,23.695499],[121.298726,23.695862],[121.298528,23.69604],[121.29872,23.696313],[121.298523,23.696401],[121.298421,23.696671],[121.298225,23.696669],[121.298229,23.696398],[121.298131,23.696397],[121.29823,23.696308]],[[121.298225,23.696669],[121.298126,23.696758],[121.298127,23.696668],[121.298225,23.696669]],[[121.298517,23.696853],[121.298716,23.696674],[121.29881,23.696946],[121.298614,23.696944],[121.298416,23.697122],[121.298321,23.69685],[121.298517,23.696853]],[[121.298815,23.696585],[121.298718,23.696494],[121.298816,23.696495],[121.298815,23.696585]]],[[[121.299882,23.6975],[121.300178,23.697322],[121.300085,23.69696],[121.299793,23.696776],[121.299589,23.697406],[121.299882,23.6975]]],[[[121.301049,23.698235],[121.301346,23.697967],[121.301056,23.697693],[121.30086,23.697691],[121.300758,23.697961],[121.301049,23.698235]]],[[[121.300361,23.698318],[121.300659,23.69805],[121.300563,23.697868],[121.300464,23.697958],[121.300367,23.697866],[121.299876,23.697951],[121.299875,23.698041],[121.299481,23.698127],[121.299381,23.698307],[121.299576,23.698399],[121.299577,23.698309],[121.300361,23.698318]]],[[[121.299157,23.700472],[121.298963,23.700289],[121.298968,23.699928],[121.298774,23.699745],[121.298878,23.699295],[121.299076,23.699116],[121.299081,23.698755],[121.299179,23.698756],[121.298985,23.698573],[121.298686,23.698931],[121.298682,23.699292],[121.298288,23.699378],[121.298285,23.699649],[121.298088,23.699737],[121.298179,23.70028],[121.297984,23.700188],[121.297882,23.700458],[121.299157,23.700472]]],[[[121.303993,23.690501],[121.303995,23.690321],[121.30351,23.689864],[121.303409,23.690134],[121.303604,23.690226],[121.303602,23.690407],[121.303795,23.69059],[121.303993,23.690501]]],[[[121.302816,23.690488],[121.303206,23.690673],[121.303306,23.690494],[121.302916,23.690309],[121.302816,23.690488]]],[[[121.302821,23.690127],[121.302627,23.689945],[121.302528,23.690034],[121.302622,23.690306],[121.302524,23.690305],[121.302525,23.690214],[121.302231,23.690211],[121.301941,23.689937],[121.300469,23.690011],[121.300369,23.690191],[121.300073,23.690278],[121.300261,23.690912],[121.299869,23.690908],[121.299766,23.691268],[121.300155,23.691543],[121.301138,23.691373],[121.301136,23.691463],[121.301431,23.691467],[121.301624,23.691649],[121.301724,23.69156],[121.301629,23.691288],[121.301925,23.691111],[121.301928,23.69093],[121.302223,23.690843],[121.302127,23.690662],[121.301833,23.690658],[121.301834,23.690568],[121.301934,23.690479],[121.302325,23.690573],[121.302523,23.690395],[121.302718,23.690487],[121.302817,23.690398],[121.302723,23.690126],[121.302821,23.690127]],[[121.301139,23.691283],[121.301042,23.691191],[121.30114,23.691192],[121.301139,23.691283]],[[121.300362,23.690732],[121.300458,23.690824],[121.30036,23.690823],[121.300362,23.690732]],[[121.30046,23.690734],[121.300559,23.690644],[121.300558,23.690735],[121.30046,23.690734]],[[121.301637,23.690656],[121.30154,23.690565],[121.301638,23.690566],[121.301637,23.690656]]],[[[121.303289,23.691848],[121.30329,23.691758],[121.303485,23.69185],[121.303585,23.691671],[121.303097,23.691485],[121.303098,23.691395],[121.302704,23.691571],[121.302799,23.691843],[121.302995,23.691845],[121.302993,23.691935],[121.303289,23.691848]]],[[[121.304642,23.693398],[121.304741,23.693309],[121.304843,23.692949],[121.304553,23.692675],[121.304063,23.692669],[121.303967,23.692488],[121.303672,23.692575],[121.303665,23.693116],[121.303858,23.693299],[121.304056,23.693211],[121.30415,23.693483],[121.304642,23.693398]]],[[[121.301687,23.694359],[121.301496,23.693996],[121.301198,23.694263],[121.301682,23.69481],[121.301781,23.694721],[121.301976,23.694814],[121.302076,23.694634],[121.301687,23.694359]],[[121.301881,23.694542],[121.301782,23.694631],[121.301783,23.694541],[121.301881,23.694542]]]]}},{"type":"Feature","properties":{"kind":"water","month":"2023-08","area_ha":7.27},"geometry":{"type":"MultiPolygon","coordinates":[[[[121.278105,23.690577],[121.278098,23.691118],[121.278294,23.691121],[121.278298,23.69085],[121.2782,23.690849],[121.278203,23.690578],[121.278105,23.690577]]],[[[121.28339,23.691358],[121.283296,23.690996],[121.2831,23.690993],[121.283103,23.690813],[121.282812,23.690539],[121.282616,23.690537],[121.282613,23.690807],[121.283195,23.691265],[121.283193,23.691446],[121.28339,23.691358]]],[[[121.28055,23.691055],[121.280551,23.690965],[121.280257,23.690962],[121.280352,23.691234],[121.280842,23.691239],[121.280843,23.691149],[121.28055,23.691055]]],[[[121.278293,23.691211],[121.278392,23.691122],[121.278294,23.691121],[121.278293,23.691211]]],[[[121.284738,23.693269],[121.28484,23.692909],[121.284644,23.692907],[121.284551,23.692545],[121.284162,23.692269],[121.284166,23.691999],[121.28397,23.691996],[121.283487,23.691449],[121.283291,23.691447],[121.283288,23.691628],[121.283579,23.691902],[121.283775,23.691904],[121.283869,23.692176],[121.284065,23.692178],[121.284062,23.692449],[121.284257,23.692541],[121.284254,23.692722],[121.284451,23.692724],[121.284448,23.692905],[121.284642,23.693087],[121.284637,23.693449],[121.284832,23.693541],[121.284934,23.693271],[121.284738,23.693269]]],[[[121.285026,23.693724],[121.284831,23.693631],[121.284827,23.693902],[121.284925,23.693903],[121.284922,23.694174],[121.285117,23.694267],[121.28512,23.693996],[121.285022,23.693995],[121.285026,23.693724]]],[[[121.286176,23.695723],[121.286276,23.695634],[121.286178,23.695633],[121.286176,23.695723]]],[[[121.29872,23.696313],[121.298527,23.69613],[121.298628,23.69586],[121.298726,23.695862],[121.29873,23.695591],[121.298632,23.69559],[121.298732,23.69541],[121.298439,23.695317],[121.298437,23.695497],[121.298339,23.695496],[121.298433,23.695768],[121.298335,23.695767],[121.29823,23.696308],[121.298132,23.696307],[121.298225,23.696669],[121.298421,23.696671],[121.298524,23.696311],[121.29872,23.696313]]],[[[121.286469,23.695817],[121.286471,23.695726],[121.286274,23.695724],[121.286564,23.696089],[121.28676,23.696091],[121.286762,23.69591],[121.286469,23.695817]]],[[[121.298126,23.696758],[121.298225,23.696669],[121.298127,23.696668],[121.298126,23.696758]]],[[[121.290177,23.697212],[121.289793,23.696576],[121.289597,23.696574],[121.289404,23.696391],[121.289406,23.69621],[121.28921,23.696208],[121.289208,23.696389],[121.289498,23.696663],[121.289694,23.696665],[121.289888,23.696848],[121.289886,23.697028],[121.290177,23.697212]]],[[[121.290177,23.697212],[121.290274,23.697303],[121.290275,23.697213],[121.290177,23.697212]]],[[[121.290757,23.697851],[121.290759,23.69776],[121.290273,23.697394],[121.290271,23.697574],[121.290563,23.697758],[121.290657,23.69803],[121.290952,23.697943],[121.290954,23.697853],[121.290757,23.697851]]],[[[121.29183,23.698314],[121.291831,23.698224],[121.29144,23.698129],[121.291438,23.69831],[121.291926,23.698496],[121.292026,23.698316],[121.29183,23.698314]]],[[[121.292024,23.698497],[121.292123,23.698407],[121.292025,23.698406],[121.292024,23.698497]]],[[[121.292218,23.698679],[121.292023,23.698587],[121.292117,23.698859],[121.292511,23.698773],[121.292513,23.698592],[121.292219,23.698589],[121.292218,23.698679]]],[[[121.295348,23.699256],[121.295943,23.698721],[121.295747,23.698718],[121.295647,23.698898],[121.295353,23.698895],[121.295252,23.699074],[121.294958,23.699071],[121.294957,23.699161],[121.295348,23.699256]]],[[[121.298285,23.699649],[121.298288,23.699378],[121.298682,23.699292],[121.298685,23.699022],[121.298586,23.699111],[121.298293,23.699017],[121.298291,23.699198],[121.297992,23.699556],[121.297894,23.699555],[121.297896,23.699374],[121.297699,23.699462],[121.297695,23.699733],[121.297891,23.699735],[121.297987,23.699917],[121.298085,23.699918],[121.29809,23.699557],[121.298285,23.699649]]],[[[121.312176,23.686979],[121.311983,23.686796],[121.311784,23.686975],[121.312077,23.687068],[121.312176,23.686979]]],[[[121.311581,23.687514],[121.312075,23.687249],[121.311783,23.687065],[121.311287,23.687511],[121.311579,23.687695],[121.311581,23.687514]]],[[[121.312172,23.68734],[121.312169,23.687521],[121.312462,23.687614],[121.31246,23.687795],[121.312558,23.687796],[121.312662,23.687345],[121.312172,23.68734]]],[[[121.310393,23.688404],[121.310292,23.688674],[121.310783,23.688589],[121.310785,23.688408],[121.310393,23.688404]]],[[[121.308814,23.6892],[121.309309,23.688844],[121.308917,23.68884],[121.308815,23.689109],[121.308619,23.689107],[121.308617,23.689288],[121.308812,23.68938],[121.308814,23.6892]]],[[[121.300764,23.689924],[121.300471,23.689831],[121.30047,23.689921],[121.299882,23.689914],[121.299881,23.690005],[121.299978,23.690096],[121.300763,23.690014],[121.300764,23.689924]]],[[[121.308701,23.690372],[121.308703,23.690192],[121.308507,23.69019],[121.308597,23.690823],[121.308794,23.690735],[121.308697,23.690643],[121.308799,23.690373],[121.308701,23.690372]]],[[[121.308793,23.690825],[121.308892,23.690736],[121.308794,23.690735],[121.308793,23.690825]]],[[[121.308292,23.691632],[121.308491,23.691454],[121.308687,23.691456],[121.30869,23.691185],[121.308494,23.691183],[121.308492,23.691363],[121.308197,23.69145],[121.307997,23.691719],[121.30829,23.691813],[121.308292,23.691632]]],[[[121.304122,23.69565],[121.304221,23.695561],[121.304417,23.695563],[121.30442,23.695382],[121.304813,23.695296],[121.30472,23.694934],[121.304525,23.694842],[121.304624,23.694752],[121.304528,23.694571],[121.30433,23.694749],[121.303938,23.694745],[121.304031,23.695107],[121.303736,23.695194],[121.303833,23.695285],[121.30383,23.695466],[121.303732,23.695465],[121.303824,23.695918],[121.30412,23.69583],[121.304122,23.69565]]],[[[121.303028,23.696812],[121.303234,23.696092],[121.303431,23.696003],[121.303237,23.695821],[121.302941,23.695998],[121.302937,23.696269],[121.302642,23.696356],[121.302245,23.696713],[121.302243,23.696893],[121.302439,23.696896],[121.302437,23.697076],[121.302633,23.697078],[121.302635,23.696898],[121.303028,23.696812]]],[[[121.298618,23.696673],[121.298614,23.696944],[121.29881,23.696946],[121.298716,23.696674],[121.298618,23.696673]]],[[[121.298613,23.697034],[121.298517,23.696853],[121.298321,23.69685],[121.298416,23.697122],[121.298613,23.697034]]],[[[121.302437,23.697076],[121.302238,23.697255],[121.302434,23.697257],[121.302437,23.697076]]],[[[121.298902,23.697399],[121.298804,23.697397],[121.298802,23.697578],[121.2989,23.697579],[121.298902,23.697399]]],[[[121.298505,23.697755],[121.298602,23.697847],[121.298798,23.697849],[121.298704,23.697577],[121.298508,23.697575],[121.298505,23.697755]]],[[[121.298991,23.698122],[121.298793,23.6983],[121.298596,23.698298],[121.298495,23.698568],[121.298299,23.698566],[121.298298,23.698656],[121.298494,23.698658],[121.298295,23.698837],[121.298391,23.699018],[121.298784,23.698932],[121.298887,23.698572],[121.299083,23.698574],[121.299086,23.698394],[121.299282,23.698396],[121.299481,23.698127],[121.299677,23.698129],[121.299876,23.697951],[121.30017,23.697954],[121.300171,23.697864],[121.300367,23.697866],[121.300366,23.697956],[121.300759,23.69787],[121.30086,23.697691],[121.301154,23.697694],[121.301156,23.697514],[121.300862,23.69751],[121.300766,23.697329],[121.300374,23.697324],[121.300373,23.697415],[121.300667,23.697418],[121.300468,23.697687],[121.300075,23.697682],[121.299979,23.697591],[121.300079,23.697411],[121.299883,23.697409],[121.299585,23.697677],[121.298997,23.697671],[121.2989,23.697579],[121.298796,23.698029],[121.298992,23.698032],[121.298991,23.698122]]]]}}]}