{"type":"FeatureCollection","features":[{"type":"Feature","properties":{"kind":"bare_slide","month":"2023-10","area_ha":126.35},"geometry":{"type":"MultiPolygon","coordinates":[[[[121.297576,23.708942],[121.298068,23.708767],[121.29817,23.708497],[121.297976,23.708315],[121.297185,23.708848],[121.297082,23.709208],[121.296886,23.709206],[121.296887,23.709115],[121.29669,23.709203],[121.296884,23.709386],[121.296783,23.709566],[121.297074,23.70984],[121.29727,23.709842],[121.297271,23.709752],[121.297468,23.709663],[121.297576,23.708942]]],[[[121.29805,23.710212],[121.297856,23.710029],[121.298054,23.709851],[121.297861,23.709668],[121.297468,23.709663],[121.297364,23.710114],[121.297656,23.710298],[121.297751,23.71057],[121.298047,23.710392],[121.29805,23.710212]]],[[[121.297639,23.711652],[121.297833,23.711835],[121.297933,23.711655],[121.298128,23.711748],[121.298326,23.711569],[121.298333,23.711027],[121.298531,23.710939],[121.298536,23.710488],[121.29844,23.710397],[121.298243,23.710394],[121.298143,23.710574],[121.298046,23.710483],[121.297849,23.710571],[121.297737,23.711653],[121.297639,23.711652]],[[121.298143,23.710574],[121.29824,23.710665],[121.298142,23.710664],[121.298143,23.710574]]],[[[121.284452,23.715118],[121.284357,23.714846],[121.284066,23.714662],[121.284069,23.714392],[121.284268,23.714213],[121.28427,23.714033],[121.284076,23.71385],[121.283781,23.713937],[121.283285,23.714383],[121.283282,23.714563],[121.282987,23.71465],[121.282981,23.715102],[121.283272,23.715376],[121.283468,23.715378],[121.283563,23.71556],[121.283858,23.715563],[121.28396,23.715203],[121.28406,23.715114],[121.284353,23.715207],[121.284452,23.715118]]],[[[121.284253,23.715297],[121.284447,23.715479],[121.284548,23.7153],[121.284353,23.715207],[121.284253,23.715297]]],[[[121.285119,23.71657],[121.285021,23.716569],[121.285024,23.716389],[121.28522,23.716391],[121.285321,23.716121],[121.28542,23.716122],[121.285513,23.716484],[121.285811,23.716217],[121.286106,23.71613],[121.286108,23.715949],[121.28601,23.715948],[121.286013,23.715768],[121.28621,23.715679],[121.286114,23.715498],[121.285819,23.715585],[121.285818,23.715675],[121.285326,23.71576],[121.285127,23.716029],[121.284832,23.716025],[121.284535,23.716293],[121.284532,23.716474],[121.28492,23.716839],[121.285117,23.716751],[121.285119,23.71657]],[[121.285616,23.716124],[121.285618,23.715944],[121.285814,23.715946],[121.285813,23.716036],[121.285616,23.716124]],[[121.285814,23.715946],[121.285913,23.715857],[121.285912,23.715947],[121.285814,23.715946]]],[[[121.286958,23.718487],[121.287355,23.71813],[121.286868,23.717854],[121.28667,23.718032],[121.286667,23.718213],[121.286958,23.718487]]],[[[121.290298,23.725567],[121.290395,23.725659],[121.29069,23.725572],[121.290883,23.725845],[121.291274,23.725939],[121.291572,23.725672],[121.291476,23.72549],[121.291672,23.725492],[121.292069,23.725135],[121.291976,23.724773],[121.292074,23.724774],[121.292077,23.724503],[121.292274,23.724506],[121.292659,23.725052],[121.292561,23.725051],[121.292557,23.725321],[121.292359,23.7255],[121.292355,23.725771],[121.292159,23.725768],[121.291861,23.726036],[121.291859,23.726217],[121.291564,23.726304],[121.291562,23.726394],[121.293525,23.726325],[121.293527,23.726145],[121.29392,23.726149],[121.293922,23.725969],[121.29451,23.725975],[121.294519,23.725343],[121.294225,23.725249],[121.294228,23.725069],[121.294325,23.72516],[121.294522,23.725072],[121.29443,23.72462],[121.294626,23.724622],[121.294824,23.724443],[121.29482,23.724805],[121.29511,23.725079],[121.295698,23.725175],[121.2953,23.725623],[121.295007,23.725529],[121.294906,23.725708],[121.295003,23.7258],[121.295102,23.725711],[121.295493,23.725805],[121.295595,23.725535],[121.295693,23.725537],[121.295691,23.725717],[121.295886,23.72581],[121.295978,23.726262],[121.296075,23.726353],[121.296565,23.726359],[121.296566,23.726269],[121.296862,23.726182],[121.296668,23.725999],[121.296767,23.72591],[121.296675,23.725457],[121.296578,23.725366],[121.295988,23.72545],[121.29599,23.725359],[121.296485,23.725003],[121.296681,23.725006],[121.296778,23.725097],[121.296677,23.725277],[121.296872,23.725369],[121.297172,23.724921],[121.297367,23.725013],[121.297764,23.724656],[121.298353,23.724663],[121.298643,23.724937],[121.298842,23.724759],[121.298658,23.723763],[121.298756,23.723764],[121.298859,23.723404],[121.299155,23.723317],[121.299452,23.72305],[121.299259,23.722867],[121.299261,23.722686],[121.299458,23.722598],[121.299457,23.722688],[121.299653,23.722691],[121.299748,23.722963],[121.299944,23.722965],[121.299938,23.723416],[121.300036,23.723417],[121.299933,23.723777],[121.30003,23.723869],[121.300324,23.723872],[121.300525,23.723513],[121.300721,23.723515],[121.300914,23.723788],[121.30111,23.72379],[121.301205,23.724062],[121.301893,23.723889],[121.301792,23.724159],[121.301986,23.724342],[121.301979,23.724883],[121.30178,23.725062],[121.301775,23.725423],[121.301577,23.725601],[121.301381,23.725599],[121.301279,23.725869],[121.301181,23.725868],[121.301177,23.726229],[121.301468,23.726413],[121.301568,23.726324],[121.301471,23.726232],[121.301574,23.725872],[121.301771,23.725784],[121.301965,23.725967],[121.302362,23.72561],[121.302464,23.72525],[121.30286,23.724983],[121.302962,23.724714],[121.303647,23.724811],[121.30374,23.725174],[121.304228,23.72536],[121.304323,23.725631],[121.304521,23.725453],[121.304814,23.725547],[121.304915,23.725367],[121.304622,23.725274],[121.304235,23.724818],[121.304038,23.724906],[121.30365,23.72454],[121.303654,23.72427],[121.303849,23.724362],[121.30385,23.724272],[121.304145,23.724185],[121.304436,23.724459],[121.30483,23.724373],[121.304832,23.724192],[121.304637,23.7241],[121.304737,23.72392],[121.304544,23.723738],[121.304347,23.723735],[121.30435,23.723555],[121.304546,23.723557],[121.304545,23.723647],[121.305232,23.723565],[121.305814,23.724113],[121.305913,23.724023],[121.30582,23.723661],[121.306116,23.723484],[121.306121,23.723123],[121.305829,23.722939],[121.305832,23.722668],[121.306224,23.722763],[121.306514,23.723037],[121.306812,23.722769],[121.306521,23.722495],[121.306524,23.722314],[121.30692,23.721958],[121.307023,23.721598],[121.306731,23.721414],[121.306639,23.720961],[121.306441,23.72114],[121.304185,23.721115],[121.304085,23.721294],[121.304474,23.72157],[121.304469,23.721931],[121.304663,23.722113],[121.304659,23.722384],[121.304363,23.722562],[121.30436,23.722742],[121.304651,23.723016],[121.304253,23.723463],[121.304057,23.723461],[121.304058,23.723371],[121.303471,23.723274],[121.303181,23.72291],[121.303287,23.722279],[121.302705,23.721821],[121.303102,23.721464],[121.303013,23.720741],[121.302334,23.720192],[121.302337,23.719921],[121.302143,23.719738],[121.301748,23.720005],[121.301541,23.720815],[121.301247,23.720812],[121.301053,23.720629],[121.301055,23.720449],[121.300763,23.720265],[121.300768,23.719904],[121.30067,23.719902],[121.300674,23.719632],[121.300479,23.719539],[121.300482,23.719268],[121.300384,23.719267],[121.300291,23.718905],[121.299696,23.71935],[121.299694,23.719531],[121.299304,23.719346],[121.299004,23.719794],[121.298417,23.719697],[121.298217,23.719966],[121.297923,23.719963],[121.297823,23.720142],[121.297529,23.720139],[121.297428,23.720318],[121.296938,23.720313],[121.296837,23.720492],[121.295072,23.720473],[121.294977,23.720291],[121.29429,23.720284],[121.294194,23.720102],[121.2939,23.720099],[121.293804,23.719917],[121.29351,23.719914],[121.293415,23.719732],[121.29312,23.719729],[121.293025,23.719547],[121.292731,23.719544],[121.292635,23.719363],[121.291948,23.719355],[121.291853,23.719173],[121.290774,23.719161],[121.290678,23.71898],[121.289992,23.718972],[121.289896,23.71879],[121.289602,23.718787],[121.289312,23.718423],[121.289018,23.71842],[121.288825,23.718237],[121.288828,23.717966],[121.288439,23.717691],[121.288243,23.717689],[121.287945,23.717956],[121.287752,23.717773],[121.287754,23.717593],[121.287953,23.717414],[121.28766,23.717321],[121.287467,23.717048],[121.287665,23.716869],[121.287762,23.716961],[121.288156,23.716875],[121.288158,23.716694],[121.287866,23.716511],[121.287775,23.715968],[121.28827,23.715612],[121.28828,23.71489],[121.288085,23.714797],[121.287786,23.715155],[121.2871,23.715148],[121.287101,23.715057],[121.286902,23.715236],[121.286511,23.715141],[121.28631,23.7155],[121.286407,23.715591],[121.286899,23.715507],[121.286896,23.715687],[121.2866,23.715864],[121.28689,23.716139],[121.286888,23.716319],[121.286693,23.716227],[121.286493,23.716495],[121.28659,23.716587],[121.286786,23.716589],[121.286788,23.716499],[121.287081,23.716592],[121.287279,23.716414],[121.287473,23.716596],[121.287374,23.716686],[121.287469,23.716867],[121.287271,23.717046],[121.287075,23.717044],[121.286882,23.716771],[121.286391,23.716855],[121.28639,23.716946],[121.285802,23.716849],[121.285702,23.717028],[121.285214,23.716842],[121.284915,23.7172],[121.284719,23.717198],[121.284331,23.716833],[121.284034,23.7171],[121.283838,23.717098],[121.283242,23.717633],[121.283239,23.717904],[121.283337,23.717905],[121.283233,23.718355],[121.283428,23.718448],[121.283423,23.718809],[121.283226,23.718897],[121.283321,23.719079],[121.283025,23.719256],[121.282823,23.719705],[121.282627,23.719703],[121.282427,23.719972],[121.282133,23.719969],[121.282132,23.720059],[121.281836,23.720146],[121.281732,23.720596],[121.282218,23.720963],[121.282614,23.720696],[121.282908,23.7207],[121.283503,23.720164],[121.283507,23.719894],[121.283801,23.719897],[121.2838,23.719987],[121.28429,23.719993],[121.284291,23.719902],[121.284585,23.719906],[121.284587,23.719815],[121.284978,23.71991],[121.285176,23.719731],[121.285083,23.719369],[121.285279,23.719371],[121.285365,23.720275],[121.285167,23.720454],[121.285362,23.720546],[121.285359,23.720727],[121.285163,23.720725],[121.284965,23.720903],[121.285059,23.721175],[121.284962,23.721084],[121.284765,23.721172],[121.284861,23.721353],[121.284565,23.72144],[121.284562,23.721711],[121.284464,23.72171],[121.284361,23.72207],[121.284063,23.722338],[121.284452,23.722613],[121.284556,23.722163],[121.284752,23.722165],[121.284848,23.722346],[121.285046,23.722168],[121.285242,23.72217],[121.285044,23.722349],[121.285041,23.722529],[121.285331,23.722894],[121.285625,23.722897],[121.285721,23.723079],[121.285917,23.723081],[121.285918,23.72299],[121.286407,23.723086],[121.286601,23.723269],[121.286999,23.722822],[121.287194,23.722914],[121.287393,23.722736],[121.287499,23.722105],[121.287797,23.721837],[121.287993,23.72184],[121.288089,23.722021],[121.288579,23.722027],[121.288676,23.722118],[121.288775,23.722029],[121.288682,23.721667],[121.288977,23.72158],[121.288975,23.72176],[121.289363,23.722035],[121.289263,23.722215],[121.289554,23.722489],[121.289157,23.722846],[121.288961,23.722844],[121.288663,23.723111],[121.288561,23.723381],[121.28807,23.723466],[121.287871,23.723644],[121.287866,23.724005],[121.287965,23.724006],[121.287961,23.724277],[121.288059,23.724278],[121.288154,23.72455],[121.28835,23.724552],[121.28845,23.724373],[121.288646,23.724375],[121.288845,23.724197],[121.288942,23.724288],[121.288842,23.724377],[121.288837,23.724829],[121.288933,23.72492],[121.289229,23.724833],[121.289325,23.725015],[121.289424,23.724926],[121.289815,23.72502],[121.290013,23.724842],[121.290016,23.724661],[121.290512,23.724215],[121.290708,23.724217],[121.290706,23.724398],[121.290508,23.724486],[121.290502,23.724937],[121.290404,23.724936],[121.290497,23.725389],[121.290298,23.725567]],[[121.29443,23.72462],[121.294333,23.724528],[121.294431,23.724529],[121.29443,23.72462]],[[121.304622,23.725274],[121.304523,23.725363],[121.304524,23.725272],[121.304622,23.725274]],[[121.286899,23.715507],[121.286998,23.715417],[121.286997,23.715508],[121.286899,23.715507]],[[121.290693,23.725391],[121.290692,23.725481],[121.290495,23.725479],[121.290497,23.725389],[121.290693,23.725391]],[[121.292642,23.726316],[121.292545,23.726224],[121.292643,23.726225],[121.292642,23.726316]],[[121.29657,23.725998],[121.296473,23.725906],[121.296571,23.725907],[121.29657,23.725998]],[[121.293729,23.725696],[121.293632,23.725604],[121.29373,23.725605],[121.293729,23.725696]],[[121.294221,23.725611],[121.294124,23.725519],[121.294222,23.72552],[121.294221,23.725611]],[[121.293441,23.725241],[121.293635,23.725424],[121.293439,23.725421],[121.293441,23.725241]],[[121.293833,23.725245],[121.293834,23.725155],[121.294031,23.725157],[121.294029,23.725247],[121.293833,23.725245]],[[121.292757,23.725053],[121.292758,23.724962],[121.29315,23.724967],[121.293149,23.725057],[121.292757,23.725053]],[[121.293345,23.725059],[121.293248,23.724968],[121.293346,23.724969],[121.293345,23.725059]],[[121.295997,23.724818],[121.295998,23.724727],[121.296194,23.724729],[121.296092,23.724999],[121.2957,23.724995],[121.295704,23.724724],[121.295997,23.724818]],[[121.294134,23.724707],[121.294132,23.724887],[121.293936,23.724885],[121.29394,23.724614],[121.294134,23.724707]],[[121.293349,23.724788],[121.293252,23.724697],[121.29335,23.724698],[121.293349,23.724788]],[[121.291683,23.72468],[121.291586,23.724588],[121.291684,23.724589],[121.291683,23.72468]],[[121.293547,23.72461],[121.29345,23.724519],[121.293548,23.72452],[121.293547,23.72461]],[[121.296787,23.724375],[121.297089,23.723746],[121.297579,23.723842],[121.297575,23.724113],[121.297379,23.72411],[121.29718,23.724289],[121.297178,23.724469],[121.297276,23.72447],[121.297176,23.72465],[121.296687,23.724554],[121.296689,23.724374],[121.296787,23.724375]],[[121.291712,23.722422],[121.292009,23.722245],[121.292011,23.722065],[121.292207,23.722067],[121.292401,23.722249],[121.292298,23.72261],[121.2922,23.722608],[121.292198,23.722789],[121.292393,23.722881],[121.29239,23.723062],[121.292292,23.723061],[121.292386,23.723423],[121.292287,23.723512],[121.292774,23.723698],[121.292771,23.723969],[121.293063,23.724153],[121.293059,23.724424],[121.292764,23.724511],[121.292279,23.724054],[121.291982,23.724322],[121.29169,23.724138],[121.291588,23.724408],[121.291392,23.724406],[121.291497,23.723865],[121.291304,23.723682],[121.291312,23.72305],[121.291608,23.722873],[121.291415,23.72269],[121.291417,23.72251],[121.291615,23.722331],[121.291712,23.722422]],[[121.291517,23.72233],[121.291518,23.72224],[121.291322,23.722238],[121.291121,23.722597],[121.290631,23.722591],[121.290428,23.723131],[121.290134,23.723127],[121.290133,23.723218],[121.28984,23.723124],[121.289843,23.722853],[121.29004,23.722765],[121.290044,23.722494],[121.290342,23.722227],[121.290344,23.722046],[121.290741,23.721689],[121.291034,23.721783],[121.291136,23.721513],[121.291234,23.721514],[121.291137,23.721423],[121.291145,23.720791],[121.290951,23.720608],[121.290956,23.720247],[121.291055,23.720158],[121.291348,23.720251],[121.291547,23.720073],[121.291841,23.720076],[121.29173,23.721068],[121.291533,23.721156],[121.291726,23.721339],[121.291723,23.72161],[121.291524,23.721788],[121.291816,23.721972],[121.291814,23.722153],[121.291517,23.72233]],[[121.295221,23.724087],[121.295125,23.723995],[121.294928,23.723993],[121.295028,23.723904],[121.294939,23.72318],[121.295236,23.723003],[121.295145,23.72246],[121.295637,23.722285],[121.296332,23.721661],[121.296528,23.721663],[121.296526,23.721843],[121.296624,23.721845],[121.296618,23.722296],[121.296519,23.722385],[121.296714,23.722478],[121.297011,23.72221],[121.297018,23.721668],[121.297411,23.721673],[121.297406,23.722034],[121.297108,23.722301],[121.2971,23.722933],[121.296706,23.723019],[121.296508,23.723198],[121.296605,23.723289],[121.296593,23.724192],[121.296397,23.72419],[121.296297,23.724369],[121.296002,23.724366],[121.295804,23.724544],[121.29551,23.724541],[121.295511,23.724451],[121.295217,23.724448],[121.295221,23.724087]],[[121.293651,23.72416],[121.293554,23.724068],[121.293652,23.724069],[121.293651,23.72416]],[[121.303655,23.724179],[121.303657,23.723999],[121.303756,23.724],[121.303753,23.72418],[121.303655,23.724179]],[[121.29444,23.723807],[121.294244,23.723805],[121.294248,23.723534],[121.294443,23.723627],[121.29444,23.723807]],[[121.294248,23.723534],[121.294151,23.723443],[121.294249,23.723444],[121.294248,23.723534]],[[121.293657,23.723708],[121.29356,23.723617],[121.293658,23.723618],[121.293657,23.723708]],[[121.293951,23.723711],[121.293854,23.72362],[121.293952,23.723621],[121.293951,23.723711]],[[121.297092,23.723565],[121.296995,23.723474],[121.297093,23.723475],[121.297092,23.723565]],[[121.289542,23.723392],[121.289544,23.723211],[121.289642,23.723212],[121.28964,23.723393],[121.289542,23.723392]],[[121.292974,23.72343],[121.292877,23.723338],[121.292975,23.723339],[121.292974,23.72343]],[[121.292588,23.722974],[121.29259,23.722793],[121.292688,23.722794],[121.292878,23.723248],[121.292588,23.722974]],[[121.294745,23.722998],[121.294648,23.722906],[121.294746,23.722907],[121.294745,23.722998]],[[121.300537,23.72261],[121.300539,23.722429],[121.300833,23.722433],[121.300631,23.722882],[121.300436,23.72279],[121.300439,23.722609],[121.300537,23.72261]],[[121.294653,23.722545],[121.294557,23.722364],[121.294851,23.722367],[121.294849,23.722547],[121.294651,23.722726],[121.294553,23.722725],[121.294555,23.722544],[121.294653,23.722545]],[[121.285929,23.722178],[121.285832,23.722087],[121.28593,23.722088],[121.285929,23.722178]],[[121.289561,23.721947],[121.289759,23.721769],[121.29015,23.721863],[121.289851,23.722221],[121.289558,23.722128],[121.289561,23.721947]],[[121.304957,23.722117],[121.30496,23.721846],[121.305058,23.721847],[121.304963,23.721665],[121.305453,23.721671],[121.305454,23.72158],[121.305649,23.721673],[121.305643,23.722124],[121.305445,23.722303],[121.304957,23.722117]],[[121.286543,23.720198],[121.286834,23.720472],[121.286536,23.72074],[121.286829,23.720833],[121.286827,23.721014],[121.286632,23.720921],[121.286531,23.721101],[121.286237,23.721098],[121.286037,23.721366],[121.285742,23.721453],[121.285639,23.721813],[121.285441,23.721992],[121.285245,23.72199],[121.285349,23.721539],[121.285743,23.721363],[121.285551,23.72109],[121.285947,23.720824],[121.285851,23.720642],[121.286049,23.720464],[121.286342,23.720557],[121.286543,23.720198]],[[121.286543,23.720198],[121.286349,23.720015],[121.286547,23.719927],[121.286543,23.720198]],[[121.29221,23.721886],[121.292409,23.721617],[121.292605,23.72162],[121.292799,23.721802],[121.2926,23.722071],[121.292403,23.722069],[121.29221,23.721886]],[[121.290155,23.721502],[121.290254,23.721413],[121.290253,23.721503],[121.290155,23.721502]],[[121.290156,23.721412],[121.290059,23.721321],[121.290157,23.721322],[121.290156,23.721412]],[[121.288898,23.720134],[121.289094,23.720136],[121.289382,23.720591],[121.289578,23.720593],[121.289877,23.720235],[121.290073,23.720237],[121.290072,23.720327],[121.290368,23.72024],[121.290561,23.720423],[121.290363,23.720602],[121.290555,23.720875],[121.290357,23.721053],[121.290163,23.72087],[121.289967,23.720868],[121.289569,23.721315],[121.289275,23.721312],[121.288693,23.720764],[121.288793,23.720675],[121.288697,23.720493],[121.2884,23.72067],[121.288305,23.720489],[121.287914,23.720394],[121.287916,23.720213],[121.288309,23.720127],[121.28841,23.719948],[121.288899,23.720044],[121.288898,23.720134]],[[121.288499,23.720671],[121.288595,23.720763],[121.288497,23.720762],[121.288499,23.720671]],[[121.288312,23.719947],[121.288119,23.719674],[121.288416,23.719496],[121.288321,23.719225],[121.288717,23.718958],[121.288911,23.719141],[121.288908,23.719321],[121.288513,23.719588],[121.288608,23.719769],[121.288312,23.719947]],[[121.293398,23.720996],[121.293301,23.720905],[121.293405,23.720455],[121.293502,23.720546],[121.293601,23.720457],[121.29409,23.720552],[121.294381,23.720827],[121.294278,23.721187],[121.29408,23.721365],[121.293983,23.721274],[121.293297,23.721266],[121.2933,23.720995],[121.293398,23.720996]],[[121.287416,23.72093],[121.287612,23.720932],[121.287611,23.721023],[121.287415,23.72102],[121.287416,23.72093]],[[121.28722,23.720928],[121.287221,23.720838],[121.287417,23.72084],[121.287416,23.72093],[121.28722,23.720928]],[[121.287122,23.720927],[121.287025,23.720836],[121.287123,23.720837],[121.287122,23.720927]],[[121.288105,23.720757],[121.288103,23.720938],[121.288005,23.720937],[121.287909,23.720755],[121.288105,23.720757]],[[121.287328,23.720207],[121.287326,23.720297],[121.287619,23.720391],[121.287617,23.720571],[121.287127,23.720566],[121.287129,23.720385],[121.287328,23.720207]],[[121.287433,23.719666],[121.287532,23.719577],[121.287825,23.719671],[121.287823,23.719851],[121.287624,23.720029],[121.287429,23.719937],[121.287433,23.719666]],[[121.289686,23.719872],[121.289886,23.719603],[121.290177,23.719787],[121.289978,23.720056],[121.289686,23.719872]],[[121.286651,23.719477],[121.286452,23.719655],[121.286163,23.719291],[121.285869,23.719288],[121.285675,23.719105],[121.285677,23.718924],[121.285876,23.718746],[121.286263,23.719111],[121.28646,23.719023],[121.286463,23.718843],[121.28617,23.718749],[121.286369,23.718481],[121.286079,23.718206],[121.28588,23.718385],[121.285687,23.718202],[121.28549,23.7182],[121.285292,23.718378],[121.285486,23.718561],[121.285286,23.71883],[121.28509,23.718828],[121.284897,23.718555],[121.284701,23.718552],[121.284601,23.718732],[121.284795,23.718915],[121.284991,23.718917],[121.284988,23.719097],[121.284498,23.719092],[121.284402,23.71891],[121.284109,23.718817],[121.284113,23.718546],[121.284308,23.718638],[121.284407,23.718549],[121.284311,23.718367],[121.284609,23.7181],[121.284803,23.718283],[121.285,23.718194],[121.285002,23.718014],[121.284809,23.717831],[121.285106,23.717564],[121.285499,23.717568],[121.285594,23.71775],[121.285988,23.717664],[121.285886,23.717933],[121.286179,23.718027],[121.286177,23.718207],[121.286372,23.7183],[121.28657,23.718122],[121.286377,23.717939],[121.28638,23.717668],[121.286478,23.717669],[121.286384,23.717397],[121.286677,23.717491],[121.287064,23.717856],[121.287165,23.717677],[121.286971,23.717494],[121.287169,23.717315],[121.287557,23.717681],[121.287452,23.718222],[121.287645,23.718404],[121.287943,23.718137],[121.288139,23.718139],[121.28824,23.717959],[121.288436,23.717962],[121.28863,23.718144],[121.288431,23.718323],[121.288527,23.718504],[121.288229,23.718772],[121.288033,23.71877],[121.287634,23.719307],[121.287439,23.719215],[121.287336,23.719575],[121.287038,23.719842],[121.286842,23.71984],[121.286846,23.719569],[121.286651,23.719477]],[[121.283315,23.71953],[121.283515,23.719262],[121.28371,23.719354],[121.283708,23.719535],[121.283511,23.719532],[121.28351,23.719623],[121.283315,23.71953]],[[121.284399,23.719181],[121.284396,23.719362],[121.284003,23.719448],[121.284105,23.719178],[121.284399,23.719181]],[[121.283419,23.71908],[121.28352,23.7189],[121.283814,23.718904],[121.284008,23.719086],[121.283516,23.719171],[121.283419,23.71908]],[[121.283819,23.718543],[121.283722,23.718451],[121.28382,23.718452],[121.283819,23.718543]],[[121.283625,23.71836],[121.283626,23.71827],[121.283822,23.718272],[121.283821,23.718362],[121.283625,23.71836]],[[121.283632,23.717818],[121.283827,23.717911],[121.284126,23.717553],[121.284322,23.717555],[121.284516,23.717738],[121.284316,23.718006],[121.284023,23.717913],[121.283923,23.718092],[121.28363,23.717999],[121.283632,23.717818]],[[121.286189,23.717305],[121.286092,23.717213],[121.28619,23.717214],[121.286189,23.717305]],[[121.28668,23.71722],[121.286683,23.717039],[121.286781,23.71704],[121.286778,23.717221],[121.28668,23.71722]]],[[[121.310735,23.707551],[121.310443,23.707368],[121.310544,23.707188],[121.310253,23.706914],[121.309763,23.706909],[121.309464,23.707267],[121.308971,23.707442],[121.309165,23.707625],[121.309163,23.707805],[121.309358,23.707898],[121.309354,23.708168],[121.309157,23.708257],[121.309149,23.708889],[121.309442,23.708982],[121.309537,23.709164],[121.309832,23.709167],[121.31012,23.709622],[121.310715,23.709086],[121.311006,23.70936],[121.3111,23.709632],[121.311297,23.709634],[121.311392,23.709816],[121.311588,23.709818],[121.311879,23.710092],[121.311978,23.710003],[121.311884,23.709731],[121.312178,23.709734],[121.312177,23.709825],[121.312374,23.709737],[121.312279,23.709465],[121.312085,23.709372],[121.312184,23.709283],[121.312089,23.709011],[121.3116,23.708915],[121.311504,23.708734],[121.31121,23.708731],[121.311018,23.708458],[121.310625,23.708453],[121.310825,23.708185],[121.310922,23.708276],[121.311118,23.708278],[121.311119,23.708188],[121.311805,23.708195],[121.311902,23.708287],[121.312004,23.708017],[121.31181,23.707834],[121.311614,23.707832],[121.311616,23.707651],[121.311812,23.707653],[121.311913,23.707474],[121.311719,23.707291],[121.311328,23.707197],[121.311329,23.707106],[121.311035,23.707103],[121.310735,23.707551]],[[121.310833,23.707553],[121.311124,23.707827],[121.310924,23.708095],[121.310728,23.708093],[121.310534,23.70791],[121.310537,23.70773],[121.310635,23.707731],[121.310636,23.707641],[121.310734,23.707642],[121.310735,23.707551],[121.310833,23.707553]],[[121.309853,23.707542],[121.310052,23.707273],[121.310344,23.707457],[121.310144,23.707726],[121.309853,23.707542]]],[[[121.30632,23.715269],[121.306718,23.714822],[121.307206,23.715008],[121.307308,23.714738],[121.307406,23.714739],[121.306922,23.714282],[121.306924,23.714102],[121.306632,23.713918],[121.306634,23.713737],[121.306833,23.713559],[121.30693,23.71365],[121.307616,23.713658],[121.30781,23.71384],[121.308007,23.713752],[121.308009,23.713572],[121.308206,23.713574],[121.3083,23.713846],[121.308105,23.713753],[121.308005,23.713933],[121.308298,23.714026],[121.308297,23.714117],[121.308591,23.71412],[121.308789,23.713941],[121.309083,23.713945],[121.309283,23.713676],[121.309577,23.713679],[121.310254,23.714409],[121.310451,23.714411],[121.310454,23.71414],[121.310651,23.714052],[121.310655,23.713781],[121.311844,23.712801],[121.311948,23.712351],[121.31165,23.712618],[121.31116,23.712613],[121.310872,23.712158],[121.310773,23.712247],[121.310676,23.712156],[121.310087,23.71215],[121.309889,23.712328],[121.309885,23.712599],[121.310276,23.712693],[121.310275,23.712784],[121.310569,23.712787],[121.310763,23.71297],[121.31076,23.713241],[121.310561,23.713419],[121.310365,23.713417],[121.310366,23.713327],[121.310071,23.713414],[121.309877,23.713231],[121.309288,23.713315],[121.309192,23.713133],[121.308702,23.713128],[121.308509,23.712855],[121.308313,23.712853],[121.308312,23.712943],[121.308019,23.712849],[121.307918,23.713029],[121.307624,23.713026],[121.307524,23.713205],[121.306837,23.713198],[121.306836,23.713288],[121.306543,23.713194],[121.306344,23.713463],[121.306247,23.713372],[121.305853,23.713458],[121.305752,23.713728],[121.306142,23.713912],[121.306135,23.714454],[121.30633,23.714547],[121.306327,23.714727],[121.306229,23.714726],[121.306324,23.714998],[121.306125,23.715176],[121.30632,23.715269]]],[[[121.30426,23.715337],[121.304162,23.715336],[121.30407,23.714883],[121.303972,23.714882],[121.303974,23.714701],[121.304072,23.714702],[121.30398,23.71425],[121.303687,23.714156],[121.303493,23.713974],[121.303495,23.713793],[121.3033,23.713701],[121.303198,23.714061],[121.303,23.714149],[121.302992,23.714781],[121.302894,23.71478],[121.302986,23.715232],[121.303279,23.715326],[121.303479,23.715057],[121.303675,23.715059],[121.303963,23.715514],[121.30416,23.715516],[121.30426,23.715337]]],[[[121.301972,23.71784],[121.301778,23.717657],[121.301976,23.717479],[121.301881,23.717297],[121.30129,23.717471],[121.301387,23.717563],[121.301287,23.717742],[121.301481,23.717835],[121.301376,23.718375],[121.301764,23.718741],[121.301961,23.718652],[121.301972,23.71784]]],[[[121.305704,23.725014],[121.305506,23.725193],[121.305503,23.725373],[121.305796,23.725467],[121.305892,23.725649],[121.306186,23.725652],[121.306185,23.725742],[121.306578,23.725656],[121.306482,23.725565],[121.306583,23.725295],[121.30668,23.725386],[121.306975,23.725299],[121.306881,23.725027],[121.306389,23.725112],[121.30639,23.725022],[121.306097,23.724928],[121.305997,23.725108],[121.3059,23.725017],[121.305704,23.725014]],[[121.305997,23.725108],[121.306094,23.725199],[121.306191,23.725291],[121.305995,23.725289],[121.305997,23.725108]]],[[[121.305766,23.727814],[121.305571,23.727722],[121.305478,23.72736],[121.30509,23.726994],[121.304699,23.7269],[121.304701,23.726719],[121.304506,23.726627],[121.304607,23.726447],[121.304412,23.726355],[121.304213,23.726533],[121.304211,23.726714],[121.304504,23.726807],[121.3045,23.727078],[121.305182,23.727447],[121.305177,23.727808],[121.305371,23.727991],[121.305666,23.727994],[121.305766,23.727814]]],[[[121.303312,23.727968],[121.303019,23.727875],[121.30302,23.727784],[121.302726,23.727781],[121.302631,23.727509],[121.302338,23.727416],[121.302242,23.727234],[121.301947,23.727321],[121.30204,23.727683],[121.301745,23.72777],[121.301841,23.727952],[121.302135,23.727955],[121.302329,23.728138],[121.303211,23.728148],[121.303312,23.727968]],[[121.30243,23.727868],[121.30253,23.727779],[121.302528,23.727869],[121.30243,23.727868]],[[121.302432,23.727778],[121.302335,23.727687],[121.302433,23.727688],[121.302432,23.727778]],[[121.302335,23.727687],[121.302238,23.727595],[121.302336,23.727596],[121.302335,23.727687]]]]}},{"type":"Feature","properties":{"kind":"bare_dam","month":"2023-10","area_ha":1.8},"geometry":{"type":"MultiPolygon","coordinates":[[[[121.29662,23.69945],[121.296722,23.699181],[121.296527,23.699088],[121.296337,23.698635],[121.295946,23.69854],[121.295746,23.698809],[121.29555,23.698806],[121.295352,23.698985],[121.295447,23.699167],[121.295743,23.699079],[121.295744,23.698989],[121.296331,23.699086],[121.296329,23.699267],[121.29662,23.69945]]],[[[121.298571,23.700284],[121.298962,23.700379],[121.299062,23.7002],[121.298964,23.700199],[121.298968,23.699928],[121.298774,23.699745],[121.298776,23.699564],[121.298874,23.699565],[121.298781,23.699203],[121.298585,23.699201],[121.298286,23.699559],[121.297798,23.699373],[121.2975,23.699641],[121.29779,23.700005],[121.298279,23.700101],[121.298277,23.700281],[121.297984,23.700188],[121.297882,23.700458],[121.298568,23.700465],[121.298571,23.700284]],[[121.298571,23.700284],[121.298474,23.700193],[121.298572,23.700194],[121.298571,23.700284]]]]}},{"type":"Feature","properties":{"kind":"water","month":"2023-10","area_ha":1.95},"geometry":{"type":"MultiPolygon","coordinates":[[[[121.283007,23.690631],[121.282714,23.690538],[121.282613,23.690807],[121.282709,23.690899],[121.282907,23.690811],[121.2831,23.690993],[121.283007,23.690631]]],[[[121.283099,23.691084],[121.283198,23.690995],[121.2831,23.690993],[121.283099,23.691084]]],[[[121.283295,23.691086],[121.283196,23.691175],[121.283294,23.691176],[121.283295,23.691086]]],[[[121.27888,23.691308],[121.278879,23.691398],[121.279468,23.691314],[121.279667,23.691136],[121.27967,23.690865],[121.279572,23.690864],[121.279471,23.691134],[121.279176,23.69113],[121.279076,23.69131],[121.278979,23.691219],[121.278586,23.691305],[121.278588,23.691124],[121.278394,23.690941],[121.278198,23.690939],[121.278292,23.691301],[121.278488,23.691303],[121.278487,23.691394],[121.27888,23.691308]]],[[[121.284551,23.692545],[121.284258,23.692451],[121.284165,23.692089],[121.28368,23.691632],[121.283387,23.691538],[121.283391,23.691268],[121.283195,23.691265],[121.283287,23.691718],[121.283774,23.691994],[121.28406,23.692629],[121.284256,23.692632],[121.284351,23.692813],[121.284645,23.692817],[121.284551,23.692545]]],[[[121.28512,23.693996],[121.285022,23.693995],[121.285026,23.693724],[121.28483,23.693722],[121.284826,23.693992],[121.284924,23.693994],[121.285018,23.694356],[121.285212,23.694448],[121.28512,23.693996]]],[[[121.285212,23.694448],[121.285309,23.69454],[121.285311,23.694449],[121.285212,23.694448]]],[[[121.285309,23.69454],[121.285406,23.694631],[121.285407,23.694541],[121.285309,23.69454]]],[[[121.29018,23.697032],[121.290082,23.69703],[121.289987,23.696759],[121.28979,23.696847],[121.289984,23.697029],[121.289981,23.69721],[121.290274,23.697303],[121.29018,23.697032]]],[[[121.290954,23.697853],[121.290659,23.69785],[121.290662,23.697669],[121.290466,23.697667],[121.290468,23.697486],[121.290273,23.697394],[121.290366,23.697756],[121.290563,23.697758],[121.29056,23.697939],[121.291047,23.698215],[121.290954,23.697853]]],[[[121.292025,23.698406],[121.291734,23.698132],[121.291635,23.698222],[121.291244,23.698127],[121.291437,23.6984],[121.291731,23.698403],[121.292118,23.698769],[121.292025,23.698406]]],[[[121.293493,23.698603],[121.293492,23.698693],[121.293198,23.69869],[121.293197,23.698781],[121.293294,23.698872],[121.294079,23.69879],[121.29408,23.6987],[121.293493,23.698603]]],[[[121.294665,23.698977],[121.29457,23.698796],[121.294079,23.69879],[121.294175,23.698972],[121.294665,23.698977]]]]}}]}