{"type":"FeatureCollection","features":[{"type":"Feature","properties":{"kind":"bare_slide","month":"2023-09","area_ha":143.32},"geometry":{"type":"MultiPolygon","coordinates":[[[[121.299036,23.702186],[121.299243,23.701375],[121.298753,23.70137],[121.298657,23.701188],[121.298167,23.701183],[121.298264,23.701274],[121.298065,23.701453],[121.29815,23.702447],[121.298248,23.702448],[121.298433,23.703353],[121.298627,23.703536],[121.298924,23.703268],[121.299119,23.703361],[121.299221,23.703091],[121.299418,23.703003],[121.299322,23.702821],[121.299029,23.702728],[121.299129,23.702638],[121.299134,23.702187],[121.299036,23.702186]],[[121.299029,23.702728],[121.29893,23.702817],[121.298931,23.702727],[121.299029,23.702728]],[[121.298838,23.702364],[121.298741,23.702273],[121.298839,23.702274],[121.298838,23.702364]],[[121.298355,23.701817],[121.298357,23.701637],[121.298455,23.701638],[121.298453,23.701818],[121.298355,23.701817]]],[[[121.29887,23.707421],[121.29858,23.707147],[121.298785,23.706427],[121.298883,23.706428],[121.298694,23.705884],[121.29889,23.705887],[121.298889,23.705977],[121.299086,23.705889],[121.298893,23.705706],[121.298895,23.705525],[121.298992,23.705617],[121.299189,23.705529],[121.299192,23.705348],[121.299093,23.705347],[121.299197,23.704897],[121.299395,23.704809],[121.299397,23.704628],[121.299696,23.70427],[121.299699,23.703999],[121.299601,23.703998],[121.299702,23.703819],[121.299314,23.703453],[121.298918,23.70372],[121.299013,23.703992],[121.299111,23.703993],[121.299103,23.704625],[121.299005,23.704624],[121.299001,23.704894],[121.298903,23.704893],[121.298897,23.705345],[121.298798,23.705434],[121.297916,23.705424],[121.297815,23.705604],[121.297422,23.70569],[121.297518,23.705871],[121.297811,23.705965],[121.297905,23.706237],[121.298004,23.706148],[121.298495,23.706153],[121.298486,23.706785],[121.298289,23.706873],[121.298386,23.706965],[121.298286,23.707144],[121.298481,23.707237],[121.298575,23.707508],[121.298771,23.707511],[121.29887,23.707421]],[[121.299405,23.703996],[121.299504,23.703907],[121.299503,23.703997],[121.299405,23.703996]]],[[[121.298867,23.707692],[121.298865,23.707873],[121.299158,23.707966],[121.299252,23.708238],[121.299842,23.708155],[121.300034,23.708428],[121.30033,23.70834],[121.300432,23.70798],[121.300239,23.707798],[121.299944,23.707794],[121.299947,23.707614],[121.299752,23.707521],[121.299754,23.707341],[121.29956,23.707158],[121.299364,23.707156],[121.299263,23.707426],[121.299067,23.707424],[121.298965,23.707693],[121.298867,23.707692]],[[121.299263,23.707426],[121.29936,23.707517],[121.299261,23.707516],[121.299263,23.707426]]],[[[121.297478,23.708941],[121.297775,23.708674],[121.297872,23.708765],[121.29807,23.708677],[121.298072,23.708496],[121.297878,23.708314],[121.297285,23.708668],[121.297478,23.708941]]],[[[121.300886,23.710785],[121.300214,23.709694],[121.29992,23.70969],[121.299921,23.7096],[121.299724,23.709688],[121.299531,23.709415],[121.299335,23.709413],[121.299337,23.709233],[121.299144,23.70905],[121.298946,23.709138],[121.29914,23.709321],[121.299138,23.709501],[121.299623,23.709868],[121.299619,23.710229],[121.299322,23.710406],[121.299417,23.710678],[121.299713,23.710501],[121.299715,23.71032],[121.300107,23.710415],[121.300299,23.710688],[121.300593,23.710691],[121.300689,23.710873],[121.300886,23.710785]]],[[[121.297738,23.711563],[121.297147,23.711737],[121.297338,23.71219],[121.297729,23.712285],[121.297831,23.711925],[121.298227,23.711658],[121.298133,23.711386],[121.29833,23.711298],[121.298333,23.711027],[121.298532,23.710849],[121.298539,23.710307],[121.298246,23.710214],[121.298247,23.710124],[121.29795,23.710301],[121.29766,23.710027],[121.297858,23.709848],[121.297764,23.709576],[121.297272,23.709661],[121.297471,23.709483],[121.297478,23.708941],[121.297283,23.708849],[121.297083,23.709117],[121.29679,23.709024],[121.296689,23.709294],[121.297172,23.709841],[121.297369,23.709753],[121.297366,23.710024],[121.297657,23.710207],[121.297654,23.710478],[121.297947,23.710572],[121.297844,23.710932],[121.297746,23.710931],[121.297738,23.711563]],[[121.298133,23.711386],[121.298036,23.711295],[121.298134,23.711296],[121.298133,23.711386]],[[121.297947,23.710572],[121.298046,23.710483],[121.298045,23.710573],[121.297947,23.710572]]],[[[121.296948,23.712006],[121.297146,23.711827],[121.296755,23.711733],[121.296655,23.711912],[121.296752,23.712003],[121.296949,23.711915],[121.296948,23.712006]]],[[[121.297793,23.714904],[121.29779,23.715085],[121.298083,23.715179],[121.298179,23.71536],[121.298278,23.715271],[121.298767,23.715367],[121.298966,23.715188],[121.29887,23.715007],[121.298674,23.715004],[121.298383,23.71473],[121.298387,23.714459],[121.298094,23.714366],[121.297907,23.713641],[121.297615,23.713458],[121.297516,23.713547],[121.29751,23.713998],[121.297113,23.714355],[121.297111,23.714536],[121.296817,23.714532],[121.296518,23.71489],[121.296224,23.714887],[121.296123,23.715067],[121.296318,23.715159],[121.296314,23.71552],[121.296509,23.715613],[121.296611,23.715253],[121.296709,23.715254],[121.296612,23.715162],[121.296714,23.714893],[121.29691,23.714895],[121.297005,23.715167],[121.297202,23.715079],[121.297204,23.714898],[121.297403,23.71472],[121.297793,23.714904]],[[121.297403,23.71472],[121.297306,23.714628],[121.297404,23.714629],[121.297403,23.71472]]],[[[121.284839,23.715484],[121.284647,23.715211],[121.284451,23.715208],[121.284359,23.714756],[121.284066,23.714662],[121.284069,23.714392],[121.284368,23.714034],[121.283979,23.713758],[121.282987,23.71465],[121.282982,23.715012],[121.283273,23.715286],[121.283469,23.715288],[121.283565,23.71547],[121.283957,23.715474],[121.284158,23.715115],[121.284642,23.715572],[121.284839,23.715484]]],[[[121.299334,23.717089],[121.299532,23.71691],[121.299638,23.716279],[121.299736,23.71628],[121.29974,23.716009],[121.299937,23.715921],[121.299941,23.71565],[121.300137,23.715653],[121.300534,23.715296],[121.300438,23.715114],[121.299946,23.715199],[121.299944,23.71538],[121.299747,23.715468],[121.299743,23.715739],[121.29915,23.716093],[121.299144,23.716545],[121.298948,23.716543],[121.29875,23.716721],[121.298747,23.716901],[121.299038,23.717176],[121.299334,23.717089]]],[[[121.29823,23.718973],[121.298136,23.718701],[121.298333,23.718613],[121.298336,23.718342],[121.298833,23.717896],[121.298835,23.717715],[121.299033,23.717537],[121.298939,23.717265],[121.298742,23.717353],[121.298739,23.717533],[121.298442,23.717801],[121.298439,23.717982],[121.298242,23.71807],[121.29824,23.71825],[121.297546,23.718785],[121.297544,23.718965],[121.297837,23.719059],[121.297836,23.719149],[121.29823,23.718973]]],[[[121.285221,23.716301],[121.285717,23.715855],[121.285913,23.715857],[121.285715,23.716035],[121.285909,23.716218],[121.286107,23.71604],[121.28601,23.715948],[121.286111,23.715769],[121.285917,23.715586],[121.285525,23.715582],[121.285226,23.715939],[121.284734,23.716024],[121.284633,23.716294],[121.284337,23.716381],[121.284335,23.716562],[121.284237,23.716561],[121.284331,23.716833],[121.283839,23.717008],[121.28364,23.717186],[121.283638,23.717367],[121.283242,23.717633],[121.28324,23.717814],[121.283338,23.717815],[121.283233,23.718355],[121.283428,23.718448],[121.283424,23.718719],[121.283128,23.718896],[121.283124,23.719167],[121.282827,23.719344],[121.282923,23.719526],[121.282427,23.719972],[121.282133,23.719969],[121.282132,23.720059],[121.281836,23.720146],[121.281732,23.720596],[121.282023,23.72087],[121.282317,23.720874],[121.282417,23.720694],[121.282909,23.720609],[121.283405,23.720163],[121.283508,23.719803],[121.283704,23.719805],[121.2838,23.719987],[121.284585,23.719906],[121.284583,23.720086],[121.284387,23.720084],[121.28399,23.720441],[121.284083,23.720803],[121.284374,23.721077],[121.28457,23.721079],[121.284563,23.721621],[121.284465,23.72162],[121.284362,23.72198],[121.284066,23.722157],[121.284063,23.722338],[121.284356,23.722431],[121.284556,23.722163],[121.284947,23.722257],[121.28504,23.72262],[121.285234,23.722802],[121.285528,23.722806],[121.285624,23.722987],[121.286212,23.722994],[121.286308,23.723175],[121.286702,23.723089],[121.2869,23.722911],[121.287003,23.722551],[121.287199,23.722553],[121.287198,23.722643],[121.287395,23.722555],[121.287499,23.722105],[121.287597,23.722106],[121.287503,23.721834],[121.287896,23.721748],[121.288187,23.722022],[121.288286,23.721933],[121.288677,23.722028],[121.288781,23.721577],[121.288978,23.721489],[121.289068,23.722122],[121.28877,23.72239],[121.287982,23.722652],[121.287783,23.722921],[121.287488,23.722918],[121.28729,23.723096],[121.287288,23.723277],[121.287581,23.72337],[121.287577,23.723641],[121.287772,23.723733],[121.287768,23.724004],[121.287866,23.724005],[121.287864,23.724186],[121.288059,23.724278],[121.288154,23.72455],[121.288549,23.724284],[121.288844,23.724287],[121.28874,23.724737],[121.288933,23.72492],[121.289131,23.724832],[121.289226,23.725014],[121.289814,23.72511],[121.290016,23.724661],[121.29051,23.724396],[121.2905,23.725118],[121.290695,23.72521],[121.290592,23.725571],[121.290981,23.725846],[121.291571,23.725762],[121.291665,23.726034],[121.291763,23.726035],[121.291565,23.726213],[121.291562,23.726394],[121.293525,23.726325],[121.293527,23.726145],[121.29392,23.726149],[121.293922,23.725969],[121.29451,23.725975],[121.294513,23.725794],[121.294905,23.725799],[121.294903,23.725979],[121.295393,23.725985],[121.295395,23.725804],[121.295591,23.725806],[121.295489,23.726166],[121.295881,23.726171],[121.295879,23.726351],[121.295977,23.726352],[121.297068,23.725371],[121.296974,23.725099],[121.297172,23.724921],[121.297466,23.724924],[121.297963,23.724478],[121.297869,23.724116],[121.297771,23.724115],[121.297872,23.723935],[121.298068,23.723937],[121.298064,23.724208],[121.298259,23.724301],[121.298257,23.724481],[121.298451,23.724664],[121.30002,23.724681],[121.300021,23.724591],[121.300118,23.724682],[121.300608,23.724688],[121.300807,23.724509],[121.30101,23.72397],[121.301402,23.723974],[121.301403,23.723884],[121.301697,23.723887],[121.301896,23.723709],[121.301993,23.7238],[121.301892,23.723979],[121.301989,23.724071],[121.30248,23.724076],[121.302476,23.724347],[121.302769,23.724441],[121.302865,23.724622],[121.302471,23.724708],[121.30237,23.724978],[121.301881,23.724882],[121.301681,23.725151],[121.302072,23.725246],[121.302363,23.72552],[121.302464,23.72525],[121.302761,23.725073],[121.302953,23.725346],[121.303151,23.725257],[121.303538,23.725623],[121.303639,23.725443],[121.303541,23.725442],[121.303451,23.724809],[121.303647,23.724811],[121.303742,23.725083],[121.304032,23.725357],[121.30423,23.725269],[121.304234,23.724908],[121.303941,23.724815],[121.30365,23.72454],[121.303653,23.72436],[121.303263,23.724175],[121.303266,23.723904],[121.303464,23.723816],[121.303466,23.723635],[121.303662,23.723638],[121.304059,23.723281],[121.303868,23.722917],[121.303669,23.723096],[121.303473,23.723094],[121.303671,23.722915],[121.303674,23.722735],[121.30387,23.722737],[121.30397,23.722557],[121.30436,23.722742],[121.304559,23.722564],[121.304558,23.722654],[121.304754,23.722656],[121.304846,23.723109],[121.304552,23.723106],[121.304352,23.723374],[121.304546,23.723557],[121.304742,23.723559],[121.304941,23.723381],[121.305137,23.723383],[121.305135,23.723473],[121.305431,23.723386],[121.305433,23.723206],[121.305238,23.723113],[121.30525,23.72221],[121.305447,23.722122],[121.305451,23.721851],[121.305648,23.721763],[121.305552,23.721581],[121.305354,23.72176],[121.305158,23.721758],[121.305057,23.721937],[121.304763,23.721934],[121.304562,23.722293],[121.304072,23.722288],[121.304073,23.722197],[121.303974,23.722287],[121.303385,23.72228],[121.303387,23.72219],[121.302505,23.72209],[121.302405,23.722269],[121.302503,23.72227],[121.302596,23.722633],[121.302794,23.722544],[121.302796,23.722364],[121.302992,23.722366],[121.302893,23.722455],[121.302984,23.722998],[121.302496,23.722812],[121.302394,23.723082],[121.302099,23.723169],[121.302102,23.722898],[121.3023,23.72281],[121.302208,23.722357],[121.301625,23.7219],[121.301331,23.721896],[121.301227,23.722347],[121.301032,23.722254],[121.30093,23.722524],[121.300539,23.722429],[121.300438,23.722699],[121.300243,23.722607],[121.300148,23.722335],[121.299952,23.722333],[121.299956,23.722062],[121.300054,23.722063],[121.300156,23.721703],[121.300552,23.721436],[121.30046,23.720984],[121.300656,23.720986],[121.300856,23.720717],[121.300564,23.720533],[121.300363,23.720892],[121.300266,23.720801],[121.299971,23.720888],[121.299973,23.720708],[121.299778,23.720615],[121.29958,23.720794],[121.299577,23.720974],[121.299379,23.721152],[121.299374,23.721514],[121.299276,23.721513],[121.29927,23.721964],[121.299465,23.722056],[121.299459,23.722508],[121.29975,23.722782],[121.299743,23.723324],[121.299645,23.723323],[121.29974,23.723595],[121.29964,23.723684],[121.299248,23.723679],[121.298948,23.724128],[121.298556,23.724123],[121.29846,23.723942],[121.298264,23.723939],[121.298168,23.723758],[121.297875,23.723664],[121.297985,23.722763],[121.29779,23.72267],[121.297591,23.722849],[121.297486,23.723389],[121.297191,23.723476],[121.29719,23.723566],[121.296601,23.72356],[121.296299,23.724189],[121.29561,23.724362],[121.295412,23.72454],[121.295408,23.724811],[121.295011,23.725168],[121.294717,23.725165],[121.294617,23.725344],[121.294028,23.725338],[121.293059,23.724424],[121.293069,23.723702],[121.293266,23.723614],[121.29327,23.723343],[121.293666,23.722986],[121.293961,23.722989],[121.294061,23.72281],[121.294649,23.722816],[121.294842,23.723089],[121.295038,23.723091],[121.295137,23.723002],[121.295146,23.72237],[121.295344,23.722192],[121.295738,23.722106],[121.295936,23.721927],[121.295938,23.721747],[121.296332,23.721661],[121.296432,23.721481],[121.296628,23.721483],[121.296619,23.722206],[121.296716,23.722297],[121.296913,23.722209],[121.296918,23.721848],[121.297016,23.721849],[121.296921,23.721577],[121.297118,23.721579],[121.297316,23.721401],[121.297321,23.72104],[121.297419,23.721041],[121.297422,23.72077],[121.297227,23.720677],[121.297232,23.720316],[121.297134,23.720315],[121.297245,23.719323],[121.297147,23.719322],[121.297053,23.71896],[121.296562,23.719045],[121.296364,23.719223],[121.296459,23.719405],[121.296753,23.719408],[121.29675,23.719679],[121.296455,23.719766],[121.296157,23.720033],[121.296253,23.720215],[121.29645,23.720127],[121.296539,23.72085],[121.296046,23.721026],[121.295844,23.721475],[121.295648,23.721473],[121.295547,23.721652],[121.294664,23.721733],[121.294662,23.721823],[121.29427,23.721819],[121.294174,23.721637],[121.293879,23.721724],[121.293785,23.721452],[121.29349,23.721449],[121.2932,23.721175],[121.293202,23.720994],[121.293007,23.720902],[121.293012,23.720541],[121.292818,23.720358],[121.29252,23.720625],[121.292226,23.720622],[121.291839,23.720257],[121.291739,23.720346],[121.291731,23.720978],[121.292119,23.721343],[121.292019,23.721433],[121.291824,23.72134],[121.291622,23.721789],[121.291719,23.721881],[121.292113,23.721795],[121.29211,23.721975],[121.292401,23.722249],[121.292298,23.72261],[121.292101,23.722698],[121.291907,23.722515],[121.291709,23.722693],[121.291515,23.722511],[121.291422,23.722148],[121.291126,23.722235],[121.291125,23.722326],[121.290831,23.722322],[121.29083,23.722413],[121.290537,23.722319],[121.290535,23.722409],[121.290142,23.722495],[121.290345,23.721956],[121.290541,23.721958],[121.290741,23.721689],[121.291134,23.721603],[121.291049,23.720609],[121.290951,23.720608],[121.29096,23.719976],[121.291058,23.719977],[121.291163,23.719437],[121.29136,23.719348],[121.291362,23.719168],[121.291759,23.718811],[121.291857,23.718812],[121.291951,23.719174],[121.292147,23.719177],[121.292146,23.719267],[121.292343,23.719179],[121.292247,23.718997],[121.292446,23.718819],[121.291959,23.718542],[121.291962,23.718271],[121.292061,23.718273],[121.29197,23.71773],[121.292361,23.717824],[121.292255,23.718365],[121.29245,23.718457],[121.292554,23.718007],[121.293347,23.717384],[121.29345,23.717024],[121.293647,23.716936],[121.293356,23.716662],[121.293158,23.71684],[121.292865,23.716746],[121.292567,23.717014],[121.292571,23.716743],[121.292964,23.716657],[121.293262,23.71639],[121.293458,23.716392],[121.293658,23.716123],[121.293463,23.716031],[121.293165,23.716298],[121.292677,23.716112],[121.292573,23.716563],[121.292278,23.71665],[121.292275,23.71683],[121.292078,23.716918],[121.291875,23.717458],[121.291483,23.717454],[121.291086,23.71781],[121.290497,23.717804],[121.290295,23.718253],[121.289804,23.718338],[121.289806,23.718157],[121.290004,23.718069],[121.290006,23.717889],[121.289811,23.717796],[121.28991,23.717707],[121.289817,23.717345],[121.290113,23.717167],[121.290118,23.716806],[121.290509,23.716901],[121.290612,23.716541],[121.290906,23.716544],[121.290907,23.716454],[121.2912,23.716547],[121.291399,23.716369],[121.291405,23.715918],[121.291602,23.715829],[121.291705,23.715469],[121.291998,23.715563],[121.292099,23.715293],[121.29239,23.715567],[121.292982,23.715303],[121.292978,23.715574],[121.29288,23.715573],[121.292974,23.715935],[121.293269,23.715848],[121.293372,23.715488],[121.293863,23.715403],[121.29386,23.715674],[121.293661,23.715852],[121.293757,23.716034],[121.294345,23.71604],[121.294346,23.71595],[121.294642,23.715863],[121.294547,23.715591],[121.294743,23.715593],[121.294839,23.715775],[121.295328,23.715871],[121.295229,23.71596],[121.295322,23.716322],[121.295519,23.716324],[121.29552,23.716234],[121.295715,23.716326],[121.295817,23.715966],[121.296113,23.715879],[121.296217,23.715429],[121.296022,23.715336],[121.29592,23.715606],[121.295724,23.715604],[121.295526,23.715782],[121.295528,23.715602],[121.294944,23.715234],[121.295045,23.715055],[121.294753,23.714871],[121.294755,23.71469],[121.295445,23.714427],[121.295644,23.714249],[121.295646,23.714068],[121.296239,23.713713],[121.296244,23.713352],[121.296342,23.713353],[121.296353,23.71245],[121.296257,23.712359],[121.295961,23.712446],[121.295957,23.712807],[121.295858,23.712806],[121.295757,23.713076],[121.295365,23.713072],[121.294969,23.713338],[121.294676,23.713245],[121.294475,23.713604],[121.294181,23.7136],[121.293785,23.713867],[121.29359,23.713775],[121.293391,23.714043],[121.292802,23.714037],[121.292707,23.713855],[121.292314,23.713851],[121.292313,23.713941],[121.29202,23.713847],[121.29192,23.714027],[121.292115,23.714119],[121.292209,23.714391],[121.292405,23.714394],[121.292403,23.714574],[121.292204,23.714753],[121.292008,23.71475],[121.292013,23.714389],[121.291915,23.714388],[121.29182,23.714116],[121.291622,23.714295],[121.291329,23.714201],[121.291331,23.71402],[121.291529,23.713932],[121.291336,23.713659],[121.291038,23.713927],[121.291034,23.714288],[121.29064,23.714374],[121.290441,23.714643],[121.29005,23.714548],[121.289949,23.714728],[121.290143,23.71491],[121.289749,23.714996],[121.289748,23.715087],[121.289356,23.715082],[121.289456,23.714903],[121.289262,23.71481],[121.289062,23.715079],[121.288868,23.714896],[121.288672,23.714894],[121.288671,23.714984],[121.288475,23.714982],[121.288476,23.714892],[121.288082,23.714978],[121.287986,23.714886],[121.287885,23.715066],[121.286905,23.715055],[121.286903,23.715145],[121.286707,23.715143],[121.28661,23.715052],[121.286711,23.714872],[121.286419,23.714689],[121.286319,23.714868],[121.286514,23.71496],[121.286511,23.715141],[121.286413,23.71514],[121.286312,23.71541],[121.286408,23.715501],[121.286998,23.715417],[121.286699,23.715775],[121.286695,23.716046],[121.286889,23.716229],[121.286594,23.716316],[121.286592,23.716496],[121.286786,23.716589],[121.286685,23.716859],[121.286977,23.717042],[121.286777,23.717311],[121.286485,23.717127],[121.286584,23.717038],[121.286489,23.716856],[121.286195,23.716853],[121.286003,23.71649],[121.285709,23.716487],[121.285616,23.716124],[121.285418,23.716213],[121.285607,23.716756],[121.285116,23.716841],[121.28502,23.71666],[121.285318,23.716392],[121.285221,23.716301]],[[121.297773,23.723934],[121.297177,23.72456],[121.296786,23.724465],[121.296788,23.724284],[121.297084,23.724197],[121.297187,23.723747],[121.29758,23.723751],[121.297773,23.723934]],[[121.303278,23.723001],[121.303279,23.722911],[121.303475,23.722913],[121.303474,23.723003],[121.303278,23.723001]],[[121.304661,23.722204],[121.304758,23.722295],[121.30466,23.722294],[121.304661,23.722204]],[[121.29345,23.717024],[121.293353,23.716932],[121.293451,23.716933],[121.29345,23.717024]],[[121.286788,23.716499],[121.286887,23.716409],[121.287082,23.716502],[121.287182,23.716322],[121.287378,23.716325],[121.287572,23.716507],[121.28757,23.716688],[121.287371,23.716866],[121.287175,23.716864],[121.286788,23.716499]],[[121.285121,23.71648],[121.285024,23.716389],[121.285122,23.71639],[121.285121,23.71648]],[[121.292843,23.725957],[121.292554,23.725592],[121.292853,23.725234],[121.293241,23.72551],[121.293238,23.72578],[121.293039,23.725959],[121.292843,23.725957]],[[121.296286,23.725182],[121.296583,23.725005],[121.296579,23.725275],[121.296286,23.725182]],[[121.303158,23.724716],[121.302962,23.724714],[121.302964,23.724533],[121.303062,23.724534],[121.303158,23.724716]],[[121.299829,23.724228],[121.299633,23.724225],[121.299539,23.723954],[121.299833,23.723957],[121.299829,23.724228]],[[121.290025,23.723939],[121.290221,23.723941],[121.29022,23.724031],[121.290024,23.724029],[121.290025,23.723939]],[[121.304942,23.72329],[121.305041,23.723201],[121.30504,23.723292],[121.304942,23.72329]],[[121.299947,23.722694],[121.300047,23.722605],[121.300045,23.722695],[121.299947,23.722694]],[[121.294849,23.722547],[121.294653,23.722545],[121.294755,23.722275],[121.294853,23.722277],[121.294849,23.722547]],[[121.289661,23.721768],[121.290151,23.721773],[121.290149,23.721954],[121.289951,23.722132],[121.289656,23.722129],[121.28956,23.722037],[121.289661,23.721768]],[[121.292601,23.721981],[121.292698,23.722072],[121.2926,23.722071],[121.292601,23.721981]],[[121.292601,23.721981],[121.292504,23.721889],[121.292407,23.721798],[121.292603,23.7218],[121.292601,23.721981]],[[121.289868,23.720957],[121.290164,23.72078],[121.290167,23.720599],[121.290365,23.720421],[121.290657,23.720605],[121.290359,23.720872],[121.290257,23.721233],[121.29006,23.72123],[121.289868,23.720957]],[[121.28978,23.720144],[121.289979,23.719965],[121.289987,23.719333],[121.290285,23.719066],[121.290578,23.719159],[121.290678,23.71898],[121.291072,23.718894],[121.290971,23.719073],[121.290676,23.71916],[121.290674,23.719341],[121.290575,23.71934],[121.290669,23.719702],[121.290372,23.719879],[121.29027,23.720239],[121.289973,23.720417],[121.28978,23.720144]],[[121.285171,23.720093],[121.285368,23.720095],[121.285365,23.720275],[121.285169,23.720273],[121.285171,23.720093]],[[121.282917,23.719977],[121.282818,23.720067],[121.282819,23.719976],[121.282917,23.719977]],[[121.282917,23.719977],[121.283016,23.719888],[121.283015,23.719978],[121.282917,23.719977]],[[121.286844,23.71966],[121.286942,23.719661],[121.28694,23.719841],[121.286842,23.71984],[121.286844,23.71966]],[[121.287726,23.71976],[121.28753,23.719758],[121.287631,23.719488],[121.287729,23.719489],[121.287726,23.71976]],[[121.283417,23.71926],[121.283711,23.719264],[121.283709,23.719444],[121.28351,23.719623],[121.283315,23.71953],[121.283417,23.71926]],[[121.284301,23.71918],[121.2842,23.719359],[121.284004,23.719357],[121.284105,23.719178],[121.284301,23.71918]],[[121.28842,23.719135],[121.288619,23.718957],[121.28901,23.719052],[121.289112,23.718782],[121.289408,23.718604],[121.289411,23.718424],[121.289705,23.718427],[121.289799,23.718699],[121.29019,23.718794],[121.290189,23.718884],[121.289796,23.71897],[121.28989,23.719242],[121.289009,23.719142],[121.288809,23.719411],[121.288613,23.719408],[121.28842,23.719135]],[[121.284309,23.718548],[121.284406,23.718639],[121.284403,23.71882],[121.28411,23.718726],[121.284113,23.718546],[121.284309,23.718548]],[[121.287544,23.718674],[121.287348,23.718672],[121.287154,23.718489],[121.287354,23.718221],[121.28755,23.718223],[121.287743,23.718405],[121.287544,23.718674]],[[121.287745,23.718315],[121.288338,23.717961],[121.288532,23.718143],[121.288431,23.718323],[121.288625,23.718505],[121.288426,23.718684],[121.28823,23.718682],[121.288231,23.718591],[121.287937,23.718588],[121.287745,23.718315]],[[121.285196,23.718197],[121.284809,23.717831],[121.285005,23.717833],[121.285205,23.717565],[121.285499,23.717568],[121.285692,23.717751],[121.285196,23.718197]],[[121.284121,23.717914],[121.283825,23.718091],[121.283729,23.717909],[121.283926,23.717821],[121.284029,23.717461],[121.284326,23.717284],[121.284519,23.717467],[121.28442,23.717556],[121.284515,23.717828],[121.284316,23.718006],[121.28412,23.718004],[121.284121,23.717914]],[[121.284316,23.718006],[121.284413,23.718098],[121.284315,23.718097],[121.284316,23.718006]],[[121.287456,23.71786],[121.287553,23.717952],[121.287455,23.717951],[121.287456,23.71786]],[[121.287358,23.717859],[121.287165,23.717677],[121.28746,23.71759],[121.287556,23.717771],[121.287358,23.717859]],[[121.289713,23.717795],[121.289516,23.717883],[121.289519,23.717612],[121.289617,23.717613],[121.289713,23.717795]],[[121.289618,23.717523],[121.28952,23.717522],[121.289524,23.717251],[121.28972,23.717253],[121.289618,23.717523]],[[121.287369,23.717047],[121.287567,23.716868],[121.287764,23.716871],[121.287957,23.717053],[121.287955,23.717234],[121.287756,23.717412],[121.28756,23.71741],[121.287367,23.717227],[121.287369,23.717047]],[[121.289032,23.717336],[121.289229,23.717338],[121.289227,23.717429],[121.289031,23.717426],[121.289032,23.717336]],[[121.292466,23.717284],[121.292565,23.717195],[121.292564,23.717285],[121.292466,23.717284]],[[121.288546,23.71706],[121.288643,23.717151],[121.288544,23.71715],[121.288546,23.71706]],[[121.288448,23.717059],[121.28845,23.716878],[121.288548,23.716879],[121.288546,23.71706],[121.288448,23.717059]],[[121.289625,23.716981],[121.289724,23.716983],[121.289721,23.717163],[121.289623,23.717162],[121.289625,23.716981]],[[121.289135,23.716976],[121.289331,23.716978],[121.28933,23.717069],[121.289134,23.717066],[121.289135,23.716976]],[[121.288845,23.716702],[121.289139,23.716705],[121.289138,23.716795],[121.288843,23.716792],[121.288845,23.716702]],[[121.289432,23.716799],[121.289531,23.71671],[121.28953,23.7168],[121.289432,23.716799]],[[121.290219,23.716627],[121.290119,23.716716],[121.290121,23.716626],[121.290219,23.716627]],[[121.290219,23.716627],[121.290318,23.716538],[121.290317,23.716628],[121.290219,23.716627]],[[121.289436,23.716438],[121.289633,23.71644],[121.289631,23.71653],[121.289435,23.716528],[121.289436,23.716438]],[[121.287674,23.716237],[121.28787,23.71624],[121.287869,23.71633],[121.287671,23.716418],[121.287674,23.716237]],[[121.28787,23.71624],[121.287969,23.71615],[121.288168,23.715972],[121.288066,23.716242],[121.28787,23.71624]],[[121.290323,23.716177],[121.290418,23.716358],[121.290221,23.716446],[121.290126,23.716174],[121.290323,23.716177]],[[121.288556,23.716247],[121.288559,23.716067],[121.288657,23.716068],[121.288752,23.716249],[121.288556,23.716247]],[[121.288461,23.716066],[121.288463,23.715885],[121.288561,23.715886],[121.288559,23.716067],[121.288461,23.716066]],[[121.288659,23.715887],[121.288464,23.715795],[121.288368,23.715613],[121.288565,23.715615],[121.288659,23.715887]],[[121.288661,23.715707],[121.288761,23.715617],[121.288759,23.715708],[121.288661,23.715707]],[[121.289641,23.715808],[121.289445,23.715806],[121.289446,23.715715],[121.289643,23.715627],[121.289641,23.715808]],[[121.290236,23.715273],[121.290532,23.715186],[121.290533,23.715095],[121.29063,23.715187],[121.29112,23.715192],[121.291021,23.715281],[121.291114,23.715643],[121.290625,23.715548],[121.290626,23.715457],[121.290234,23.715453],[121.290236,23.715273]],[[121.288079,23.715249],[121.28798,23.715338],[121.288081,23.715068],[121.288277,23.71507],[121.288471,23.715253],[121.288765,23.715256],[121.288764,23.715347],[121.28847,23.715343],[121.288469,23.715434],[121.288275,23.715251],[121.288079,23.715249]],[[121.289061,23.715169],[121.288862,23.715348],[121.288865,23.715167],[121.289061,23.715169]],[[121.289158,23.715261],[121.289257,23.715171],[121.289256,23.715262],[121.289158,23.715261]],[[121.294651,23.715141],[121.294847,23.715143],[121.294846,23.715233],[121.29465,23.715231],[121.294651,23.715141]],[[121.292695,23.714758],[121.292891,23.71476],[121.29289,23.71485],[121.292694,23.714848],[121.292695,23.714758]],[[121.293873,23.714681],[121.293971,23.714682],[121.293968,23.714862],[121.29387,23.714861],[121.293873,23.714681]],[[121.294558,23.714778],[121.294657,23.714689],[121.294656,23.71478],[121.294558,23.714778]],[[121.294173,23.714232],[121.294073,23.714322],[121.294075,23.714231],[121.294173,23.714232]],[[121.294173,23.714232],[121.294272,23.714143],[121.294271,23.714234],[121.294173,23.714232]],[[121.294273,23.714053],[121.294469,23.714055],[121.294467,23.714236],[121.294369,23.714235],[121.294273,23.714053]],[[121.294767,23.713787],[121.294866,23.713698],[121.294865,23.713789],[121.294767,23.713787]]],[[[121.297995,23.72195],[121.29849,23.721594],[121.298497,23.721052],[121.298596,23.721054],[121.298306,23.720689],[121.29791,23.720956],[121.298002,23.721408],[121.297609,23.721494],[121.297799,23.721948],[121.297995,23.72195]]],[[[121.310575,23.70475],[121.310772,23.704662],[121.310778,23.704211],[121.310289,23.704115],[121.31009,23.704294],[121.310087,23.704564],[121.30989,23.704653],[121.310084,23.704835],[121.309982,23.705105],[121.31008,23.705106],[121.310173,23.705468],[121.310567,23.705382],[121.310575,23.70475]]],[[[121.312948,23.710826],[121.313048,23.710737],[121.313069,23.709112],[121.312874,23.70902],[121.312889,23.707846],[121.3123,23.707839],[121.312205,23.707658],[121.31191,23.707655],[121.311811,23.707744],[121.311809,23.707924],[121.311907,23.707925],[121.311804,23.708285],[121.311901,23.708377],[121.311803,23.708376],[121.3118,23.708647],[121.311702,23.708646],[121.311696,23.709097],[121.311399,23.709274],[121.311396,23.709545],[121.311885,23.709641],[121.312079,23.709824],[121.312076,23.710004],[121.31227,23.710187],[121.312466,23.710189],[121.312365,23.710459],[121.312267,23.710458],[121.312264,23.710638],[121.312458,23.710821],[121.312654,23.710823],[121.312655,23.710733],[121.312948,23.710826]]],[[[121.301466,23.711423],[121.301175,23.711239],[121.30108,23.710967],[121.300884,23.710965],[121.300885,23.710875],[121.300688,23.710963],[121.300686,23.711144],[121.300979,23.711237],[121.301268,23.711602],[121.301466,23.711423]]],[[[121.310754,23.713692],[121.311844,23.712801],[121.311848,23.71253],[121.312243,23.712263],[121.312148,23.712082],[121.311655,23.712257],[121.311454,23.712616],[121.311259,23.712524],[121.310863,23.71288],[121.310754,23.713692]]],[[[121.301525,23.714494],[121.301527,23.714313],[121.301724,23.714225],[121.301731,23.713684],[121.301928,23.713686],[121.301929,23.713595],[121.302124,23.713688],[121.302224,23.713508],[121.302126,23.713507],[121.302134,23.712875],[121.301939,23.712783],[121.30204,23.712603],[121.301749,23.712329],[121.301553,23.712327],[121.301457,23.712145],[121.301261,23.712143],[121.300962,23.712501],[121.300852,23.713403],[121.30095,23.713404],[121.301044,23.713766],[121.301239,23.713859],[121.301233,23.71431],[121.301036,23.714398],[121.301033,23.714579],[121.301326,23.714672],[121.301525,23.714494]]],[[[121.30426,23.715337],[121.304162,23.715336],[121.304164,23.715155],[121.303969,23.715063],[121.303972,23.714882],[121.303778,23.714699],[121.303484,23.714696],[121.303388,23.714514],[121.302997,23.71442],[121.302901,23.714238],[121.302704,23.714326],[121.302898,23.714509],[121.302991,23.714871],[121.303188,23.714783],[121.303284,23.714965],[121.303967,23.715243],[121.303867,23.715423],[121.303965,23.715424],[121.304059,23.715696],[121.304256,23.715607],[121.30426,23.715337]]],[[[121.306093,23.717705],[121.306488,23.717438],[121.306491,23.717257],[121.306393,23.717256],[121.306494,23.716987],[121.306397,23.716895],[121.30571,23.716978],[121.305516,23.716795],[121.305318,23.716974],[121.305414,23.717065],[121.305216,23.717243],[121.305312,23.717425],[121.305802,23.71743],[121.305901,23.717341],[121.305899,23.717522],[121.306093,23.717705]]],[[[121.300495,23.718275],[121.300605,23.717373],[121.300902,23.717106],[121.301198,23.717019],[121.301011,23.716294],[121.300814,23.716382],[121.300809,23.716744],[121.300611,23.716922],[121.300607,23.717193],[121.30021,23.71755],[121.300099,23.718542],[121.300294,23.718634],[121.300397,23.718274],[121.300495,23.718275]]],[[[121.30057,23.720082],[121.30067,23.719902],[121.300572,23.719901],[121.300479,23.719539],[121.300187,23.719355],[121.299987,23.719624],[121.300377,23.719809],[121.300375,23.71999],[121.300176,23.720168],[121.300368,23.720531],[121.300663,23.720444],[121.300668,23.720083],[121.30057,23.720082]]],[[[121.30222,23.721364],[121.301929,23.721181],[121.301933,23.720819],[121.302031,23.72082],[121.302034,23.72064],[121.302232,23.720461],[121.302236,23.720191],[121.302434,23.720012],[121.302244,23.719559],[121.301749,23.719914],[121.301744,23.720275],[121.301646,23.720274],[121.301641,23.720636],[121.301543,23.720634],[121.30173,23.721359],[121.302021,23.721633],[121.302218,23.721545],[121.30222,23.721364]]],[[[121.304728,23.724643],[121.304926,23.724464],[121.30483,23.724373],[121.304932,23.724013],[121.304739,23.72383],[121.304347,23.723735],[121.304149,23.723914],[121.304246,23.724005],[121.304141,23.724546],[121.304238,23.724637],[121.304434,23.724639],[121.304435,23.724549],[121.304728,23.724643]]],[[[121.306092,23.72538],[121.305997,23.725108],[121.306095,23.725109],[121.306002,23.724747],[121.306199,23.724659],[121.306107,23.724206],[121.305911,23.724204],[121.305809,23.724474],[121.305711,23.724473],[121.305804,23.724835],[121.305308,23.725281],[121.305014,23.725278],[121.304912,23.725548],[121.305402,23.725643],[121.305502,23.725464],[121.305992,23.725469],[121.306092,23.72538]],[[121.305502,23.725464],[121.305405,23.725372],[121.305503,23.725373],[121.305502,23.725464]]]]}},{"type":"Feature","properties":{"kind":"bare_dam","month":"2023-09","area_ha":14.41},"geometry":{"type":"MultiPolygon","coordinates":[[[[121.297905,23.691157],[121.2983,23.69089],[121.298303,23.69071],[121.298108,23.690617],[121.298209,23.690348],[121.298898,23.690175],[121.2989,23.689994],[121.298706,23.689811],[121.298215,23.689896],[121.298115,23.690076],[121.297919,23.690074],[121.297522,23.69043],[121.297613,23.690973],[121.297906,23.691067],[121.297905,23.691157]]],[[[121.299469,23.691535],[121.299862,23.691449],[121.299769,23.691087],[121.299574,23.690995],[121.299871,23.690727],[121.299876,23.690366],[121.299778,23.690365],[121.299683,23.690093],[121.299584,23.690182],[121.299291,23.690089],[121.299093,23.690267],[121.29948,23.690632],[121.299379,23.690902],[121.299086,23.690809],[121.299087,23.690718],[121.298596,23.690803],[121.298789,23.690986],[121.298882,23.691439],[121.299078,23.691441],[121.299076,23.691531],[121.29947,23.691445],[121.299469,23.691535]]],[[[121.300335,23.692809],[121.300141,23.692626],[121.299743,23.693073],[121.299547,23.693071],[121.299647,23.692892],[121.298968,23.692343],[121.299166,23.692164],[121.299072,23.691892],[121.298779,23.691799],[121.298391,23.691433],[121.298291,23.691613],[121.29868,23.691888],[121.298678,23.691978],[121.298384,23.691975],[121.298194,23.691521],[121.298,23.691339],[121.297803,23.691427],[121.297895,23.691879],[121.298188,23.691973],[121.298185,23.692244],[121.298282,23.692335],[121.298479,23.692247],[121.298472,23.692789],[121.298859,23.693154],[121.298857,23.693335],[121.299052,23.693427],[121.298852,23.693696],[121.29924,23.694061],[121.299829,23.693977],[121.299928,23.693888],[121.299834,23.693616],[121.299932,23.693617],[121.299931,23.693708],[121.300225,23.693711],[121.300321,23.693892],[121.300615,23.693896],[121.301002,23.694261],[121.301104,23.693991],[121.300812,23.693808],[121.301012,23.693539],[121.300817,23.693446],[121.300617,23.693715],[121.300325,23.693531],[121.300328,23.693351],[121.300524,23.693353],[121.300624,23.693173],[121.300235,23.692898],[121.300335,23.692809]],[[121.300328,23.693351],[121.300231,23.693259],[121.300329,23.69326],[121.300328,23.693351]],[[121.300235,23.692898],[121.300136,23.692987],[121.300137,23.692897],[121.300235,23.692898]],[[121.299149,23.693518],[121.299249,23.693339],[121.299445,23.693341],[121.299541,23.693523],[121.299246,23.69361],[121.299149,23.693518]]],[[[121.298418,23.696942],[121.29832,23.696941],[121.298419,23.696851],[121.298323,23.69667],[121.298127,23.696668],[121.297929,23.696846],[121.298702,23.697758],[121.299391,23.697494],[121.299295,23.697403],[121.2994,23.696862],[121.298915,23.696405],[121.299027,23.695323],[121.298636,23.695228],[121.29864,23.694958],[121.298738,23.694959],[121.298642,23.694777],[121.298249,23.694863],[121.297958,23.694589],[121.297854,23.695039],[121.298144,23.695404],[121.298042,23.695673],[121.298237,23.695766],[121.298137,23.695945],[121.29833,23.696128],[121.298528,23.69604],[121.298334,23.695857],[121.298433,23.695768],[121.298336,23.695677],[121.298439,23.695317],[121.29873,23.695591],[121.298622,23.696312],[121.298524,23.696311],[121.298421,23.696671],[121.298518,23.696762],[121.298814,23.696675],[121.298812,23.696765],[121.298714,23.696764],[121.298711,23.697035],[121.298416,23.697122],[121.298418,23.696942]],[[121.298711,23.697035],[121.298808,23.697127],[121.29871,23.697126],[121.298711,23.697035]],[[121.298902,23.697399],[121.298805,23.697307],[121.298904,23.697308],[121.298902,23.697399]]],[[[121.298127,23.696668],[121.298328,23.696309],[121.297939,23.696033],[121.29784,23.696123],[121.297936,23.696304],[121.297737,23.696483],[121.297931,23.696665],[121.298127,23.696668]]],[[[121.300086,23.69687],[121.299892,23.696687],[121.299695,23.696775],[121.299693,23.696956],[121.299886,23.697138],[121.300084,23.69705],[121.300086,23.69687]]],[[[121.299983,23.69723],[121.299788,23.697137],[121.299687,23.697407],[121.299882,23.6975],[121.299983,23.69723]]],[[[121.30095,23.698324],[121.301445,23.697968],[121.30135,23.697696],[121.300762,23.69769],[121.300661,23.697869],[121.300466,23.697777],[121.300465,23.697867],[121.299974,23.697952],[121.299973,23.698042],[121.299677,23.698129],[121.299773,23.698311],[121.300361,23.698318],[121.300363,23.698227],[121.30095,23.698324]]],[[[121.298964,23.700199],[121.298968,23.699928],[121.298774,23.699745],[121.298777,23.699474],[121.298875,23.699475],[121.298781,23.699203],[121.299077,23.699026],[121.299081,23.698755],[121.299478,23.698398],[121.299382,23.698217],[121.298988,23.698393],[121.299083,23.698574],[121.298788,23.698662],[121.298586,23.699111],[121.297891,23.699735],[121.298085,23.699918],[121.297887,23.700096],[121.297882,23.700458],[121.299157,23.700472],[121.299062,23.7002],[121.298964,23.700199]],[[121.29818,23.70019],[121.298279,23.700101],[121.298278,23.700191],[121.29818,23.70019]],[[121.298382,23.699741],[121.298481,23.699651],[121.29848,23.699742],[121.298382,23.699741]]],[[[121.30213,23.690481],[121.302522,23.690485],[121.302523,23.690395],[121.302718,23.690487],[121.302818,23.690308],[121.302721,23.690217],[121.302622,23.690306],[121.302525,23.690214],[121.302133,23.69021],[121.302132,23.6903],[121.301937,23.690208],[121.301837,23.690387],[121.301934,23.690479],[121.302131,23.690391],[121.30213,23.690481]]],[[[121.299963,23.69118],[121.300059,23.691361],[121.300353,23.691364],[121.300455,23.691095],[121.300652,23.691007],[121.300745,23.691369],[121.300944,23.69119],[121.30114,23.691192],[121.30104,23.691372],[121.301235,23.691464],[121.301434,23.691196],[121.301727,23.691289],[121.301827,23.69111],[121.301534,23.691016],[121.301439,23.690835],[121.301045,23.690921],[121.300659,23.690465],[121.300859,23.690196],[121.300468,23.690102],[121.300467,23.690192],[121.300171,23.690279],[121.300168,23.69055],[121.30007,23.690549],[121.300066,23.69082],[121.300261,23.690912],[121.300259,23.691093],[121.299963,23.69118]],[[121.300261,23.690912],[121.30036,23.690823],[121.300359,23.690913],[121.300261,23.690912]]],[[[121.303481,23.692121],[121.30378,23.691763],[121.303391,23.691488],[121.302705,23.691481],[121.302706,23.69139],[121.302412,23.691387],[121.302413,23.691297],[121.302216,23.691385],[121.302214,23.691565],[121.302408,23.691748],[121.302898,23.691754],[121.303285,23.692119],[121.303481,23.692121]]],[[[121.310445,23.692017],[121.310054,23.691922],[121.310055,23.691832],[121.309858,23.69192],[121.31005,23.692193],[121.310344,23.692196],[121.310445,23.692017]]],[[[121.310836,23.692111],[121.310543,23.692018],[121.310442,23.692197],[121.310734,23.692381],[121.310836,23.692111]]],[[[121.304645,23.693127],[121.304743,23.693128],[121.304747,23.692857],[121.304553,23.692675],[121.304061,23.69276],[121.303967,23.692488],[121.303672,23.692575],[121.303665,23.693116],[121.303761,23.693208],[121.304154,23.693212],[121.304249,23.693394],[121.304543,23.693397],[121.304645,23.693127]],[[121.304253,23.693123],[121.304256,23.692852],[121.304452,23.692854],[121.304449,23.693125],[121.304253,23.693123]]],[[[121.301497,23.693905],[121.3014,23.693814],[121.301203,23.693902],[121.301298,23.694174],[121.301495,23.694086],[121.301497,23.693905]]],[[[121.301978,23.694633],[121.301592,23.694177],[121.301296,23.694264],[121.301587,23.694538],[121.301682,23.69481],[121.301978,23.694633]]],[[[121.305108,23.695209],[121.305205,23.695301],[121.305307,23.695031],[121.305801,23.694765],[121.305706,23.694493],[121.305215,23.694578],[121.304619,23.695114],[121.304714,23.695385],[121.305108,23.695209]]]]}},{"type":"Feature","properties":{"kind":"water","month":"2023-09","area_ha":11.8},"geometry":{"type":"MultiPolygon","coordinates":[[[[121.283104,23.690723],[121.283006,23.690722],[121.283008,23.690541],[121.282419,23.690625],[121.282418,23.690715],[121.282614,23.690717],[121.282613,23.690807],[121.28281,23.690719],[121.283198,23.690995],[121.283104,23.690723]]],[[[121.27849,23.691123],[121.278492,23.690942],[121.2782,23.690849],[121.27839,23.691302],[121.278978,23.691309],[121.278882,23.691127],[121.27849,23.691123]]],[[[121.279569,23.691135],[121.279668,23.691046],[121.27957,23.691045],[121.279569,23.691135]]],[[[121.281235,23.691153],[121.281336,23.690974],[121.28114,23.690972],[121.281039,23.691151],[121.280549,23.691146],[121.28055,23.691055],[121.280256,23.691052],[121.280062,23.690869],[121.28006,23.69105],[121.280353,23.691144],[121.280352,23.691234],[121.280842,23.691239],[121.280939,23.691331],[121.28094,23.69124],[121.281235,23.691153]]],[[[121.279567,23.691225],[121.279472,23.691043],[121.27898,23.691128],[121.279173,23.691401],[121.279567,23.691225]]],[[[121.285027,23.693633],[121.284929,23.693632],[121.284934,23.693271],[121.284738,23.693269],[121.28484,23.692909],[121.284644,23.692907],[121.284552,23.692454],[121.284356,23.692452],[121.284166,23.691999],[121.283778,23.691633],[121.283582,23.691631],[121.283585,23.69145],[121.283389,23.691448],[121.283392,23.691177],[121.283198,23.690995],[121.283097,23.691264],[121.283195,23.691265],[121.283287,23.691718],[121.283483,23.69172],[121.283774,23.691994],[121.283867,23.692356],[121.284254,23.692722],[121.284451,23.692724],[121.284543,23.693177],[121.284641,23.693178],[121.284636,23.693539],[121.284831,23.693631],[121.284825,23.694083],[121.284923,23.694084],[121.285018,23.694356],[121.285214,23.694358],[121.285027,23.693633]]],[[[121.285409,23.69445],[121.285311,23.694449],[121.285214,23.694358],[121.285308,23.69463],[121.285406,23.694631],[121.285409,23.69445]]],[[[121.285006,23.695259],[121.285007,23.695168],[121.285106,23.695079],[121.284811,23.695166],[121.28481,23.695256],[121.285006,23.695259]]],[[[121.285397,23.695353],[121.285687,23.695627],[121.285883,23.69563],[121.285789,23.695358],[121.2854,23.695082],[121.285404,23.694812],[121.285208,23.694809],[121.285106,23.695079],[121.285302,23.695081],[121.285397,23.695353]]],[[[121.28471,23.695346],[121.28481,23.695256],[121.284712,23.695255],[121.28471,23.695346]]],[[[121.286373,23.695725],[121.286374,23.695635],[121.28608,23.695632],[121.286467,23.695997],[121.286663,23.695999],[121.286665,23.695819],[121.286373,23.695725]]],[[[121.288825,23.695662],[121.288724,23.695842],[121.288918,23.696024],[121.289114,23.696026],[121.289118,23.695756],[121.288825,23.695662]]],[[[121.289404,23.696391],[121.289406,23.69621],[121.289308,23.696209],[121.289206,23.696479],[121.289596,23.696664],[121.289599,23.696483],[121.289404,23.696391]]],[[[121.292513,23.698592],[121.292416,23.698501],[121.292121,23.698588],[121.292123,23.698407],[121.291832,23.698133],[121.29144,23.698129],[121.291441,23.698039],[121.291147,23.698036],[121.291052,23.697854],[121.290856,23.697852],[121.290468,23.697486],[121.29047,23.697306],[121.290275,23.697213],[121.290085,23.69676],[121.289791,23.696756],[121.289789,23.696937],[121.290273,23.697394],[121.29027,23.697665],[121.290754,23.698121],[121.291439,23.698219],[121.291535,23.698401],[121.291731,23.698403],[121.292021,23.698677],[121.292019,23.698858],[121.292511,23.698773],[121.292513,23.698592]]],[[[121.294176,23.698882],[121.294375,23.698703],[121.293101,23.698599],[121.293099,23.698779],[121.293295,23.698782],[121.293294,23.698872],[121.29349,23.698874],[121.293491,23.698784],[121.294079,23.69879],[121.294176,23.698882]]],[[[121.294568,23.698886],[121.294668,23.698797],[121.29457,23.698796],[121.294568,23.698886]]],[[[121.312369,23.687252],[121.312372,23.686981],[121.312179,23.686798],[121.311589,23.686882],[121.311396,23.686699],[121.31139,23.687151],[121.311487,23.687242],[121.311289,23.68733],[121.311282,23.687872],[121.311778,23.687426],[121.312074,23.687339],[121.312461,23.687704],[121.312455,23.688156],[121.312652,23.688158],[121.312662,23.687345],[121.312369,23.687252]]],[[[121.310882,23.6885],[121.310883,23.68841],[121.311079,23.688412],[121.311282,23.687872],[121.310887,23.688139],[121.310884,23.688319],[121.310393,23.688404],[121.31039,23.688675],[121.310882,23.6885]]],[[[121.309408,23.688755],[121.309407,23.688845],[121.310093,23.688852],[121.310096,23.688672],[121.309408,23.688755]]],[[[121.308911,23.689291],[121.308913,23.68911],[121.309112,23.688932],[121.309406,23.688935],[121.30931,23.688754],[121.309016,23.68875],[121.309015,23.688841],[121.308621,23.688927],[121.308613,23.689559],[121.308911,23.689291]]],[[[121.308509,23.690009],[121.308502,23.690551],[121.3086,23.690552],[121.308497,23.691002],[121.308595,23.691003],[121.308592,23.691184],[121.308295,23.691451],[121.308099,23.691449],[121.308096,23.69163],[121.307801,23.691717],[121.3078,23.691807],[121.307507,23.691714],[121.307506,23.691804],[121.307114,23.6918],[121.307112,23.69189],[121.306523,23.691974],[121.306522,23.692064],[121.306718,23.692066],[121.306717,23.692157],[121.307012,23.69207],[121.307109,23.692161],[121.307307,23.691982],[121.307403,23.692164],[121.307599,23.692166],[121.307699,23.691987],[121.308191,23.691902],[121.308885,23.691277],[121.308895,23.690555],[121.308797,23.690554],[121.3088,23.690283],[121.308606,23.6901],[121.308613,23.689559],[121.308416,23.689647],[121.308411,23.690008],[121.308509,23.690009]],[[121.307995,23.6919],[121.307898,23.691808],[121.307996,23.691809],[121.307995,23.6919]]],[[[121.30422,23.695651],[121.304322,23.695381],[121.304617,23.695294],[121.30472,23.694934],[121.304916,23.694936],[121.305215,23.694578],[121.305706,23.694493],[121.305712,23.694042],[121.305315,23.694399],[121.304924,23.694304],[121.304825,23.694393],[121.30492,23.694575],[121.304722,23.694753],[121.304528,23.694571],[121.304332,23.694569],[121.304228,23.695019],[121.304035,23.694836],[121.30403,23.695197],[121.303732,23.695465],[121.303829,23.695556],[121.303726,23.695916],[121.30412,23.69583],[121.304122,23.69565],[121.30422,23.695651]]],[[[121.303334,23.695912],[121.303333,23.696002],[121.303627,23.696006],[121.303724,23.696097],[121.30363,23.695825],[121.303334,23.695912]]],[[[121.298622,23.696312],[121.29873,23.695591],[121.298439,23.695317],[121.298336,23.695677],[121.298434,23.695678],[121.298527,23.69613],[121.298136,23.696036],[121.298133,23.696216],[121.298328,23.696309],[121.298127,23.696668],[121.298421,23.696671],[121.298424,23.69649],[121.298622,23.696312]]],[[[121.303234,23.696092],[121.303333,23.696002],[121.303235,23.696001],[121.303234,23.696092]]],[[[121.298416,23.697122],[121.298814,23.696675],[121.29842,23.696761],[121.298321,23.69685],[121.298416,23.697122]]],[[[121.298507,23.697665],[121.298606,23.697576],[121.298508,23.697575],[121.298507,23.697665]]],[[[121.298686,23.698931],[121.298788,23.698662],[121.299083,23.698574],[121.299084,23.698484],[121.29879,23.698481],[121.298794,23.69821],[121.299086,23.698394],[121.299087,23.698304],[121.299578,23.698219],[121.299579,23.698128],[121.299775,23.698131],[121.299974,23.697952],[121.300268,23.697955],[121.300466,23.697777],[121.300661,23.697869],[121.300762,23.69769],[121.301545,23.697789],[121.301449,23.697607],[121.301841,23.697611],[121.302041,23.697343],[121.302434,23.697257],[121.302437,23.697076],[121.302635,23.696898],[121.303028,23.696812],[121.303234,23.696092],[121.302939,23.696179],[121.303035,23.69627],[121.302934,23.69654],[121.302441,23.696715],[121.302438,23.696986],[121.302244,23.696803],[121.30145,23.697517],[121.301059,23.697422],[121.301061,23.697332],[121.300961,23.697421],[121.300864,23.69733],[121.300472,23.697326],[121.300471,23.697416],[121.299982,23.69732],[121.299684,23.697588],[121.298998,23.69758],[121.2988,23.697759],[121.298605,23.697666],[121.298601,23.697937],[121.298307,23.697934],[121.2984,23.698296],[121.298302,23.698295],[121.298299,23.698566],[121.298102,23.698654],[121.298096,23.699105],[121.298487,23.6992],[121.298588,23.69893],[121.298686,23.698931]]],[[[121.295747,23.698718],[121.295846,23.698629],[121.295748,23.698628],[121.295747,23.698718]]],[[[121.295743,23.699079],[121.295745,23.698899],[121.295843,23.6989],[121.295747,23.698718],[121.295452,23.698805],[121.295252,23.699074],[121.294666,23.698887],[121.294664,23.699068],[121.294858,23.69925],[121.295446,23.699257],[121.295546,23.699077],[121.295743,23.699079]]],[[[121.298287,23.699469],[121.298289,23.699288],[121.298093,23.699286],[121.298096,23.699105],[121.297998,23.699104],[121.2977,23.699372],[121.297698,23.699553],[121.297402,23.69964],[121.297401,23.69973],[121.297989,23.699736],[121.297992,23.699556],[121.298287,23.699469]]]]}}]}