{"type":"FeatureCollection","features":[{"type":"Feature","properties":{"kind":"bare_slide","month":"2023-02","area_ha":55.88},"geometry":{"type":"MultiPolygon","coordinates":[[[[121.29883,23.702996],[121.298732,23.702995],[121.29864,23.702543],[121.298541,23.702542],[121.298643,23.702272],[121.298157,23.701905],[121.298056,23.702175],[121.298154,23.702176],[121.298244,23.702809],[121.298342,23.70281],[121.298338,23.703081],[121.298532,23.703264],[121.298529,23.703535],[121.29882,23.703719],[121.29892,23.703629],[121.298825,23.703357],[121.299021,23.70336],[121.299019,23.70354],[121.299408,23.703815],[121.299507,23.703726],[121.299412,23.703454],[121.299217,23.703362],[121.299123,23.70309],[121.298827,23.703177],[121.29883,23.702996]]],[[[121.299321,23.702911],[121.299126,23.702819],[121.299026,23.702998],[121.299221,23.703091],[121.299321,23.702911]]],[[[121.298775,23.70724],[121.29858,23.707147],[121.298582,23.706967],[121.29868,23.706968],[121.298685,23.706607],[121.298783,23.706608],[121.298886,23.706248],[121.299083,23.70616],[121.299085,23.705979],[121.298987,23.705978],[121.299089,23.705708],[121.298894,23.705616],[121.298895,23.705525],[121.29919,23.705438],[121.299095,23.705257],[121.298899,23.705255],[121.298798,23.705434],[121.298014,23.705425],[121.297913,23.705605],[121.29752,23.705691],[121.297518,23.705871],[121.297808,23.706146],[121.298495,23.706153],[121.298488,23.706695],[121.298191,23.706872],[121.298189,23.707053],[121.298481,23.707237],[121.298575,23.707508],[121.298772,23.70742],[121.298775,23.70724]],[[121.298889,23.705977],[121.298792,23.705885],[121.29889,23.705887],[121.298889,23.705977]]],[[[121.29798,23.708044],[121.298079,23.707955],[121.298087,23.707323],[121.29799,23.707231],[121.297792,23.70741],[121.2973,23.707494],[121.297003,23.707762],[121.297098,23.707944],[121.297786,23.707861],[121.297879,23.708223],[121.298077,23.708135],[121.29798,23.708044]]],[[[121.296854,23.711643],[121.296657,23.711731],[121.29675,23.712094],[121.296948,23.712006],[121.296946,23.712096],[121.29773,23.712195],[121.297831,23.711925],[121.298327,23.711479],[121.298441,23.710306],[121.298151,23.709942],[121.297955,23.70994],[121.297862,23.709578],[121.29747,23.709573],[121.297577,23.708852],[121.298071,23.708587],[121.297878,23.708314],[121.29768,23.708492],[121.297386,23.708489],[121.297284,23.708758],[121.297186,23.708757],[121.297182,23.709028],[121.296788,23.709205],[121.296982,23.709387],[121.296979,23.709568],[121.297271,23.709752],[121.297269,23.709932],[121.297561,23.710116],[121.297654,23.710478],[121.297849,23.710571],[121.297844,23.710932],[121.297746,23.710931],[121.297741,23.711292],[121.297643,23.711291],[121.297739,23.711472],[121.297641,23.711471],[121.297639,23.711652],[121.297148,23.711647],[121.297048,23.711826],[121.296854,23.711643]],[[121.29695,23.711825],[121.296851,23.711914],[121.296852,23.711824],[121.29695,23.711825]]],[[[121.29838,23.715001],[121.298282,23.715],[121.298285,23.714729],[121.298187,23.714728],[121.298292,23.714188],[121.297904,23.713912],[121.297906,23.713732],[121.297712,23.713549],[121.297515,23.713637],[121.29741,23.714178],[121.297213,23.714266],[121.29721,23.714446],[121.297014,23.714444],[121.296618,23.714711],[121.296714,23.714893],[121.297008,23.714896],[121.29711,23.714626],[121.297404,23.714629],[121.297403,23.71472],[121.297697,23.714723],[121.297793,23.714904],[121.297989,23.714907],[121.298083,23.715179],[121.298279,23.715181],[121.29838,23.715001]]],[[[121.294181,23.7136],[121.29418,23.713691],[121.293886,23.713687],[121.293785,23.713867],[121.293589,23.713865],[121.293291,23.714132],[121.292311,23.714122],[121.29221,23.714301],[121.292405,23.714394],[121.292403,23.714574],[121.292207,23.714572],[121.292106,23.714751],[121.292008,23.71475],[121.292013,23.714389],[121.291915,23.714388],[121.29182,23.714116],[121.290937,23.714197],[121.290836,23.714376],[121.290542,23.714373],[121.290442,23.714552],[121.29005,23.714548],[121.28995,23.714637],[121.290044,23.715],[121.289849,23.714907],[121.289748,23.715087],[121.289552,23.715084],[121.289555,23.714904],[121.289653,23.714905],[121.289557,23.714723],[121.28936,23.714811],[121.289454,23.715083],[121.289258,23.715081],[121.289259,23.714991],[121.288867,23.714987],[121.288771,23.714805],[121.288672,23.714894],[121.288575,23.714803],[121.288476,23.714892],[121.287987,23.714796],[121.288088,23.714526],[121.287795,23.714433],[121.287696,23.714522],[121.287787,23.715065],[121.287395,23.715061],[121.287396,23.71497],[121.287101,23.715057],[121.287004,23.714966],[121.286903,23.715145],[121.286609,23.715142],[121.286612,23.714962],[121.286808,23.714964],[121.286908,23.714784],[121.28642,23.714598],[121.286319,23.714868],[121.286512,23.715051],[121.286117,23.715317],[121.28631,23.7155],[121.286209,23.71577],[121.286499,23.716044],[121.286599,23.715955],[121.28699,23.716049],[121.286988,23.71614],[121.286596,23.716135],[121.286397,23.716404],[121.287559,23.7175],[121.287853,23.717504],[121.287949,23.717685],[121.288243,23.717689],[121.288339,23.71787],[121.288633,23.717873],[121.288923,23.718238],[121.289217,23.718241],[121.289506,23.718606],[121.2898,23.718609],[121.29009,23.718973],[121.290384,23.718976],[121.29048,23.719158],[121.290774,23.719161],[121.29087,23.719343],[121.29136,23.719348],[121.291856,23.718902],[121.291854,23.719083],[121.292338,23.71954],[121.292437,23.719451],[121.292346,23.718908],[121.292248,23.718907],[121.292154,23.718635],[121.291861,23.718541],[121.29197,23.71773],[121.292265,23.717643],[121.292361,23.717824],[121.292557,23.717827],[121.292656,23.717737],[121.292663,23.717196],[121.292859,23.717198],[121.292955,23.717379],[121.293251,23.717202],[121.293059,23.716929],[121.29296,23.717018],[121.292863,23.716927],[121.292469,23.717013],[121.292473,23.716742],[121.292964,23.716657],[121.293065,23.716478],[121.293458,23.716392],[121.293856,23.715945],[121.293953,23.716036],[121.294445,23.715951],[121.294643,23.715773],[121.294547,23.715591],[121.29494,23.715595],[121.295035,23.715777],[121.295231,23.715779],[121.295228,23.71605],[121.295325,23.716141],[121.295522,23.716053],[121.295618,23.716235],[121.295815,23.716147],[121.295721,23.715875],[121.296115,23.715699],[121.295921,23.715516],[121.295526,23.715782],[121.295139,23.715327],[121.294943,23.715325],[121.294849,23.715053],[121.294456,23.715048],[121.294258,23.715227],[121.294062,23.715224],[121.294063,23.715134],[121.294361,23.714867],[121.294557,23.714869],[121.294756,23.7146],[121.294952,23.714602],[121.295151,23.714424],[121.295153,23.714243],[121.295449,23.714156],[121.295451,23.713976],[121.295745,23.713979],[121.295944,23.7138],[121.295947,23.71353],[121.296045,23.713531],[121.296251,23.712811],[121.296349,23.712812],[121.296255,23.712449],[121.29606,23.712357],[121.295862,23.712535],[121.295958,23.712717],[121.29586,23.712716],[121.295758,23.712986],[121.295465,23.712892],[121.295365,23.713072],[121.295169,23.71307],[121.29497,23.713248],[121.294677,23.713154],[121.294578,23.713244],[121.294674,23.713425],[121.294181,23.7136]],[[121.293856,23.715945],[121.293661,23.715852],[121.293362,23.71621],[121.292677,23.716112],[121.292475,23.716561],[121.292179,23.716739],[121.291975,23.717278],[121.291484,23.717363],[121.291087,23.71772],[121.290793,23.717717],[121.290697,23.717535],[121.290011,23.717528],[121.289914,23.717436],[121.290015,23.717166],[121.290213,23.717078],[121.290118,23.716806],[121.290411,23.7169],[121.29061,23.716721],[121.290613,23.716451],[121.291105,23.716366],[121.291206,23.716096],[121.291404,23.716008],[121.291406,23.715827],[121.291702,23.71565],[121.291705,23.715469],[121.291901,23.715472],[121.292099,23.715293],[121.292293,23.715476],[121.292587,23.715479],[121.292588,23.715389],[121.292982,23.715303],[121.293076,23.715575],[121.293962,23.715314],[121.29396,23.715494],[121.293763,23.715582],[121.29386,23.715674],[121.293856,23.715945]],[[121.295524,23.715873],[121.295622,23.715874],[121.29562,23.716054],[121.295522,23.716053],[121.295524,23.715873]],[[121.294674,23.713425],[121.29477,23.713517],[121.294672,23.713516],[121.294674,23.713425]],[[121.289134,23.717066],[121.28953,23.7168],[121.289531,23.71671],[121.289826,23.716623],[121.289824,23.716803],[121.289628,23.716801],[121.289428,23.71707],[121.289134,23.717066]],[[121.286886,23.7165],[121.286985,23.71641],[121.286984,23.716501],[121.286886,23.7165]],[[121.29032,23.716357],[121.290122,23.716535],[121.290028,23.716173],[121.290323,23.716177],[121.29032,23.716357]],[[121.287771,23.716329],[121.28787,23.71624],[121.287869,23.71633],[121.287771,23.716329]],[[121.289245,23.716074],[121.289049,23.716072],[121.289151,23.715802],[121.289249,23.715803],[121.289245,23.716074]],[[121.290325,23.715996],[121.290623,23.715728],[121.290528,23.715456],[121.290234,23.715453],[121.290237,23.715182],[121.290435,23.715094],[121.290437,23.714914],[121.290633,23.714916],[121.290632,23.715006],[121.291123,23.714921],[121.291121,23.715102],[121.291316,23.715194],[121.29131,23.715646],[121.291016,23.715642],[121.29052,23.716088],[121.290325,23.715996]],[[121.288364,23.715974],[121.288266,23.715973],[121.288269,23.715702],[121.288367,23.715703],[121.288364,23.715974]],[[121.288367,23.715703],[121.288466,23.715614],[121.288465,23.715704],[121.288367,23.715703]],[[121.289739,23.715809],[121.289838,23.71572],[121.289837,23.71581],[121.289739,23.715809]],[[121.289055,23.715621],[121.289154,23.715531],[121.289153,23.715622],[121.289055,23.715621]],[[121.288862,23.715348],[121.288763,23.715437],[121.288764,23.715347],[121.288862,23.715348]],[[121.288862,23.715348],[121.288961,23.715258],[121.28896,23.715349],[121.288862,23.715348]],[[121.288275,23.715251],[121.288079,23.715249],[121.28798,23.715338],[121.287982,23.715157],[121.28857,23.715164],[121.288568,23.715344],[121.288274,23.715341],[121.288275,23.715251]]],[[[121.283145,23.717542],[121.283146,23.717451],[121.283341,23.717544],[121.283641,23.717096],[121.282767,23.716454],[121.282667,23.716633],[121.282861,23.716816],[121.282762,23.716815],[121.282753,23.717537],[121.282654,23.717627],[121.282849,23.717719],[121.282949,23.71754],[121.283145,23.717542]]],[[[121.298133,23.718881],[121.298036,23.71879],[121.298135,23.718791],[121.298338,23.718251],[121.298534,23.718254],[121.298831,23.717986],[121.298934,23.717626],[121.299032,23.717627],[121.299037,23.717266],[121.299135,23.717267],[121.29904,23.716995],[121.298843,23.717083],[121.298739,23.717533],[121.298443,23.717711],[121.298439,23.717982],[121.297546,23.718785],[121.297739,23.719058],[121.298033,23.719061],[121.298133,23.718881]]],[[[121.28281,23.720699],[121.28291,23.720519],[121.283399,23.720615],[121.283398,23.720705],[121.283595,23.720617],[121.283306,23.720253],[121.283011,23.72034],[121.282817,23.720157],[121.28282,23.719886],[121.282722,23.719885],[121.282726,23.719614],[121.282923,23.719526],[121.283026,23.719166],[121.283322,23.718989],[121.283325,23.718808],[121.283131,23.718625],[121.282934,23.718713],[121.283028,23.718985],[121.282536,23.71916],[121.282533,23.719341],[121.282435,23.71934],[121.282528,23.719702],[121.28164,23.720144],[121.281732,23.720596],[121.282023,23.72087],[121.282219,23.720873],[121.282417,23.720694],[121.28281,23.720699]]],[[[121.296914,23.722119],[121.296822,23.721666],[121.297316,23.721401],[121.29732,23.72113],[121.297221,23.721129],[121.29733,23.720317],[121.297135,23.720225],[121.297245,23.719323],[121.297147,23.719322],[121.297053,23.71896],[121.296561,23.719135],[121.296558,23.719315],[121.29685,23.719499],[121.296652,23.719678],[121.296549,23.720038],[121.296352,23.720126],[121.296348,23.720397],[121.296543,23.720489],[121.296539,23.72085],[121.295948,23.721024],[121.295845,23.721384],[121.295549,23.721562],[121.295546,23.721742],[121.295838,23.721926],[121.295938,23.721747],[121.296135,23.721749],[121.29653,23.721482],[121.296526,23.721843],[121.296624,23.721845],[121.296521,23.722205],[121.296716,23.722297],[121.296914,23.722119]],[[121.297024,23.721217],[121.296926,23.721216],[121.29693,23.720945],[121.297126,23.720947],[121.297024,23.721217]]],[[[121.284652,23.722344],[121.284848,23.722346],[121.284847,23.722437],[121.285044,23.722349],[121.284949,23.722077],[121.284754,23.721984],[121.284758,23.721713],[121.28437,23.721348],[121.284076,23.721345],[121.283882,23.721162],[121.283885,23.720981],[121.28369,23.720889],[121.283588,23.721159],[121.28349,23.721158],[121.283384,23.721788],[121.283578,23.721971],[121.283774,23.721973],[121.283973,23.721705],[121.284268,23.721708],[121.284264,23.721979],[121.283968,23.722156],[121.283965,23.722337],[121.284258,23.72243],[121.284257,23.722521],[121.284551,23.722524],[121.284652,23.722344]]],[[[121.312705,23.706851],[121.312806,23.706671],[121.312708,23.70667],[121.312711,23.706399],[121.312516,23.706307],[121.31252,23.706036],[121.312324,23.706034],[121.312321,23.706214],[121.312029,23.70603],[121.311729,23.706479],[121.311536,23.706296],[121.310555,23.706285],[121.310456,23.706374],[121.310552,23.706556],[121.310846,23.706559],[121.310845,23.70665],[121.31114,23.706563],[121.311236,23.706744],[121.311728,23.706569],[121.311824,23.706751],[121.312216,23.706755],[121.312215,23.706845],[121.312608,23.706759],[121.312705,23.706851]]],[[[121.300333,23.70807],[121.300628,23.707983],[121.300919,23.708257],[121.301116,23.708169],[121.300729,23.707803],[121.30063,23.707892],[121.300533,23.707801],[121.300433,23.70789],[121.29965,23.707791],[121.299362,23.707337],[121.298872,23.707331],[121.298772,23.70742],[121.298966,23.707603],[121.298865,23.707873],[121.299158,23.707966],[121.299155,23.708147],[121.299349,23.70833],[121.299546,23.708242],[121.29955,23.707971],[121.299843,23.708064],[121.29984,23.708245],[121.300034,23.708428],[121.30023,23.70843],[121.300333,23.70807]]],[[[121.30137,23.711332],[121.301175,23.711239],[121.301081,23.710877],[121.300596,23.710511],[121.300598,23.71033],[121.300404,23.710147],[121.300208,23.710145],[121.300114,23.709873],[121.299726,23.709508],[121.299432,23.709504],[121.299337,23.709233],[121.299142,23.70914],[121.299043,23.709229],[121.299138,23.709501],[121.299623,23.709868],[121.29962,23.710139],[121.299522,23.710138],[121.29942,23.710407],[121.299615,23.7105],[121.299715,23.71032],[121.299912,23.710322],[121.300299,23.710688],[121.300593,23.710691],[121.300686,23.711144],[121.300979,23.711237],[121.301171,23.71151],[121.30137,23.711332]]],[[[121.301526,23.714404],[121.301528,23.714223],[121.301727,23.714045],[121.301731,23.713684],[121.302029,23.713416],[121.302034,23.713055],[121.301936,23.713054],[121.301842,23.712691],[121.301454,23.712416],[121.301456,23.712236],[121.301163,23.712142],[121.301061,23.712412],[121.300864,23.7125],[121.300959,23.712772],[121.30076,23.71295],[121.300757,23.713221],[121.300855,23.713222],[121.300851,23.713493],[121.300949,23.713494],[121.301043,23.713857],[121.301238,23.713949],[121.301234,23.71422],[121.301136,23.714219],[121.301033,23.714579],[121.301326,23.714672],[121.301428,23.714403],[121.301526,23.714404]]],[[[121.29904,23.716995],[121.299436,23.716728],[121.299341,23.716547],[121.298946,23.716723],[121.29904,23.716995]]],[[[121.300081,23.719986],[121.300179,23.719987],[121.300176,23.720168],[121.299879,23.720436],[121.300074,23.720528],[121.300272,23.72035],[121.300368,23.720531],[121.300564,23.720533],[121.300668,23.720083],[121.300474,23.7199],[121.300574,23.719721],[121.300476,23.71972],[121.300286,23.719266],[121.299988,23.719534],[121.300084,23.719715],[121.30028,23.719718],[121.300081,23.719986]],[[121.300279,23.719808],[121.300376,23.719899],[121.300278,23.719898],[121.300279,23.719808]]],[[[121.300047,23.722605],[121.300245,23.722426],[121.299952,23.722333],[121.299954,23.722152],[121.300052,23.722153],[121.300155,23.721793],[121.300352,23.721705],[121.300361,23.721073],[121.30046,23.720984],[121.300169,23.72071],[121.299972,23.720798],[121.299974,23.720617],[121.299779,23.720525],[121.299678,23.720795],[121.29938,23.721062],[121.299269,23.722054],[121.299367,23.722055],[121.299458,23.722598],[121.299749,23.722872],[121.299945,23.722874],[121.300047,23.722605]]],[[[121.302966,23.724352],[121.30316,23.724535],[121.303455,23.724448],[121.303262,23.724265],[121.303269,23.723724],[121.303564,23.723637],[121.303568,23.723366],[121.303373,23.723273],[121.303375,23.723093],[121.303668,23.723186],[121.303767,23.723097],[121.303773,23.722646],[121.304067,23.722649],[121.304366,23.722291],[121.304269,23.722199],[121.303779,23.722194],[121.303778,23.722284],[121.302798,23.722183],[121.302799,23.722093],[121.302506,23.722],[121.302509,23.721819],[121.302314,23.721727],[121.302316,23.721546],[121.302025,23.721272],[121.302034,23.72064],[121.302132,23.720641],[121.30224,23.719829],[121.302338,23.719831],[121.302145,23.719648],[121.301946,23.719826],[121.301843,23.720186],[121.301745,23.720185],[121.301537,23.721086],[121.302119,23.721634],[121.302308,23.722178],[121.302503,23.72227],[121.302499,23.722541],[121.302596,23.722633],[121.302892,23.722546],[121.302984,23.722998],[121.302788,23.722996],[121.302497,23.722722],[121.302295,23.723171],[121.302,23.723258],[121.301995,23.723619],[121.30248,23.724076],[121.302475,23.724437],[121.302669,23.72462],[121.302865,23.724622],[121.302966,23.724352]],[[121.302795,23.722454],[121.302894,23.722365],[121.302893,23.722455],[121.302795,23.722454]]],[[[121.304944,23.72311],[121.304943,23.7232],[121.304748,23.723108],[121.304548,23.723376],[121.304645,23.723468],[121.305135,23.723473],[121.305237,23.723203],[121.304944,23.72311]]],[[[121.306017,23.723573],[121.306215,23.723395],[121.30612,23.723213],[121.305923,23.723211],[121.305823,23.72339],[121.305726,23.723299],[121.305235,23.723384],[121.305622,23.723749],[121.305821,23.723571],[121.306017,23.723573]]],[[[121.301772,23.725694],[121.301966,23.725876],[121.302065,23.725787],[121.301972,23.725425],[121.302071,23.725336],[121.302364,23.725429],[121.302562,23.725251],[121.302565,23.72507],[121.302663,23.725071],[121.302568,23.724799],[121.302372,23.724797],[121.302272,23.724977],[121.301881,23.724882],[121.301781,23.724971],[121.301878,23.725063],[121.301775,23.725423],[121.301579,23.725421],[121.301193,23.724965],[121.300898,23.725052],[121.300894,23.725323],[121.301283,23.725598],[121.301184,23.725687],[121.301279,23.725869],[121.301772,23.725694]]]]}},{"type":"Feature","properties":{"kind":"bare_dam","month":"2023-02","area_ha":13.3},"geometry":{"type":"MultiPolygon","coordinates":[[[[121.303676,23.692214],[121.303969,23.692307],[121.304168,23.692129],[121.30456,23.692133],[121.30466,23.691953],[121.304269,23.691859],[121.304268,23.691949],[121.303875,23.692035],[121.303876,23.691945],[121.303485,23.69185],[121.303585,23.691671],[121.30339,23.691578],[121.303091,23.691936],[121.303285,23.692119],[121.303481,23.692121],[121.303577,23.692303],[121.303676,23.692214]]],[[[121.300335,23.692809],[121.300337,23.692628],[121.299849,23.692443],[121.299463,23.691987],[121.299069,23.692073],[121.29917,23.691893],[121.298877,23.6918],[121.298882,23.691439],[121.299078,23.691441],[121.299173,23.691622],[121.299665,23.691537],[121.299767,23.691177],[121.299865,23.691178],[121.300058,23.691452],[121.300254,23.691454],[121.300255,23.691363],[121.301236,23.691374],[121.301235,23.691464],[121.301529,23.691468],[121.301527,23.691558],[121.302214,23.691565],[121.302408,23.691748],[121.3028,23.691752],[121.302801,23.691662],[121.303094,23.691756],[121.303194,23.691576],[121.303097,23.691485],[121.302802,23.691572],[121.302608,23.691389],[121.302314,23.691386],[121.302122,23.691113],[121.301925,23.691111],[121.301732,23.690928],[121.301633,23.691017],[121.301045,23.690921],[121.300464,23.690372],[121.300467,23.690192],[121.300664,23.690104],[121.30076,23.690285],[121.301054,23.690289],[121.301055,23.690198],[121.301446,23.690293],[121.301546,23.690113],[121.301155,23.690019],[121.301156,23.689928],[121.300862,23.689925],[121.300668,23.689743],[121.300472,23.68974],[121.300471,23.689831],[121.300374,23.689739],[121.299492,23.68973],[121.299392,23.689909],[121.299097,23.689906],[121.299002,23.689724],[121.298708,23.689721],[121.298607,23.6899],[121.298117,23.689895],[121.297818,23.690253],[121.298207,23.690528],[121.2983,23.69089],[121.298691,23.690985],[121.298592,23.691074],[121.298685,23.691436],[121.298392,23.691343],[121.298291,23.691613],[121.29858,23.691977],[121.298575,23.692429],[121.298769,23.692521],[121.298761,23.693153],[121.298859,23.693154],[121.29876,23.693243],[121.298754,23.693695],[121.299045,23.693969],[121.299436,23.694063],[121.299435,23.694154],[121.299828,23.694068],[121.299927,23.693978],[121.299937,23.693256],[121.300233,23.693079],[121.300137,23.692897],[121.300335,23.692809]],[[121.300137,23.692897],[121.30004,23.692806],[121.300139,23.692807],[121.300137,23.692897]],[[121.299247,23.693519],[121.299445,23.693341],[121.299443,23.693522],[121.299247,23.693519]],[[121.299646,23.692982],[121.299547,23.693071],[121.299548,23.692981],[121.299646,23.692982]],[[121.300458,23.690824],[121.300359,23.690913],[121.30036,23.690823],[121.300458,23.690824]],[[121.300066,23.69082],[121.299774,23.690636],[121.299874,23.690546],[121.29978,23.690184],[121.300269,23.69028],[121.300267,23.690461],[121.30007,23.690549],[121.300066,23.69082]],[[121.299676,23.690635],[121.29948,23.690632],[121.299481,23.690542],[121.299678,23.690544],[121.299676,23.690635]]],[[[121.304822,23.694574],[121.304824,23.694484],[121.30492,23.694575],[121.305118,23.694487],[121.305023,23.694215],[121.304631,23.694211],[121.304333,23.694478],[121.304429,23.69466],[121.304822,23.694574]]],[[[121.303626,23.696096],[121.303923,23.695919],[121.303827,23.695737],[121.304221,23.695561],[121.304225,23.69529],[121.304515,23.695564],[121.304912,23.695207],[121.305015,23.694847],[121.305212,23.694759],[121.305117,23.694577],[121.304819,23.694845],[121.304624,23.694752],[121.304522,23.695022],[121.304426,23.694931],[121.304228,23.695019],[121.304036,23.694746],[121.303838,23.694834],[121.303933,23.695106],[121.303736,23.695194],[121.303731,23.695555],[121.303433,23.695823],[121.303626,23.696096]]],[[[121.302835,23.696629],[121.303135,23.696181],[121.303039,23.695999],[121.302841,23.696178],[121.302644,23.696175],[121.302148,23.696622],[121.302146,23.696802],[121.301749,23.697159],[121.301747,23.69734],[121.301942,23.697432],[121.302239,23.697164],[121.302434,23.697257],[121.302536,23.696987],[121.302929,23.696901],[121.303028,23.696812],[121.302835,23.696629]],[[121.302239,23.697164],[121.302143,23.697073],[121.302241,23.697074],[121.302239,23.697164]],[[121.302835,23.696629],[121.302735,23.696718],[121.302737,23.696628],[121.302835,23.696629]]],[[[121.298702,23.697758],[121.298803,23.697488],[121.299292,23.697583],[121.299291,23.697674],[121.299487,23.697676],[121.299587,23.697496],[121.299295,23.697403],[121.299299,23.697042],[121.299105,23.696859],[121.298516,23.696943],[121.298323,23.69667],[121.298029,23.696667],[121.297928,23.696936],[121.298316,23.697212],[121.298407,23.697754],[121.298504,23.697846],[121.298702,23.697758]]],[[[121.300951,23.698234],[121.301346,23.697967],[121.301349,23.697787],[121.301056,23.697693],[121.301057,23.697603],[121.300859,23.697781],[121.300466,23.697777],[121.300465,23.697867],[121.299878,23.69777],[121.299481,23.698127],[121.299577,23.698309],[121.300951,23.698234]]]]}},{"type":"Feature","properties":{"kind":"water","month":"2023-02","area_ha":7.05},"geometry":{"type":"MultiPolygon","coordinates":[[[[121.30691,23.692339],[121.307012,23.69207],[121.306621,23.691975],[121.306517,23.692425],[121.30691,23.692339]]],[[[121.297762,23.694587],[121.297761,23.694677],[121.297565,23.694675],[121.29756,23.695036],[121.297659,23.694947],[121.297952,23.69504],[121.298055,23.69468],[121.297762,23.694587]]],[[[121.298246,23.695044],[121.298249,23.694863],[121.298054,23.694771],[121.298052,23.694951],[121.298246,23.695044]]],[[[121.297658,23.695037],[121.297656,23.695218],[121.297754,23.695219],[121.297756,23.695038],[121.297658,23.695037]]],[[[121.298524,23.696311],[121.298719,23.696403],[121.298721,23.696223],[121.29882,23.696224],[121.298828,23.695592],[121.29863,23.69568],[121.298732,23.69541],[121.29844,23.695226],[121.298541,23.695047],[121.298346,23.694954],[121.298343,23.695135],[121.29805,23.695041],[121.298047,23.695312],[121.298242,23.695405],[121.298239,23.695585],[121.298141,23.695584],[121.298139,23.695765],[121.297944,23.695672],[121.297941,23.695943],[121.298137,23.695945],[121.298134,23.696126],[121.29833,23.696128],[121.298231,23.696217],[121.298323,23.69667],[121.298421,23.696671],[121.298524,23.696311]]],[[[121.298909,23.696857],[121.298815,23.696585],[121.29852,23.696672],[121.298516,23.696943],[121.298909,23.696857]]],[[[121.298364,23.701095],[121.298461,23.701186],[121.298658,23.701098],[121.298753,23.70137],[121.298852,23.701281],[121.299243,23.701375],[121.299151,23.700923],[121.299053,23.700922],[121.299157,23.700472],[121.298962,23.700379],[121.298966,23.700018],[121.298772,23.699926],[121.298777,23.699474],[121.298679,23.699473],[121.298682,23.699292],[121.298877,23.699385],[121.298787,23.698752],[121.299878,23.69777],[121.300074,23.697773],[121.300073,23.697863],[121.300859,23.697781],[121.30096,23.697511],[121.300079,23.697411],[121.30008,23.697321],[121.299882,23.6975],[121.299686,23.697497],[121.299585,23.697677],[121.298803,23.697488],[121.2987,23.697848],[121.298307,23.697934],[121.298301,23.698385],[121.297904,23.698742],[121.297797,23.699463],[121.297601,23.699461],[121.297598,23.699642],[121.2974,23.69982],[121.297889,23.699916],[121.297883,23.700367],[121.29798,23.700459],[121.298078,23.70046],[121.298082,23.700189],[121.29818,23.70019],[121.298174,23.700641],[121.29837,23.700643],[121.298364,23.701095]],[[121.299059,23.70047],[121.298959,23.70056],[121.298961,23.700469],[121.299059,23.70047]],[[121.29818,23.70019],[121.298279,23.700101],[121.298278,23.700191],[121.29818,23.70019]],[[121.298763,23.700558],[121.298567,23.700555],[121.298568,23.700465],[121.298764,23.700467],[121.298763,23.700558]],[[121.297995,23.699285],[121.297896,23.699374],[121.297897,23.699284],[121.297995,23.699285]]],[[[121.311584,23.687334],[121.312076,23.687158],[121.312171,23.68743],[121.312367,23.687432],[121.312273,23.68707],[121.312175,23.687069],[121.312179,23.686798],[121.311785,23.686884],[121.311881,23.687066],[121.311488,23.687152],[121.311384,23.687602],[121.311581,23.687514],[121.311584,23.687334]]],[[[121.310985,23.68814],[121.311082,23.688231],[121.311083,23.688141],[121.310985,23.68814]]],[[[121.310984,23.68823],[121.310786,23.688318],[121.310785,23.688408],[121.310981,23.688411],[121.310984,23.68823]]],[[[121.310292,23.688674],[121.310685,23.688588],[121.310785,23.688408],[121.310393,23.688404],[121.310292,23.688674]]],[[[121.30859,23.691364],[121.308885,23.691277],[121.308788,23.691186],[121.308888,23.691097],[121.308895,23.690555],[121.308798,23.690464],[121.308602,23.690462],[121.308598,23.690732],[121.3085,23.690731],[121.308497,23.691002],[121.308595,23.691003],[121.308493,23.691273],[121.30859,23.691364]]],[[[121.308295,23.691451],[121.308099,23.691449],[121.307997,23.691719],[121.307506,23.691804],[121.307502,23.692075],[121.3076,23.692076],[121.307603,23.691895],[121.308093,23.691901],[121.308193,23.691721],[121.308389,23.691723],[121.308392,23.691543],[121.30859,23.691364],[121.308395,23.691272],[121.308295,23.691451]]]]}}]}