{"type":"FeatureCollection","features":[{"type":"Feature","properties":{"kind":"bare_slide","month":"2023-04","area_ha":176.63},"geometry":{"type":"MultiPolygon","coordinates":[[[[121.298785,23.706427],[121.299083,23.70616],[121.299197,23.704897],[121.299395,23.704809],[121.299697,23.70418],[121.299599,23.704179],[121.299605,23.703727],[121.299217,23.703362],[121.299224,23.70282],[121.299126,23.702819],[121.299133,23.702277],[121.299035,23.702276],[121.299042,23.701734],[121.29914,23.701736],[121.299243,23.701375],[121.298753,23.70137],[121.298657,23.701188],[121.297971,23.701181],[121.298063,23.701633],[121.298161,23.701634],[121.298055,23.702265],[121.298153,23.702266],[121.298149,23.702537],[121.298247,23.702538],[121.298243,23.7029],[121.298341,23.702901],[121.298337,23.703172],[121.298532,23.703264],[121.298529,23.703535],[121.298819,23.703809],[121.299015,23.703811],[121.299013,23.703992],[121.299111,23.703993],[121.299103,23.704625],[121.299005,23.704624],[121.298798,23.705434],[121.298014,23.705425],[121.297518,23.705871],[121.297811,23.705965],[121.297906,23.706147],[121.298495,23.706153],[121.298489,23.706605],[121.298586,23.706696],[121.298783,23.706608],[121.298785,23.706427]],[[121.299019,23.70354],[121.298922,23.703449],[121.29902,23.70345],[121.299019,23.70354]]],[[[121.292006,23.707436],[121.292303,23.707168],[121.292406,23.706808],[121.292017,23.706533],[121.29162,23.70689],[121.291616,23.707251],[121.291809,23.707434],[121.292006,23.707436]]],[[[121.29887,23.707421],[121.29858,23.707147],[121.298582,23.706967],[121.29868,23.706968],[121.298586,23.706696],[121.298387,23.706874],[121.298192,23.706782],[121.297994,23.70696],[121.297991,23.707141],[121.298088,23.707232],[121.298384,23.707145],[121.298575,23.707508],[121.29887,23.707421]]],[[[121.299252,23.708238],[121.299447,23.708331],[121.29955,23.707971],[121.299648,23.707972],[121.300034,23.708428],[121.30023,23.70843],[121.300432,23.70798],[121.29965,23.707791],[121.299362,23.707337],[121.299263,23.707426],[121.29897,23.707332],[121.29887,23.707421],[121.298868,23.707602],[121.298966,23.707603],[121.298865,23.707873],[121.299158,23.707966],[121.299252,23.708238]],[[121.299158,23.707966],[121.299257,23.707877],[121.299256,23.707967],[121.299158,23.707966]]],[[[121.297338,23.71219],[121.29773,23.712195],[121.297831,23.711925],[121.298227,23.711658],[121.298335,23.710937],[121.298433,23.710938],[121.298441,23.710306],[121.297955,23.70994],[121.297958,23.709759],[121.297764,23.709576],[121.297471,23.709483],[121.297577,23.708852],[121.297775,23.708674],[121.29797,23.708766],[121.298072,23.708496],[121.29817,23.708497],[121.298174,23.708226],[121.29798,23.708044],[121.298079,23.707955],[121.298086,23.707413],[121.297989,23.707321],[121.297791,23.7075],[121.297398,23.707496],[121.297003,23.707762],[121.297098,23.707944],[121.297198,23.707855],[121.297295,23.707946],[121.297786,23.707861],[121.297882,23.708043],[121.297784,23.708042],[121.297778,23.708493],[121.297484,23.70849],[121.297186,23.708757],[121.297181,23.709119],[121.296788,23.709205],[121.296982,23.709387],[121.296979,23.709568],[121.297173,23.709751],[121.297369,23.709753],[121.297269,23.709932],[121.297464,23.710025],[121.297654,23.710478],[121.297946,23.710662],[121.297843,23.711022],[121.297745,23.711021],[121.297738,23.711563],[121.296656,23.711822],[121.296749,23.712184],[121.296848,23.712095],[121.297339,23.7121],[121.297338,23.71219]]],[[[121.29838,23.715001],[121.298186,23.714818],[121.29819,23.714548],[121.298288,23.714549],[121.298194,23.714186],[121.297999,23.714094],[121.297801,23.714272],[121.297803,23.714092],[121.298002,23.713913],[121.297613,23.713638],[121.297209,23.714537],[121.297502,23.71463],[121.297501,23.714721],[121.297795,23.714724],[121.298181,23.71518],[121.29838,23.715001]],[[121.297995,23.714455],[121.297898,23.714364],[121.297996,23.714365],[121.297995,23.714455]]],[[[121.283959,23.715293],[121.284057,23.715294],[121.28406,23.715114],[121.284355,23.715027],[121.284357,23.714846],[121.284066,23.714662],[121.284069,23.714392],[121.284567,23.713855],[121.284472,23.713583],[121.284274,23.713762],[121.283979,23.713758],[121.282987,23.71465],[121.282981,23.715102],[121.283175,23.715285],[121.283371,23.715287],[121.283563,23.71556],[121.283858,23.715563],[121.283959,23.715293]]],[[[121.287893,23.714434],[121.287696,23.714522],[121.287791,23.714794],[121.287988,23.714706],[121.287893,23.714434]]],[[[121.286903,23.715145],[121.286609,23.715142],[121.286712,23.714782],[121.28642,23.714598],[121.286319,23.714868],[121.286514,23.71496],[121.286511,23.715141],[121.286314,23.715229],[121.286312,23.71541],[121.285919,23.715405],[121.285819,23.715585],[121.285327,23.71567],[121.285128,23.715938],[121.284734,23.716024],[121.284633,23.716294],[121.284337,23.716381],[121.284233,23.716831],[121.284035,23.71701],[121.283839,23.717008],[121.283243,23.717543],[121.283335,23.717995],[121.283237,23.717994],[121.283135,23.718354],[121.283426,23.718538],[121.283424,23.718719],[121.283128,23.718896],[121.283124,23.719167],[121.282634,23.719161],[121.282534,23.719251],[121.282824,23.719615],[121.282526,23.719883],[121.281935,23.720057],[121.281737,23.720235],[121.281732,23.720596],[121.282023,23.72087],[121.28281,23.720699],[121.283008,23.72052],[121.283011,23.72034],[121.283207,23.720342],[121.283405,23.720163],[121.283607,23.719714],[121.284002,23.719538],[121.284005,23.719267],[121.284498,23.719092],[121.28411,23.718726],[121.284113,23.718546],[121.284308,23.718638],[121.284408,23.718459],[121.28431,23.718458],[121.284314,23.718187],[121.284022,23.718003],[121.284122,23.717824],[121.283927,23.717731],[121.284225,23.717463],[121.284419,23.717646],[121.284318,23.717826],[121.284513,23.717918],[121.284511,23.718099],[121.284802,23.718373],[121.285195,23.718287],[121.285389,23.71847],[121.284693,23.719184],[121.28479,23.719276],[121.285183,23.71919],[121.285181,23.71937],[121.285375,23.719553],[121.285271,23.720003],[121.285466,23.720096],[121.285168,23.720363],[121.285163,23.720725],[121.284966,23.720813],[121.28506,23.721085],[121.284864,23.721082],[121.284865,23.720992],[121.284668,23.72108],[121.284764,23.721262],[121.284567,23.72135],[121.284563,23.721621],[121.284465,23.72162],[121.284362,23.72198],[121.284066,23.722157],[121.284063,23.722338],[121.284354,23.722612],[121.284551,23.722524],[121.284454,23.722432],[121.284557,23.722072],[121.284655,23.722073],[121.28475,23.722345],[121.285145,23.722079],[121.285143,23.722259],[121.284945,23.722438],[121.285043,23.722439],[121.285039,23.72271],[121.285233,23.722893],[121.285527,23.722896],[121.285623,23.723077],[121.286016,23.722992],[121.286015,23.723082],[121.286503,23.723268],[121.287002,23.722641],[121.287098,23.722733],[121.287394,23.722646],[121.287499,23.722105],[121.287597,23.722106],[121.287503,23.721834],[121.287993,23.72184],[121.288089,23.722021],[121.288188,23.721932],[121.288481,23.722026],[121.28888,23.721488],[121.288978,23.721489],[121.289072,23.721851],[121.289562,23.721857],[121.28976,23.721679],[121.290055,23.721682],[121.290051,23.721953],[121.289457,23.722398],[121.289454,23.722578],[121.289258,23.722576],[121.288364,23.723469],[121.28797,23.723555],[121.287864,23.724186],[121.287962,23.724187],[121.288056,23.724549],[121.28835,23.724552],[121.28845,23.724373],[121.288646,23.724375],[121.289044,23.723928],[121.289041,23.724199],[121.288743,23.724467],[121.288741,23.724647],[121.289229,23.724833],[121.289228,23.724923],[121.289424,23.724926],[121.289525,23.724656],[121.289817,23.72484],[121.289918,23.72466],[121.289627,23.724386],[121.28973,23.724026],[121.289928,23.723848],[121.290221,23.723941],[121.289922,23.724299],[121.290116,23.724482],[121.290414,23.724214],[121.29061,23.724216],[121.290712,23.723946],[121.290909,23.723858],[121.290904,23.72422],[121.291002,23.724221],[121.290898,23.724671],[121.290702,23.724669],[121.290402,23.725117],[121.290891,23.725213],[121.290889,23.725393],[121.290495,23.725479],[121.290688,23.725752],[121.291275,23.725849],[121.291378,23.725489],[121.291476,23.72549],[121.29148,23.725219],[121.291286,23.725036],[121.291582,23.724859],[121.291776,23.725042],[121.291676,23.725221],[121.291773,23.725313],[121.29197,23.725225],[121.291972,23.725044],[121.29207,23.725045],[121.291981,23.724412],[121.292179,23.724234],[121.292185,23.723782],[121.292577,23.723787],[121.292868,23.724061],[121.29266,23.724961],[121.293051,23.725056],[121.293048,23.725327],[121.292948,23.725416],[121.292458,23.725411],[121.292457,23.725501],[121.292164,23.725407],[121.292064,23.725497],[121.292161,23.725588],[121.292158,23.725859],[121.29206,23.725858],[121.292154,23.72613],[121.292939,23.726138],[121.293237,23.725871],[121.29343,23.726053],[121.293231,23.726322],[121.293525,23.726325],[121.293527,23.726145],[121.29392,23.726149],[121.293922,23.725969],[121.29451,23.725975],[121.294513,23.725794],[121.294611,23.725796],[121.294517,23.725433],[121.294813,23.725346],[121.294913,23.725167],[121.295109,23.725169],[121.295107,23.72535],[121.29491,23.725438],[121.294906,23.725708],[121.294808,23.725707],[121.294903,23.725979],[121.295687,23.725988],[121.296173,23.726355],[121.296762,23.726271],[121.296759,23.726542],[121.296953,23.726724],[121.297149,23.726726],[121.297347,23.726548],[121.29735,23.726368],[121.297059,23.726093],[121.296863,23.726091],[121.296774,23.725368],[121.297071,23.725191],[121.297172,23.724921],[121.297367,23.725013],[121.297863,23.724567],[121.297869,23.724116],[121.297674,23.724023],[121.297375,23.724381],[121.296983,23.724377],[121.296785,23.724555],[121.296689,23.724374],[121.296988,23.724016],[121.296991,23.723745],[121.296698,23.723651],[121.296596,23.724011],[121.296399,23.724009],[121.296299,23.724189],[121.296005,23.724186],[121.296112,23.723464],[121.295819,23.723371],[121.295725,23.723099],[121.295429,23.723186],[121.295236,23.723003],[121.295244,23.722371],[121.295541,23.722104],[121.295738,23.722106],[121.295936,23.721927],[121.295938,23.721747],[121.296332,23.721661],[121.296432,23.721481],[121.296723,23.721755],[121.296923,23.721487],[121.297119,23.721489],[121.297317,23.72131],[121.297221,23.721129],[121.297122,23.721218],[121.296829,23.721124],[121.29693,23.720945],[121.297323,23.720859],[121.297129,23.720676],[121.297133,23.720405],[121.297231,23.720406],[121.297134,23.720315],[121.297145,23.719503],[121.297243,23.719504],[121.297149,23.719141],[121.297052,23.71905],[121.296561,23.719135],[121.296558,23.719315],[121.29685,23.719499],[121.296848,23.71968],[121.296651,23.719768],[121.296348,23.720397],[121.296639,23.720671],[121.296541,23.72067],[121.296439,23.72094],[121.296046,23.721026],[121.295647,23.721563],[121.295254,23.721559],[121.295255,23.721468],[121.294862,23.721554],[121.294866,23.721283],[121.294573,23.72119],[121.294574,23.7211],[121.294474,23.721189],[121.294378,23.721097],[121.29369,23.72118],[121.293594,23.720998],[121.293005,23.721082],[121.292814,23.720629],[121.292618,23.720627],[121.29242,23.720805],[121.292032,23.720439],[121.291835,23.720528],[121.291633,23.720977],[121.29114,23.721152],[121.291053,23.720338],[121.290762,23.720064],[121.290864,23.719794],[121.290962,23.719796],[121.290965,23.719525],[121.291063,23.719526],[121.291071,23.718984],[121.29117,23.718895],[121.291758,23.718901],[121.291759,23.718811],[121.291953,23.718994],[121.29215,23.718906],[121.292153,23.718725],[121.29186,23.718632],[121.291768,23.718179],[121.291866,23.71818],[121.29197,23.71773],[121.292167,23.717642],[121.292169,23.717461],[121.292267,23.717462],[121.292264,23.717733],[121.292557,23.717827],[121.292661,23.717376],[121.292368,23.717283],[121.292472,23.716832],[121.292277,23.71674],[121.291974,23.717369],[121.291483,23.717454],[121.291086,23.71781],[121.290792,23.717807],[121.290599,23.717534],[121.290012,23.717437],[121.290014,23.717257],[121.290211,23.717169],[121.290117,23.716897],[121.290411,23.7169],[121.29061,23.716721],[121.290613,23.716451],[121.291106,23.716275],[121.291304,23.716097],[121.291307,23.715916],[121.291702,23.71565],[121.291705,23.715469],[121.291999,23.715473],[121.292099,23.715293],[121.292197,23.715294],[121.292292,23.715566],[121.292785,23.715391],[121.292786,23.715301],[121.292982,23.715303],[121.293076,23.715575],[121.293568,23.71549],[121.293569,23.7154],[121.293961,23.715404],[121.29386,23.715674],[121.293762,23.715673],[121.293855,23.716035],[121.294247,23.716039],[121.294248,23.715949],[121.294544,23.715862],[121.294547,23.715591],[121.29494,23.715595],[121.295035,23.715777],[121.295231,23.715779],[121.295228,23.71605],[121.295423,23.716142],[121.295526,23.715782],[121.295331,23.71569],[121.295333,23.715509],[121.295139,23.715327],[121.294943,23.715325],[121.294849,23.715053],[121.294456,23.715048],[121.294258,23.715227],[121.294062,23.715224],[121.294063,23.715134],[121.294361,23.714867],[121.294557,23.714869],[121.294756,23.7146],[121.294952,23.714602],[121.295349,23.714245],[121.295352,23.714065],[121.295942,23.713891],[121.295947,23.71353],[121.296246,23.713172],[121.296255,23.712449],[121.29606,23.712357],[121.295862,23.712535],[121.295957,23.712807],[121.295659,23.713075],[121.295267,23.713071],[121.294969,23.713338],[121.294677,23.713154],[121.294574,23.713514],[121.294181,23.7136],[121.293883,23.713868],[121.293589,23.713865],[121.293191,23.714312],[121.292311,23.714122],[121.29221,23.714301],[121.292405,23.714394],[121.292403,23.714574],[121.292204,23.714753],[121.292008,23.71475],[121.292012,23.714479],[121.291914,23.714478],[121.29182,23.714116],[121.291622,23.714295],[121.29123,23.71429],[121.291231,23.7142],[121.290936,23.714287],[121.290451,23.71383],[121.290454,23.71365],[121.290259,23.713557],[121.290173,23.712563],[121.290075,23.712562],[121.29008,23.712201],[121.290276,23.712203],[121.290476,23.711934],[121.289792,23.711746],[121.289794,23.711565],[121.29009,23.711478],[121.289996,23.711116],[121.289603,23.711202],[121.289409,23.711019],[121.289307,23.711289],[121.288915,23.711285],[121.288918,23.711104],[121.289114,23.711106],[121.289312,23.710928],[121.289022,23.710654],[121.288625,23.711011],[121.288621,23.711282],[121.288224,23.711638],[121.28793,23.711635],[121.28783,23.711815],[121.287535,23.711811],[121.287435,23.711991],[121.287141,23.711988],[121.28704,23.712167],[121.286844,23.712165],[121.28684,23.712526],[121.286938,23.712527],[121.286836,23.712797],[121.286934,23.712798],[121.287029,23.71307],[121.287421,23.713074],[121.287517,23.713256],[121.287713,23.713258],[121.28771,23.713439],[121.288,23.713803],[121.288295,23.713716],[121.288297,23.713535],[121.288199,23.713534],[121.2883,23.713355],[121.288593,23.713448],[121.288588,23.71381],[121.288782,23.713992],[121.288978,23.713994],[121.288876,23.714264],[121.288974,23.714265],[121.289063,23.714989],[121.288867,23.714987],[121.288771,23.714805],[121.288672,23.714894],[121.288477,23.714802],[121.288476,23.714892],[121.288082,23.714978],[121.287889,23.714795],[121.287787,23.715065],[121.286905,23.715055],[121.286903,23.715145]],[[121.293191,23.714312],[121.293288,23.714403],[121.29319,23.714402],[121.293191,23.714312]],[[121.293248,23.724968],[121.293346,23.724969],[121.293344,23.725149],[121.293246,23.725148],[121.293248,23.724968]],[[121.294817,23.724985],[121.294719,23.724984],[121.294624,23.724802],[121.29482,23.724805],[121.294817,23.724985]],[[121.291299,23.724043],[121.291201,23.724042],[121.291112,23.723319],[121.291311,23.72314],[121.291507,23.723143],[121.2916,23.723505],[121.291698,23.723506],[121.291695,23.723777],[121.291793,23.723778],[121.291788,23.724139],[121.29169,23.724138],[121.291587,23.724498],[121.291196,23.724403],[121.291299,23.724043]],[[121.289333,23.724383],[121.289432,23.724294],[121.289431,23.724384],[121.289333,23.724383]],[[121.289436,23.724023],[121.289535,23.723933],[121.289534,23.724024],[121.289436,23.724023]],[[121.289046,23.723838],[121.289145,23.723749],[121.289144,23.723839],[121.289046,23.723838]],[[121.292093,23.72333],[121.291801,23.723146],[121.291804,23.722875],[121.292003,23.722697],[121.292002,23.722787],[121.292295,23.72288],[121.292292,23.723061],[121.292194,23.72306],[121.292287,23.723512],[121.292187,23.723602],[121.292089,23.723601],[121.292093,23.72333]],[[121.289545,23.723121],[121.289645,23.723032],[121.289643,23.723122],[121.289545,23.723121]],[[121.290038,23.722946],[121.289842,23.722944],[121.289843,23.722853],[121.29004,23.722765],[121.290038,23.722946]],[[121.290336,23.722678],[121.290435,23.722589],[121.290434,23.722679],[121.290336,23.722678]],[[121.291913,23.722063],[121.292208,23.721976],[121.292299,23.722519],[121.292103,23.722517],[121.29191,23.722334],[121.291913,23.722063]],[[121.291325,23.722057],[121.291423,23.722058],[121.29142,23.722239],[121.291322,23.722238],[121.291325,23.722057]],[[121.29054,23.722048],[121.290639,23.721959],[121.290638,23.722049],[121.29054,23.722048]],[[121.28535,23.721449],[121.285644,23.721452],[121.285442,23.721902],[121.285247,23.721809],[121.28535,23.721449]],[[121.288189,23.721842],[121.288288,23.721753],[121.288287,23.721843],[121.288189,23.721842]],[[121.288587,23.721395],[121.288686,23.721305],[121.288685,23.721396],[121.288587,23.721395]],[[121.28565,23.721001],[121.285947,23.720824],[121.286139,23.721097],[121.285843,23.721274],[121.28565,23.721001]],[[121.289278,23.721041],[121.289473,23.721134],[121.289471,23.721314],[121.289178,23.721221],[121.289278,23.721041]],[[121.288988,23.720767],[121.288698,23.720403],[121.288599,23.720492],[121.288012,23.720395],[121.288015,23.720124],[121.288801,23.720043],[121.2888,23.720133],[121.288996,23.720135],[121.288994,23.720316],[121.289284,23.72059],[121.288988,23.720767]],[[121.286348,23.720106],[121.286547,23.719927],[121.286543,23.720198],[121.286738,23.720291],[121.286636,23.72056],[121.28644,23.720558],[121.286446,23.720107],[121.286348,23.720106]],[[121.289778,23.720324],[121.289877,23.720235],[121.289876,23.720325],[121.289778,23.720324]],[[121.282917,23.719977],[121.283016,23.719888],[121.283015,23.719978],[121.282917,23.719977]],[[121.290275,23.719788],[121.290079,23.719786],[121.290182,23.719426],[121.29028,23.719427],[121.290275,23.719788]],[[121.283613,23.719263],[121.283709,23.719444],[121.28351,23.719623],[121.283216,23.719619],[121.283319,23.719259],[121.283613,23.719263]],[[121.285775,23.718925],[121.286072,23.718748],[121.286264,23.719021],[121.285968,23.719198],[121.285775,23.718925]],[[121.286367,23.718661],[121.286566,23.718483],[121.286762,23.718485],[121.286954,23.718758],[121.286558,23.719024],[121.286365,23.718842],[121.286367,23.718661]],[[121.287154,23.718489],[121.28745,23.718312],[121.287644,23.718495],[121.287642,23.718675],[121.287345,23.718853],[121.287152,23.71867],[121.287154,23.718489]],[[121.286369,23.718481],[121.286073,23.718658],[121.285879,23.718475],[121.285881,23.718295],[121.286178,23.718117],[121.286372,23.7183],[121.286369,23.718481]],[[121.28618,23.717937],[121.285987,23.717754],[121.286185,23.717575],[121.286479,23.717579],[121.286574,23.717851],[121.286864,23.718125],[121.286568,23.718302],[121.286375,23.718029],[121.286178,23.718117],[121.28618,23.717937]],[[121.284908,23.717742],[121.285106,23.717564],[121.285203,23.717655],[121.285401,23.717567],[121.285593,23.71784],[121.285099,23.718105],[121.284906,23.717923],[121.284908,23.717742]],[[121.283728,23.718],[121.283827,23.717911],[121.283826,23.718001],[121.283728,23.718]],[[121.285119,23.71657],[121.285316,23.716573],[121.285317,23.716482],[121.28561,23.716576],[121.285713,23.716216],[121.285909,23.716218],[121.28601,23.715948],[121.286208,23.71586],[121.28621,23.715679],[121.286505,23.715592],[121.286502,23.715863],[121.286697,23.715956],[121.286594,23.716316],[121.286398,23.716314],[121.286199,23.716492],[121.285807,23.716488],[121.285703,23.716938],[121.285214,23.716842],[121.285119,23.71657]],[[121.286197,23.716673],[121.286295,23.716674],[121.286293,23.716854],[121.286195,23.716853],[121.286197,23.716673]],[[121.285617,23.716034],[121.285716,23.715945],[121.285715,23.716035],[121.285617,23.716034]],[[121.290625,23.715548],[121.290234,23.715453],[121.290237,23.715182],[121.290535,23.714915],[121.290729,23.715097],[121.290927,23.714919],[121.291123,23.714921],[121.291121,23.715102],[121.291316,23.715194],[121.29131,23.715646],[121.291016,23.715642],[121.290618,23.716089],[121.290422,23.716087],[121.290625,23.715548]],[[121.288177,23.71525],[121.28798,23.715338],[121.288081,23.715068],[121.288569,23.715254],[121.288469,23.715434],[121.288273,23.715431],[121.288177,23.71525]],[[121.289353,23.715353],[121.289452,23.715264],[121.289451,23.715354],[121.289353,23.715353]],[[121.288961,23.715258],[121.289061,23.715169],[121.28906,23.71526],[121.288961,23.715258]],[[121.288987,23.713272],[121.2886,23.712907],[121.288898,23.712639],[121.289189,23.712823],[121.289186,23.713094],[121.288987,23.713272]],[[121.288317,23.712001],[121.288516,23.711822],[121.288712,23.711824],[121.288905,23.712097],[121.288509,23.712364],[121.288315,23.712181],[121.288317,23.712001]]],[[[121.308683,23.706987],[121.30898,23.70672],[121.308786,23.706627],[121.308788,23.706447],[121.308301,23.70617],[121.308503,23.705721],[121.308211,23.705537],[121.308214,23.705357],[121.30861,23.705],[121.30832,23.704726],[121.308124,23.704724],[121.308122,23.704814],[121.307829,23.70472],[121.307631,23.704899],[121.307626,23.70526],[121.307724,23.705261],[121.307611,23.706434],[121.308096,23.70689],[121.308294,23.706712],[121.308392,23.706713],[121.308487,23.706985],[121.308683,23.706987]]],[[[121.310146,23.707635],[121.310443,23.707368],[121.31035,23.707005],[121.310151,23.707184],[121.309955,23.707182],[121.309569,23.706726],[121.30937,23.706904],[121.309174,23.706902],[121.309175,23.706812],[121.308978,23.7069],[121.308975,23.707171],[121.309557,23.707629],[121.310146,23.707635]]],[[[121.30137,23.711332],[121.301175,23.711239],[121.300984,23.710786],[121.300403,23.710238],[121.30011,23.710144],[121.300112,23.709963],[121.299821,23.70978],[121.299726,23.709508],[121.29953,23.709506],[121.299336,23.709323],[121.299139,23.709411],[121.299623,23.709868],[121.299619,23.710229],[121.299421,23.710317],[121.299517,23.710499],[121.299715,23.71032],[121.299912,23.710322],[121.300299,23.710688],[121.300495,23.71069],[121.300689,23.710873],[121.300686,23.711144],[121.300979,23.711237],[121.301171,23.71151],[121.30137,23.711332]]],[[[121.30828,23.715381],[121.308772,23.715296],[121.308868,23.715477],[121.309064,23.71548],[121.309065,23.715389],[121.309652,23.715486],[121.309851,23.715308],[121.309854,23.715037],[121.310051,23.714949],[121.310055,23.714678],[121.310253,23.714499],[121.309861,23.714495],[121.309667,23.714312],[121.30967,23.714132],[121.309475,23.714039],[121.309577,23.713679],[121.309874,23.713502],[121.309783,23.712959],[121.309981,23.712781],[121.31047,23.712876],[121.310573,23.712516],[121.31077,23.712428],[121.310773,23.712247],[121.31107,23.71198],[121.311561,23.711985],[121.311559,23.712075],[121.311952,23.71208],[121.312047,23.712261],[121.312243,23.712263],[121.312247,23.711993],[121.312444,23.711904],[121.312448,23.711634],[121.312645,23.711545],[121.312648,23.711275],[121.312846,23.711186],[121.312849,23.710916],[121.313047,23.710827],[121.313065,23.709383],[121.312676,23.709108],[121.312684,23.708476],[121.311812,23.707653],[121.311912,23.707564],[121.311916,23.707203],[121.311818,23.707202],[121.31192,23.706932],[121.311823,23.706841],[121.311333,23.706836],[121.310946,23.70638],[121.310651,23.706467],[121.310449,23.706916],[121.310938,23.707012],[121.311132,23.707195],[121.31113,23.707375],[121.311324,23.707468],[121.311217,23.708189],[121.311315,23.70819],[121.311406,23.708733],[121.311112,23.708729],[121.311012,23.708909],[121.3115,23.709095],[121.311594,23.709367],[121.311788,23.70955],[121.311984,23.709552],[121.311587,23.709909],[121.311681,23.710271],[121.311383,23.710538],[121.311278,23.711079],[121.310685,23.711434],[121.310976,23.711708],[121.310973,23.711888],[121.310876,23.711797],[121.310582,23.711794],[121.310581,23.711884],[121.310385,23.711882],[121.310386,23.711792],[121.309699,23.711874],[121.309602,23.711783],[121.309601,23.711873],[121.308815,23.711955],[121.308711,23.712405],[121.308809,23.712407],[121.308901,23.712859],[121.308999,23.71286],[121.308996,23.713131],[121.308898,23.71313],[121.308795,23.71349],[121.308306,23.713394],[121.308312,23.712943],[121.30841,23.712944],[121.308612,23.712495],[121.308224,23.712129],[121.307734,23.712124],[121.307736,23.711943],[121.307934,23.711855],[121.307741,23.711582],[121.307251,23.711577],[121.307049,23.712026],[121.306753,23.712113],[121.306751,23.712294],[121.307043,23.712478],[121.307041,23.712658],[121.306744,23.712835],[121.306839,23.713107],[121.306641,23.713196],[121.30654,23.713465],[121.306829,23.71383],[121.306826,23.714101],[121.307311,23.714467],[121.307208,23.714917],[121.30701,23.715006],[121.307007,23.715276],[121.307397,23.715461],[121.307694,23.715194],[121.307989,23.715197],[121.307986,23.715377],[121.307888,23.715376],[121.307984,23.715558],[121.30818,23.71556],[121.30828,23.715381]],[[121.307511,23.714198],[121.307418,23.713836],[121.307616,23.713658],[121.307812,23.71366],[121.308103,23.713934],[121.308099,23.714205],[121.307901,23.714383],[121.307705,23.714381],[121.307511,23.714198]],[[121.312552,23.711183],[121.312554,23.711003],[121.312652,23.711004],[121.31265,23.711184],[121.312552,23.711183]],[[121.312375,23.709646],[121.312278,23.709555],[121.312376,23.709556],[121.312375,23.709646]],[[121.311897,23.708738],[121.311898,23.708648],[121.312094,23.70865],[121.312093,23.70874],[121.311897,23.708738]]],[[[121.301428,23.714403],[121.301526,23.714404],[121.301529,23.714133],[121.301728,23.713954],[121.301731,23.713684],[121.302029,23.713416],[121.302033,23.713145],[121.301935,23.713144],[121.301841,23.712782],[121.301549,23.712598],[121.301552,23.712417],[121.30126,23.712234],[121.300962,23.712501],[121.300852,23.713403],[121.30095,23.713404],[121.301044,23.713766],[121.301239,23.713859],[121.301233,23.71431],[121.301135,23.714309],[121.301033,23.714579],[121.301326,23.714672],[121.301428,23.714403]]],[[[121.302122,23.721363],[121.302024,23.721362],[121.302028,23.721091],[121.30193,23.72109],[121.301934,23.720729],[121.302133,23.720551],[121.302238,23.72001],[121.302043,23.719918],[121.301845,23.720096],[121.30184,23.720457],[121.301641,23.720636],[121.301636,23.721087],[121.301734,23.721088],[121.30173,23.721359],[121.301924,23.721542],[121.302122,23.721363]]],[[[121.299949,23.722604],[121.300047,23.722605],[121.299954,23.722152],[121.300052,23.722153],[121.300056,23.721882],[121.300253,23.721794],[121.30026,23.721252],[121.30036,23.721163],[121.300165,23.721071],[121.300265,23.720891],[121.300168,23.7208],[121.299971,23.720888],[121.299973,23.720708],[121.299778,23.720615],[121.299479,23.720973],[121.29927,23.721964],[121.299465,23.722056],[121.299458,23.722598],[121.299749,23.722872],[121.299946,23.722784],[121.299949,23.722604]]],[[[121.306458,23.727371],[121.306462,23.7271],[121.306658,23.727102],[121.30666,23.726921],[121.306856,23.726923],[121.306859,23.726743],[121.306367,23.726828],[121.306267,23.727007],[121.305973,23.727004],[121.30578,23.726731],[121.305584,23.726729],[121.305293,23.726455],[121.305297,23.726184],[121.305199,23.726183],[121.305795,23.725557],[121.305702,23.725195],[121.306097,23.724928],[121.306294,23.724931],[121.306292,23.725021],[121.30649,23.724933],[121.306394,23.724751],[121.306197,23.724839],[121.306004,23.724566],[121.3065,23.72412],[121.306892,23.724125],[121.306994,23.723855],[121.307391,23.723498],[121.308176,23.723506],[121.308174,23.723597],[121.308567,23.723601],[121.308565,23.723691],[121.308958,23.723696],[121.308959,23.723605],[121.307795,23.722599],[121.307798,23.722328],[121.307217,23.72178],[121.306826,23.721686],[121.306639,23.720961],[121.30625,23.720686],[121.306253,23.720506],[121.305957,23.720593],[121.305765,23.72032],[121.305471,23.720316],[121.305367,23.720767],[121.305074,23.720673],[121.304875,23.720852],[121.304873,23.721032],[121.304675,23.72112],[121.304763,23.721934],[121.304567,23.721932],[121.304373,23.721749],[121.304075,23.722017],[121.303487,23.72201],[121.303387,23.72219],[121.303092,23.722187],[121.30299,23.722547],[121.302892,23.722546],[121.302984,23.722998],[121.302496,23.722812],[121.302394,23.723082],[121.302098,23.723259],[121.302093,23.72362],[121.302191,23.723621],[121.302091,23.723801],[121.302188,23.723892],[121.302385,23.723804],[121.302478,23.724166],[121.302771,23.72426],[121.302769,23.724441],[121.30316,23.724535],[121.303159,23.724625],[121.303455,23.724448],[121.303266,23.723904],[121.303464,23.723816],[121.303466,23.723635],[121.303664,23.723457],[121.303959,23.72346],[121.304346,23.723826],[121.304438,23.724278],[121.304142,23.724456],[121.304138,23.724726],[121.304237,23.724728],[121.304232,23.725089],[121.304134,23.725088],[121.304227,23.72545],[121.304128,23.725539],[121.304323,23.725631],[121.304417,23.725903],[121.304023,23.72608],[121.304019,23.726351],[121.304117,23.726352],[121.304109,23.726984],[121.30401,23.727073],[121.304108,23.727074],[121.3042,23.727526],[121.304685,23.727983],[121.305468,23.728082],[121.305563,23.728354],[121.305855,23.728538],[121.305948,23.7289],[121.30634,23.728904],[121.306357,23.72764],[121.306553,23.727642],[121.306556,23.727372],[121.306458,23.727371]],[[121.304936,23.723742],[121.305524,23.723748],[121.30562,23.72393],[121.305227,23.724016],[121.304936,23.723742]],[[121.30495,23.722658],[121.304754,23.722656],[121.304756,23.722476],[121.304953,23.722388],[121.305056,23.722028],[121.305153,23.722119],[121.305546,23.722033],[121.305642,23.722215],[121.305444,23.722393],[121.305439,23.722754],[121.305142,23.722931],[121.30495,23.722658]]],[[[121.303508,23.72797],[121.303413,23.727698],[121.303119,23.727695],[121.303125,23.727244],[121.30254,23.726966],[121.302448,23.726514],[121.302253,23.726421],[121.302353,23.726242],[121.302158,23.726149],[121.302069,23.725516],[121.302165,23.725608],[121.302363,23.72552],[121.302365,23.725339],[121.302564,23.725161],[121.302469,23.724889],[121.302271,23.725067],[121.302174,23.724976],[121.301487,23.724968],[121.30109,23.725325],[121.301091,23.725235],[121.300797,23.725232],[121.300701,23.72505],[121.300505,23.725048],[121.300508,23.724867],[121.300023,23.72441],[121.299729,23.724407],[121.299728,23.724497],[121.299337,23.724403],[121.299237,23.724492],[121.299332,23.724764],[121.299135,23.724852],[121.29913,23.725213],[121.299423,23.725307],[121.299323,23.725486],[121.299613,23.72576],[121.299908,23.725764],[121.300002,23.726035],[121.299805,23.726124],[121.299801,23.726394],[121.299995,23.726577],[121.300289,23.72658],[121.300288,23.726671],[121.300582,23.726674],[121.300581,23.726764],[121.300975,23.726678],[121.301168,23.726861],[121.30166,23.726776],[121.301557,23.727136],[121.301849,23.72732],[121.301847,23.727501],[121.301945,23.727502],[121.301842,23.727862],[121.302135,23.727955],[121.302134,23.728045],[121.303113,23.728147],[121.303115,23.728056],[121.303508,23.72797]],[[121.302439,23.727236],[121.302341,23.727235],[121.302245,23.727053],[121.302441,23.727056],[121.302439,23.727236]]]]}},{"type":"Feature","properties":{"kind":"bare_dam","month":"2023-04","area_ha":30.35},"geometry":{"type":"MultiPolygon","coordinates":[[[[121.301543,23.690384],[121.30174,23.690296],[121.301644,23.690114],[121.301447,23.690203],[121.301543,23.690384]]],[[[121.301197,23.694354],[121.30149,23.694447],[121.301488,23.694628],[121.301682,23.69481],[121.302075,23.694724],[121.301494,23.694176],[121.301497,23.693905],[121.301303,23.693723],[121.301107,23.693721],[121.301012,23.693539],[121.300815,23.693537],[121.300721,23.693265],[121.300525,23.693263],[121.300527,23.693082],[121.300332,23.69299],[121.300434,23.69272],[121.300141,23.692626],[121.300045,23.692445],[121.299849,23.692443],[121.29956,23.692078],[121.299166,23.692164],[121.299169,23.691984],[121.298877,23.6918],[121.29888,23.691529],[121.29986,23.69163],[121.300058,23.691452],[121.300057,23.691542],[121.300448,23.691636],[121.300548,23.691457],[121.301431,23.691467],[121.301526,23.691648],[121.30192,23.691562],[121.301918,23.691653],[121.302409,23.691658],[121.302408,23.691748],[121.303093,23.691846],[121.303577,23.692303],[121.303676,23.692214],[121.304067,23.692308],[121.304267,23.692039],[121.30417,23.691948],[121.303777,23.692034],[121.303682,23.691762],[121.303488,23.691579],[121.303097,23.691485],[121.303098,23.691395],[121.302705,23.691481],[121.302706,23.69139],[121.302315,23.691296],[121.30222,23.691114],[121.301534,23.691016],[121.301342,23.690743],[121.30095,23.690739],[121.300756,23.690556],[121.300858,23.690286],[121.301348,23.690292],[121.301448,23.690112],[121.301155,23.690019],[121.301156,23.689928],[121.300862,23.689925],[121.300767,23.689744],[121.300472,23.68974],[121.300471,23.689831],[121.300374,23.689739],[121.298708,23.689721],[121.298607,23.6899],[121.298117,23.689895],[121.297522,23.69043],[121.297517,23.690791],[121.297807,23.691156],[121.298101,23.691159],[121.298201,23.69098],[121.298397,23.690982],[121.298395,23.691162],[121.298589,23.691345],[121.298587,23.691435],[121.298292,23.691522],[121.298583,23.691796],[121.29858,23.691977],[121.298286,23.691974],[121.298184,23.692334],[121.298476,23.692427],[121.298472,23.692789],[121.298859,23.693154],[121.298856,23.693425],[121.298758,23.693424],[121.298852,23.693696],[121.298753,23.693785],[121.299241,23.693971],[121.299532,23.694245],[121.29973,23.694067],[121.300024,23.69407],[121.30012,23.694251],[121.300316,23.694254],[121.300417,23.693984],[121.300712,23.693987],[121.300806,23.694259],[121.3011,23.694262],[121.301299,23.694084],[121.301197,23.694354]],[[121.301201,23.694083],[121.301104,23.693991],[121.301202,23.693992],[121.301201,23.694083]],[[121.300124,23.69389],[121.300126,23.6938],[121.300322,23.693802],[121.300321,23.693892],[121.300124,23.69389]],[[121.299345,23.693521],[121.299347,23.69334],[121.299445,23.693341],[121.299443,23.693522],[121.299345,23.693521]],[[121.299765,23.691358],[121.299767,23.691177],[121.299865,23.691178],[121.299863,23.691359],[121.299765,23.691358]]],[[[121.298256,23.694321],[121.298061,23.694229],[121.297961,23.694408],[121.298155,23.694501],[121.298256,23.694321]]],[[[121.298608,23.697395],[121.298902,23.697399],[121.2989,23.697579],[121.299193,23.697673],[121.299289,23.697854],[121.299683,23.697678],[121.299491,23.697405],[121.299295,23.697403],[121.2994,23.696862],[121.299205,23.69677],[121.299207,23.696589],[121.298916,23.696315],[121.298919,23.696135],[121.299017,23.696136],[121.299027,23.695323],[121.298736,23.695139],[121.29874,23.694778],[121.298447,23.694685],[121.298249,23.694863],[121.298251,23.694682],[121.298057,23.6945],[121.297958,23.694589],[121.297665,23.694495],[121.297564,23.694765],[121.297466,23.694764],[121.29746,23.695216],[121.297654,23.695398],[121.297852,23.69522],[121.298144,23.695404],[121.297944,23.695672],[121.297649,23.695759],[121.297646,23.69594],[121.29784,23.696123],[121.297838,23.696303],[121.297639,23.696482],[121.29793,23.696756],[121.297928,23.696936],[121.29822,23.69712],[121.298216,23.697391],[121.29841,23.697574],[121.298608,23.697395]],[[121.298516,23.696943],[121.29832,23.696941],[121.298321,23.69685],[121.298517,23.696853],[121.298516,23.696943]],[[121.298724,23.696042],[121.298625,23.696131],[121.298525,23.696221],[121.298528,23.69604],[121.298724,23.696042]]],[[[121.300084,23.69705],[121.29989,23.696868],[121.299789,23.697047],[121.299984,23.69714],[121.300084,23.69705]]],[[[121.299686,23.697497],[121.29988,23.69759],[121.299781,23.697679],[121.299877,23.697861],[121.299679,23.698039],[121.299482,23.698037],[121.299382,23.698217],[121.299285,23.698125],[121.299186,23.698214],[121.299089,23.698123],[121.298696,23.698209],[121.298601,23.697937],[121.2988,23.697759],[121.298606,23.697576],[121.298409,23.697664],[121.298406,23.697845],[121.298208,23.698023],[121.298203,23.698384],[121.298006,23.698472],[121.298002,23.698743],[121.297904,23.698742],[121.297901,23.699013],[121.297803,23.699012],[121.297798,23.699373],[121.297402,23.69964],[121.297498,23.699821],[121.297791,23.699915],[121.297882,23.700458],[121.299157,23.700472],[121.298966,23.700018],[121.298868,23.700017],[121.298872,23.699746],[121.298774,23.699745],[121.298777,23.699474],[121.299076,23.699116],[121.299181,23.698576],[121.299479,23.698308],[121.300067,23.698314],[121.300068,23.698224],[121.300852,23.698323],[121.300853,23.698233],[121.301246,23.698147],[121.301445,23.697968],[121.301447,23.697788],[121.301742,23.697701],[121.302239,23.697164],[121.302434,23.697257],[121.302832,23.69681],[121.303128,23.696723],[121.303335,23.695822],[121.303239,23.69573],[121.302943,23.695818],[121.302841,23.696178],[121.302644,23.696175],[121.302248,23.696532],[121.302145,23.696892],[121.301749,23.697159],[121.301747,23.69734],[121.301548,23.697518],[121.301452,23.697427],[121.300961,23.697421],[121.300861,23.697601],[121.300665,23.697599],[121.300466,23.697777],[121.300569,23.697417],[121.300081,23.697231],[121.300082,23.697141],[121.299983,23.69723],[121.299788,23.697137],[121.299686,23.697497]],[[121.301546,23.697699],[121.301449,23.697607],[121.301547,23.697608],[121.301546,23.697699]],[[121.302239,23.697164],[121.302143,23.697073],[121.302241,23.697074],[121.302239,23.697164]],[[121.302832,23.69681],[121.302735,23.696718],[121.302834,23.696719],[121.302832,23.69681]],[[121.300074,23.697773],[121.300173,23.697683],[121.300172,23.697774],[121.300074,23.697773]],[[121.299977,23.697681],[121.29998,23.697501],[121.300078,23.697502],[121.300075,23.697682],[121.299977,23.697681]]],[[[121.295251,23.699164],[121.29525,23.699255],[121.295446,23.699257],[121.295843,23.6989],[121.296332,23.698996],[121.296432,23.698816],[121.296239,23.698633],[121.295846,23.698629],[121.295845,23.698719],[121.295452,23.698805],[121.295252,23.699074],[121.295056,23.699072],[121.294863,23.698889],[121.294665,23.698977],[121.294858,23.69925],[121.295251,23.699164]]],[[[121.31276,23.687346],[121.31237,23.687162],[121.312277,23.686799],[121.311885,23.686795],[121.311883,23.686885],[121.311492,23.686791],[121.311186,23.687781],[121.311282,23.687872],[121.311578,23.687785],[121.311679,23.687515],[121.312074,23.687339],[121.312267,23.687522],[121.312265,23.687702],[121.312654,23.687977],[121.312753,23.687888],[121.31276,23.687346]],[[121.311585,23.687243],[121.311586,23.687153],[121.31188,23.687156],[121.311879,23.687246],[121.311585,23.687243]]],[[[121.310685,23.688588],[121.310881,23.68859],[121.311179,23.688322],[121.311084,23.688051],[121.310786,23.688318],[121.310294,23.688493],[121.310388,23.688765],[121.310684,23.688678],[121.310685,23.688588]]],[[[121.302034,23.690299],[121.301839,23.690207],[121.301739,23.690386],[121.301934,23.690479],[121.302034,23.690299]]],[[[121.308793,23.690825],[121.30899,23.690737],[121.308993,23.690556],[121.308798,23.690464],[121.308704,23.690101],[121.308509,23.690009],[121.30841,23.690098],[121.308507,23.69019],[121.3085,23.690731],[121.308597,23.690823],[121.308794,23.690735],[121.308793,23.690825]]],[[[121.304759,23.691864],[121.304564,23.691772],[121.304267,23.692039],[121.304658,23.692134],[121.304759,23.691864]]],[[[121.307206,23.692252],[121.307598,23.692257],[121.307698,23.692077],[121.307992,23.69208],[121.30829,23.691813],[121.308194,23.691631],[121.308294,23.691542],[121.308488,23.691634],[121.308589,23.691455],[121.308297,23.691271],[121.307702,23.691806],[121.307016,23.691799],[121.307014,23.691889],[121.30672,23.691886],[121.306719,23.691976],[121.305935,23.691967],[121.305839,23.691786],[121.305447,23.691781],[121.305351,23.6916],[121.304955,23.691866],[121.304953,23.692047],[121.304756,23.692135],[121.304852,23.692317],[121.305248,23.69196],[121.305543,23.691963],[121.305931,23.692238],[121.305827,23.692689],[121.305729,23.692688],[121.305727,23.692868],[121.305825,23.692869],[121.305726,23.692958],[121.30572,23.69341],[121.305122,23.694126],[121.304631,23.694211],[121.304233,23.694658],[121.30384,23.694744],[121.303933,23.695106],[121.303736,23.695194],[121.30373,23.695646],[121.303433,23.695823],[121.303626,23.696096],[121.303923,23.695919],[121.303926,23.695648],[121.304023,23.695739],[121.304221,23.695561],[121.304416,23.695653],[121.304616,23.695384],[121.304812,23.695387],[121.30511,23.695119],[121.305015,23.694847],[121.305805,23.694404],[121.305714,23.693861],[121.305812,23.693862],[121.305817,23.693501],[121.305915,23.693502],[121.306118,23.692963],[121.306713,23.692427],[121.307205,23.692343],[121.307206,23.692252]],[[121.306713,23.692427],[121.306616,23.692336],[121.306714,23.692337],[121.306713,23.692427]],[[121.304321,23.695471],[121.304224,23.69538],[121.304322,23.695381],[121.304321,23.695471]],[[121.304919,23.694665],[121.304822,23.694574],[121.30492,23.694575],[121.304919,23.694665]],[[121.305118,23.694487],[121.30512,23.694306],[121.305218,23.694307],[121.305216,23.694488],[121.305118,23.694487]]]]}},{"type":"Feature","properties":{"kind":"water","month":"2023-04","area_ha":0.64},"geometry":{"type":"MultiPolygon","coordinates":[[[[121.300466,23.697777],[121.300665,23.697599],[121.300861,23.697601],[121.300863,23.69742],[121.30047,23.697506],[121.300466,23.697777]]],[[[121.299186,23.698214],[121.299187,23.698124],[121.299382,23.698217],[121.299384,23.698036],[121.299679,23.698039],[121.299877,23.697861],[121.29978,23.697769],[121.29988,23.69759],[121.299191,23.697853],[121.299193,23.697673],[121.298899,23.697669],[121.298902,23.697399],[121.298608,23.697395],[121.298605,23.697666],[121.298802,23.697578],[121.298798,23.697849],[121.2986,23.698027],[121.298894,23.698031],[121.298893,23.698121],[121.299186,23.698214]]]]}}]}