{"type":"FeatureCollection","features":[{"type":"Feature","properties":{"kind":"bare_slide","month":"2023-12","area_ha":136.34},"geometry":{"type":"MultiPolygon","coordinates":[[[[121.29913,23.702548],[121.299039,23.702005],[121.299137,23.702006],[121.299243,23.701375],[121.298753,23.70137],[121.298657,23.701188],[121.298069,23.701182],[121.298058,23.701995],[121.298156,23.701996],[121.29815,23.702447],[121.298248,23.702448],[121.298433,23.703353],[121.298722,23.703718],[121.299015,23.703811],[121.299108,23.704264],[121.299302,23.704356],[121.299005,23.704624],[121.298897,23.705345],[121.298504,23.705431],[121.298405,23.70552],[121.2985,23.705702],[121.298302,23.70588],[121.298106,23.705878],[121.297913,23.705605],[121.29752,23.705691],[121.297518,23.705871],[121.297811,23.705965],[121.297906,23.706147],[121.298495,23.706153],[121.298486,23.706785],[121.29829,23.706783],[121.298189,23.707053],[121.298481,23.707237],[121.298575,23.707508],[121.298772,23.70742],[121.298582,23.706967],[121.29868,23.706968],[121.298886,23.706248],[121.299083,23.70616],[121.299085,23.705979],[121.298987,23.705978],[121.299088,23.705798],[121.298893,23.705706],[121.298895,23.705525],[121.299092,23.705437],[121.299197,23.704897],[121.299395,23.704809],[121.299397,23.704628],[121.299696,23.70427],[121.299698,23.704089],[121.299503,23.703997],[121.299604,23.703818],[121.299409,23.703725],[121.299412,23.703454],[121.299217,23.703362],[121.29932,23.703002],[121.299126,23.702819],[121.298929,23.702907],[121.298931,23.702727],[121.29913,23.702548]],[[121.298929,23.702907],[121.29883,23.702996],[121.298831,23.702906],[121.298929,23.702907]],[[121.298693,23.705975],[121.298694,23.705884],[121.29889,23.705887],[121.298889,23.705977],[121.298693,23.705975]],[[121.299308,23.703905],[121.299211,23.703813],[121.299309,23.703814],[121.299308,23.703905]],[[121.298921,23.703539],[121.298923,23.703359],[121.299021,23.70336],[121.299019,23.70354],[121.298921,23.703539]]],[[[121.300431,23.708071],[121.300239,23.707798],[121.299944,23.707794],[121.299948,23.707524],[121.299754,23.707341],[121.29946,23.707338],[121.299261,23.707516],[121.299165,23.707425],[121.298869,23.707512],[121.298961,23.707964],[121.299257,23.707877],[121.299449,23.70815],[121.299745,23.708063],[121.300034,23.708428],[121.30023,23.70843],[121.300333,23.70807],[121.300431,23.708071]],[[121.299356,23.707788],[121.29916,23.707786],[121.299162,23.707605],[121.29926,23.707606],[121.299356,23.707788]]],[[[121.297477,23.709031],[121.297283,23.708849],[121.297083,23.709117],[121.297278,23.70921],[121.297477,23.709031]]],[[[121.29727,23.709842],[121.297657,23.710207],[121.297654,23.710478],[121.297848,23.710661],[121.298143,23.710574],[121.298141,23.710754],[121.298335,23.710937],[121.298532,23.710849],[121.298435,23.710758],[121.298538,23.710398],[121.298441,23.710306],[121.298245,23.710304],[121.298243,23.710394],[121.29795,23.710301],[121.297953,23.71012],[121.297855,23.710119],[121.297958,23.709759],[121.297566,23.709665],[121.29718,23.709209],[121.296887,23.709115],[121.296783,23.709566],[121.297074,23.70984],[121.29727,23.709842]],[[121.29727,23.709842],[121.297369,23.709753],[121.297368,23.709843],[121.29727,23.709842]]],[[[121.29814,23.710845],[121.297945,23.710752],[121.297843,23.711022],[121.298232,23.711297],[121.298431,23.711029],[121.298335,23.710937],[121.298137,23.711025],[121.29814,23.710845]]],[[[121.297241,23.712099],[121.297729,23.712285],[121.297828,23.712196],[121.297732,23.712014],[121.298227,23.711658],[121.298229,23.711478],[121.297939,23.711204],[121.297741,23.711292],[121.297639,23.711652],[121.297147,23.711737],[121.297241,23.712099]]],[[[121.296656,23.711822],[121.29675,23.712094],[121.297144,23.712008],[121.297049,23.711736],[121.296656,23.711822]]],[[[121.28396,23.715203],[121.284256,23.715116],[121.284252,23.715387],[121.284349,23.715478],[121.284546,23.71539],[121.284454,23.714938],[121.284066,23.714662],[121.284069,23.714392],[121.284167,23.714393],[121.284269,23.714123],[121.284564,23.714036],[121.284669,23.713495],[121.284865,23.713497],[121.285064,23.713319],[121.284968,23.713137],[121.284575,23.713223],[121.282987,23.71465],[121.282981,23.715102],[121.283465,23.715559],[121.283858,23.715563],[121.28396,23.715203]]],[[[121.297692,23.715084],[121.297789,23.715175],[121.298083,23.715179],[121.298179,23.71536],[121.298278,23.715271],[121.298572,23.715274],[121.298571,23.715364],[121.298965,23.715278],[121.298967,23.715098],[121.298674,23.715004],[121.298286,23.714639],[121.298386,23.71455],[121.29829,23.714368],[121.297897,23.714454],[121.298099,23.714005],[121.297904,23.713912],[121.297907,23.713641],[121.297615,23.713458],[121.29741,23.714178],[121.296914,23.714624],[121.296718,23.714622],[121.296518,23.71489],[121.296224,23.714887],[121.296123,23.715067],[121.296318,23.715159],[121.296219,23.715248],[121.296312,23.715611],[121.296608,23.715523],[121.296714,23.714893],[121.29691,23.714895],[121.296908,23.715075],[121.297103,23.715168],[121.297501,23.714721],[121.2975,23.714811],[121.297696,23.714813],[121.297692,23.715084]],[[121.297203,23.714988],[121.297106,23.714897],[121.297204,23.714898],[121.297203,23.714988]],[[121.297403,23.71472],[121.297306,23.714628],[121.297404,23.714629],[121.297403,23.71472]],[[121.297307,23.714538],[121.297406,23.714449],[121.297405,23.714539],[121.297307,23.714538]]],[[[121.295706,23.716958],[121.295809,23.716598],[121.295614,23.716506],[121.295313,23.717044],[121.295508,23.717137],[121.295706,23.716958]]],[[[121.29823,23.718973],[121.298136,23.718701],[121.298333,23.718613],[121.298336,23.718342],[121.298732,23.718075],[121.298735,23.717895],[121.298932,23.717807],[121.299037,23.717266],[121.299632,23.716731],[121.299739,23.7161],[121.299936,23.716012],[121.299841,23.71574],[121.299645,23.715737],[121.299545,23.715917],[121.299349,23.715915],[121.29915,23.716093],[121.299144,23.716545],[121.298948,23.716543],[121.29875,23.716721],[121.298841,23.717264],[121.298743,23.717263],[121.298639,23.717713],[121.298442,23.717801],[121.29824,23.71825],[121.297546,23.718785],[121.297544,23.718965],[121.297837,23.719059],[121.297836,23.719149],[121.29823,23.718973]]],[[[121.285365,23.720275],[121.285167,23.720454],[121.285362,23.720546],[121.285359,23.720727],[121.285065,23.720724],[121.285064,23.720814],[121.284769,23.720901],[121.284766,23.721081],[121.284668,23.72108],[121.284764,23.721262],[121.284567,23.72135],[121.284563,23.721621],[121.284465,23.72162],[121.284362,23.72198],[121.284066,23.722157],[121.284062,23.722428],[121.284256,23.722611],[121.285041,23.722529],[121.285136,23.722801],[121.285332,23.722803],[121.285526,23.722986],[121.286114,23.722993],[121.28621,23.723174],[121.286601,23.723269],[121.286899,23.723001],[121.287002,23.722641],[121.287198,23.722643],[121.287098,23.722733],[121.287194,23.722914],[121.287392,23.722826],[121.287296,23.722645],[121.287394,23.722646],[121.287697,23.721927],[121.288676,23.722118],[121.288775,23.722029],[121.288781,23.721577],[121.288978,23.721489],[121.288975,23.72176],[121.289168,23.721943],[121.289365,23.721945],[121.289263,23.722215],[121.289458,23.722307],[121.289456,23.722488],[121.288964,23.722573],[121.288861,23.722933],[121.288266,23.723468],[121.28807,23.723466],[121.287772,23.723733],[121.287864,23.724186],[121.288059,23.724278],[121.287959,23.724458],[121.288056,23.724549],[121.288449,23.724463],[121.289044,23.723928],[121.289041,23.724199],[121.288743,23.724467],[121.288738,23.724828],[121.288835,23.724919],[121.289131,23.724832],[121.289226,23.725014],[121.289423,23.725016],[121.289424,23.724926],[121.289816,23.72493],[121.289918,23.72466],[121.290016,23.724661],[121.289823,23.724388],[121.289627,23.724386],[121.289729,23.724116],[121.290026,23.723849],[121.290222,23.723851],[121.290219,23.724122],[121.290022,23.72421],[121.290116,23.724482],[121.290513,23.724125],[121.290807,23.724128],[121.290898,23.724671],[121.290505,23.724757],[121.290502,23.724937],[121.290697,23.72503],[121.290598,23.725119],[121.290694,23.725301],[121.2903,23.725387],[121.290298,23.725567],[121.290492,23.72575],[121.291471,23.725851],[121.291571,23.725762],[121.291477,23.7254],[121.29177,23.725493],[121.291969,23.725315],[121.291971,23.725134],[121.292167,23.725136],[121.292168,23.725046],[121.29246,23.72523],[121.292458,23.725411],[121.292161,23.725588],[121.292158,23.725859],[121.291962,23.725857],[121.29186,23.726126],[121.291565,23.726213],[121.291562,23.726394],[121.293525,23.726325],[121.293527,23.726145],[121.29392,23.726149],[121.293922,23.725969],[121.29451,23.725975],[121.294513,23.725794],[121.294905,23.725799],[121.294903,23.725979],[121.295099,23.725982],[121.295199,23.725802],[121.295493,23.725805],[121.295594,23.725626],[121.295887,23.725719],[121.295882,23.72608],[121.296076,23.726263],[121.296664,23.72627],[121.296764,23.72618],[121.296675,23.725457],[121.296578,23.725366],[121.296184,23.725452],[121.296089,23.72527],[121.296486,23.724913],[121.296681,23.725006],[121.296775,23.725278],[121.297072,23.7251],[121.297074,23.72492],[121.297466,23.724924],[121.297863,23.724567],[121.297967,23.724117],[121.29826,23.72421],[121.298355,23.724482],[121.298552,23.724394],[121.298455,23.724303],[121.298557,23.724033],[121.297875,23.723664],[121.29788,23.723303],[121.297978,23.723304],[121.297883,23.723032],[121.298081,23.722944],[121.298083,23.722764],[121.298476,23.722678],[121.298579,23.722318],[121.298677,23.722319],[121.298387,23.722045],[121.29819,23.722042],[121.298189,23.722133],[121.297896,23.722039],[121.297997,23.72186],[121.298193,23.721862],[121.29849,23.721594],[121.298497,23.721052],[121.298597,23.720963],[121.298402,23.720871],[121.298307,23.720599],[121.29791,23.720956],[121.298002,23.721408],[121.297708,23.721405],[121.297709,23.721315],[121.297512,23.721403],[121.297706,23.721586],[121.297702,23.721856],[121.2978,23.721858],[121.297694,23.722488],[121.297596,23.722487],[121.29759,23.722939],[121.297492,23.722938],[121.297589,23.723029],[121.297486,23.723389],[121.297288,23.723568],[121.297191,23.723476],[121.296699,23.723561],[121.296596,23.724011],[121.296202,23.724097],[121.296201,23.724188],[121.296005,23.724186],[121.29591,23.723914],[121.295616,23.72391],[121.295514,23.72418],[121.295318,23.724178],[121.295322,23.723907],[121.295127,23.723815],[121.295132,23.723453],[121.295034,23.723452],[121.295038,23.723091],[121.295236,23.723003],[121.295145,23.72246],[121.295343,23.722282],[121.295736,23.722196],[121.296034,23.721928],[121.296036,23.721748],[121.296233,23.72175],[121.296432,23.721481],[121.296626,23.721664],[121.296619,23.722206],[121.296521,23.722205],[121.296617,23.722386],[121.297112,23.722031],[121.297016,23.721849],[121.297312,23.721672],[121.297317,23.72131],[121.297415,23.721311],[121.297327,23.720588],[121.297426,23.720499],[121.297328,23.720498],[121.297331,23.720227],[121.297136,23.720135],[121.297141,23.719773],[121.297239,23.719774],[121.297149,23.719141],[121.297247,23.719142],[121.29725,23.718962],[121.296959,23.718688],[121.296762,23.718776],[121.296857,23.718958],[121.296364,23.719223],[121.296459,23.719405],[121.296753,23.719408],[121.296749,23.719769],[121.296356,23.719765],[121.296255,23.720035],[121.296058,23.720123],[121.296153,23.720304],[121.29645,23.720127],[121.296443,23.720669],[121.29654,23.72076],[121.296341,23.720938],[121.295948,23.721024],[121.295547,23.721652],[121.294664,23.721733],[121.294464,23.722001],[121.29417,23.721998],[121.29397,23.722267],[121.293872,23.722266],[121.293881,23.721543],[121.293688,23.721361],[121.293393,23.721357],[121.293299,23.721086],[121.293007,23.720902],[121.293013,23.72045],[121.292818,23.720358],[121.29292,23.720088],[121.292726,23.719905],[121.292634,23.719453],[121.292342,23.719269],[121.29224,23.719539],[121.292338,23.71954],[121.292335,23.719811],[121.292433,23.719812],[121.29243,23.719992],[121.29272,23.720357],[121.292622,23.720356],[121.29252,23.720625],[121.292226,23.720622],[121.292132,23.72035],[121.291839,23.720257],[121.291739,23.720346],[121.291736,23.720617],[121.291834,23.720618],[121.29173,23.721068],[121.291435,23.721155],[121.29153,23.721337],[121.291726,23.721339],[121.291622,23.721789],[121.291719,23.721881],[121.292015,23.721794],[121.292305,23.722068],[121.2922,23.722608],[121.29191,23.722334],[121.291912,23.722154],[121.291717,23.722061],[121.291518,23.72224],[121.291324,23.722147],[121.291121,23.722597],[121.290824,23.722864],[121.290628,23.722862],[121.290527,23.723041],[121.289842,23.722944],[121.290044,23.722494],[121.29044,23.722228],[121.290443,23.721957],[121.290834,23.722052],[121.29123,23.721785],[121.291049,23.720609],[121.29056,23.720513],[121.290659,23.720424],[121.290669,23.719702],[121.290865,23.719704],[121.290864,23.719794],[121.291061,23.719706],[121.290965,23.719525],[121.291164,23.719346],[121.291071,23.718984],[121.291268,23.718896],[121.291273,23.718535],[121.291371,23.718536],[121.291465,23.718808],[121.291859,23.718722],[121.291952,23.719084],[121.292244,23.719268],[121.292345,23.718998],[121.292543,23.71891],[121.292546,23.718639],[121.292449,23.718548],[121.291958,23.718633],[121.291863,23.718361],[121.291668,23.718268],[121.291671,23.718088],[121.291967,23.71791],[121.292169,23.717461],[121.292267,23.717462],[121.292358,23.718005],[121.292553,23.718097],[121.292852,23.71774],[121.293147,23.717652],[121.293151,23.717382],[121.293347,23.717384],[121.293449,23.717114],[121.293351,23.717113],[121.293257,23.716751],[121.293059,23.716929],[121.292766,23.716836],[121.292567,23.717014],[121.292571,23.716743],[121.292376,23.716651],[121.292177,23.716829],[121.292175,23.71701],[121.291978,23.717098],[121.291974,23.717369],[121.291285,23.717542],[121.291086,23.71781],[121.290596,23.717805],[121.290695,23.717716],[121.290599,23.717534],[121.2905,23.717623],[121.290304,23.717621],[121.290305,23.717531],[121.290009,23.717618],[121.289913,23.717526],[121.290014,23.717257],[121.290312,23.716989],[121.290508,23.716991],[121.290907,23.716454],[121.291103,23.716456],[121.291102,23.716546],[121.291398,23.716459],[121.291401,23.716188],[121.291499,23.71619],[121.291404,23.716008],[121.291601,23.71592],[121.291704,23.71556],[121.292097,23.715474],[121.292099,23.715293],[121.29239,23.715567],[121.292685,23.71548],[121.292687,23.71539],[121.292981,23.715393],[121.292978,23.715574],[121.292781,23.715662],[121.292876,23.715934],[121.29317,23.715937],[121.293368,23.715759],[121.293371,23.715578],[121.293764,23.715492],[121.293765,23.715402],[121.293961,23.715404],[121.29386,23.715674],[121.293762,23.715673],[121.293855,23.716035],[121.294247,23.716039],[121.294348,23.71586],[121.294543,23.715952],[121.294642,23.715863],[121.294547,23.715591],[121.294743,23.715593],[121.294936,23.715866],[121.29523,23.715869],[121.295224,23.716321],[121.295321,23.716412],[121.295618,23.716235],[121.295615,23.716416],[121.29581,23.716508],[121.29591,23.716419],[121.295816,23.716057],[121.296112,23.715969],[121.296116,23.715608],[121.295921,23.715516],[121.295526,23.715782],[121.295333,23.715509],[121.29504,23.715416],[121.295042,23.715235],[121.294847,23.715143],[121.29485,23.714962],[121.294656,23.71478],[121.294854,23.714601],[121.295149,23.714604],[121.295249,23.714425],[121.295445,23.714427],[121.295644,23.714249],[121.295646,23.714068],[121.295941,23.713981],[121.296338,23.713624],[121.296241,23.713533],[121.296341,23.713444],[121.296346,23.712992],[121.296248,23.712991],[121.296353,23.71245],[121.296257,23.712359],[121.29596,23.712536],[121.295955,23.712898],[121.295757,23.713076],[121.295265,23.713161],[121.295066,23.71343],[121.294675,23.713335],[121.294476,23.713513],[121.294474,23.713694],[121.294081,23.71378],[121.293979,23.71405],[121.293688,23.713776],[121.293291,23.714132],[121.293194,23.714041],[121.292801,23.714127],[121.29251,23.713853],[121.292314,23.713851],[121.292116,23.714029],[121.29221,23.714301],[121.292503,23.714395],[121.292303,23.714754],[121.292008,23.71475],[121.292012,23.714479],[121.291914,23.714478],[121.292014,23.714299],[121.291917,23.714208],[121.291623,23.714204],[121.291622,23.714295],[121.291231,23.7142],[121.291429,23.714022],[121.291432,23.713841],[121.291139,23.713747],[121.29104,23.713837],[121.291133,23.714199],[121.290835,23.714466],[121.290541,23.714463],[121.290441,23.714643],[121.290244,23.714641],[121.290141,23.715091],[121.289846,23.715088],[121.289848,23.714997],[121.289748,23.715087],[121.289258,23.715081],[121.28906,23.71526],[121.289057,23.71544],[121.288762,23.715527],[121.288464,23.715795],[121.288366,23.715794],[121.288368,23.715613],[121.288565,23.715615],[121.288665,23.715436],[121.288568,23.715344],[121.288371,23.715433],[121.288275,23.715251],[121.288079,23.715249],[121.28808,23.715158],[121.288375,23.715071],[121.28828,23.71489],[121.287986,23.714886],[121.287786,23.715155],[121.287689,23.715064],[121.286609,23.715142],[121.286612,23.714962],[121.28671,23.714963],[121.286614,23.714781],[121.286417,23.714869],[121.286511,23.715141],[121.286314,23.715229],[121.286312,23.71541],[121.286016,23.715497],[121.286112,23.715678],[121.285916,23.715676],[121.285915,23.715767],[121.285718,23.715764],[121.28572,23.715674],[121.285032,23.715757],[121.284337,23.716381],[121.284335,23.716562],[121.284237,23.716561],[121.284331,23.716833],[121.284036,23.71692],[121.283936,23.717099],[121.28374,23.717097],[121.283243,23.717543],[121.283239,23.717904],[121.283337,23.717905],[121.283233,23.718355],[121.283331,23.718357],[121.283424,23.718719],[121.283128,23.718896],[121.283223,23.719078],[121.283026,23.719166],[121.282923,23.719526],[121.282427,23.719972],[121.282133,23.719969],[121.282132,23.720059],[121.281738,23.720145],[121.281731,23.720687],[121.281632,23.720776],[121.28173,23.720777],[121.281727,23.720957],[121.281924,23.72096],[121.281925,23.720869],[121.282316,23.720964],[121.282515,23.720695],[121.283007,23.72061],[121.283205,23.720432],[121.283208,23.720251],[121.283504,23.720074],[121.283606,23.719804],[121.2838,23.719987],[121.284881,23.719818],[121.284878,23.719999],[121.284682,23.719997],[121.284582,23.720176],[121.284288,23.720173],[121.28399,23.720441],[121.284086,23.720622],[121.284674,23.720629],[121.285071,23.720272],[121.285173,23.720002],[121.285368,23.720095],[121.285365,23.720275]],[[121.29397,23.722267],[121.294067,23.722358],[121.294164,23.72245],[121.293968,23.722447],[121.29397,23.722267]],[[121.291671,23.718088],[121.291574,23.717996],[121.291672,23.717997],[121.291671,23.718088]],[[121.294348,23.71586],[121.294251,23.715768],[121.294349,23.715769],[121.294348,23.71586]],[[121.29504,23.715416],[121.294941,23.715505],[121.294942,23.715415],[121.29504,23.715416]],[[121.294847,23.715143],[121.294748,23.715232],[121.294749,23.715142],[121.294847,23.715143]],[[121.294656,23.71478],[121.294559,23.714688],[121.294657,23.714689],[121.294656,23.71478]],[[121.287885,23.715066],[121.287982,23.715157],[121.287884,23.715156],[121.287885,23.715066]],[[121.286112,23.715678],[121.286408,23.715501],[121.286899,23.715507],[121.2867,23.715685],[121.286697,23.715956],[121.286599,23.715955],[121.286889,23.716229],[121.286594,23.716316],[121.286392,23.716765],[121.286193,23.716943],[121.286,23.716761],[121.285801,23.716939],[121.285116,23.716841],[121.285121,23.71648],[121.285317,23.716482],[121.285318,23.716392],[121.285611,23.716486],[121.28591,23.716128],[121.286007,23.716219],[121.286204,23.716131],[121.286107,23.71604],[121.286206,23.71595],[121.286112,23.715678]],[[121.285121,23.71648],[121.285024,23.716389],[121.285122,23.71639],[121.285121,23.71648]],[[121.285075,23.720001],[121.284979,23.71982],[121.285372,23.719734],[121.285371,23.719824],[121.285075,23.720001]],[[121.295403,23.725172],[121.2956,23.725174],[121.295598,23.725265],[121.295402,23.725262],[121.295403,23.725172]],[[121.294625,23.724712],[121.294821,23.724714],[121.294817,23.724985],[121.294621,23.724983],[121.294625,23.724712]],[[121.296093,23.724909],[121.295897,23.724907],[121.295899,23.724816],[121.296096,23.724728],[121.296093,23.724909]],[[121.296887,23.724195],[121.296985,23.724196],[121.297089,23.723746],[121.297287,23.723658],[121.297379,23.72411],[121.297182,23.724198],[121.297278,23.72429],[121.297176,23.72465],[121.296785,23.724555],[121.296887,23.724195]],[[121.289334,23.724292],[121.289432,23.724294],[121.28943,23.724474],[121.289332,23.724473],[121.289334,23.724292]],[[121.291591,23.724227],[121.291493,23.724226],[121.291496,23.723955],[121.291692,23.723957],[121.291591,23.724227]],[[121.292383,23.723604],[121.292774,23.723698],[121.292867,23.724151],[121.292379,23.723965],[121.292383,23.723604]],[[121.289436,23.724023],[121.289535,23.723933],[121.289534,23.724024],[121.289436,23.724023]],[[121.29081,23.723948],[121.290909,23.723858],[121.290908,23.723949],[121.29081,23.723948]],[[121.289046,23.723838],[121.289145,23.723749],[121.289144,23.723839],[121.289046,23.723838]],[[121.291312,23.72305],[121.291411,23.722961],[121.291606,23.723053],[121.291693,23.723867],[121.2914,23.723774],[121.291312,23.72305]],[[121.293951,23.723711],[121.293755,23.723709],[121.293756,23.723619],[121.293954,23.723531],[121.293951,23.723711]],[[121.291997,23.723148],[121.291801,23.723146],[121.291803,23.722965],[121.292001,23.722877],[121.292003,23.722697],[121.292199,23.722699],[121.292288,23.723422],[121.291997,23.723148]],[[121.294452,23.722904],[121.29455,23.722905],[121.294548,23.723086],[121.29445,23.723085],[121.294452,23.722904]],[[121.291215,23.722959],[121.291019,23.722957],[121.29102,23.722866],[121.291217,23.722778],[121.291215,23.722959]],[[121.29347,23.722984],[121.293274,23.722982],[121.293277,23.722801],[121.293375,23.722802],[121.29347,23.722984]],[[121.29367,23.722715],[121.293768,23.722716],[121.293766,23.722897],[121.293668,23.722896],[121.29367,23.722715]],[[121.293964,23.722718],[121.294063,23.722629],[121.294062,23.722719],[121.293964,23.722718]],[[121.29485,23.722457],[121.294554,23.722634],[121.294658,23.722184],[121.294853,23.722277],[121.29485,23.722457]],[[121.294658,23.722184],[121.294561,23.722093],[121.294659,23.722094],[121.294658,23.722184]],[[121.287106,23.722191],[121.287205,23.722102],[121.287204,23.722192],[121.287106,23.722191]],[[121.289661,23.721768],[121.290151,23.721773],[121.290149,23.721954],[121.289951,23.722132],[121.289656,23.722129],[121.28956,23.722037],[121.289661,23.721768]],[[121.285345,23.72181],[121.285644,23.721452],[121.285642,23.721633],[121.285544,23.721632],[121.285541,23.721812],[121.285345,23.72181]],[[121.28977,23.720956],[121.289373,23.721313],[121.289082,23.721039],[121.289184,23.720769],[121.28899,23.720586],[121.289186,23.720589],[121.289282,23.72077],[121.289576,23.720773],[121.28977,23.720956]],[[121.28977,23.720956],[121.289869,23.720867],[121.289868,23.720957],[121.28977,23.720956]],[[121.284962,23.721084],[121.285062,23.720994],[121.28506,23.721085],[121.284962,23.721084]],[[121.28673,23.720923],[121.286829,23.720833],[121.286828,23.720924],[121.28673,23.720923]],[[121.288201,23.720939],[121.288005,23.720937],[121.288006,23.720846],[121.288203,23.720758],[121.288201,23.720939]],[[121.288595,23.720763],[121.288695,23.720673],[121.288693,23.720764],[121.288595,23.720763]],[[121.286735,23.720561],[121.286439,23.720648],[121.286444,23.720287],[121.286641,23.720199],[121.286735,23.720561]],[[121.286543,23.720198],[121.286349,23.720015],[121.286547,23.719927],[121.286543,23.720198]],[[121.288207,23.720487],[121.288011,23.720485],[121.288015,23.720124],[121.288506,23.72013],[121.288507,23.720039],[121.289192,23.720137],[121.28919,23.720318],[121.288796,23.720404],[121.288696,23.720583],[121.288403,23.72049],[121.288404,23.720399],[121.288208,23.720397],[121.288207,23.720487]],[[121.287422,23.720479],[121.287226,23.720477],[121.287227,23.720386],[121.287423,23.720388],[121.287422,23.720479]],[[121.287423,23.720388],[121.287523,23.720299],[121.287521,23.72039],[121.287423,23.720388]],[[121.289975,23.720236],[121.289875,23.720416],[121.289679,23.720413],[121.289779,23.720234],[121.289975,23.720236]],[[121.290179,23.719697],[121.290277,23.719698],[121.290273,23.719969],[121.290175,23.719967],[121.290179,23.719697]],[[121.287532,23.719577],[121.287728,23.719579],[121.287627,23.719849],[121.287432,23.719756],[121.287532,23.719577]],[[121.289686,23.719872],[121.289785,23.719783],[121.289784,23.719873],[121.289686,23.719872]],[[121.288317,23.719586],[121.288415,23.719587],[121.288412,23.719767],[121.288314,23.719766],[121.288317,23.719586]],[[121.2891,23.719685],[121.289199,23.719595],[121.289198,23.719686],[121.2891,23.719685]],[[121.283515,23.719262],[121.283709,23.719444],[121.283413,23.719531],[121.283416,23.719351],[121.283515,23.719262]],[[121.285278,23.719462],[121.285375,23.719553],[121.285277,23.719552],[121.285278,23.719462]],[[121.285082,23.71946],[121.285084,23.719279],[121.28528,23.719281],[121.285278,23.719462],[121.285082,23.71946]],[[121.287338,23.719394],[121.287238,23.719574],[121.287042,23.719572],[121.287142,23.719392],[121.287338,23.719394]],[[121.29018,23.719606],[121.290279,23.719517],[121.290278,23.719607],[121.29018,23.719606]],[[121.290768,23.719613],[121.290867,23.719524],[121.290866,23.719614],[121.290768,23.719613]],[[121.285671,23.719376],[121.28577,23.719287],[121.285769,23.719377],[121.285671,23.719376]],[[121.29028,23.719427],[121.290379,23.719338],[121.290378,23.719428],[121.29028,23.719427]],[[121.284398,23.719271],[121.284201,23.719269],[121.284203,23.719179],[121.2844,23.719091],[121.284398,23.719271]],[[121.283519,23.718991],[121.283715,23.718993],[121.283712,23.719173],[121.283516,23.719171],[121.283519,23.718991]],[[121.28911,23.718872],[121.289506,23.718606],[121.289509,23.718425],[121.289607,23.718426],[121.289701,23.718698],[121.290288,23.718795],[121.290287,23.718885],[121.289993,23.718882],[121.289596,23.719239],[121.289302,23.719235],[121.289108,23.719053],[121.28911,23.718872]],[[121.284403,23.71882],[121.284207,23.718818],[121.284112,23.718636],[121.284504,23.71864],[121.284891,23.719006],[121.284596,23.719093],[121.284403,23.71882]],[[121.28382,23.718452],[121.283917,23.718544],[121.283819,23.718543],[121.28382,23.718452]],[[121.283624,23.71845],[121.283626,23.71827],[121.283823,23.718181],[121.283729,23.717909],[121.283925,23.717912],[121.28402,23.718184],[121.283822,23.718272],[121.28382,23.718452],[121.283624,23.71845]],[[121.285099,23.718105],[121.285392,23.718199],[121.285391,23.718289],[121.285097,23.718286],[121.285096,23.718376],[121.2848,23.718463],[121.284803,23.718283],[121.284999,23.718285],[121.285099,23.718105]],[[121.284509,23.718279],[121.284705,23.718281],[121.284704,23.718372],[121.284507,23.71837],[121.284509,23.718279]],[[121.291373,23.718355],[121.29147,23.718447],[121.291372,23.718446],[121.291373,23.718355]],[[121.291275,23.718354],[121.291277,23.718174],[121.291375,23.718175],[121.291373,23.718355],[121.291275,23.718354]],[[121.287354,23.718221],[121.287453,23.718131],[121.287452,23.718222],[121.287354,23.718221]],[[121.290103,23.71798],[121.290201,23.717981],[121.290199,23.718162],[121.2901,23.718161],[121.290103,23.71798]],[[121.287165,23.717677],[121.287557,23.717681],[121.287458,23.71777],[121.287553,23.717952],[121.287454,23.718041],[121.287063,23.717946],[121.287165,23.717677]],[[121.285105,23.717654],[121.285496,23.717748],[121.285495,23.717839],[121.285396,23.717928],[121.284907,23.717832],[121.285105,23.717654]],[[121.283534,23.717817],[121.283633,23.717728],[121.283632,23.717818],[121.283534,23.717817]],[[121.285691,23.717841],[121.285791,23.717752],[121.285789,23.717842],[121.285691,23.717841]],[[121.286672,23.717852],[121.286771,23.717763],[121.28677,23.717853],[121.286672,23.717852]],[[121.287949,23.717685],[121.288048,23.717596],[121.288047,23.717686],[121.287949,23.717685]],[[121.284224,23.717554],[121.284323,23.717465],[121.284322,23.717555],[121.284224,23.717554]],[[121.287563,23.71723],[121.287662,23.71714],[121.287661,23.717231],[121.287563,23.71723]],[[121.292466,23.717284],[121.292565,23.717195],[121.292564,23.717285],[121.292466,23.717284]],[[121.292662,23.717286],[121.292761,23.717197],[121.29276,23.717287],[121.292662,23.717286]],[[121.28492,23.716839],[121.284821,23.716928],[121.284818,23.717109],[121.284622,23.717107],[121.284724,23.716837],[121.28492,23.716839]],[[121.288352,23.716877],[121.288548,23.716879],[121.288741,23.717152],[121.288544,23.71715],[121.288352,23.716877]],[[121.289332,23.716888],[121.289134,23.717066],[121.289138,23.716795],[121.289923,23.716714],[121.289922,23.716804],[121.289628,23.716801],[121.289627,23.716891],[121.289332,23.716888]],[[121.289923,23.716714],[121.290221,23.716446],[121.290125,23.716265],[121.289831,23.716261],[121.289931,23.716082],[121.290325,23.715996],[121.290421,23.716178],[121.290617,23.71618],[121.291012,23.715913],[121.29101,23.716094],[121.290812,23.716272],[121.290616,23.71627],[121.290416,23.716539],[121.29022,23.716537],[121.290119,23.716716],[121.289923,23.716714]],[[121.291012,23.715913],[121.291112,23.715824],[121.291111,23.715914],[121.291012,23.715913]],[[121.286887,23.716409],[121.286985,23.71641],[121.286983,23.716591],[121.286885,23.71659],[121.286887,23.716409]],[[121.288848,23.716431],[121.288749,23.71652],[121.28875,23.71643],[121.288848,23.716431]],[[121.28885,23.716251],[121.289145,23.716254],[121.289143,23.716344],[121.288848,23.716431],[121.28885,23.716251]],[[121.287769,23.716419],[121.287869,23.71633],[121.287867,23.71642],[121.287769,23.716419]],[[121.289537,23.716258],[121.289731,23.716441],[121.289534,23.716439],[121.289536,23.716348],[121.289338,23.716437],[121.289243,23.716255],[121.289539,23.716078],[121.289537,23.716258]],[[121.289441,23.716076],[121.289344,23.715985],[121.289442,23.715986],[121.289441,23.716076]],[[121.285321,23.716121],[121.28542,23.716122],[121.285417,23.716303],[121.285319,23.716302],[121.285321,23.716121]],[[121.285913,23.715857],[121.285814,23.715946],[121.285616,23.716124],[121.285717,23.715855],[121.285913,23.715857]],[[121.288364,23.715974],[121.288463,23.715885],[121.288462,23.715975],[121.288364,23.715974]],[[121.289641,23.715808],[121.289345,23.715895],[121.289251,23.715623],[121.289446,23.715715],[121.289447,23.715625],[121.28984,23.715539],[121.289641,23.715808]],[[121.28984,23.715539],[121.28994,23.71545],[121.289939,23.71554],[121.28984,23.715539]],[[121.289941,23.71536],[121.290235,23.715363],[121.290434,23.715184],[121.291022,23.715191],[121.291114,23.715643],[121.290918,23.715641],[121.290724,23.715459],[121.290625,23.715548],[121.290719,23.71582],[121.290327,23.715815],[121.29023,23.715724],[121.290331,23.715545],[121.290234,23.715453],[121.290037,23.715541],[121.289941,23.71536]],[[121.289941,23.71536],[121.289844,23.715268],[121.289942,23.715269],[121.289941,23.71536]],[[121.289935,23.715811],[121.290034,23.715722],[121.290033,23.715812],[121.289935,23.715811]],[[121.287976,23.715609],[121.288075,23.71552],[121.288074,23.71561],[121.287976,23.715609]],[[121.289449,23.715444],[121.289549,23.715355],[121.289547,23.715446],[121.289449,23.715444]],[[121.292792,23.714849],[121.292891,23.71476],[121.29289,23.71485],[121.292792,23.714849]]],[[[121.298992,23.720697],[121.298996,23.720426],[121.299291,23.720339],[121.299393,23.720069],[121.29959,23.719981],[121.299494,23.719799],[121.299199,23.719886],[121.299098,23.720156],[121.298904,23.719973],[121.298608,23.72006],[121.298606,23.720241],[121.298801,23.720333],[121.298603,23.720512],[121.298599,23.720783],[121.298794,23.720875],[121.298992,23.720697]]],[[[121.299068,23.722413],[121.298776,23.722229],[121.298574,23.722679],[121.298966,23.722773],[121.299065,23.722684],[121.299068,23.722413]]],[[[121.289064,23.722393],[121.288771,23.7223],[121.288671,23.722479],[121.288964,23.722573],[121.289064,23.722393]]],[[[121.299529,23.709596],[121.299336,23.709323],[121.299139,23.709411],[121.299623,23.709868],[121.299619,23.710229],[121.299322,23.710406],[121.29932,23.710587],[121.299515,23.710679],[121.299912,23.710322],[121.29991,23.710413],[121.300107,23.710415],[121.300201,23.710687],[121.300593,23.710691],[121.300686,23.711144],[121.301172,23.71142],[121.30117,23.7116],[121.301268,23.711602],[121.301166,23.711871],[121.301361,23.711964],[121.301461,23.711875],[121.301364,23.711783],[121.301466,23.711423],[121.301175,23.711239],[121.301178,23.710968],[121.300596,23.710511],[121.300502,23.710148],[121.300307,23.710056],[121.300408,23.709876],[121.300214,23.709694],[121.300017,23.709782],[121.299921,23.7096],[121.299529,23.709596]],[[121.300307,23.710056],[121.300208,23.710145],[121.300209,23.710055],[121.300307,23.710056]],[[121.300017,23.709782],[121.299917,23.709871],[121.299919,23.709781],[121.300017,23.709782]]],[[[121.301525,23.714494],[121.301527,23.714313],[121.301724,23.714225],[121.30173,23.713774],[121.301829,23.713685],[121.302124,23.713688],[121.302316,23.713961],[121.302512,23.713963],[121.302908,23.713696],[121.30291,23.713516],[121.302814,23.713424],[121.302126,23.713507],[121.302134,23.712875],[121.301939,23.712783],[121.301943,23.712512],[121.301652,23.712238],[121.301261,23.712143],[121.300963,23.712411],[121.300957,23.712862],[121.300859,23.712861],[121.300757,23.713221],[121.30095,23.713404],[121.300947,23.713675],[121.301238,23.713949],[121.301233,23.71431],[121.301036,23.714398],[121.301033,23.714579],[121.301326,23.714672],[121.301525,23.714494]]],[[[121.305026,23.71679],[121.304831,23.716697],[121.304744,23.715793],[121.304451,23.7157],[121.304453,23.71561],[121.304255,23.715698],[121.30426,23.715337],[121.303681,23.714608],[121.303484,23.714696],[121.30329,23.714513],[121.302996,23.71451],[121.302896,23.714599],[121.302991,23.714871],[121.303188,23.714783],[121.303381,23.715056],[121.30387,23.715152],[121.303863,23.715693],[121.304444,23.716242],[121.304534,23.716875],[121.304728,23.717057],[121.304924,23.71706],[121.305023,23.71697],[121.305026,23.71679]]],[[[121.300494,23.718365],[121.300496,23.718185],[121.300594,23.718186],[121.300605,23.717373],[121.30041,23.717281],[121.300211,23.717459],[121.300098,23.718632],[121.300293,23.718724],[121.300396,23.718364],[121.300494,23.718365]]],[[[121.300569,23.720172],[121.30067,23.719902],[121.300379,23.719628],[121.300382,23.719448],[121.300187,23.719355],[121.299987,23.719624],[121.300377,23.719809],[121.300374,23.72008],[121.300175,23.720258],[121.300466,23.720532],[121.300663,23.720444],[121.300667,23.720173],[121.300569,23.720172]]],[[[121.302122,23.721363],[121.301932,23.72091],[121.30203,23.720911],[121.302034,23.72064],[121.302132,23.720641],[121.302236,23.720191],[121.302434,23.720012],[121.302438,23.719741],[121.302244,23.719559],[121.301848,23.719825],[121.301744,23.720275],[121.301646,23.720274],[121.301641,23.720636],[121.301543,23.720634],[121.301633,23.721268],[121.302021,23.721633],[121.302218,23.721545],[121.30222,23.721364],[121.302122,23.721363]]],[[[121.300855,23.720808],[121.300662,23.720535],[121.300465,23.720623],[121.300558,23.720985],[121.300855,23.720808]]],[[[121.300531,23.723061],[121.300143,23.722696],[121.300244,23.722516],[121.299951,23.722423],[121.299954,23.722152],[121.300052,23.722153],[121.300055,23.721973],[121.300153,23.721974],[121.300155,23.721793],[121.300352,23.721705],[121.300356,23.721434],[121.300454,23.721435],[121.300456,23.721255],[121.300358,23.721254],[121.30046,23.720984],[121.300266,23.720801],[121.299971,23.720888],[121.299973,23.720708],[121.299778,23.720615],[121.29958,23.720794],[121.299477,23.721154],[121.299379,23.721152],[121.299172,23.721963],[121.299464,23.722147],[121.299555,23.72269],[121.299846,23.722964],[121.300043,23.722875],[121.30004,23.723146],[121.299941,23.723145],[121.300036,23.723417],[121.300428,23.723422],[121.300528,23.723332],[121.300531,23.723061]],[[121.299947,23.722694],[121.300047,23.722605],[121.300045,23.722695],[121.299947,23.722694]]],[[[121.302697,23.722453],[121.302896,23.722184],[121.302799,23.722093],[121.302602,23.722181],[121.302408,23.721998],[121.302308,23.722178],[121.3026,23.722362],[121.302501,23.722451],[121.302596,23.722633],[121.302794,23.722544],[121.302697,23.722453]]],[[[121.3016,23.723796],[121.301709,23.722984],[121.301611,23.722983],[121.301614,23.722712],[121.301516,23.722711],[121.301616,23.722622],[121.301621,23.72217],[121.301427,23.722078],[121.301325,23.722348],[121.301227,23.722347],[121.301223,23.722618],[121.301124,23.722707],[121.300929,23.722614],[121.30063,23.722972],[121.300922,23.723156],[121.30092,23.723337],[121.300723,23.723425],[121.300915,23.723698],[121.301111,23.7237],[121.301304,23.723973],[121.3016,23.723796]],[[121.301212,23.72352],[121.301311,23.723431],[121.30131,23.723521],[121.301212,23.72352]]],[[[121.30504,23.723292],[121.304651,23.723016],[121.304352,23.723374],[121.304546,23.723557],[121.304742,23.723559],[121.304941,23.723381],[121.305037,23.723472],[121.305235,23.723384],[121.305139,23.723202],[121.30504,23.723292]]],[[[121.305427,23.723657],[121.30572,23.72375],[121.306018,23.723483],[121.305828,23.723029],[121.30563,23.723117],[121.305628,23.723298],[121.305235,23.723384],[121.305427,23.723657]]],[[[121.303355,23.724628],[121.303935,23.725266],[121.30423,23.725269],[121.304225,23.72563],[121.304323,23.725631],[121.304417,23.725903],[121.304615,23.725815],[121.30452,23.725543],[121.305207,23.725551],[121.305306,23.725462],[121.30521,23.72528],[121.30472,23.725275],[121.304624,23.725093],[121.304428,23.725091],[121.304333,23.724819],[121.304234,23.724908],[121.303941,23.724815],[121.303943,23.724634],[121.30365,23.72454],[121.303556,23.724269],[121.303262,23.724265],[121.303266,23.723904],[121.304057,23.723461],[121.30406,23.72319],[121.303962,23.723189],[121.303868,23.722917],[121.303671,23.722915],[121.303674,23.722735],[121.304361,23.722652],[121.304463,23.722382],[121.303974,23.722287],[121.303975,23.722196],[121.30368,23.722283],[121.303678,23.722374],[121.303287,23.722279],[121.303289,23.722189],[121.302994,23.722185],[121.302895,23.722275],[121.302992,23.722366],[121.302893,23.722455],[121.302984,23.722998],[121.302496,23.722812],[121.302394,23.723082],[121.3019,23.723347],[121.301896,23.723709],[121.301994,23.72371],[121.301892,23.723979],[121.301989,23.724071],[121.30248,23.724076],[121.302571,23.724619],[121.302472,23.724618],[121.302271,23.725067],[121.302174,23.724976],[121.30178,23.725062],[121.301875,23.725334],[121.30128,23.725779],[121.301278,23.725959],[121.30118,23.725958],[121.301275,23.72623],[121.301372,23.726321],[121.301569,23.726233],[121.301575,23.725782],[121.301966,23.725876],[121.302164,23.725698],[121.30207,23.725426],[121.302265,23.725519],[121.30286,23.724983],[121.302964,23.724533],[121.303355,23.724628]],[[121.303355,23.724628],[121.303454,23.724538],[121.303453,23.724629],[121.303355,23.724628]]],[[[121.306283,23.725743],[121.306482,23.725565],[121.306578,23.725656],[121.306874,23.725569],[121.306876,23.725389],[121.306974,23.72539],[121.306882,23.724937],[121.306588,23.724934],[121.306587,23.725024],[121.305901,23.724926],[121.3059,23.725017],[121.305606,23.725013],[121.305407,23.725192],[121.305698,23.725466],[121.305793,23.725738],[121.305892,23.725649],[121.306283,23.725743]],[[121.306485,23.725294],[121.306583,23.725295],[121.306581,23.725476],[121.306483,23.725475],[121.306485,23.725294]]]]}},{"type":"Feature","properties":{"kind":"bare_dam","month":"2023-12","area_ha":18.17},"geometry":{"type":"MultiPolygon","coordinates":[[[[121.299769,23.691087],[121.299961,23.69136],[121.300354,23.691274],[121.30045,23.691456],[121.300942,23.691371],[121.30094,23.691461],[121.301431,23.691467],[121.301429,23.691557],[121.30192,23.691562],[121.301918,23.691653],[121.302409,23.691658],[121.302408,23.691748],[121.302604,23.69175],[121.302605,23.69166],[121.302702,23.691751],[121.302801,23.691662],[121.30329,23.691758],[121.303188,23.692028],[121.303481,23.692121],[121.303577,23.692303],[121.303676,23.692214],[121.304165,23.692309],[121.304166,23.692219],[121.304462,23.692132],[121.304366,23.69195],[121.304072,23.691947],[121.304071,23.692037],[121.303876,23.691945],[121.303777,23.692034],[121.303681,23.691852],[121.303485,23.69185],[121.303585,23.691671],[121.303292,23.691577],[121.303293,23.691487],[121.302901,23.691483],[121.3029,23.691573],[121.302705,23.691481],[121.302606,23.69157],[121.302607,23.691479],[121.302313,23.691476],[121.302217,23.691295],[121.30163,23.691198],[121.301438,23.690925],[121.301044,23.691011],[121.300949,23.690829],[121.300752,23.690827],[121.300661,23.690284],[121.300959,23.690017],[121.300865,23.689745],[121.300374,23.689739],[121.300373,23.68983],[121.300276,23.689738],[121.300177,23.689827],[121.30008,23.689736],[121.298708,23.689721],[121.298607,23.6899],[121.298018,23.689984],[121.297522,23.69043],[121.29771,23.691065],[121.298003,23.691158],[121.298202,23.690889],[121.298889,23.690897],[121.298883,23.691348],[121.299076,23.691531],[121.299371,23.691534],[121.299473,23.691174],[121.299769,23.691087]],[[121.299473,23.691174],[121.299376,23.691083],[121.299474,23.691084],[121.299473,23.691174]],[[121.300848,23.691009],[121.300749,23.691098],[121.30075,23.691008],[121.300848,23.691009]],[[121.299087,23.690718],[121.29938,23.690812],[121.299379,23.690902],[121.299085,23.690899],[121.299087,23.690718]],[[121.300458,23.690824],[121.300359,23.690913],[121.30036,23.690823],[121.300458,23.690824]],[[121.29987,23.690817],[121.299681,23.690273],[121.299877,23.690276],[121.299878,23.690185],[121.300072,23.690368],[121.300268,23.69037],[121.300066,23.69082],[121.29987,23.690817]],[[121.2988,23.690173],[121.299094,23.690177],[121.299093,23.690267],[121.298896,23.690355],[121.2988,23.690173]]],[[[121.301103,23.694082],[121.301005,23.694081],[121.30091,23.693809],[121.300714,23.693806],[121.300716,23.693626],[121.300814,23.693627],[121.30072,23.693355],[121.300524,23.693353],[121.300422,23.693623],[121.300324,23.693622],[121.300231,23.693259],[121.300426,23.693352],[121.300526,23.693172],[121.300428,23.693171],[121.300336,23.692719],[121.300142,23.692536],[121.299751,23.692441],[121.299462,23.692077],[121.299068,23.692163],[121.299169,23.691984],[121.298975,23.691801],[121.298778,23.691889],[121.298775,23.69207],[121.298481,23.692066],[121.298385,23.691885],[121.298188,23.691973],[121.298282,23.692335],[121.298577,23.692248],[121.298473,23.692698],[121.298668,23.692791],[121.298666,23.692971],[121.29915,23.693428],[121.299047,23.693788],[121.299338,23.694062],[121.299534,23.694064],[121.299535,23.693974],[121.299828,23.694068],[121.299928,23.693888],[121.299537,23.693794],[121.299539,23.693703],[121.299833,23.693707],[121.299834,23.693616],[121.300225,23.693711],[121.300417,23.693984],[121.300615,23.693896],[121.300904,23.69426],[121.301103,23.694082]],[[121.299445,23.693341],[121.299541,23.693523],[121.299246,23.69361],[121.299248,23.693429],[121.299445,23.693341]],[[121.299744,23.692983],[121.299743,23.693073],[121.300037,23.693077],[121.300036,23.693167],[121.299544,23.693252],[121.29945,23.69298],[121.299744,23.692983]]],[[[121.299024,23.695594],[121.298926,23.695593],[121.298831,23.695321],[121.298634,23.695409],[121.298632,23.69559],[121.298825,23.695772],[121.299024,23.695594]]],[[[121.298234,23.696037],[121.298236,23.695856],[121.298138,23.695855],[121.298238,23.695676],[121.297945,23.695582],[121.297747,23.69576],[121.297745,23.695941],[121.298037,23.696035],[121.298036,23.696125],[121.298234,23.696037]]],[[[121.298922,23.695864],[121.298629,23.69577],[121.298528,23.69604],[121.29882,23.696224],[121.298922,23.695864]]],[[[121.29842,23.696761],[121.298322,23.69676],[121.298133,23.696216],[121.297739,23.696392],[121.297834,23.696574],[121.29803,23.696576],[121.298123,23.697029],[121.298319,23.697031],[121.29842,23.696761]]],[[[121.299157,23.700472],[121.299062,23.7002],[121.298868,23.700017],[121.298872,23.699746],[121.298774,23.699745],[121.298777,23.699474],[121.299076,23.699116],[121.299081,23.698755],[121.299278,23.698667],[121.29928,23.698486],[121.299576,23.698399],[121.299577,23.698309],[121.300263,23.698317],[121.300264,23.698226],[121.300852,23.698323],[121.300853,23.698233],[121.301147,23.698236],[121.301445,23.697968],[121.30135,23.697696],[121.300466,23.697777],[121.300366,23.697956],[121.299778,23.69795],[121.299677,23.698129],[121.299481,23.698127],[121.299283,23.698306],[121.298989,23.698303],[121.298887,23.698572],[121.298692,23.69848],[121.29849,23.698929],[121.298392,23.698928],[121.298486,23.69929],[121.298193,23.699197],[121.298092,23.699376],[121.297896,23.699374],[121.297897,23.699284],[121.2977,23.699372],[121.297596,23.699822],[121.297791,23.699915],[121.297882,23.700458],[121.299157,23.700472]]],[[[121.31138,23.687873],[121.311777,23.687516],[121.311683,23.687244],[121.31188,23.687156],[121.311882,23.686976],[121.31208,23.686887],[121.312273,23.68707],[121.312375,23.6868],[121.312278,23.686709],[121.311591,23.686792],[121.311692,23.686522],[121.311399,23.686429],[121.311403,23.686158],[121.311208,23.686065],[121.311106,23.686335],[121.311204,23.686336],[121.3112,23.686697],[121.311298,23.686698],[121.311294,23.686969],[121.311392,23.68697],[121.311186,23.687781],[121.31138,23.687873]]],[[[121.312753,23.687888],[121.312655,23.687887],[121.312661,23.687436],[121.312369,23.687252],[121.312171,23.68743],[121.312168,23.687611],[121.31246,23.687795],[121.312555,23.688067],[121.312753,23.687888]]],[[[121.308993,23.690556],[121.308798,23.690464],[121.308703,23.690192],[121.308506,23.69028],[121.308499,23.690822],[121.308597,23.690823],[121.308497,23.691002],[121.308594,23.691094],[121.308296,23.691361],[121.3081,23.691359],[121.3078,23.691807],[121.307604,23.691805],[121.307605,23.691715],[121.307506,23.691804],[121.307016,23.691799],[121.306817,23.691977],[121.306523,23.691974],[121.306225,23.692242],[121.306032,23.692059],[121.305834,23.692147],[121.305929,23.692419],[121.30573,23.692597],[121.305825,23.692869],[121.305627,23.693048],[121.305816,23.693592],[121.306013,23.693503],[121.306119,23.692872],[121.306315,23.692875],[121.30711,23.692071],[121.307304,23.692253],[121.3075,23.692255],[121.307798,23.691988],[121.308092,23.691991],[121.308589,23.691455],[121.308785,23.691457],[121.308983,23.691278],[121.308888,23.691097],[121.308692,23.691095],[121.308989,23.690827],[121.308993,23.690556]],[[121.308792,23.690915],[121.308695,23.690824],[121.308793,23.690825],[121.308792,23.690915]]],[[[121.30495,23.692318],[121.305248,23.69196],[121.305543,23.691963],[121.305743,23.691604],[121.30545,23.691511],[121.304755,23.692225],[121.30495,23.692318]]],[[[121.304517,23.695474],[121.304812,23.695387],[121.304912,23.695207],[121.305206,23.69521],[121.305406,23.694942],[121.305701,23.694854],[121.305704,23.694674],[121.30551,23.694491],[121.305017,23.694666],[121.304619,23.695114],[121.304324,23.695201],[121.304221,23.695561],[121.304416,23.695653],[121.304517,23.695474]]],[[[121.30204,23.697433],[121.302239,23.697164],[121.302434,23.697257],[121.302732,23.696989],[121.302837,23.696448],[121.303034,23.69636],[121.30294,23.696088],[121.302644,23.696175],[121.302347,23.696443],[121.302344,23.696624],[121.302147,23.696712],[121.302145,23.696892],[121.301848,23.69707],[121.301747,23.69734],[121.30204,23.697433]]]]}},{"type":"Feature","properties":{"kind":"water","month":"2023-12","area_ha":2.04},"geometry":{"type":"MultiPolygon","coordinates":[[[[121.304521,23.695112],[121.305017,23.694666],[121.305213,23.694669],[121.305216,23.694488],[121.305707,23.694403],[121.305713,23.693952],[121.305516,23.69404],[121.305513,23.69422],[121.305315,23.694399],[121.305119,23.694397],[121.304524,23.694932],[121.304521,23.695112]]],[[[121.304423,23.695111],[121.304324,23.695201],[121.304422,23.695202],[121.304423,23.695111]]],[[[121.30403,23.695197],[121.304026,23.695468],[121.304321,23.695471],[121.304324,23.695201],[121.30403,23.695197]]],[[[121.298628,23.69586],[121.298827,23.695682],[121.298534,23.695589],[121.298634,23.695409],[121.298438,23.695407],[121.298138,23.695855],[121.298235,23.695946],[121.298628,23.69586]]],[[[121.298619,23.696583],[121.298426,23.69631],[121.29872,23.696313],[121.298723,23.696132],[121.298626,23.696041],[121.298527,23.69613],[121.298136,23.696036],[121.298227,23.696578],[121.298323,23.69667],[121.298619,23.696583]]],[[[121.30293,23.696811],[121.302934,23.69654],[121.303131,23.696452],[121.303235,23.696001],[121.303038,23.696089],[121.303034,23.69636],[121.302837,23.696448],[121.302733,23.696899],[121.30293,23.696811]]],[[[121.298619,23.696583],[121.298618,23.696673],[121.298716,23.696674],[121.298717,23.696584],[121.298619,23.696583]]],[[[121.299286,23.698035],[121.29948,23.698218],[121.299778,23.69795],[121.299974,23.697952],[121.299976,23.697772],[121.300172,23.697774],[121.300072,23.697953],[121.300268,23.697955],[121.30027,23.697775],[121.300465,23.697867],[121.300466,23.697777],[121.300859,23.697781],[121.30086,23.697691],[121.300567,23.697597],[121.300568,23.697507],[121.300273,23.697594],[121.300177,23.697413],[121.299981,23.69741],[121.29988,23.69759],[121.299686,23.697497],[121.299486,23.697766],[121.299095,23.697672],[121.299094,23.697762],[121.298898,23.69776],[121.298895,23.69794],[121.299091,23.697942],[121.299088,23.698213],[121.298892,23.698211],[121.298889,23.698392],[121.299283,23.698306],[121.299286,23.698035]]],[[[121.298593,23.698569],[121.298691,23.69857],[121.298793,23.6983],[121.298596,23.698298],[121.298299,23.698566],[121.298197,23.698836],[121.29849,23.698929],[121.298593,23.698569]]]]}}]}