{"type":"FeatureCollection","features":[{"type":"Feature","properties":{"kind":"bare_slide","month":"2023-05","area_ha":38.76},"geometry":{"type":"MultiPolygon","coordinates":[[[[121.284056,23.715385],[121.28416,23.714934],[121.283965,23.714842],[121.284067,23.714572],[121.283872,23.71448],[121.283777,23.714208],[121.283976,23.714029],[121.284269,23.714123],[121.284667,23.713676],[121.284571,23.713494],[121.284373,23.713673],[121.284079,23.713669],[121.283086,23.714561],[121.28308,23.715013],[121.283274,23.715195],[121.28347,23.715198],[121.283565,23.71547],[121.284056,23.715385]]],[[[121.286519,23.714509],[121.28642,23.714598],[121.286511,23.715141],[121.286413,23.71514],[121.286312,23.71541],[121.286603,23.715594],[121.286903,23.715145],[121.287396,23.71497],[121.287401,23.714609],[121.287207,23.714426],[121.287011,23.714424],[121.28691,23.714604],[121.286519,23.714509]],[[121.28691,23.714604],[121.287007,23.714695],[121.286909,23.714694],[121.28691,23.714604]]],[[[121.286587,23.716858],[121.286984,23.716501],[121.28699,23.716049],[121.286893,23.715958],[121.286497,23.716224],[121.286592,23.716496],[121.286493,23.716495],[121.286392,23.716765],[121.286587,23.716858]]],[[[121.285893,23.717392],[121.285795,23.717391],[121.285994,23.717212],[121.285899,23.71694],[121.285996,23.717032],[121.28639,23.716946],[121.286392,23.716765],[121.286197,23.716673],[121.286297,23.716493],[121.285906,23.716399],[121.285802,23.716849],[121.285215,23.716752],[121.285119,23.71657],[121.285417,23.716303],[121.285611,23.716486],[121.285808,23.716397],[121.285812,23.716127],[121.286008,23.716129],[121.286109,23.715859],[121.286208,23.71586],[121.28621,23.715679],[121.286112,23.715678],[121.28631,23.7155],[121.286215,23.715318],[121.286016,23.715497],[121.285624,23.715492],[121.285523,23.715672],[121.285327,23.71567],[121.285227,23.715849],[121.285031,23.715847],[121.284635,23.716114],[121.284926,23.716388],[121.284824,23.716657],[121.285116,23.716841],[121.284917,23.71702],[121.284815,23.71738],[121.285008,23.717562],[121.285207,23.717384],[121.285304,23.717475],[121.285501,23.717387],[121.285694,23.71766],[121.285891,23.717572],[121.285893,23.717392]],[[121.285418,23.716213],[121.285321,23.716121],[121.28542,23.716122],[121.285418,23.716213]]],[[[121.288897,23.720224],[121.288702,23.720132],[121.288601,23.720311],[121.288796,23.720404],[121.288897,23.720224]]],[[[121.291008,23.723769],[121.291005,23.72404],[121.291103,23.724041],[121.291,23.724401],[121.291195,23.724494],[121.291294,23.724404],[121.291296,23.724224],[121.291198,23.724223],[121.291201,23.724042],[121.291299,23.724043],[121.291211,23.72323],[121.291409,23.723142],[121.291412,23.722871],[121.29151,23.722872],[121.291415,23.72269],[121.291217,23.722778],[121.291215,23.722959],[121.290726,23.722863],[121.290526,23.723132],[121.290135,23.723037],[121.290134,23.723127],[121.289838,23.723214],[121.28984,23.723124],[121.289643,23.723122],[121.289646,23.722941],[121.289841,23.723034],[121.289944,23.722674],[121.290532,23.72268],[121.290634,23.722411],[121.290831,23.722322],[121.290935,23.721872],[121.291228,23.721966],[121.291419,23.722329],[121.291815,23.722062],[121.291719,23.721881],[121.291523,23.721879],[121.291331,23.721606],[121.290937,23.721692],[121.290841,23.72151],[121.290645,23.721508],[121.290346,23.721866],[121.289953,23.721952],[121.289556,23.722308],[121.289454,23.722578],[121.28916,23.722575],[121.289161,23.722485],[121.288672,23.722389],[121.288673,23.722299],[121.288085,23.722292],[121.287983,23.722562],[121.288275,23.722746],[121.288174,23.723015],[121.288271,23.723107],[121.288566,23.72302],[121.288662,23.723201],[121.288366,23.723288],[121.288365,23.723379],[121.288169,23.723377],[121.288073,23.723195],[121.287876,23.723283],[121.287682,23.7231],[121.287591,23.722557],[121.287493,23.722556],[121.287495,23.722376],[121.287693,23.722288],[121.287602,23.721745],[121.288092,23.72175],[121.288188,23.721932],[121.288287,23.721843],[121.28858,23.721936],[121.288779,23.721758],[121.288782,23.721487],[121.288978,23.721489],[121.288979,23.721399],[121.289077,23.7214],[121.289171,23.721762],[121.289661,23.721768],[121.289762,23.721588],[121.289374,23.721223],[121.289476,23.720953],[121.289379,23.720862],[121.289083,23.720949],[121.288793,23.720675],[121.288495,23.720942],[121.288589,23.721214],[121.288391,23.721392],[121.287805,23.721205],[121.287703,23.721475],[121.287306,23.721832],[121.28711,23.72183],[121.286911,23.722098],[121.286814,23.722007],[121.28642,23.722093],[121.286325,23.721911],[121.285931,23.721997],[121.285739,23.721724],[121.285838,23.721635],[121.286229,23.72173],[121.286329,23.72155],[121.285649,23.721091],[121.285947,23.720824],[121.285949,23.720643],[121.285755,23.72046],[121.285954,23.720282],[121.286443,23.720378],[121.286542,23.720288],[121.286449,23.719926],[121.286645,23.719928],[121.286642,23.720109],[121.286837,23.720201],[121.286835,23.720382],[121.286638,23.72047],[121.286732,23.720742],[121.287518,23.72066],[121.287712,23.720843],[121.288009,23.720576],[121.288302,23.720669],[121.2886,23.720401],[121.288504,23.72022],[121.288703,23.720041],[121.288509,23.719859],[121.288313,23.719857],[121.288211,23.720126],[121.288405,23.720309],[121.287916,23.720213],[121.287816,23.720393],[121.287423,23.720388],[121.287036,23.720023],[121.287235,23.719754],[121.287727,23.719669],[121.287436,23.719395],[121.287142,23.719392],[121.286944,23.71957],[121.286651,23.719477],[121.286649,23.719567],[121.286354,23.719654],[121.286162,23.719381],[121.285866,23.719468],[121.285672,23.719285],[121.285373,23.719643],[121.285278,23.719462],[121.284985,23.719368],[121.285084,23.719279],[121.284988,23.719097],[121.285282,23.719101],[121.285383,23.718921],[121.285286,23.71883],[121.2845,23.718911],[121.284405,23.71873],[121.284209,23.718727],[121.284212,23.718457],[121.284309,23.718548],[121.284506,23.71846],[121.284413,23.718098],[121.284219,23.717915],[121.283826,23.718001],[121.284025,23.717732],[121.283732,23.717639],[121.283638,23.717367],[121.283343,23.717454],[121.283233,23.718355],[121.283526,23.718449],[121.283523,23.71863],[121.283326,23.718718],[121.283223,23.719078],[121.282729,23.719343],[121.282823,23.719705],[121.282627,23.719703],[121.282427,23.719972],[121.281836,23.720146],[121.281732,23.720596],[121.282023,23.72087],[121.28281,23.720699],[121.283504,23.720074],[121.283507,23.719894],[121.283904,23.719537],[121.284198,23.71954],[121.284196,23.719721],[121.283998,23.719809],[121.284081,23.720984],[121.284472,23.721078],[121.28447,23.721259],[121.284568,23.72126],[121.284562,23.721711],[121.284464,23.72171],[121.284361,23.72207],[121.284064,23.722248],[121.28416,23.722429],[121.284356,23.722431],[121.284557,23.722072],[121.284753,23.722075],[121.284849,23.722256],[121.285242,23.72217],[121.285044,23.722349],[121.285039,23.72271],[121.285233,23.722893],[121.285527,23.722896],[121.285623,23.723077],[121.286211,23.723084],[121.286405,23.723267],[121.286993,23.723273],[121.287093,23.723184],[121.287383,23.723458],[121.28738,23.723729],[121.287866,23.724005],[121.287959,23.724458],[121.288448,23.724554],[121.288736,23.725008],[121.28913,23.724922],[121.289225,23.725104],[121.289619,23.725018],[121.289714,23.7252],[121.290011,23.725022],[121.29001,23.725113],[121.290304,23.725116],[121.290498,23.725299],[121.290896,23.724852],[121.290701,23.724759],[121.290403,23.725027],[121.290114,23.724662],[121.290117,23.724391],[121.29081,23.723948],[121.290813,23.723677],[121.291008,23.723769]],[[121.290813,23.723677],[121.290716,23.723585],[121.290619,23.723494],[121.290816,23.723496],[121.290813,23.723677]],[[121.288748,23.724105],[121.288846,23.724106],[121.289144,23.723839],[121.28914,23.72411],[121.288841,23.724468],[121.288645,23.724465],[121.288748,23.724105]],[[121.289629,23.724205],[121.289531,23.724204],[121.289529,23.724385],[121.289332,23.724473],[121.289437,23.723932],[121.289632,23.724025],[121.289629,23.724205]],[[121.289535,23.723933],[121.289634,23.723844],[121.289633,23.723935],[121.289535,23.723933]],[[121.289727,23.724207],[121.290027,23.723758],[121.29032,23.723852],[121.290022,23.72421],[121.289727,23.724207]],[[121.289244,23.723659],[121.289145,23.723749],[121.289146,23.723658],[121.289244,23.723659]],[[121.288069,23.723556],[121.287969,23.723645],[121.28797,23.723555],[121.288069,23.723556]],[[121.29003,23.723578],[121.289932,23.723577],[121.289934,23.723396],[121.290032,23.723397],[121.29003,23.723578]],[[121.286905,23.72255],[121.286807,23.722549],[121.286614,23.722276],[121.286909,23.722189],[121.2872,23.722463],[121.287197,23.722734],[121.286999,23.722822],[121.286905,23.72255]],[[121.285443,23.721811],[121.285344,23.721901],[121.285345,23.72181],[121.285443,23.721811]],[[121.288386,23.721754],[121.288289,23.721662],[121.288387,23.721663],[121.288386,23.721754]],[[121.288289,23.721662],[121.288193,23.721571],[121.288291,23.721572],[121.288289,23.721662]],[[121.285449,23.72136],[121.285743,23.721363],[121.285741,23.721544],[121.285544,23.721632],[121.285449,23.72136]],[[121.288786,23.721216],[121.288686,23.721305],[121.288688,23.721215],[121.288786,23.721216]],[[121.285169,23.720273],[121.285267,23.720274],[121.285264,23.720545],[121.285166,23.720544],[121.285169,23.720273]],[[121.285267,23.720274],[121.285366,23.720185],[121.285365,23.720275],[121.285267,23.720274]],[[121.285564,23.720097],[121.285761,23.720009],[121.285864,23.719649],[121.286156,23.719833],[121.285757,23.72028],[121.285564,23.720097]],[[121.283218,23.719439],[121.283317,23.71944],[121.283418,23.71917],[121.283711,23.719264],[121.283709,23.719444],[121.28351,23.719623],[121.283314,23.719621],[121.283218,23.719439]],[[121.28362,23.718721],[121.283816,23.718723],[121.28401,23.718906],[121.28352,23.7189],[121.28362,23.718721]],[[121.283822,23.718272],[121.283723,23.718361],[121.283724,23.718271],[121.283822,23.718272]]],[[[121.299035,23.702276],[121.299041,23.701825],[121.299139,23.701826],[121.299243,23.701375],[121.298753,23.70137],[121.298657,23.701188],[121.298069,23.701182],[121.298063,23.701633],[121.298161,23.701634],[121.298055,23.702265],[121.298153,23.702266],[121.298149,23.702537],[121.298247,23.702538],[121.298337,23.703172],[121.298435,23.703173],[121.298529,23.703535],[121.299111,23.703993],[121.299102,23.704715],[121.299004,23.704714],[121.299,23.704985],[121.298902,23.704984],[121.299096,23.705166],[121.299197,23.704897],[121.299395,23.704809],[121.299497,23.704448],[121.299595,23.70445],[121.299701,23.703909],[121.299409,23.703725],[121.299411,23.703545],[121.299217,23.703362],[121.299321,23.702911],[121.299029,23.702728],[121.299129,23.702638],[121.299133,23.702277],[121.299035,23.702276]],[[121.299029,23.702728],[121.29893,23.702817],[121.298931,23.702727],[121.299029,23.702728]]],[[[121.309086,23.706179],[121.308891,23.706086],[121.308992,23.705817],[121.308699,23.705723],[121.308603,23.705542],[121.308111,23.705717],[121.308108,23.705897],[121.308303,23.70599],[121.308301,23.70617],[121.308495,23.706353],[121.308984,23.706449],[121.309086,23.706179]]],[[[121.299937,23.708336],[121.30043,23.708161],[121.300334,23.707979],[121.299649,23.707881],[121.299651,23.707701],[121.299456,23.707608],[121.299459,23.707428],[121.299557,23.707429],[121.299461,23.707247],[121.299263,23.707426],[121.299166,23.707334],[121.29887,23.707421],[121.29858,23.707147],[121.298785,23.706427],[121.299083,23.70616],[121.299092,23.705437],[121.298995,23.705346],[121.298797,23.705524],[121.298014,23.705425],[121.297912,23.705695],[121.297519,23.705781],[121.297905,23.706237],[121.298004,23.706148],[121.298493,23.706243],[121.298486,23.706785],[121.298093,23.706871],[121.298091,23.707052],[121.297993,23.707051],[121.298088,23.707232],[121.298384,23.707145],[121.298672,23.7076],[121.298966,23.707603],[121.298963,23.707874],[121.29935,23.708239],[121.299549,23.708061],[121.299745,23.708063],[121.299937,23.708336]]],[[[121.292172,23.724775],[121.292074,23.724774],[121.292076,23.724594],[121.292174,23.724595],[121.292081,23.724233],[121.292279,23.724054],[121.292283,23.723783],[121.292088,23.723691],[121.292192,23.72324],[121.291802,23.723056],[121.2917,23.723325],[121.291991,23.723599],[121.291989,23.72378],[121.29179,23.723958],[121.291787,23.724229],[121.29149,23.724407],[121.291488,23.724587],[121.291682,23.72477],[121.291978,23.724593],[121.291976,23.724773],[121.291878,23.724772],[121.291972,23.725044],[121.29217,23.724956],[121.292172,23.724775]],[[121.291881,23.724501],[121.291784,23.72441],[121.291882,23.724411],[121.291881,23.724501]]],[[[121.292558,23.725231],[121.292458,23.725411],[121.292361,23.725319],[121.292164,23.725407],[121.292161,23.725588],[121.291964,23.725676],[121.292057,23.726038],[121.291562,23.726394],[121.292347,23.726403],[121.292252,23.726131],[121.292841,23.726137],[121.293035,23.72632],[121.293525,23.726325],[121.293627,23.726056],[121.29392,23.726149],[121.293922,23.725969],[121.29451,23.725975],[121.294413,23.725884],[121.294416,23.725703],[121.294514,23.725704],[121.294422,23.725252],[121.294619,23.725164],[121.294523,23.724982],[121.294228,23.725069],[121.294321,23.725431],[121.294127,23.725248],[121.293734,23.725334],[121.29383,23.725516],[121.294026,23.725518],[121.294119,23.72588],[121.293923,23.725878],[121.293925,23.725698],[121.293635,23.725424],[121.293439,23.725421],[121.293246,23.725148],[121.293049,23.725236],[121.293241,23.72551],[121.292947,23.725506],[121.292853,23.725234],[121.292558,23.725231]],[[121.292947,23.725506],[121.292848,23.725595],[121.292849,23.725505],[121.292947,23.725506]],[[121.293237,23.725871],[121.29314,23.725779],[121.293434,23.725783],[121.293528,23.726054],[121.293331,23.726143],[121.293237,23.725871]]]]}},{"type":"Feature","properties":{"kind":"bare_dam","month":"2023-05","area_ha":29.78},"geometry":{"type":"MultiPolygon","coordinates":[[[[121.298708,23.689721],[121.298805,23.689812],[121.298806,23.689722],[121.298708,23.689721]]],[[[121.298705,23.689902],[121.298608,23.68981],[121.298607,23.6899],[121.298705,23.689902]]],[[[121.301934,23.690479],[121.302034,23.690299],[121.301741,23.690206],[121.301641,23.690385],[121.301934,23.690479]]],[[[121.300154,23.691633],[121.300253,23.691544],[121.300448,23.691636],[121.300548,23.691457],[121.30094,23.691461],[121.300939,23.691551],[121.301333,23.691466],[121.301524,23.691829],[121.301721,23.691741],[121.301628,23.691378],[121.301925,23.691111],[121.301534,23.691016],[121.30144,23.690744],[121.300949,23.690829],[121.300854,23.690557],[121.300756,23.690556],[121.300858,23.690286],[121.301543,23.690384],[121.301642,23.690295],[121.301546,23.690113],[121.301252,23.69011],[121.300863,23.689835],[121.300373,23.68983],[121.300374,23.689739],[121.299394,23.689729],[121.29949,23.68991],[121.299291,23.690089],[121.298998,23.689995],[121.2988,23.690173],[121.298607,23.6899],[121.298215,23.689896],[121.297522,23.69043],[121.297613,23.690973],[121.297903,23.691247],[121.298297,23.691161],[121.298392,23.691343],[121.29898,23.69144],[121.299173,23.691622],[121.299369,23.691625],[121.299371,23.691534],[121.29986,23.69163],[121.300058,23.691452],[121.300154,23.691633]],[[121.29996,23.69145],[121.299863,23.691359],[121.299961,23.69136],[121.29996,23.69145]],[[121.299769,23.691087],[121.299968,23.690818],[121.300163,23.690911],[121.299963,23.69118],[121.299769,23.691087]],[[121.299877,23.690276],[121.300072,23.690368],[121.300069,23.690639],[121.299874,23.690546],[121.299877,23.690276]]],[[[121.304543,23.693397],[121.304643,23.693308],[121.304547,23.693126],[121.304448,23.693215],[121.304253,23.693123],[121.304256,23.692852],[121.304061,23.69276],[121.304064,23.692579],[121.303771,23.692486],[121.303672,23.692575],[121.303665,23.693116],[121.303858,23.693299],[121.304152,23.693302],[121.304248,23.693484],[121.304543,23.693397]]],[[[121.301393,23.694356],[121.301294,23.694445],[121.301682,23.69481],[121.302075,23.694724],[121.301882,23.694451],[121.301686,23.694449],[121.3014,23.693814],[121.301107,23.693721],[121.300818,23.693356],[121.300525,23.693263],[121.300527,23.693082],[121.300332,23.69299],[121.300336,23.692719],[121.300045,23.692445],[121.299849,23.692443],[121.29956,23.692078],[121.299166,23.692164],[121.298779,23.691799],[121.298781,23.691618],[121.298391,23.691433],[121.298291,23.691613],[121.298389,23.691614],[121.298482,23.691976],[121.298187,23.692063],[121.298184,23.692334],[121.298378,23.692426],[121.298279,23.692516],[121.298373,23.692878],[121.298568,23.69297],[121.298564,23.693241],[121.298759,23.693334],[121.298757,23.693514],[121.298659,23.693513],[121.298753,23.693785],[121.299144,23.69388],[121.299142,23.69406],[121.299533,23.694155],[121.299532,23.694245],[121.29973,23.694067],[121.300024,23.69407],[121.300315,23.694344],[121.300417,23.693984],[121.300614,23.693986],[121.301001,23.694351],[121.301299,23.694084],[121.301393,23.694356]],[[121.301201,23.694083],[121.301104,23.693991],[121.301202,23.693992],[121.301201,23.694083]],[[121.300223,23.693891],[121.300126,23.6938],[121.300224,23.693801],[121.300223,23.693891]],[[121.299444,23.693431],[121.299344,23.693611],[121.299246,23.69361],[121.299248,23.693429],[121.299444,23.693431]],[[121.300328,23.693351],[121.300231,23.693259],[121.300329,23.69326],[121.300328,23.693351]]],[[[121.298966,23.700018],[121.298868,23.700017],[121.298776,23.699564],[121.298874,23.699565],[121.298878,23.699295],[121.299076,23.699116],[121.299181,23.698576],[121.299577,23.698309],[121.300361,23.698318],[121.300363,23.698227],[121.30095,23.698324],[121.302041,23.697343],[121.302335,23.697346],[121.302634,23.696988],[121.302928,23.696991],[121.303027,23.696902],[121.302933,23.69663],[121.303229,23.696453],[121.303234,23.696092],[121.303332,23.696093],[121.303239,23.69573],[121.302147,23.696712],[121.302044,23.697072],[121.301648,23.697429],[121.300863,23.69742],[121.300864,23.69733],[121.300569,23.697417],[121.30057,23.697327],[121.300276,23.697323],[121.300277,23.697233],[121.299984,23.69714],[121.299983,23.69723],[121.299688,23.697317],[121.299784,23.697499],[121.299488,23.697586],[121.299295,23.697403],[121.299394,23.697314],[121.2994,23.696862],[121.299012,23.696497],[121.299027,23.695323],[121.298736,23.695139],[121.298838,23.694779],[121.298545,23.694686],[121.298445,23.694865],[121.298249,23.694863],[121.298056,23.69459],[121.297565,23.694675],[121.29746,23.695216],[121.297655,23.695308],[121.297651,23.695579],[121.297749,23.69558],[121.297646,23.69594],[121.297841,23.696032],[121.297838,23.696303],[121.297639,23.696482],[121.29793,23.696756],[121.297927,23.697027],[121.29822,23.69712],[121.298313,23.697482],[121.298508,23.697575],[121.298707,23.697306],[121.298904,23.697308],[121.2989,23.697579],[121.299291,23.697674],[121.299387,23.697855],[121.299585,23.697677],[121.299878,23.69777],[121.299979,23.697591],[121.300175,23.697593],[121.299777,23.69804],[121.299482,23.698037],[121.299382,23.698217],[121.298794,23.69821],[121.298793,23.6983],[121.298599,23.698118],[121.298702,23.697758],[121.298507,23.697665],[121.298308,23.697844],[121.298202,23.698474],[121.297904,23.698742],[121.297898,23.699194],[121.2978,23.699192],[121.297698,23.699553],[121.297303,23.699729],[121.297399,23.69991],[121.297888,23.700006],[121.297789,23.700095],[121.297882,23.700458],[121.299059,23.70047],[121.298966,23.700018]],[[121.300666,23.697508],[121.300662,23.697779],[121.300466,23.697777],[121.300469,23.697596],[121.300666,23.697508]],[[121.298713,23.696855],[121.298616,23.696763],[121.298714,23.696764],[121.298713,23.696855]],[[121.298527,23.69613],[121.298626,23.696041],[121.298625,23.696131],[121.298527,23.69613]],[[121.298528,23.69604],[121.298431,23.695949],[121.298529,23.69595],[121.298528,23.69604]],[[121.297948,23.695401],[121.297851,23.69531],[121.297949,23.695311],[121.297948,23.695401]],[[121.297855,23.694949],[121.297858,23.694768],[121.297956,23.694769],[121.297953,23.69495],[121.297855,23.694949]]],[[[121.295348,23.699256],[121.295643,23.699169],[121.295941,23.698901],[121.296137,23.698903],[121.296523,23.699359],[121.296722,23.699181],[121.29643,23.698997],[121.296336,23.698725],[121.295846,23.698629],[121.295746,23.698809],[121.29555,23.698806],[121.29535,23.699075],[121.295055,23.699162],[121.295151,23.699344],[121.295347,23.699346],[121.295348,23.699256]]],[[[121.294959,23.698981],[121.294761,23.699159],[121.294956,23.699251],[121.295056,23.699072],[121.294959,23.698981]]],[[[121.312363,23.687703],[121.312458,23.687975],[121.312653,23.688068],[121.312752,23.687978],[121.312754,23.687798],[121.312656,23.687797],[121.31276,23.687346],[121.31237,23.687162],[121.312374,23.686891],[121.312277,23.686799],[121.311885,23.686795],[121.311883,23.686885],[121.311492,23.686791],[121.311393,23.68688],[121.311489,23.687062],[121.311391,23.687061],[121.311288,23.687421],[121.311483,23.687513],[121.311586,23.687153],[121.311978,23.687157],[121.312172,23.68734],[121.312265,23.687702],[121.312363,23.687703]],[[121.312172,23.68734],[121.312271,23.687251],[121.31227,23.687341],[121.312172,23.68734]]],[[[121.311581,23.687514],[121.311184,23.687871],[121.311379,23.687963],[121.311777,23.687516],[121.311582,23.687424],[121.311581,23.687514]]],[[[121.310585,23.688767],[121.311177,23.688413],[121.311083,23.688141],[121.310884,23.688319],[121.310491,23.688405],[121.310292,23.688674],[121.310585,23.688767]]],[[[121.308912,23.689201],[121.309209,23.689023],[121.309113,23.688842],[121.308917,23.68884],[121.308619,23.689107],[121.308616,23.689378],[121.308811,23.68947],[121.308912,23.689201]]],[[[121.308792,23.690915],[121.30909,23.690647],[121.308797,23.690554],[121.3088,23.690283],[121.308702,23.690282],[121.308609,23.68992],[121.308414,23.689827],[121.308313,23.690007],[121.308507,23.69019],[121.308499,23.690822],[121.308596,23.690913],[121.308793,23.690825],[121.308792,23.690915]]],[[[121.308688,23.691365],[121.308884,23.691368],[121.308985,23.691188],[121.308595,23.691003],[121.308395,23.691272],[121.308492,23.691363],[121.308689,23.691275],[121.308688,23.691365]]],[[[121.308294,23.691542],[121.308488,23.691634],[121.308589,23.691455],[121.308198,23.69136],[121.307998,23.691629],[121.308193,23.691721],[121.308294,23.691542]]],[[[121.306221,23.692603],[121.306414,23.692785],[121.306712,23.692518],[121.306518,23.692335],[121.30662,23.692065],[121.306523,23.691974],[121.306424,23.692063],[121.305837,23.691966],[121.305742,23.691694],[121.305546,23.691692],[121.305545,23.691783],[121.305252,23.691689],[121.304953,23.692047],[121.304757,23.692045],[121.304663,23.691773],[121.304464,23.691951],[121.303973,23.692036],[121.303488,23.691579],[121.303292,23.691577],[121.303098,23.691395],[121.302705,23.691481],[121.302706,23.69139],[121.302315,23.691296],[121.30222,23.691114],[121.301924,23.691201],[121.302118,23.691384],[121.302019,23.691473],[121.302115,23.691655],[121.302995,23.691845],[121.303479,23.692302],[121.304164,23.6924],[121.304364,23.692131],[121.304658,23.692134],[121.304754,23.692316],[121.305048,23.692319],[121.305248,23.69196],[121.305543,23.691963],[121.30593,23.692329],[121.305827,23.692689],[121.306022,23.692781],[121.306221,23.692603]]],[[[121.303923,23.695919],[121.303925,23.695738],[121.304121,23.69574],[121.304221,23.695561],[121.304318,23.695652],[121.304614,23.695565],[121.30511,23.695119],[121.305014,23.694937],[121.305411,23.69458],[121.305706,23.694493],[121.305611,23.694221],[121.305513,23.69422],[121.305712,23.694042],[121.305617,23.69377],[121.30532,23.694038],[121.304532,23.6943],[121.304233,23.694658],[121.30384,23.694744],[121.303933,23.695106],[121.303736,23.695194],[121.303733,23.695375],[121.303635,23.695374],[121.30373,23.695646],[121.303431,23.696003],[121.303723,23.696187],[121.303824,23.695918],[121.303923,23.695919]],[[121.304223,23.69547],[121.304322,23.695381],[121.304321,23.695471],[121.304223,23.69547]],[[121.305118,23.694487],[121.305217,23.694398],[121.305216,23.694488],[121.305118,23.694487]]]]}},{"type":"Feature","properties":{"kind":"water","month":"2023-05","area_ha":0.67},"geometry":{"type":"MultiPolygon","coordinates":[[[[121.298599,23.698118],[121.298894,23.698031],[121.298892,23.698211],[121.299382,23.698217],[121.299482,23.698037],[121.299777,23.69804],[121.299878,23.69777],[121.299681,23.697859],[121.299683,23.697678],[121.299585,23.697677],[121.299387,23.697855],[121.299291,23.697674],[121.298899,23.697669],[121.298904,23.697308],[121.298707,23.697306],[121.298608,23.697395],[121.298604,23.697756],[121.298702,23.697758],[121.298599,23.698118]]],[[[121.298695,23.698299],[121.298793,23.6983],[121.298795,23.69812],[121.298697,23.698119],[121.298695,23.698299]]]]}}]}