{"type":"FeatureCollection","features":[{"type":"Feature","properties":{"kind":"bare_slide","month":"2023-03","area_ha":120.43},"geometry":{"type":"MultiPolygon","coordinates":[[[[121.297239,23.712189],[121.29773,23.712195],[121.297829,23.712106],[121.297831,23.711925],[121.298326,23.711569],[121.298333,23.711027],[121.298431,23.711029],[121.298345,23.710125],[121.297956,23.709849],[121.297862,23.709578],[121.297471,23.709483],[121.297577,23.708852],[121.297775,23.708674],[121.297972,23.708676],[121.298073,23.708406],[121.298171,23.708407],[121.298077,23.708135],[121.297979,23.708134],[121.297981,23.707953],[121.298079,23.707955],[121.298086,23.707413],[121.297989,23.707321],[121.297596,23.707407],[121.297595,23.707498],[121.2973,23.707494],[121.297003,23.707762],[121.297098,23.707944],[121.297491,23.707948],[121.297492,23.707858],[121.297883,23.707952],[121.297778,23.708493],[121.297484,23.70849],[121.297186,23.708757],[121.297181,23.709119],[121.296788,23.709205],[121.296982,23.709387],[121.296979,23.709568],[121.297173,23.709751],[121.297369,23.709753],[121.297269,23.709932],[121.297561,23.710116],[121.297654,23.710478],[121.297946,23.710662],[121.297843,23.711022],[121.297745,23.711021],[121.297738,23.711563],[121.296656,23.711822],[121.296653,23.712002],[121.296847,23.712185],[121.297043,23.712187],[121.297045,23.712097],[121.297241,23.712099],[121.297239,23.712189]]],[[[121.298379,23.715091],[121.298285,23.714729],[121.298187,23.714728],[121.298292,23.714188],[121.297614,23.713548],[121.297409,23.714268],[121.297211,23.714356],[121.297209,23.714537],[121.297697,23.714723],[121.297793,23.714904],[121.297989,23.714907],[121.298181,23.71518],[121.298379,23.715091]]],[[[121.28376,23.715562],[121.28406,23.715114],[121.284356,23.714937],[121.284359,23.714756],[121.284066,23.714662],[121.28407,23.714301],[121.284567,23.713855],[121.284473,23.713493],[121.284275,23.713671],[121.284079,23.713669],[121.282987,23.71465],[121.282981,23.715102],[121.283078,23.715193],[121.283274,23.715195],[121.283563,23.71556],[121.28376,23.715562]]],[[[121.286909,23.714694],[121.287009,23.714605],[121.286913,23.714423],[121.286617,23.71451],[121.286713,23.714692],[121.286909,23.714694]]],[[[121.298135,23.718791],[121.298338,23.718251],[121.298633,23.718164],[121.298831,23.717986],[121.298934,23.717626],[121.299032,23.717627],[121.298939,23.717265],[121.298742,23.717353],[121.298739,23.717533],[121.298542,23.717622],[121.29854,23.717802],[121.298143,23.718159],[121.29814,23.71834],[121.297645,23.718695],[121.297642,23.718966],[121.297935,23.71906],[121.298036,23.71879],[121.298135,23.718791]]],[[[121.291001,23.724311],[121.2908,23.72467],[121.290605,23.724577],[121.290407,23.724756],[121.290504,23.724847],[121.290403,23.725027],[121.290892,23.725122],[121.29089,23.725303],[121.290593,23.72548],[121.290689,23.725662],[121.291276,23.725759],[121.291475,23.72558],[121.291379,23.725399],[121.29207,23.725045],[121.292081,23.724233],[121.292279,23.724054],[121.292188,23.723511],[121.291705,23.722964],[121.291508,23.723052],[121.291602,23.723324],[121.2917,23.723325],[121.291693,23.723867],[121.291791,23.723868],[121.291788,23.724139],[121.29169,23.724138],[121.291588,23.724408],[121.291294,23.724404],[121.291304,23.723682],[121.291205,23.723681],[121.291209,23.72341],[121.291111,23.723409],[121.291212,23.723139],[121.291311,23.72314],[121.291215,23.722959],[121.291019,23.722957],[121.291018,23.723047],[121.290626,23.722952],[121.290427,23.723221],[121.289935,23.723306],[121.289638,23.723573],[121.289441,23.723571],[121.289346,23.72339],[121.289444,23.723391],[121.289547,23.723031],[121.289744,23.722943],[121.289746,23.722762],[121.289942,23.722764],[121.290044,23.722494],[121.290241,23.722406],[121.290444,23.721867],[121.290641,23.721869],[121.290742,23.721599],[121.291036,23.721602],[121.291235,23.721424],[121.291048,23.720699],[121.290759,23.720335],[121.290765,23.719884],[121.291062,23.719616],[121.291071,23.718984],[121.291269,23.718806],[121.291563,23.718809],[121.291562,23.718899],[121.291857,23.718812],[121.292147,23.719177],[121.292344,23.719088],[121.292251,23.718726],[121.291861,23.718541],[121.291864,23.71827],[121.291962,23.718271],[121.292168,23.717551],[121.292266,23.717552],[121.292361,23.717824],[121.292557,23.717827],[121.292755,23.717648],[121.292759,23.717377],[121.292467,23.717193],[121.292473,23.716742],[121.292671,23.716564],[121.293063,23.716568],[121.293164,23.716388],[121.293557,23.716303],[121.293658,23.716123],[121.293561,23.716032],[121.293265,23.716119],[121.293264,23.716209],[121.292677,23.716112],[121.292475,23.716561],[121.292179,23.716739],[121.292176,23.716919],[121.291978,23.717098],[121.291974,23.717369],[121.291582,23.717364],[121.291185,23.717721],[121.290694,23.717806],[121.290593,23.717985],[121.290495,23.717984],[121.2905,23.717623],[121.290305,23.717531],[121.290206,23.71762],[121.290202,23.717891],[121.2903,23.717892],[121.290197,23.718252],[121.289904,23.718158],[121.290006,23.717889],[121.289908,23.717888],[121.289914,23.717436],[121.289817,23.717345],[121.290213,23.717078],[121.290118,23.716806],[121.29051,23.716811],[121.290612,23.716541],[121.29091,23.716273],[121.291106,23.716275],[121.291304,23.716097],[121.291307,23.715916],[121.291702,23.71565],[121.291705,23.715469],[121.292,23.715382],[121.292101,23.715203],[121.292391,23.715477],[121.292587,23.715479],[121.292688,23.7153],[121.292982,23.715303],[121.293076,23.715575],[121.293568,23.71549],[121.293569,23.7154],[121.293961,23.715404],[121.293759,23.715853],[121.293661,23.715852],[121.293757,23.716034],[121.293856,23.715945],[121.294052,23.715947],[121.294051,23.716037],[121.294445,23.715951],[121.294643,23.715773],[121.294645,23.715592],[121.29494,23.715595],[121.295035,23.715777],[121.295231,23.715779],[121.295325,23.716141],[121.295522,23.716053],[121.295524,23.715873],[121.295719,23.715965],[121.295918,23.715787],[121.295822,23.715605],[121.295526,23.715782],[121.295527,23.715692],[121.295331,23.71569],[121.295333,23.715509],[121.294849,23.715053],[121.294259,23.715136],[121.294261,23.714956],[121.294557,23.714869],[121.294756,23.7146],[121.294952,23.714602],[121.295549,23.713977],[121.295745,23.713979],[121.295944,23.7138],[121.295947,23.71353],[121.296144,23.713441],[121.296148,23.713171],[121.296246,23.713172],[121.29625,23.712901],[121.296348,23.712902],[121.296351,23.712631],[121.296253,23.71263],[121.296353,23.71245],[121.296257,23.712359],[121.295862,23.712535],[121.295957,23.712807],[121.295758,23.712986],[121.295464,23.712982],[121.295068,23.713249],[121.294677,23.713154],[121.294476,23.713513],[121.294182,23.71351],[121.294082,23.71369],[121.29359,23.713775],[121.293293,23.714042],[121.29329,23.714223],[121.293193,23.714131],[121.292409,23.714123],[121.29231,23.714212],[121.292403,23.714574],[121.292204,23.714753],[121.292008,23.71475],[121.292013,23.714389],[121.291915,23.714388],[121.29182,23.714116],[121.291622,23.714295],[121.291035,23.714198],[121.290836,23.714376],[121.290542,23.714373],[121.290343,23.714642],[121.290051,23.714458],[121.289752,23.714816],[121.289361,23.714721],[121.289161,23.71499],[121.288867,23.714987],[121.288868,23.714896],[121.288574,23.714893],[121.288575,23.714803],[121.288476,23.714892],[121.287987,23.714796],[121.287989,23.714616],[121.288188,23.714437],[121.287895,23.714344],[121.287696,23.714522],[121.287788,23.714975],[121.287298,23.714969],[121.287297,23.715059],[121.287004,23.714966],[121.286903,23.715145],[121.286609,23.715142],[121.286612,23.714962],[121.28681,23.714783],[121.286712,23.714782],[121.286616,23.7146],[121.28642,23.714598],[121.286319,23.714868],[121.286512,23.715051],[121.286315,23.715139],[121.286213,23.715409],[121.285329,23.715579],[121.285129,23.715848],[121.284933,23.715846],[121.284634,23.716204],[121.284339,23.716291],[121.284236,23.716651],[121.28404,23.716649],[121.284042,23.716468],[121.283847,23.716376],[121.283649,23.716554],[121.283646,23.716735],[121.283253,23.716821],[121.283348,23.717002],[121.283643,23.717006],[121.283743,23.716826],[121.283939,23.716828],[121.283937,23.717009],[121.283244,23.717453],[121.283135,23.718354],[121.28333,23.718447],[121.283325,23.718808],[121.283128,23.718896],[121.283125,23.719077],[121.282534,23.719251],[121.282532,23.719431],[121.282825,23.719525],[121.282824,23.719615],[121.282628,23.719613],[121.282428,23.719882],[121.281839,23.719965],[121.28164,23.720144],[121.281732,23.720596],[121.282023,23.72087],[121.282317,23.720874],[121.282515,23.720695],[121.28281,23.720699],[121.283504,23.720074],[121.283507,23.719894],[121.283804,23.719626],[121.2841,23.719539],[121.284204,23.719089],[121.284301,23.71918],[121.284498,23.719092],[121.284497,23.719182],[121.284791,23.719185],[121.28479,23.719276],[121.285085,23.719189],[121.285376,23.719463],[121.285371,23.719824],[121.285273,23.719823],[121.285366,23.720185],[121.285169,23.720273],[121.285065,23.720724],[121.284869,23.720721],[121.284671,23.7209],[121.284666,23.721261],[121.284467,23.721439],[121.284362,23.72198],[121.283966,23.722246],[121.284256,23.722611],[121.284551,23.722524],[121.284556,23.722163],[121.284654,23.722164],[121.28475,23.722345],[121.284947,23.722257],[121.284943,23.722528],[121.285233,23.722893],[121.285527,23.722896],[121.285623,23.723077],[121.285918,23.72299],[121.285917,23.723081],[121.286211,23.723084],[121.286405,23.723267],[121.286699,23.72327],[121.287002,23.722641],[121.287195,23.722824],[121.287393,23.722736],[121.287499,23.722105],[121.287597,23.722106],[121.287503,23.721834],[121.287602,23.721745],[121.287699,23.721836],[121.287896,23.721748],[121.288187,23.722022],[121.288188,23.721932],[121.28858,23.721936],[121.288782,23.721487],[121.288977,23.72158],[121.289072,23.721851],[121.28966,23.721858],[121.289661,23.721768],[121.290055,23.721682],[121.290051,23.721953],[121.289457,23.722398],[121.289454,23.722578],[121.289159,23.722665],[121.288463,23.72338],[121.288169,23.723377],[121.287772,23.723733],[121.28777,23.723914],[121.287868,23.723915],[121.287864,23.724186],[121.287962,23.724187],[121.288056,23.724549],[121.28835,23.724552],[121.28845,23.724373],[121.288943,23.724198],[121.288941,23.724378],[121.288743,23.724467],[121.288937,23.724649],[121.289135,23.724471],[121.289439,23.723752],[121.289537,23.723753],[121.289632,23.724025],[121.28983,23.723846],[121.290222,23.723851],[121.29022,23.724031],[121.289922,23.724299],[121.290018,23.724481],[121.290217,23.724302],[121.29061,23.724216],[121.290712,23.723946],[121.29081,23.723948],[121.290714,23.723766],[121.29091,23.723768],[121.290903,23.72431],[121.291001,23.724311]],[[121.290297,23.718163],[121.290393,23.718254],[121.290295,23.718253],[121.290297,23.718163]],[[121.289818,23.717255],[121.28962,23.717433],[121.289623,23.717162],[121.289818,23.717255]],[[121.294259,23.715136],[121.29416,23.715226],[121.294161,23.715135],[121.294259,23.715136]],[[121.289752,23.714816],[121.289849,23.714907],[121.289751,23.714906],[121.289752,23.714816]],[[121.284947,23.722257],[121.285046,23.722168],[121.285045,23.722258],[121.284947,23.722257]],[[121.290714,23.723766],[121.290617,23.723675],[121.290715,23.723676],[121.290714,23.723766]],[[121.289042,23.724109],[121.288944,23.724108],[121.288946,23.723927],[121.289044,23.723928],[121.289042,23.724109]],[[121.289048,23.723657],[121.289146,23.723658],[121.289143,23.723929],[121.289044,23.723928],[121.289048,23.723657]],[[121.290618,23.723584],[121.290717,23.723495],[121.290716,23.723585],[121.290618,23.723584]],[[121.285448,23.72145],[121.285644,23.721452],[121.285642,23.721633],[121.285345,23.72181],[121.285251,23.721538],[121.285447,23.72154],[121.285448,23.72145]],[[121.288587,23.721395],[121.288686,23.721305],[121.288685,23.721396],[121.288587,23.721395]],[[121.289279,23.720951],[121.289574,23.720954],[121.289471,23.721314],[121.289178,23.721221],[121.289279,23.720951]],[[121.284962,23.721084],[121.285062,23.720994],[121.28506,23.721085],[121.284962,23.721084]],[[121.28673,23.720923],[121.286829,23.720833],[121.286828,23.720924],[121.28673,23.720923]],[[121.288007,23.720756],[121.288106,23.720667],[121.288105,23.720757],[121.288007,23.720756]],[[121.286736,23.720471],[121.28644,23.720558],[121.286444,23.720287],[121.28664,23.720289],[121.286736,23.720471]],[[121.28752,23.72048],[121.287128,23.720475],[121.287129,23.720385],[121.287523,23.720299],[121.28752,23.72048]],[[121.288409,23.720038],[121.289095,23.720046],[121.28919,23.720318],[121.288894,23.720405],[121.288893,23.720495],[121.288796,23.720404],[121.288502,23.7204],[121.288501,23.720491],[121.288208,23.720397],[121.288109,23.720486],[121.288015,23.720124],[121.288408,23.720128],[121.288409,23.720038]],[[121.287823,23.719851],[121.287429,23.719937],[121.287434,23.719576],[121.287728,23.719579],[121.287823,23.719851]],[[121.290179,23.719697],[121.290278,23.719607],[121.290277,23.719698],[121.290179,23.719697]],[[121.283318,23.71935],[121.283614,23.719172],[121.283611,23.719443],[121.283315,23.71953],[121.283318,23.71935]],[[121.287238,23.719574],[121.287042,23.719572],[121.287043,23.719481],[121.28724,23.719393],[121.287238,23.719574]],[[121.288417,23.719406],[121.288516,23.719317],[121.288515,23.719407],[121.288417,23.719406]],[[121.290281,23.719337],[121.290381,23.719247],[121.290379,23.719338],[121.290281,23.719337]],[[121.289698,23.718969],[121.289601,23.718877],[121.289109,23.718962],[121.28951,23.718335],[121.289804,23.718338],[121.289898,23.71861],[121.29029,23.718705],[121.290286,23.718975],[121.289795,23.71906],[121.28989,23.719242],[121.2894,23.719236],[121.289698,23.718969]],[[121.284402,23.71891],[121.284113,23.718546],[121.284407,23.718549],[121.284795,23.718915],[121.284402,23.71891]],[[121.286464,23.718752],[121.286566,23.718483],[121.286371,23.71839],[121.286373,23.71821],[121.28657,23.718122],[121.286954,23.718758],[121.286658,23.718935],[121.286464,23.718752]],[[121.284896,23.718645],[121.284411,23.718278],[121.284511,23.718099],[121.284802,23.718373],[121.285096,23.718376],[121.285192,23.718558],[121.284896,23.718645]],[[121.283723,23.718361],[121.283919,23.718363],[121.283918,23.718453],[121.283722,23.718451],[121.283723,23.718361]],[[121.285984,23.717934],[121.28618,23.717937],[121.286179,23.718027],[121.285983,23.718025],[121.285984,23.717934]],[[121.285007,23.717653],[121.285401,23.717567],[121.285496,23.717748],[121.2852,23.717926],[121.285007,23.717653]],[[121.286772,23.717672],[121.286868,23.717854],[121.286671,23.717942],[121.286576,23.71767],[121.286772,23.717672]],[[121.287165,23.717677],[121.287263,23.717678],[121.287259,23.717949],[121.287161,23.717947],[121.287165,23.717677]],[[121.289231,23.717158],[121.289035,23.717156],[121.289136,23.716886],[121.289233,23.716977],[121.289529,23.71689],[121.289231,23.717158]],[[121.289529,23.71689],[121.289628,23.716801],[121.289627,23.716891],[121.289529,23.71689]],[[121.285219,23.716481],[121.285415,23.716483],[121.285416,23.716393],[121.285611,23.716486],[121.285713,23.716216],[121.286108,23.715949],[121.286111,23.715769],[121.286307,23.715771],[121.286506,23.715502],[121.286801,23.715505],[121.286601,23.715774],[121.286893,23.715958],[121.286889,23.716229],[121.286594,23.716316],[121.28659,23.716587],[121.286688,23.716588],[121.286587,23.716858],[121.28649,23.716766],[121.286195,23.716853],[121.286198,23.716582],[121.286296,23.716583],[121.2862,23.716402],[121.286004,23.7164],[121.285704,23.716848],[121.285607,23.716756],[121.285411,23.716754],[121.28541,23.716845],[121.285117,23.716751],[121.285219,23.716481]],[[121.288548,23.716879],[121.288647,23.71679],[121.288646,23.71688],[121.288548,23.716879]],[[121.289726,23.716802],[121.289825,23.716713],[121.289824,23.716803],[121.289726,23.716802]],[[121.289438,23.716347],[121.289634,23.716349],[121.289633,23.71644],[121.289336,23.716617],[121.28924,23.716435],[121.289436,23.716438],[121.289438,23.716347]],[[121.286886,23.7165],[121.286985,23.71641],[121.286984,23.716501],[121.286886,23.7165]],[[121.28787,23.71624],[121.287771,23.716329],[121.287772,23.716239],[121.28787,23.71624]],[[121.28787,23.71624],[121.287969,23.71615],[121.287968,23.716241],[121.28787,23.71624]],[[121.28993,23.716172],[121.290126,23.716174],[121.290124,23.716355],[121.289928,23.716353],[121.28993,23.716172]],[[121.288268,23.715793],[121.288366,23.715794],[121.288362,23.716065],[121.288264,23.716063],[121.288268,23.715793]],[[121.289049,23.716072],[121.289348,23.715714],[121.289345,23.715895],[121.289247,23.715894],[121.289245,23.716074],[121.289049,23.716072]],[[121.290325,23.715996],[121.290623,23.715728],[121.290625,23.715548],[121.290234,23.715453],[121.290237,23.715182],[121.290535,23.714915],[121.290828,23.715008],[121.291027,23.71483],[121.291121,23.715102],[121.291316,23.715194],[121.291311,23.715555],[121.291115,23.715553],[121.290816,23.715911],[121.290325,23.715996]],[[121.287982,23.715157],[121.288474,23.715072],[121.288469,23.715434],[121.288275,23.715251],[121.287981,23.715248],[121.287982,23.715157]],[[121.28965,23.715085],[121.289749,23.714996],[121.289748,23.715087],[121.28965,23.715085]]],[[[121.292439,23.71936],[121.292245,23.719178],[121.292144,23.719357],[121.292339,23.71945],[121.292439,23.71936]]],[[[121.292534,23.719542],[121.292437,23.719451],[121.29224,23.719539],[121.292335,23.719811],[121.292532,23.719723],[121.292534,23.719542]]],[[[121.296914,23.722119],[121.296917,23.721938],[121.296722,23.721846],[121.296521,23.722205],[121.296716,23.722297],[121.296914,23.722119]]],[[[121.292104,23.722427],[121.291911,23.722244],[121.291715,23.722242],[121.291417,23.72251],[121.291315,23.722779],[121.291608,23.722873],[121.291808,23.722604],[121.292004,23.722606],[121.292104,23.722427]]],[[[121.292226,23.720622],[121.292035,23.720259],[121.291837,23.720347],[121.291831,23.720798],[121.291733,23.720797],[121.291822,23.721521],[121.291724,23.72152],[121.291722,23.7217],[121.291819,23.721792],[121.292016,23.721703],[121.292012,23.721974],[121.292305,23.722068],[121.292301,23.722429],[121.292102,23.722607],[121.292296,23.72279],[121.292385,23.723513],[121.292774,23.723698],[121.292868,23.724061],[121.293064,23.724063],[121.293062,23.724243],[121.292765,23.724421],[121.292763,23.724601],[121.292564,23.72478],[121.293049,23.725236],[121.292557,23.725321],[121.292457,23.725501],[121.292164,23.725407],[121.292064,23.725497],[121.292059,23.725948],[121.291961,23.725947],[121.292056,23.726129],[121.291565,23.726213],[121.291562,23.726394],[121.292935,23.726409],[121.292937,23.726319],[121.292544,23.726315],[121.292545,23.726224],[121.292348,23.726312],[121.292352,23.726041],[121.29294,23.726048],[121.29304,23.725868],[121.293332,23.726052],[121.293133,23.726321],[121.293525,23.726325],[121.293527,23.726145],[121.29392,23.726149],[121.293922,23.725969],[121.29451,23.725975],[121.294413,23.725884],[121.294417,23.725613],[121.294515,23.725614],[121.294422,23.725252],[121.29452,23.725253],[121.294528,23.724621],[121.294627,23.724532],[121.29492,23.724625],[121.295014,23.724987],[121.295699,23.725085],[121.2954,23.725443],[121.295791,23.725538],[121.295882,23.72608],[121.296076,23.726263],[121.296664,23.72627],[121.296764,23.72618],[121.296954,23.726634],[121.297446,23.726459],[121.297546,23.72637],[121.29745,23.726188],[121.297155,23.726275],[121.296864,23.726001],[121.296869,23.72564],[121.296771,23.725639],[121.296676,23.725367],[121.297171,23.725011],[121.297173,23.72483],[121.297466,23.724924],[121.297863,23.724567],[121.297967,23.724117],[121.297675,23.723933],[121.297375,23.724381],[121.297182,23.724198],[121.296983,23.724377],[121.296787,23.724375],[121.297089,23.723746],[121.296799,23.723472],[121.296603,23.72347],[121.296503,23.723559],[121.296596,23.724011],[121.296199,23.724368],[121.295805,23.724454],[121.295803,23.724635],[121.2959,23.724726],[121.296097,23.724638],[121.296193,23.72482],[121.295799,23.724906],[121.295705,23.724634],[121.295414,23.72436],[121.295217,23.724448],[121.295221,23.724087],[121.294928,23.723993],[121.294932,23.723722],[121.29503,23.723723],[121.294933,23.723632],[121.294941,23.723],[121.295139,23.722912],[121.295245,23.722281],[121.295738,23.722106],[121.295936,23.721927],[121.295938,23.721747],[121.296431,23.721572],[121.296432,23.721481],[121.29653,23.721482],[121.296527,23.721753],[121.296722,23.721846],[121.296923,23.721487],[121.297316,23.721401],[121.297223,23.721038],[121.296926,23.721216],[121.29693,23.720945],[121.297323,23.720859],[121.297226,23.720768],[121.29733,23.720317],[121.297135,23.720225],[121.297143,23.719593],[121.297241,23.719594],[121.29715,23.719051],[121.296955,23.718959],[121.296954,23.719049],[121.296561,23.719135],[121.296558,23.719315],[121.296753,23.719408],[121.296749,23.719769],[121.296551,23.719857],[121.296549,23.720038],[121.296351,23.720216],[121.296445,23.720488],[121.296543,23.720489],[121.296539,23.72085],[121.296047,23.720935],[121.295845,23.721384],[121.295547,23.721652],[121.294959,23.721646],[121.294958,23.721736],[121.294665,23.721642],[121.294466,23.721821],[121.294854,23.722186],[121.294749,23.722727],[121.294455,23.722724],[121.294554,23.722634],[121.294561,23.722093],[121.294367,23.72191],[121.294171,23.721908],[121.29397,23.722267],[121.293775,23.722174],[121.29378,23.721813],[121.293585,23.721721],[121.293588,23.72145],[121.293006,23.720992],[121.293014,23.72036],[121.292916,23.720359],[121.292918,23.720178],[121.292629,23.719814],[121.292432,23.719902],[121.292625,23.720085],[121.292519,23.720716],[121.292126,23.720802],[121.292128,23.720621],[121.292226,23.720622]],[[121.294749,23.722727],[121.294846,23.722818],[121.294748,23.722817],[121.294749,23.722727]],[[121.292126,23.720802],[121.292026,23.720891],[121.292028,23.720801],[121.292126,23.720802]],[[121.295988,23.72545],[121.296088,23.72536],[121.296086,23.725451],[121.295988,23.72545]],[[121.293832,23.725335],[121.293931,23.725246],[121.29393,23.725337],[121.293832,23.725335]],[[121.294126,23.725339],[121.294225,23.725249],[121.294224,23.72534],[121.294126,23.725339]],[[121.293248,23.724968],[121.293346,23.724969],[121.293344,23.725149],[121.293246,23.725148],[121.293248,23.724968]],[[121.294035,23.724796],[121.29384,23.724703],[121.293843,23.724523],[121.294039,23.724525],[121.294035,23.724796]],[[121.294925,23.724264],[121.294726,23.724442],[121.294729,23.724262],[121.294925,23.724264]],[[121.293361,23.723885],[121.293557,23.723888],[121.293554,23.724068],[121.293358,23.724066],[121.293361,23.723885]],[[121.293947,23.724073],[121.294046,23.723983],[121.294045,23.724074],[121.293947,23.724073]],[[121.294152,23.723352],[121.294446,23.723356],[121.294538,23.723808],[121.294342,23.723806],[121.294346,23.723535],[121.294152,23.723352]],[[121.293954,23.723531],[121.293854,23.72362],[121.293856,23.72353],[121.293954,23.723531]],[[121.293954,23.723531],[121.294053,23.723442],[121.294052,23.723532],[121.293954,23.723531]],[[121.293962,23.722899],[121.294061,23.72281],[121.29406,23.7229],[121.293962,23.722899]],[[121.293376,23.722712],[121.293381,23.722351],[121.293282,23.72235],[121.293288,23.721898],[121.293386,23.721899],[121.293382,23.72226],[121.29348,23.722261],[121.293474,23.722713],[121.293376,23.722712]],[[121.29319,23.721897],[121.293193,23.721716],[121.293291,23.721718],[121.293288,23.721898],[121.29319,23.721897]],[[121.29241,23.721527],[121.29251,23.721438],[121.292509,23.721528],[121.29241,23.721527]]],[[[121.297875,23.723664],[121.297981,23.723033],[121.297883,23.723032],[121.297888,23.722671],[121.297693,23.722579],[121.297591,23.722849],[121.297493,23.722847],[121.297587,23.72321],[121.297388,23.723388],[121.297192,23.723386],[121.297091,23.723656],[121.297187,23.723747],[121.297679,23.723662],[121.297775,23.723844],[121.297972,23.723756],[121.297875,23.723664]]],[[[121.289524,23.724746],[121.289621,23.724837],[121.289916,23.72475],[121.289919,23.72457],[121.289628,23.724296],[121.289727,23.724207],[121.289632,23.724025],[121.289434,23.724113],[121.28933,23.724563],[121.289232,23.724562],[121.289326,23.724924],[121.289524,23.724746]]],[[[121.300332,23.70816],[121.300431,23.708071],[121.300627,23.708073],[121.300626,23.708163],[121.301017,23.708258],[121.301118,23.708078],[121.300924,23.707895],[121.30063,23.707892],[121.300628,23.707983],[121.299845,23.707884],[121.299846,23.707793],[121.299553,23.7077],[121.299556,23.707519],[121.299362,23.707337],[121.299165,23.707425],[121.299166,23.707334],[121.298677,23.707239],[121.298684,23.706697],[121.298782,23.706698],[121.298886,23.706248],[121.299083,23.70616],[121.299197,23.704897],[121.299594,23.70454],[121.299702,23.703819],[121.299217,23.703362],[121.299321,23.702911],[121.299126,23.702819],[121.299134,23.702187],[121.299036,23.702186],[121.299041,23.701825],[121.299139,23.701826],[121.299243,23.701375],[121.298753,23.70137],[121.298657,23.701188],[121.298069,23.701182],[121.298244,23.702809],[121.298342,23.70281],[121.298338,23.703081],[121.298436,23.703082],[121.298625,23.703626],[121.298819,23.703809],[121.299015,23.703811],[121.299013,23.703992],[121.299111,23.703993],[121.299103,23.704625],[121.299005,23.704624],[121.298798,23.705434],[121.298014,23.705425],[121.297518,23.705871],[121.297808,23.706146],[121.2982,23.70615],[121.298199,23.70624],[121.298495,23.706153],[121.298486,23.706785],[121.298192,23.706782],[121.297994,23.70696],[121.297991,23.707141],[121.298088,23.707232],[121.298384,23.707145],[121.298575,23.707508],[121.298869,23.707512],[121.298963,23.707874],[121.299254,23.708058],[121.299349,23.70833],[121.299546,23.708242],[121.29955,23.707971],[121.300034,23.708428],[121.30023,23.70843],[121.300332,23.70816]]],[[[121.301368,23.711422],[121.301178,23.710968],[121.300693,23.710602],[121.300695,23.710421],[121.300501,23.710239],[121.300305,23.710236],[121.299726,23.709508],[121.299432,23.709504],[121.299238,23.709322],[121.299138,23.709501],[121.299623,23.709868],[121.299619,23.710229],[121.29942,23.710407],[121.299517,23.710499],[121.299715,23.71032],[121.300107,23.710415],[121.300299,23.710688],[121.300593,23.710691],[121.300782,23.711235],[121.300979,23.711237],[121.301171,23.71151],[121.301368,23.711422]]],[[[121.301428,23.714403],[121.301526,23.714404],[121.301528,23.714223],[121.301727,23.714045],[121.30173,23.713774],[121.302029,23.713416],[121.302034,23.713055],[121.301936,23.713054],[121.301842,23.712691],[121.30155,23.712508],[121.301553,23.712327],[121.301261,23.712143],[121.300864,23.7125],[121.300961,23.712591],[121.300852,23.713403],[121.301046,23.713586],[121.301043,23.713857],[121.301238,23.713949],[121.301233,23.71431],[121.301135,23.714309],[121.301033,23.714579],[121.301326,23.714672],[121.301428,23.714403]]],[[[121.300564,23.720533],[121.300765,23.720174],[121.300571,23.719992],[121.300479,23.719539],[121.300187,23.719355],[121.299988,23.719534],[121.300084,23.719715],[121.30028,23.719718],[121.300174,23.720349],[121.300368,23.720531],[121.300564,23.720533]]],[[[121.29988,23.720345],[121.299975,23.720527],[121.300173,23.720439],[121.300077,23.720257],[121.29988,23.720345]]],[[[121.299749,23.722872],[121.300244,23.722516],[121.300246,23.722336],[121.299953,23.722242],[121.299954,23.722152],[121.300052,23.722153],[121.300155,23.721793],[121.300352,23.721705],[121.300361,23.721073],[121.30046,23.720984],[121.300169,23.72071],[121.299972,23.720798],[121.299974,23.720617],[121.299779,23.720525],[121.299477,23.721154],[121.299379,23.721152],[121.299269,23.722054],[121.299367,23.722055],[121.299458,23.722598],[121.299749,23.722872]]],[[[121.302965,23.724443],[121.302967,23.724262],[121.303066,23.724263],[121.30316,23.724535],[121.303455,23.724448],[121.303362,23.724086],[121.303264,23.724085],[121.303266,23.723904],[121.303364,23.723905],[121.303269,23.723724],[121.303565,23.723546],[121.303375,23.723093],[121.303768,23.723007],[121.303675,23.722644],[121.303774,23.722555],[121.304067,23.722649],[121.304464,23.722292],[121.304367,23.722201],[121.303289,23.722189],[121.30329,23.722098],[121.302506,23.722],[121.302413,23.721637],[121.302218,23.721545],[121.30222,23.721364],[121.302027,23.721182],[121.302034,23.72064],[121.302132,23.720641],[121.30224,23.719829],[121.302338,23.719831],[121.302145,23.719648],[121.301946,23.719826],[121.301943,23.720097],[121.301744,23.720275],[121.301739,23.720637],[121.301542,23.720725],[121.301539,23.720996],[121.301637,23.720997],[121.30173,23.721359],[121.302216,23.721725],[121.302309,23.722088],[121.302504,23.72218],[121.302501,23.722451],[121.302597,23.722542],[121.302795,23.722454],[121.302889,23.722726],[121.302987,23.722727],[121.302886,23.722997],[121.302497,23.722722],[121.302395,23.722992],[121.302,23.723258],[121.302091,23.723801],[121.302481,23.723986],[121.302475,23.724437],[121.302669,23.72462],[121.302965,23.724443]],[[121.302871,23.724171],[121.30297,23.724082],[121.302969,23.724172],[121.302871,23.724171]]],[[[121.30592,23.723482],[121.306215,23.723395],[121.306121,23.723123],[121.305922,23.723301],[121.305237,23.723203],[121.305141,23.723022],[121.304649,23.723197],[121.304841,23.72347],[121.305333,23.723385],[121.305525,23.723658],[121.30582,23.723661],[121.30592,23.723482]]],[[[121.306288,23.725382],[121.306388,23.725203],[121.306682,23.725206],[121.306876,23.725389],[121.307076,23.72512],[121.306882,23.724937],[121.306392,23.724932],[121.306192,23.7252],[121.306095,23.725109],[121.305605,23.725104],[121.305506,23.725193],[121.305601,23.725375],[121.305797,23.725377],[121.305991,23.725559],[121.306285,23.725563],[121.306385,23.725473],[121.306288,23.725382]]],[[[121.30187,23.725695],[121.301869,23.725785],[121.302066,23.725697],[121.301969,23.725606],[121.302071,23.725336],[121.302169,23.725337],[121.302263,23.725609],[121.302461,23.725521],[121.302465,23.72516],[121.302663,23.725071],[121.302568,23.724799],[121.302372,23.724797],[121.302272,23.724977],[121.301979,23.724883],[121.301876,23.725243],[121.301578,23.725511],[121.301283,23.725598],[121.30118,23.725958],[121.301473,23.726052],[121.301576,23.725692],[121.30187,23.725695]]],[[[121.306352,23.728001],[121.306065,23.727457],[121.305867,23.727545],[121.305579,23.72709],[121.305383,23.727088],[121.305092,23.726814],[121.304798,23.726811],[121.304604,23.726628],[121.304713,23.725816],[121.304518,23.725724],[121.304415,23.726084],[121.304317,23.726083],[121.304414,23.726174],[121.30431,23.726625],[121.304505,23.726717],[121.304502,23.726988],[121.304893,23.727082],[121.305086,23.727265],[121.305084,23.727446],[121.305376,23.72763],[121.305469,23.727992],[121.305667,23.727904],[121.305669,23.727723],[121.305963,23.727726],[121.305961,23.727907],[121.306155,23.72809],[121.306352,23.728001]]],[[[121.303412,23.727789],[121.303218,23.727606],[121.302923,23.727693],[121.302925,23.727512],[121.303124,23.727334],[121.302541,23.726876],[121.302546,23.726515],[121.302254,23.726331],[121.301954,23.726779],[121.302148,23.726962],[121.302442,23.726965],[121.302537,23.727237],[121.301854,23.726959],[121.30175,23.727409],[121.301944,23.727592],[121.301745,23.72777],[121.302136,23.727865],[121.30233,23.728048],[121.303311,23.728058],[121.30341,23.727969],[121.303412,23.727789]]]]}},{"type":"Feature","properties":{"kind":"bare_dam","month":"2023-03","area_ha":27.17},"geometry":{"type":"MultiPolygon","coordinates":[[[[121.30125,23.690291],[121.30135,23.690111],[121.300862,23.689925],[121.300767,23.689744],[121.300667,23.689833],[121.300373,23.68983],[121.300374,23.689739],[121.298708,23.689721],[121.298607,23.6899],[121.298018,23.689984],[121.297522,23.69043],[121.297519,23.690611],[121.297618,23.690612],[121.297614,23.690883],[121.297905,23.691157],[121.2983,23.69089],[121.298692,23.690895],[121.298785,23.691347],[121.299078,23.691441],[121.299076,23.691531],[121.299469,23.691535],[121.29947,23.691445],[121.299665,23.691537],[121.299767,23.691177],[121.299865,23.691178],[121.300057,23.691542],[121.300449,23.691546],[121.30045,23.691456],[121.300844,23.69137],[121.300842,23.69146],[121.301431,23.691467],[121.301526,23.691648],[121.301722,23.69165],[121.301724,23.69156],[121.302214,23.691565],[121.302408,23.691748],[121.302898,23.691754],[121.302997,23.691664],[121.303091,23.691936],[121.30348,23.692211],[121.303774,23.692215],[121.303775,23.692124],[121.304166,23.692219],[121.304266,23.69213],[121.30417,23.691948],[121.303777,23.692034],[121.303778,23.691944],[121.303387,23.691849],[121.303487,23.69167],[121.303293,23.691487],[121.3029,23.691573],[121.302706,23.69139],[121.302217,23.691295],[121.301927,23.691021],[121.301436,23.691015],[121.301438,23.690925],[121.300949,23.690829],[121.300659,23.690465],[121.300663,23.690194],[121.30076,23.690285],[121.30125,23.690291]],[[121.300663,23.690194],[121.300566,23.690103],[121.300664,23.690104],[121.300663,23.690194]],[[121.300458,23.690824],[121.300359,23.690913],[121.30036,23.690823],[121.300458,23.690824]],[[121.299872,23.690637],[121.299779,23.690275],[121.300171,23.690279],[121.300067,23.690729],[121.299872,23.690637]]],[[[121.304759,23.691864],[121.304564,23.691772],[121.304365,23.692041],[121.304658,23.692134],[121.304759,23.691864]]],[[[121.298755,23.693604],[121.298853,23.693605],[121.298754,23.693695],[121.29885,23.693876],[121.299047,23.693788],[121.299435,23.694154],[121.299729,23.694157],[121.29973,23.694067],[121.300025,23.69398],[121.300316,23.694254],[121.300417,23.693984],[121.300712,23.693987],[121.300807,23.694169],[121.301003,23.694171],[121.301197,23.694354],[121.301298,23.694174],[121.301104,23.693991],[121.3013,23.693994],[121.301299,23.694084],[121.301496,23.693996],[121.301303,23.693723],[121.301107,23.693721],[121.300429,23.693081],[121.300336,23.692719],[121.300045,23.692445],[121.299849,23.692443],[121.29956,23.692078],[121.299166,23.692164],[121.299169,23.691984],[121.298587,23.691435],[121.298391,23.691433],[121.298291,23.691613],[121.298583,23.691796],[121.29858,23.691977],[121.298286,23.691974],[121.298184,23.692334],[121.29828,23.692425],[121.298478,23.692337],[121.298473,23.692698],[121.298956,23.693245],[121.298954,23.693426],[121.298755,23.693604]],[[121.298954,23.693426],[121.299051,23.693517],[121.298953,23.693516],[121.298954,23.693426]],[[121.300124,23.69389],[121.300126,23.6938],[121.300322,23.693802],[121.300321,23.693892],[121.300124,23.69389]],[[121.299345,23.693521],[121.299347,23.69334],[121.299445,23.693341],[121.299443,23.693522],[121.299345,23.693521]],[[121.300423,23.693532],[121.300326,23.693441],[121.300424,23.693442],[121.300423,23.693532]],[[121.300328,23.693351],[121.300231,23.693259],[121.300329,23.69326],[121.300328,23.693351]],[[121.299645,23.693072],[121.299548,23.692981],[121.299646,23.692982],[121.299645,23.693072]],[[121.299841,23.693075],[121.299744,23.692983],[121.299842,23.692984],[121.299841,23.693075]]],[[[121.301682,23.69481],[121.301979,23.694543],[121.301686,23.694449],[121.301592,23.694177],[121.301396,23.694175],[121.301295,23.694355],[121.301587,23.694538],[121.301585,23.694719],[121.301682,23.69481]]],[[[121.299391,23.697494],[121.299295,23.697403],[121.299397,23.697043],[121.299107,23.696769],[121.299207,23.696589],[121.298915,23.696405],[121.298918,23.696225],[121.299016,23.696226],[121.298919,23.696135],[121.299027,23.695323],[121.298734,23.69523],[121.298543,23.694866],[121.298346,23.694954],[121.298154,23.694591],[121.297665,23.694495],[121.297562,23.694855],[121.297464,23.694854],[121.29746,23.695216],[121.297752,23.695399],[121.297648,23.69585],[121.298035,23.696215],[121.298033,23.696396],[121.297935,23.696395],[121.298027,23.696847],[121.297928,23.696936],[121.298221,23.69703],[121.298218,23.69721],[121.29851,23.697394],[121.298203,23.698384],[121.297904,23.698742],[121.297798,23.699373],[121.2975,23.699641],[121.297791,23.699915],[121.297882,23.700458],[121.299157,23.700472],[121.299062,23.7002],[121.298964,23.700199],[121.298968,23.699928],[121.298774,23.699745],[121.298878,23.699295],[121.299076,23.699116],[121.299181,23.698576],[121.299479,23.698308],[121.300067,23.698314],[121.300068,23.698224],[121.300755,23.698232],[121.300852,23.698323],[121.300853,23.698233],[121.301246,23.698147],[121.301445,23.697968],[121.301447,23.697788],[121.301742,23.697701],[121.302239,23.697164],[121.302434,23.697257],[121.302634,23.696988],[121.30283,23.69699],[121.303128,23.696723],[121.303031,23.696631],[121.303033,23.696451],[121.303131,23.696452],[121.303037,23.69618],[121.303233,23.696182],[121.303432,23.695913],[121.303141,23.695729],[121.302942,23.695908],[121.30294,23.696088],[121.302644,23.696175],[121.302248,23.696532],[121.302145,23.696892],[121.30155,23.697428],[121.301059,23.697422],[121.300959,23.697602],[121.300763,23.6976],[121.300564,23.697778],[121.300368,23.697776],[121.30047,23.697506],[121.300082,23.697141],[121.299688,23.697317],[121.299684,23.697588],[121.299391,23.697494]],[[121.302239,23.697164],[121.302143,23.697073],[121.302241,23.697074],[121.302239,23.697164]],[[121.299782,23.697589],[121.299879,23.69768],[121.300078,23.697502],[121.300075,23.697682],[121.299679,23.698039],[121.298696,23.698209],[121.298698,23.698028],[121.298895,23.69794],[121.298899,23.697669],[121.299193,23.697673],[121.299387,23.697855],[121.299782,23.697589]],[[121.298899,23.697669],[121.298802,23.697578],[121.2989,23.697579],[121.298899,23.697669]],[[121.302737,23.696628],[121.302834,23.696719],[121.302735,23.696718],[121.302737,23.696628]],[[121.302837,23.696448],[121.302935,23.69645],[121.302933,23.69663],[121.302835,23.696629],[121.302837,23.696448]],[[121.298531,23.695769],[121.29863,23.69568],[121.298629,23.69577],[121.298531,23.695769]],[[121.298336,23.695677],[121.298438,23.695407],[121.298536,23.695408],[121.298632,23.69559],[121.298336,23.695677]]],[[[121.29525,23.699255],[121.295643,23.699169],[121.295942,23.698811],[121.296136,23.698994],[121.296332,23.698996],[121.296432,23.698816],[121.296139,23.698723],[121.296141,23.698632],[121.296041,23.698722],[121.295748,23.698628],[121.295252,23.699074],[121.295056,23.699072],[121.295057,23.698982],[121.294762,23.699069],[121.294858,23.69925],[121.295054,23.699253],[121.295055,23.699162],[121.295251,23.699164],[121.29525,23.699255]]],[[[121.311881,23.687066],[121.312269,23.687431],[121.312266,23.687612],[121.312461,23.687704],[121.312458,23.687975],[121.312653,23.688068],[121.312752,23.687978],[121.312754,23.687798],[121.312656,23.687797],[121.312758,23.687527],[121.312563,23.687435],[121.312565,23.687254],[121.31237,23.687162],[121.31218,23.686708],[121.311984,23.686706],[121.311785,23.686884],[121.311592,23.686702],[121.311394,23.68679],[121.311487,23.687242],[121.311289,23.68733],[121.311285,23.687692],[121.31148,23.687784],[121.311876,23.687427],[121.311879,23.687246],[121.311685,23.687064],[121.311881,23.687066]],[[121.311684,23.687154],[121.311585,23.687243],[121.311586,23.687153],[121.311684,23.687154]]],[[[121.310983,23.68832],[121.311181,23.688142],[121.310986,23.688049],[121.310886,23.688229],[121.310983,23.68832]]],[[[121.310492,23.688315],[121.310294,23.688493],[121.31039,23.688675],[121.310882,23.6885],[121.310983,23.68832],[121.310788,23.688228],[121.310786,23.688318],[121.310492,23.688315]]],[[[121.308794,23.690735],[121.308891,23.690826],[121.308993,23.690556],[121.308798,23.690464],[121.308704,23.690101],[121.308509,23.690009],[121.30841,23.690098],[121.308507,23.69019],[121.3085,23.690731],[121.308597,23.690823],[121.308794,23.690735]]],[[[121.306018,23.693142],[121.306713,23.692427],[121.306616,23.692336],[121.306717,23.692157],[121.307011,23.69216],[121.30701,23.69225],[121.307208,23.692072],[121.307599,23.692166],[121.307898,23.691808],[121.307409,23.691713],[121.307408,23.691803],[121.306917,23.691798],[121.306916,23.691888],[121.306524,23.691884],[121.306523,23.691974],[121.306228,23.692061],[121.306229,23.691971],[121.305935,23.691967],[121.305936,23.691877],[121.305545,23.691783],[121.305449,23.691601],[121.305253,23.691599],[121.304757,23.692045],[121.304755,23.692225],[121.30495,23.692318],[121.30525,23.69187],[121.30603,23.692149],[121.305931,23.692238],[121.306027,23.69242],[121.30583,23.692508],[121.305823,23.69305],[121.306018,23.693142]]],[[[121.303724,23.696097],[121.303923,23.695919],[121.303926,23.695648],[121.304515,23.695564],[121.304715,23.695295],[121.304911,23.695297],[121.30511,23.695119],[121.305015,23.694847],[121.305806,23.694314],[121.30581,23.694043],[121.305712,23.694042],[121.305618,23.69368],[121.305122,23.694126],[121.304532,23.6943],[121.30443,23.69457],[121.30384,23.694744],[121.303933,23.695106],[121.303736,23.695194],[121.30373,23.695646],[121.303632,23.695644],[121.303529,23.696005],[121.303724,23.696097]],[[121.304426,23.694931],[121.304329,23.694839],[121.304427,23.694841],[121.304426,23.694931]],[[121.304723,23.694663],[121.30482,23.694755],[121.304722,23.694753],[121.304723,23.694663]],[[121.304821,23.694664],[121.30492,23.694575],[121.304919,23.694665],[121.304821,23.694664]],[[121.305315,23.694399],[121.305218,23.694307],[121.305316,23.694308],[121.305315,23.694399]]]]}},{"type":"Feature","properties":{"kind":"water","month":"2023-03","area_ha":0.55},"geometry":{"type":"MultiPolygon","coordinates":[[[[121.300564,23.697778],[121.300566,23.697688],[121.300762,23.69769],[121.30096,23.697511],[121.300373,23.697415],[121.30047,23.697506],[121.300368,23.697776],[121.300564,23.697778]]],[[[121.2989,23.697579],[121.298801,23.697668],[121.298899,23.697669],[121.2989,23.697579]]],[[[121.298698,23.698028],[121.298696,23.698209],[121.298795,23.69812],[121.299383,23.698126],[121.299386,23.697946],[121.299679,23.698039],[121.299877,23.697861],[121.299879,23.69768],[121.299684,23.697588],[121.299387,23.697855],[121.299191,23.697853],[121.299193,23.697673],[121.298899,23.697669],[121.298894,23.698031],[121.298698,23.698028]]]]}}]}