{"type":"FeatureCollection","features":[{"type":"Feature","properties":{"kind":"bare_slide","month":"2023-06","area_ha":80.43},"geometry":{"type":"MultiPolygon","coordinates":[[[[121.297534,23.712193],[121.29773,23.712195],[121.297831,23.711925],[121.298327,23.711479],[121.298335,23.710937],[121.298433,23.710938],[121.298441,23.710306],[121.297955,23.70994],[121.297958,23.709759],[121.297764,23.709576],[121.297665,23.709666],[121.29747,23.709573],[121.297577,23.708852],[121.297775,23.708674],[121.29797,23.708766],[121.298072,23.708496],[121.29817,23.708497],[121.298174,23.708226],[121.297979,23.708134],[121.298083,23.707684],[121.297889,23.707501],[121.297398,23.707496],[121.297003,23.707762],[121.297098,23.707944],[121.297786,23.707861],[121.297883,23.707952],[121.297881,23.708133],[121.297782,23.708132],[121.297877,23.708404],[121.297484,23.70849],[121.297382,23.70876],[121.297185,23.708848],[121.297181,23.709119],[121.296788,23.709205],[121.297079,23.709479],[121.297076,23.709659],[121.297369,23.709753],[121.297366,23.710024],[121.297657,23.710207],[121.297654,23.710478],[121.297946,23.710662],[121.297943,23.710843],[121.297745,23.711021],[121.297737,23.711653],[121.296755,23.711733],[121.296653,23.712002],[121.29675,23.712094],[121.297339,23.7121],[121.297338,23.71219],[121.297535,23.712102],[121.297534,23.712193]]],[[[121.291504,23.715828],[121.291702,23.71565],[121.291705,23.715469],[121.291999,23.715473],[121.292099,23.715293],[121.292293,23.715476],[121.292587,23.715479],[121.292786,23.715301],[121.292982,23.715303],[121.293078,23.715485],[121.293961,23.715404],[121.294063,23.715134],[121.294361,23.714867],[121.294557,23.714869],[121.294756,23.7146],[121.294952,23.714602],[121.295151,23.714424],[121.295153,23.714243],[121.295352,23.714065],[121.295548,23.714067],[121.295944,23.7138],[121.295947,23.71353],[121.296045,23.713531],[121.296149,23.71308],[121.296348,23.712902],[121.296353,23.71245],[121.296158,23.712358],[121.29596,23.712536],[121.295957,23.712807],[121.295858,23.712806],[121.295757,23.713076],[121.295365,23.713072],[121.294969,23.713338],[121.294677,23.713154],[121.294574,23.713514],[121.294181,23.7136],[121.293883,23.713868],[121.293589,23.713865],[121.293291,23.714132],[121.293288,23.714403],[121.293094,23.714221],[121.2928,23.714217],[121.292799,23.714308],[121.292506,23.714214],[121.292402,23.714664],[121.292206,23.714662],[121.292105,23.714842],[121.292007,23.714841],[121.292011,23.71457],[121.291913,23.714569],[121.291819,23.714206],[121.291621,23.714385],[121.291524,23.714294],[121.291131,23.714379],[121.290931,23.714648],[121.291223,23.714832],[121.291219,23.715103],[121.291317,23.715104],[121.291314,23.715375],[121.291412,23.715376],[121.291309,23.715736],[121.291504,23.715828]]],[[[121.297906,23.713732],[121.297712,23.713549],[121.297515,23.713637],[121.297509,23.714089],[121.297211,23.714356],[121.297209,23.714537],[121.297502,23.71463],[121.297501,23.714721],[121.297795,23.714724],[121.298183,23.715089],[121.298282,23.715],[121.298284,23.71482],[121.298186,23.714818],[121.298292,23.714188],[121.297999,23.714094],[121.297801,23.714272],[121.297804,23.714002],[121.297902,23.714003],[121.297906,23.713732]],[[121.297801,23.714272],[121.297702,23.714362],[121.297703,23.714271],[121.297801,23.714272]]],[[[121.283957,23.715474],[121.283962,23.715113],[121.284258,23.714935],[121.284166,23.714483],[121.284363,23.714395],[121.284367,23.714124],[121.284564,23.714036],[121.284567,23.713855],[121.284373,23.713673],[121.284079,23.713669],[121.283384,23.714294],[121.283382,23.714474],[121.283085,23.714652],[121.283178,23.715014],[121.283475,23.714836],[121.283369,23.715467],[121.283562,23.71565],[121.283758,23.715652],[121.283957,23.715474]]],[[[121.294345,23.71604],[121.294544,23.715862],[121.294547,23.715591],[121.29494,23.715595],[121.295133,23.715778],[121.295331,23.71569],[121.295333,23.715509],[121.295139,23.715327],[121.294943,23.715325],[121.294849,23.715053],[121.294259,23.715136],[121.294061,23.715315],[121.294058,23.715495],[121.293762,23.715673],[121.293855,23.716035],[121.294149,23.716038],[121.29415,23.715948],[121.294345,23.71604]]],[[[121.286733,23.720652],[121.286827,23.721014],[121.287215,23.721289],[121.287213,23.72147],[121.287407,23.721652],[121.287702,23.721565],[121.288089,23.722021],[121.288285,23.722023],[121.288286,23.721933],[121.288481,23.722026],[121.28868,23.721757],[121.288777,23.721848],[121.288877,23.721759],[121.288973,23.72185],[121.289562,23.721857],[121.28986,23.721589],[121.290344,23.722046],[121.290543,23.721868],[121.290448,23.721596],[121.290743,23.721509],[121.29114,23.721152],[121.291143,23.720971],[121.291045,23.72097],[121.291048,23.720699],[121.290854,23.720517],[121.290658,23.720515],[121.290555,23.720875],[121.289861,23.721499],[121.289668,23.721226],[121.289965,23.721049],[121.289971,23.720597],[121.290168,23.720509],[121.290171,23.720238],[121.290268,23.72033],[121.290564,23.720243],[121.29067,23.719612],[121.291068,23.719165],[121.290972,23.718983],[121.291467,23.718627],[121.291471,23.718356],[121.291868,23.718],[121.291871,23.717729],[121.292068,23.717731],[121.292169,23.717461],[121.292267,23.717462],[121.292361,23.717824],[121.292656,23.717737],[121.292659,23.717466],[121.292368,23.717283],[121.292467,23.717193],[121.292473,23.716742],[121.292768,23.716655],[121.292769,23.716565],[121.293063,23.716568],[121.293164,23.716388],[121.292677,23.716112],[121.292578,23.716201],[121.292674,23.716383],[121.292278,23.71665],[121.292275,23.71683],[121.292177,23.716829],[121.291875,23.717458],[121.291483,23.717454],[121.291184,23.717811],[121.290692,23.717896],[121.290492,23.718255],[121.290197,23.718252],[121.290196,23.718342],[121.290001,23.71825],[121.289901,23.718429],[121.290386,23.718796],[121.290384,23.718976],[121.289992,23.718972],[121.289893,23.719061],[121.289988,23.719243],[121.289693,23.71933],[121.289694,23.71924],[121.289302,23.719235],[121.289011,23.718961],[121.289309,23.718694],[121.289414,23.718153],[121.289611,23.718065],[121.289615,23.717794],[121.289813,23.717616],[121.289718,23.717434],[121.289522,23.717432],[121.28942,23.717702],[121.289322,23.717701],[121.28923,23.717248],[121.289329,23.717159],[121.28972,23.717253],[121.289822,23.716984],[121.29002,23.716805],[121.290216,23.716807],[121.290417,23.716448],[121.290125,23.716265],[121.290022,23.716625],[121.289533,23.716529],[121.289532,23.716619],[121.289041,23.716704],[121.289043,23.716524],[121.28924,23.716435],[121.289245,23.716074],[121.289439,23.716257],[121.289635,23.716259],[121.289934,23.715901],[121.290228,23.715905],[121.290426,23.715726],[121.290429,23.715546],[121.290235,23.715363],[121.289744,23.715448],[121.289357,23.714992],[121.289161,23.71499],[121.28916,23.71508],[121.288867,23.714987],[121.288765,23.715256],[121.288372,23.715342],[121.288275,23.715251],[121.288375,23.715071],[121.288085,23.714797],[121.287889,23.714795],[121.287788,23.714975],[121.287102,23.714967],[121.287001,23.715146],[121.28661,23.715052],[121.286511,23.715141],[121.286606,23.715413],[121.286802,23.715415],[121.286902,23.715236],[121.287096,23.715418],[121.2867,23.715685],[121.286791,23.716228],[121.286593,23.716406],[121.286886,23.7165],[121.286885,23.71659],[121.286786,23.716589],[121.286685,23.716859],[121.286391,23.716855],[121.28639,23.716946],[121.285997,23.716941],[121.285902,23.71676],[121.285508,23.716846],[121.285316,23.716573],[121.284923,23.716568],[121.284926,23.716388],[121.285122,23.71639],[121.285222,23.71621],[121.285516,23.716214],[121.285617,23.716034],[121.285813,23.716036],[121.285812,23.716127],[121.286009,23.716038],[121.286111,23.715769],[121.286013,23.715768],[121.285918,23.715496],[121.285722,23.715493],[121.285424,23.715761],[121.285031,23.715847],[121.284732,23.716205],[121.284536,23.716203],[121.284337,23.716381],[121.284431,23.716743],[121.284135,23.71683],[121.283936,23.717099],[121.283641,23.717096],[121.28354,23.717366],[121.283735,23.717458],[121.283731,23.717729],[121.283926,23.717821],[121.283923,23.718092],[121.284314,23.718187],[121.284603,23.718551],[121.284897,23.718555],[121.285188,23.718829],[121.285278,23.719462],[121.285375,23.719553],[121.285474,23.719464],[121.285865,23.719559],[121.285863,23.719739],[121.286154,23.719923],[121.286151,23.720194],[121.286345,23.720377],[121.286541,23.720379],[121.286538,23.720559],[121.286733,23.720652]],[[121.289276,23.721222],[121.289278,23.721041],[121.28889,23.720766],[121.288797,23.720313],[121.288698,23.720403],[121.287816,23.720393],[121.287719,23.720301],[121.287618,23.720481],[121.287422,23.720479],[121.287426,23.720208],[121.287624,23.720029],[121.287429,23.719937],[121.287336,23.719575],[121.287237,23.719664],[121.287042,23.719572],[121.287045,23.719301],[121.287339,23.719304],[121.287435,23.719486],[121.287827,23.71949],[121.287825,23.719671],[121.287923,23.719672],[121.287821,23.719941],[121.287723,23.71994],[121.287818,23.720212],[121.288113,23.720125],[121.288214,23.719946],[121.288998,23.719954],[121.288997,23.720045],[121.28929,23.720138],[121.289191,23.720227],[121.289287,23.720409],[121.289582,23.720322],[121.289477,23.720863],[121.289575,23.720864],[121.289668,23.721226],[121.289276,23.721222]],[[121.284926,23.716388],[121.284829,23.716296],[121.284927,23.716297],[121.284926,23.716388]],[[121.286541,23.720379],[121.28664,23.720289],[121.286639,23.72038],[121.286541,23.720379]],[[121.288976,23.72167],[121.288879,23.721578],[121.288977,23.72158],[121.288976,23.72167]],[[121.289274,23.721402],[121.289271,23.721583],[121.289173,23.721582],[121.289077,23.7214],[121.289274,23.721402]],[[121.288784,23.721307],[121.288688,23.721215],[121.288786,23.721216],[121.288784,23.721307]],[[121.287905,23.721026],[121.288105,23.720757],[121.288397,23.720941],[121.288197,23.72121],[121.287905,23.721026]],[[121.289779,23.720234],[121.289876,23.720325],[121.289778,23.720324],[121.289779,23.720234]],[[121.289877,23.720235],[121.289977,23.720146],[121.289975,23.720236],[121.289877,23.720235]],[[121.290274,23.719878],[121.290177,23.719787],[121.290275,23.719788],[121.290274,23.719878]],[[121.288903,23.719773],[121.289003,23.719593],[121.289101,23.719594],[121.289099,23.719775],[121.288903,23.719773]],[[121.289101,23.719594],[121.2892,23.719505],[121.289199,23.719595],[121.289101,23.719594]],[[121.288614,23.719318],[121.288709,23.71959],[121.288413,23.719677],[121.288419,23.719226],[121.288614,23.719318]],[[121.290573,23.71952],[121.290476,23.719429],[121.290574,23.71943],[121.290573,23.71952]],[[121.286855,23.718847],[121.286758,23.718756],[121.286856,23.718757],[121.286855,23.718847]],[[121.285288,23.718649],[121.284998,23.718375],[121.285294,23.718198],[121.285288,23.718649]],[[121.286575,23.71776],[121.286772,23.717672],[121.286965,23.717945],[121.28667,23.718032],[121.286573,23.717941],[121.286575,23.71776]],[[121.287163,23.717767],[121.287166,23.717586],[121.287263,23.717678],[121.287558,23.717591],[121.287553,23.717952],[121.28716,23.718038],[121.287063,23.717946],[121.287065,23.717766],[121.287163,23.717767]],[[121.284029,23.717461],[121.284229,23.717193],[121.28452,23.717376],[121.284321,23.717645],[121.284029,23.717461]],[[121.28786,23.716962],[121.28796,23.716873],[121.287958,23.716963],[121.28786,23.716962]],[[121.287862,23.716872],[121.287765,23.71678],[121.287863,23.716781],[121.287862,23.716872]],[[121.288943,23.716703],[121.288846,23.716612],[121.288944,23.716613],[121.288943,23.716703]],[[121.287969,23.71615],[121.287872,23.716059],[121.28797,23.71606],[121.287969,23.71615]],[[121.288366,23.715794],[121.288364,23.715974],[121.288266,23.715973],[121.288268,23.715793],[121.288366,23.715794]],[[121.288368,23.715613],[121.288466,23.715614],[121.288464,23.715795],[121.288366,23.715794],[121.288368,23.715613]],[[121.288466,23.715614],[121.288566,23.715525],[121.288565,23.715615],[121.288466,23.715614]],[[121.289348,23.715714],[121.289344,23.715985],[121.289148,23.715983],[121.289151,23.715802],[121.289348,23.715714]],[[121.287876,23.715788],[121.287779,23.715697],[121.287877,23.715698],[121.287876,23.715788]],[[121.287485,23.715694],[121.287487,23.715513],[121.28739,23.715422],[121.287683,23.715515],[121.287485,23.715694]],[[121.287683,23.715515],[121.287782,23.715426],[121.287781,23.715516],[121.287683,23.715515]]],[[[121.295247,23.7221],[121.295739,23.722015],[121.296137,23.721568],[121.296333,23.72157],[121.296531,23.721392],[121.296534,23.721211],[121.297022,23.721397],[121.297021,23.721488],[121.297416,23.721221],[121.297321,23.72104],[121.297122,23.721218],[121.296927,23.721126],[121.296931,23.720855],[121.297324,23.720769],[121.297327,23.720588],[121.297228,23.720587],[121.297331,23.720227],[121.297233,23.720226],[121.297238,23.719865],[121.297044,23.719682],[121.296848,23.71968],[121.296749,23.719769],[121.296844,23.719951],[121.296449,23.720217],[121.296446,23.720398],[121.296641,23.72049],[121.296638,23.720761],[121.296342,23.720848],[121.296242,23.721028],[121.296046,23.721026],[121.295943,23.721386],[121.295745,23.721564],[121.295056,23.721737],[121.294952,23.722187],[121.295147,23.72228],[121.295247,23.7221]]],[[[121.286323,23.722002],[121.285936,23.721636],[121.285642,23.721633],[121.285344,23.721901],[121.285342,23.722081],[121.285535,23.722264],[121.286222,23.722271],[121.286323,23.722002]]],[[[121.292972,23.72361],[121.293174,23.723161],[121.293272,23.723162],[121.293082,23.722708],[121.293676,23.722264],[121.293681,23.721902],[121.293388,23.721809],[121.293292,23.721627],[121.292703,23.721621],[121.292505,23.721799],[121.29241,23.721527],[121.292215,23.721435],[121.292114,23.721705],[121.292212,23.721706],[121.292402,23.722159],[121.292894,23.722074],[121.292994,23.721895],[121.293189,23.721987],[121.293187,23.722168],[121.292889,23.722435],[121.2924,23.72234],[121.292298,23.72261],[121.2922,23.722608],[121.292291,23.723151],[121.292486,23.723244],[121.292385,23.723513],[121.292481,23.723605],[121.292776,23.723608],[121.292777,23.723518],[121.292972,23.72361]]],[[[121.294627,23.724532],[121.294927,23.724083],[121.294732,23.723991],[121.294735,23.72381],[121.295029,23.723814],[121.295132,23.723453],[121.295426,23.723457],[121.295618,23.72373],[121.295815,23.723732],[121.295914,23.723643],[121.295822,23.72319],[121.295331,23.723185],[121.295332,23.723095],[121.294941,23.723],[121.294837,23.72345],[121.294145,23.723894],[121.294142,23.724165],[121.294431,23.724529],[121.294627,23.724532]]],[[[121.309771,23.706277],[121.309673,23.706276],[121.309772,23.706186],[121.309775,23.705916],[121.309677,23.705914],[121.309781,23.705464],[121.309683,23.705463],[121.30959,23.705101],[121.309196,23.705187],[121.309095,23.705457],[121.308899,23.705454],[121.308705,23.705272],[121.308505,23.70554],[121.308214,23.705357],[121.308217,23.705086],[121.308415,23.704907],[121.308612,23.70491],[121.308712,23.70473],[121.309003,23.705004],[121.309592,23.70492],[121.309688,23.705102],[121.310178,23.705107],[121.310378,23.704839],[121.310671,23.704932],[121.310771,23.704753],[121.311066,23.704665],[121.310972,23.704394],[121.31107,23.704395],[121.311073,23.704124],[121.311271,23.704036],[121.311274,23.703765],[121.31147,23.703767],[121.311663,23.70404],[121.311957,23.704043],[121.311962,23.703682],[121.311767,23.70359],[121.31177,23.703319],[121.311575,23.703226],[121.311579,23.702955],[121.311384,23.702863],[121.31139,23.702411],[121.311293,23.70232],[121.310797,23.702766],[121.310793,23.703037],[121.310988,23.70313],[121.310986,23.70331],[121.31069,23.703397],[121.31059,23.703577],[121.310493,23.703485],[121.310198,23.703572],[121.309898,23.704021],[121.309409,23.703925],[121.309412,23.703654],[121.309119,23.703561],[121.308822,23.703828],[121.308818,23.704099],[121.30852,23.704367],[121.308127,23.704453],[121.307729,23.7049],[121.306848,23.7048],[121.306847,23.70489],[121.306552,23.704887],[121.306551,23.704977],[121.305865,23.70497],[121.305666,23.705148],[121.305761,23.70542],[121.306251,23.705426],[121.306252,23.705335],[121.30684,23.705432],[121.30674,23.705521],[121.306836,23.705703],[121.307032,23.705705],[121.30733,23.705437],[121.307423,23.7058],[121.307619,23.705802],[121.307618,23.705892],[121.307914,23.705805],[121.308105,23.706168],[121.308399,23.706171],[121.308593,23.706354],[121.30879,23.706266],[121.308696,23.705994],[121.309088,23.705998],[121.309182,23.70627],[121.309473,23.706544],[121.309669,23.706546],[121.309771,23.706277]]],[[[121.300333,23.70807],[121.300431,23.708071],[121.300335,23.707889],[121.300236,23.707978],[121.299747,23.707883],[121.299456,23.707608],[121.299362,23.707337],[121.299263,23.707426],[121.298774,23.70733],[121.298679,23.707058],[121.298581,23.707057],[121.298684,23.706697],[121.298782,23.706698],[121.298785,23.706427],[121.299084,23.706069],[121.299091,23.705528],[121.299189,23.705529],[121.299095,23.705257],[121.299193,23.705258],[121.299197,23.704897],[121.299395,23.704809],[121.299398,23.704538],[121.299595,23.70445],[121.299601,23.703998],[121.299701,23.703909],[121.29941,23.703635],[121.299412,23.703454],[121.299217,23.703362],[121.299321,23.702911],[121.299031,23.702637],[121.29913,23.702548],[121.299033,23.702457],[121.299132,23.702368],[121.299035,23.702276],[121.299042,23.701734],[121.29914,23.701736],[121.299243,23.701375],[121.298753,23.70137],[121.298657,23.701188],[121.298069,23.701182],[121.298243,23.7029],[121.298341,23.702901],[121.298337,23.703172],[121.298532,23.703264],[121.298529,23.703535],[121.299112,23.703902],[121.299203,23.704445],[121.299105,23.704444],[121.298798,23.705434],[121.298014,23.705425],[121.297518,23.705871],[121.297811,23.705965],[121.297906,23.706147],[121.298299,23.706151],[121.298297,23.706241],[121.298495,23.706153],[121.298486,23.706785],[121.298192,23.706782],[121.297993,23.707051],[121.298384,23.707145],[121.298575,23.707508],[121.298869,23.707512],[121.298966,23.707603],[121.298865,23.707873],[121.299058,23.708056],[121.299254,23.708058],[121.299448,23.70824],[121.29955,23.707971],[121.299648,23.707972],[121.300034,23.708428],[121.30033,23.70834],[121.300333,23.70807]],[[121.299019,23.70354],[121.298922,23.703449],[121.29902,23.70345],[121.299019,23.70354]]],[[[121.311786,23.70973],[121.311688,23.709729],[121.311691,23.709458],[121.311989,23.709191],[121.311893,23.709009],[121.311695,23.709187],[121.3114,23.709184],[121.311399,23.709274],[121.311109,23.709],[121.310814,23.708997],[121.310713,23.709267],[121.310615,23.709266],[121.310607,23.709898],[121.310509,23.709897],[121.310407,23.710167],[121.3107,23.71026],[121.310804,23.70981],[121.3111,23.709632],[121.311488,23.709998],[121.311485,23.710269],[121.31168,23.710361],[121.311779,23.710272],[121.311786,23.70973]]],[[[121.301272,23.711331],[121.300984,23.710786],[121.300403,23.710238],[121.30011,23.710144],[121.300114,23.709873],[121.299821,23.70978],[121.299628,23.709507],[121.299432,23.709504],[121.299238,23.709322],[121.299138,23.709501],[121.299623,23.709868],[121.299619,23.710229],[121.300107,23.710415],[121.300299,23.710688],[121.300495,23.71069],[121.300689,23.710873],[121.300782,23.711235],[121.300979,23.711237],[121.301074,23.711419],[121.301272,23.711331]]],[[[121.311863,23.711356],[121.311771,23.710904],[121.311869,23.710905],[121.311776,23.710452],[121.31138,23.710809],[121.310988,23.710715],[121.310699,23.71035],[121.310502,23.710438],[121.310594,23.710891],[121.310788,23.711074],[121.311473,23.711171],[121.311666,23.711444],[121.311863,23.711356]]],[[[121.309658,23.715035],[121.309854,23.715037],[121.310253,23.714499],[121.310057,23.714497],[121.309961,23.714315],[121.309373,23.714309],[121.30927,23.714669],[121.309072,23.714848],[121.308876,23.714845],[121.308682,23.714663],[121.308685,23.714392],[121.308783,23.714393],[121.308687,23.714302],[121.308692,23.71385],[121.30899,23.713582],[121.309381,23.713677],[121.309382,23.713587],[121.309776,23.713501],[121.310174,23.713054],[121.310468,23.713057],[121.310469,23.712966],[121.310665,23.712969],[121.310956,23.713243],[121.310952,23.713514],[121.31125,23.713246],[121.310764,23.712879],[121.310672,23.712427],[121.310478,23.712244],[121.310184,23.712241],[121.310183,23.712331],[121.30989,23.712238],[121.309892,23.712057],[121.309697,23.711965],[121.309507,23.711511],[121.308525,23.711591],[121.308129,23.711948],[121.308222,23.71231],[121.307827,23.712486],[121.307921,23.712848],[121.307723,23.712936],[121.307721,23.713117],[121.307819,23.713118],[121.307713,23.713749],[121.307811,23.71375],[121.307808,23.714021],[121.308003,23.714113],[121.308097,23.714385],[121.308394,23.714208],[121.308384,23.71493],[121.308481,23.715022],[121.308971,23.715027],[121.309067,23.715209],[121.309166,23.715119],[121.309657,23.715125],[121.309658,23.715035]]],[[[121.301428,23.714403],[121.301526,23.714404],[121.301529,23.714133],[121.301727,23.714045],[121.301731,23.713684],[121.301929,23.713595],[121.302033,23.713145],[121.301935,23.713144],[121.301841,23.712782],[121.301549,23.712598],[121.301552,23.712417],[121.30126,23.712234],[121.300962,23.712501],[121.300852,23.713403],[121.30095,23.713404],[121.301044,23.713766],[121.301239,23.713859],[121.301233,23.71431],[121.301036,23.714398],[121.301033,23.714579],[121.301326,23.714672],[121.301428,23.714403]]],[[[121.310854,23.713513],[121.310951,23.713604],[121.310952,23.713514],[121.310854,23.713513]]],[[[121.300356,23.721434],[121.300362,23.720983],[121.299974,23.720617],[121.299778,23.720615],[121.299576,23.721064],[121.299478,23.721063],[121.299472,23.721515],[121.299569,23.721606],[121.300158,23.721613],[121.300356,23.721434]]],[[[121.302873,23.72399],[121.303068,23.724083],[121.303269,23.723724],[121.30288,23.723448],[121.302788,23.722996],[121.302593,23.722903],[121.302196,23.72326],[121.30219,23.723712],[121.302482,23.723896],[121.302478,23.724166],[121.302672,23.724349],[121.302869,23.724261],[121.302873,23.72399]]]]}},{"type":"Feature","properties":{"kind":"bare_dam","month":"2023-06","area_ha":26.57},"geometry":{"type":"MultiPolygon","coordinates":[[[[121.302801,23.691662],[121.302608,23.691389],[121.302411,23.691477],[121.302122,23.691113],[121.300949,23.690829],[121.300855,23.690467],[121.300661,23.690284],[121.30125,23.690291],[121.30135,23.690111],[121.300862,23.689925],[121.300863,23.689835],[121.299786,23.689733],[121.299882,23.689914],[121.299585,23.690092],[121.299392,23.689909],[121.299492,23.68973],[121.2991,23.689725],[121.299099,23.689816],[121.298708,23.689721],[121.298607,23.6899],[121.298018,23.689984],[121.297522,23.69043],[121.297614,23.690883],[121.297808,23.691066],[121.298594,23.690894],[121.298788,23.691076],[121.298785,23.691347],[121.299078,23.691441],[121.299076,23.691531],[121.299665,23.691537],[121.299762,23.691629],[121.299861,23.69154],[121.299767,23.691177],[121.299963,23.69118],[121.300058,23.691452],[121.300745,23.691369],[121.300744,23.691459],[121.301529,23.691468],[121.301527,23.691558],[121.30192,23.691562],[121.301918,23.691653],[121.302214,23.691565],[121.302408,23.691748],[121.302702,23.691751],[121.302801,23.691662]],[[121.299969,23.690728],[121.299779,23.690275],[121.300073,23.690278],[121.300067,23.690729],[121.299969,23.690728]],[[121.299093,23.690267],[121.298897,23.690265],[121.298898,23.690175],[121.299094,23.690177],[121.299093,23.690267]]],[[[121.303095,23.691665],[121.30329,23.691758],[121.30339,23.691578],[121.302999,23.691484],[121.302998,23.691574],[121.3029,23.691573],[121.302899,23.691663],[121.302801,23.691662],[121.3028,23.691752],[121.302995,23.691845],[121.303095,23.691665]]],[[[121.304265,23.69222],[121.304364,23.692131],[121.304268,23.691949],[121.304072,23.691947],[121.304071,23.692037],[121.303974,23.691946],[121.303777,23.692034],[121.303778,23.691944],[121.303484,23.691941],[121.303485,23.69185],[121.30319,23.691937],[121.303285,23.692119],[121.303872,23.692216],[121.303871,23.692306],[121.304265,23.69222]]],[[[121.298755,23.693604],[121.298949,23.693787],[121.299243,23.69379],[121.299241,23.693971],[121.299435,23.694154],[121.299927,23.693978],[121.299833,23.693707],[121.300029,23.693709],[121.300028,23.693799],[121.300225,23.693711],[121.300417,23.693984],[121.300712,23.693987],[121.300806,23.694259],[121.3011,23.694262],[121.301201,23.694083],[121.301298,23.694174],[121.301495,23.694086],[121.301497,23.693905],[121.301303,23.693723],[121.301107,23.693721],[121.301012,23.693539],[121.300815,23.693537],[121.300525,23.693263],[121.300527,23.693082],[121.300332,23.69299],[121.300336,23.692719],[121.300045,23.692445],[121.299751,23.692441],[121.299753,23.692261],[121.29956,23.692078],[121.299068,23.692163],[121.299071,23.691982],[121.298779,23.691799],[121.298781,23.691618],[121.298391,23.691433],[121.298291,23.691613],[121.298776,23.691979],[121.298775,23.69207],[121.29848,23.692157],[121.298577,23.692248],[121.298472,23.692789],[121.298956,23.693245],[121.298954,23.693426],[121.298755,23.693604]],[[121.301201,23.694083],[121.301104,23.693991],[121.301202,23.693992],[121.301201,23.694083]],[[121.298954,23.693426],[121.299051,23.693517],[121.298953,23.693516],[121.298954,23.693426]],[[121.299149,23.693518],[121.299246,23.69361],[121.299148,23.693609],[121.299149,23.693518]],[[121.299247,23.693519],[121.299346,23.69343],[121.299445,23.693341],[121.299443,23.693522],[121.299247,23.693519]],[[121.300326,23.693441],[121.300426,23.693352],[121.300424,23.693442],[121.300326,23.693441]],[[121.300328,23.693351],[121.300231,23.693259],[121.300329,23.69326],[121.300328,23.693351]]],[[[121.301682,23.69481],[121.301979,23.694543],[121.301686,23.694449],[121.301689,23.694269],[121.301494,23.694176],[121.301394,23.694265],[121.301488,23.694628],[121.301682,23.69481]]],[[[121.298604,23.697756],[121.298802,23.697578],[121.298706,23.697396],[121.298904,23.697308],[121.298901,23.697489],[121.299095,23.697672],[121.299291,23.697674],[121.299387,23.697855],[121.299683,23.697678],[121.299682,23.697768],[121.299878,23.69777],[121.299876,23.697951],[121.299186,23.698214],[121.298789,23.698571],[121.298787,23.698752],[121.298494,23.698658],[121.298294,23.698927],[121.2981,23.698744],[121.297903,23.698832],[121.297898,23.699194],[121.2978,23.699192],[121.297698,23.699553],[121.2975,23.699641],[121.297888,23.700006],[121.297882,23.700458],[121.299157,23.700472],[121.298966,23.700018],[121.298868,23.700017],[121.298872,23.699746],[121.298774,23.699745],[121.298777,23.699474],[121.299076,23.699116],[121.299181,23.698576],[121.299479,23.698308],[121.300165,23.698315],[121.300166,23.698225],[121.301148,23.698146],[121.301546,23.697699],[121.301742,23.697701],[121.302041,23.697343],[121.302434,23.697257],[121.302634,23.696988],[121.30283,23.69699],[121.303128,23.696723],[121.303335,23.695822],[121.303239,23.69573],[121.302943,23.695818],[121.30294,23.696088],[121.302644,23.696175],[121.302347,23.696443],[121.302145,23.696892],[121.301749,23.697159],[121.301747,23.69734],[121.301251,23.697786],[121.300864,23.69733],[121.300276,23.697323],[121.300082,23.697141],[121.299983,23.69723],[121.299788,23.697137],[121.299689,23.697227],[121.299784,23.697499],[121.299488,23.697586],[121.299295,23.697403],[121.299297,23.697222],[121.299495,23.697044],[121.299202,23.69695],[121.299303,23.696771],[121.298915,23.696405],[121.298918,23.696225],[121.299016,23.696226],[121.299027,23.695323],[121.298736,23.695139],[121.29874,23.694778],[121.298545,23.694686],[121.298248,23.694953],[121.298153,23.694681],[121.29786,23.694588],[121.297761,23.694677],[121.297857,23.694859],[121.29746,23.695216],[121.297654,23.695398],[121.29795,23.695221],[121.298239,23.695585],[121.298141,23.695584],[121.298139,23.695765],[121.297943,23.695763],[121.297944,23.695672],[121.297649,23.695759],[121.297646,23.69594],[121.297937,23.696214],[121.297639,23.696482],[121.297931,23.696665],[121.297928,23.696936],[121.29822,23.69712],[121.298409,23.697664],[121.298604,23.697756]],[[121.298139,23.695765],[121.298236,23.695856],[121.298138,23.695855],[121.298139,23.695765]],[[121.29819,23.699377],[121.298188,23.699558],[121.297992,23.699556],[121.297993,23.699465],[121.29819,23.699377]],[[121.298386,23.699379],[121.298391,23.699018],[121.298489,23.699019],[121.298484,23.699381],[121.298386,23.699379]],[[121.300466,23.697777],[121.30037,23.697686],[121.300468,23.697687],[121.300466,23.697777]],[[121.298517,23.696853],[121.298515,23.697033],[121.298417,23.697032],[121.298321,23.69685],[121.298517,23.696853]],[[121.298327,23.696399],[121.29823,23.696308],[121.298328,23.696309],[121.298327,23.696399]],[[121.298724,23.696042],[121.298721,23.696223],[121.298525,23.696221],[121.298527,23.69613],[121.298724,23.696042]],[[121.298629,23.69577],[121.298532,23.695679],[121.29863,23.69568],[121.298629,23.69577]]],[[[121.298305,23.698114],[121.298207,23.698113],[121.2983,23.698476],[121.298695,23.698299],[121.298505,23.697755],[121.298308,23.697844],[121.298305,23.698114]]],[[[121.295546,23.699077],[121.295842,23.69899],[121.295942,23.698811],[121.296136,23.698994],[121.296332,23.698996],[121.296432,23.698816],[121.296139,23.698723],[121.296141,23.698632],[121.296041,23.698722],[121.295846,23.698629],[121.295845,23.698719],[121.295452,23.698805],[121.295153,23.699163],[121.295446,23.699257],[121.295546,23.699077]]],[[[121.31276,23.687346],[121.312467,23.687253],[121.312277,23.686799],[121.311687,23.686883],[121.311494,23.6867],[121.311394,23.68679],[121.311489,23.687062],[121.311291,23.68724],[121.311285,23.687692],[121.31148,23.687784],[121.311878,23.687337],[121.312074,23.687339],[121.312364,23.687613],[121.312362,23.687794],[121.312654,23.687977],[121.312753,23.687888],[121.31276,23.687346]]],[[[121.310487,23.688766],[121.31098,23.688501],[121.31118,23.688232],[121.310985,23.68814],[121.310884,23.688319],[121.310491,23.688405],[121.310292,23.688674],[121.310487,23.688766]]],[[[121.308811,23.68947],[121.30911,23.689022],[121.309015,23.688841],[121.30862,23.689017],[121.308616,23.689378],[121.308811,23.68947]]],[[[121.308291,23.691722],[121.308589,23.691455],[121.308884,23.691368],[121.308694,23.690914],[121.308889,23.691006],[121.30899,23.690737],[121.309088,23.690738],[121.308798,23.690464],[121.308609,23.68992],[121.308411,23.690008],[121.308594,23.691094],[121.308396,23.691182],[121.308394,23.691362],[121.308198,23.69136],[121.307999,23.691539],[121.308095,23.69172],[121.308194,23.691631],[121.308291,23.691722]]],[[[121.304758,23.691955],[121.304465,23.691861],[121.304365,23.692041],[121.304658,23.692134],[121.304758,23.691955]]],[[[121.307206,23.692252],[121.3075,23.692255],[121.307699,23.691987],[121.307506,23.691804],[121.307016,23.691799],[121.307014,23.691889],[121.306228,23.692061],[121.306229,23.691971],[121.305935,23.691967],[121.305741,23.691785],[121.305252,23.691689],[121.304756,23.692135],[121.30495,23.692318],[121.305248,23.69196],[121.305737,23.692056],[121.306028,23.69233],[121.305925,23.69269],[121.305827,23.692689],[121.30592,23.693141],[121.306713,23.692427],[121.307205,23.692343],[121.307206,23.692252]],[[121.306713,23.692427],[121.306616,23.692336],[121.306714,23.692337],[121.306713,23.692427]]],[[[121.303824,23.695918],[121.304021,23.69592],[121.304122,23.69565],[121.304416,23.695653],[121.304715,23.695295],[121.304911,23.695297],[121.305015,23.694847],[121.305313,23.694579],[121.305805,23.694404],[121.305809,23.694133],[121.305711,23.694132],[121.305815,23.693682],[121.305718,23.69359],[121.305122,23.694126],[121.304532,23.6943],[121.304233,23.694658],[121.30384,23.694744],[121.303933,23.695106],[121.303736,23.695194],[121.30373,23.695646],[121.303632,23.695644],[121.303529,23.696005],[121.303724,23.696097],[121.303824,23.695918]],[[121.305216,23.694488],[121.305119,23.694397],[121.305217,23.694398],[121.305216,23.694488]]]]}},{"type":"Feature","properties":{"kind":"water","month":"2023-06","area_ha":0.73},"geometry":{"type":"MultiPolygon","coordinates":[[[[121.299185,23.698305],[121.299482,23.698037],[121.299876,23.697951],[121.299878,23.69777],[121.299585,23.697677],[121.299485,23.697856],[121.299289,23.697854],[121.299291,23.697674],[121.2989,23.697579],[121.298904,23.697308],[121.298805,23.697307],[121.298705,23.697487],[121.298899,23.697669],[121.298895,23.69794],[121.299091,23.697942],[121.298893,23.698121],[121.298891,23.698301],[121.299185,23.698305]]],[[[121.298596,23.698298],[121.298594,23.698479],[121.298399,23.698386],[121.298201,23.698565],[121.298198,23.698745],[121.2981,23.698744],[121.298196,23.698926],[121.298493,23.698749],[121.298495,23.698568],[121.298986,23.698483],[121.298891,23.698301],[121.298596,23.698298]]]]}}]}