{"type":"FeatureCollection","features":[{"type":"Feature","properties":{"kind":"bare_slide","month":"2023-11","area_ha":18.88},"geometry":{"type":"MultiPolygon","coordinates":[[[[121.299406,23.703906],[121.299605,23.703727],[121.299313,23.703543],[121.299123,23.70309],[121.298827,23.703177],[121.298732,23.702995],[121.298536,23.702993],[121.298441,23.702721],[121.298244,23.702809],[121.298338,23.703081],[121.298436,23.703082],[121.298433,23.703353],[121.298722,23.703718],[121.29892,23.703629],[121.298823,23.703538],[121.298826,23.703267],[121.298924,23.703268],[121.299019,23.70354],[121.299117,23.703541],[121.299406,23.703906]]],[[[121.299309,23.703814],[121.299013,23.703992],[121.29911,23.704083],[121.299104,23.704534],[121.299006,23.704533],[121.299002,23.704804],[121.298904,23.704803],[121.298997,23.705256],[121.299194,23.705168],[121.299199,23.704806],[121.299297,23.704807],[121.299299,23.704627],[121.299598,23.704269],[121.2996,23.704088],[121.299502,23.704087],[121.299309,23.703814]]],[[[121.298788,23.706247],[121.298886,23.706248],[121.298888,23.706067],[121.298402,23.705701],[121.298308,23.705429],[121.297916,23.705424],[121.297717,23.705603],[121.297907,23.706056],[121.298495,23.706153],[121.298587,23.706606],[121.298784,23.706517],[121.298788,23.706247]]],[[[121.298388,23.706784],[121.298095,23.706691],[121.297994,23.70696],[121.298091,23.707052],[121.298288,23.706964],[121.298482,23.707146],[121.298479,23.707327],[121.298673,23.70751],[121.298869,23.707512],[121.29897,23.707332],[121.298484,23.706966],[121.298684,23.706697],[121.298489,23.706605],[121.298388,23.706784]]],[[[121.297071,23.71002],[121.297468,23.709663],[121.297372,23.709572],[121.297473,23.709302],[121.297768,23.709215],[121.297673,23.709034],[121.297182,23.709028],[121.297082,23.709208],[121.296886,23.709206],[121.296687,23.709384],[121.296783,23.709566],[121.296979,23.709568],[121.296877,23.709928],[121.297071,23.71002]]],[[[121.298376,23.715272],[121.298673,23.715095],[121.298578,23.714823],[121.298286,23.714639],[121.298292,23.714188],[121.297902,23.714003],[121.297906,23.713732],[121.297808,23.713731],[121.297713,23.713459],[121.297516,23.713547],[121.297409,23.714268],[121.297111,23.714536],[121.296817,23.714532],[121.296519,23.7148],[121.296614,23.715072],[121.296909,23.714985],[121.297005,23.715167],[121.297202,23.715079],[121.297204,23.714898],[121.297403,23.71472],[121.297696,23.714813],[121.29818,23.71527],[121.298376,23.715272]]],[[[121.298131,23.719062],[121.29823,23.718973],[121.298136,23.718701],[121.298333,23.718613],[121.298336,23.718342],[121.298633,23.718164],[121.298635,23.717984],[121.298833,23.717896],[121.298835,23.717715],[121.299033,23.717537],[121.298939,23.717265],[121.298742,23.717353],[121.298739,23.717533],[121.298442,23.717801],[121.298439,23.717982],[121.298242,23.71807],[121.29824,23.71825],[121.297546,23.718785],[121.297544,23.718965],[121.297837,23.719059],[121.297836,23.719149],[121.298131,23.719062]]],[[[121.281934,23.720147],[121.281841,23.719785],[121.282336,23.719429],[121.282531,23.719522],[121.282631,23.719342],[121.282533,23.719341],[121.282537,23.71907],[121.282245,23.718886],[121.282247,23.718706],[121.281955,23.718522],[121.282058,23.718162],[121.281765,23.718068],[121.281369,23.718335],[121.281366,23.718606],[121.281561,23.718698],[121.281462,23.718787],[121.281556,23.719059],[121.281159,23.719416],[121.281157,23.719597],[121.281255,23.719598],[121.281152,23.719958],[121.281445,23.720051],[121.281638,23.720324],[121.281934,23.720147]]],[[[121.297147,23.719322],[121.297053,23.71896],[121.296562,23.719045],[121.296364,23.719223],[121.296361,23.719404],[121.296849,23.71959],[121.297042,23.719863],[121.297239,23.719774],[121.297245,23.719323],[121.297147,23.719322]]],[[[121.295368,23.720386],[121.295665,23.720118],[121.296156,23.720124],[121.296258,23.719764],[121.296456,23.719676],[121.296069,23.71922],[121.295871,23.719398],[121.295577,23.719395],[121.295278,23.719753],[121.294982,23.71984],[121.295273,23.720114],[121.295368,23.720386]]],[[[121.309429,23.70239],[121.310899,23.702406],[121.310999,23.702317],[121.311008,23.701595],[121.310425,23.701137],[121.310332,23.700775],[121.310135,23.700863],[121.31013,23.701224],[121.310711,23.701772],[121.310613,23.701771],[121.310611,23.701952],[121.310415,23.701949],[121.310416,23.701859],[121.310024,23.701855],[121.310023,23.701945],[121.309436,23.701848],[121.309434,23.701939],[121.309139,23.702026],[121.309137,23.702206],[121.308743,23.702292],[121.308936,23.702565],[121.309328,23.70257],[121.309429,23.70239]]],[[[121.299517,23.710499],[121.299815,23.710231],[121.299814,23.710321],[121.300108,23.710325],[121.300301,23.710507],[121.3005,23.710329],[121.300505,23.709968],[121.299826,23.709328],[121.299629,23.709416],[121.299533,23.709235],[121.299141,23.70923],[121.299042,23.70932],[121.299138,23.709501],[121.299821,23.70978],[121.299818,23.70996],[121.29962,23.710139],[121.299424,23.710136],[121.299224,23.710405],[121.299517,23.710499]]],[[[121.302907,23.713787],[121.302815,23.713334],[121.302127,23.713417],[121.302129,23.713236],[121.301936,23.713054],[121.301638,23.713321],[121.301442,23.713319],[121.301346,23.713137],[121.301052,23.713134],[121.300956,23.712953],[121.300759,23.713041],[121.300755,23.713312],[121.300949,23.713494],[121.301438,23.71359],[121.301539,23.71341],[121.301636,23.713502],[121.301833,23.713414],[121.301929,23.713595],[121.302222,23.713689],[121.302316,23.713961],[121.302907,23.713787]]],[[[121.298939,23.717265],[121.299532,23.71691],[121.299639,23.716189],[121.299837,23.716101],[121.299941,23.71565],[121.300137,23.715653],[121.300434,23.715385],[121.300242,23.715112],[121.299846,23.715378],[121.299743,23.715739],[121.29915,23.716093],[121.299242,23.716546],[121.298749,23.716811],[121.298745,23.717082],[121.298939,23.717265]]],[[[121.300397,23.718274],[121.300595,23.718096],[121.300605,23.717373],[121.301002,23.717017],[121.300907,23.716745],[121.30071,23.716833],[121.300607,23.717193],[121.300211,23.717459],[121.300208,23.71773],[121.30011,23.717729],[121.300207,23.717821],[121.300204,23.718001],[121.300106,23.718],[121.300099,23.718542],[121.300196,23.718633],[121.300393,23.718545],[121.300397,23.718274]]],[[[121.302219,23.721455],[121.30193,23.72109],[121.301933,23.720819],[121.302031,23.72082],[121.302135,23.72037],[121.302334,23.720192],[121.302341,23.71965],[121.302146,23.719558],[121.301748,23.720005],[121.301641,23.720636],[121.301543,23.720634],[121.301537,23.721086],[121.301732,23.721178],[121.30173,23.721359],[121.302021,23.721633],[121.302219,23.721455]]],[[[121.30476,23.722205],[121.305058,23.721847],[121.305353,23.72185],[121.305453,23.721671],[121.306139,23.721678],[121.30624,23.721499],[121.306828,23.721505],[121.306829,23.721415],[121.306731,23.721414],[121.306637,23.721142],[121.306343,23.721139],[121.305857,23.720772],[121.30566,23.72086],[121.305555,23.721401],[121.305358,23.721399],[121.305462,23.720948],[121.305267,23.720856],[121.305166,23.721126],[121.30497,23.721124],[121.304672,23.721391],[121.304569,23.721751],[121.304372,23.721839],[121.304563,23.722203],[121.30476,23.722205]]],[[[121.30436,23.722742],[121.304658,23.722475],[121.304562,23.722293],[121.303385,23.72228],[121.303286,23.722369],[121.303576,23.722734],[121.30387,23.722737],[121.303871,23.722647],[121.30436,23.722742]]],[[[121.306483,23.725475],[121.306486,23.725204],[121.306978,23.725119],[121.306883,23.724847],[121.306589,23.724844],[121.306591,23.724663],[121.306689,23.724664],[121.306594,23.724482],[121.305611,23.724652],[121.305211,23.72519],[121.305114,23.725098],[121.304623,23.725183],[121.304527,23.725002],[121.304232,23.725089],[121.30423,23.725269],[121.304523,23.725363],[121.304521,23.725453],[121.304621,23.725364],[121.30511,23.725459],[121.305308,23.725281],[121.305602,23.725284],[121.305795,23.725557],[121.30609,23.72547],[121.306186,23.725652],[121.306483,23.725475]]]]}},{"type":"Feature","properties":{"kind":"bare_dam","month":"2023-11","area_ha":13.6},"geometry":{"type":"MultiPolygon","coordinates":[[[[121.2983,23.69089],[121.298791,23.690896],[121.298786,23.691257],[121.299076,23.691531],[121.299273,23.691533],[121.299274,23.691443],[121.299763,23.691539],[121.299862,23.691449],[121.299769,23.691087],[121.299867,23.691088],[121.299864,23.691269],[121.300155,23.691543],[121.300353,23.691364],[121.30104,23.691372],[121.301038,23.691462],[121.301236,23.691374],[121.30133,23.691646],[121.301525,23.691739],[121.301526,23.691648],[121.301822,23.691561],[121.301725,23.69147],[121.301826,23.6912],[121.301436,23.691015],[121.301343,23.690653],[121.300851,23.690828],[121.300853,23.690648],[121.300755,23.690646],[121.300856,23.690377],[121.30076,23.690285],[121.301055,23.690198],[121.301054,23.690289],[121.301446,23.690293],[121.301445,23.690383],[121.301642,23.690295],[121.301739,23.690386],[121.301839,23.690207],[121.301742,23.690116],[121.301545,23.690204],[121.301254,23.68993],[121.300862,23.689925],[121.300668,23.689743],[121.298708,23.689721],[121.298607,23.6899],[121.298215,23.689896],[121.298115,23.690076],[121.297919,23.690074],[121.297522,23.69043],[121.29771,23.691065],[121.298004,23.691068],[121.298203,23.690799],[121.2983,23.69089]],[[121.298203,23.690799],[121.298107,23.690708],[121.298205,23.690709],[121.298203,23.690799]],[[121.300262,23.690822],[121.300359,23.690913],[121.300261,23.690912],[121.300262,23.690822]],[[121.299969,23.690728],[121.299872,23.690637],[121.299971,23.690638],[121.299969,23.690728]],[[121.300069,23.690639],[121.299777,23.690455],[121.299877,23.690276],[121.30017,23.690369],[121.300168,23.69055],[121.300069,23.690639]],[[121.297914,23.690435],[121.298011,23.690526],[121.297913,23.690525],[121.297914,23.690435]],[[121.299483,23.690452],[121.29958,23.690543],[121.299481,23.690542],[121.299483,23.690452]],[[121.29949,23.68991],[121.299587,23.690002],[121.299488,23.69],[121.29949,23.68991]]],[[[121.298476,23.692427],[121.298473,23.692698],[121.29886,23.693064],[121.298757,23.693514],[121.299048,23.693698],[121.299142,23.69406],[121.299436,23.694063],[121.299536,23.693884],[121.299731,23.693976],[121.29983,23.693887],[121.299735,23.693705],[121.30003,23.693618],[121.300321,23.693892],[121.300615,23.693896],[121.300612,23.694076],[121.300514,23.694075],[121.30061,23.694257],[121.300806,23.694259],[121.301005,23.694081],[121.301299,23.694084],[121.301197,23.694354],[121.301585,23.694719],[121.301978,23.694633],[121.301785,23.69436],[121.301589,23.694358],[121.301396,23.694175],[121.301495,23.694086],[121.3014,23.693814],[121.30111,23.69354],[121.300914,23.693538],[121.300818,23.693356],[121.300525,23.693263],[121.300336,23.692719],[121.300045,23.692445],[121.299751,23.692441],[121.299753,23.692261],[121.29946,23.692167],[121.299462,23.692077],[121.299166,23.692164],[121.298779,23.691799],[121.298684,23.691527],[121.298389,23.691614],[121.298678,23.691978],[121.298384,23.691975],[121.298191,23.691792],[121.298097,23.69143],[121.297902,23.691338],[121.297803,23.691427],[121.297801,23.691607],[121.297996,23.6917],[121.297895,23.691879],[121.297993,23.69188],[121.298187,23.692063],[121.298185,23.692244],[121.298476,23.692427]],[[121.300622,23.693354],[121.300523,23.693443],[121.300524,23.693353],[121.300622,23.693354]],[[121.29838,23.692336],[121.298479,23.692247],[121.298478,23.692337],[121.29838,23.692336]],[[121.299441,23.693702],[121.299537,23.693794],[121.299439,23.693792],[121.299441,23.693702]],[[121.299247,23.693519],[121.299344,23.693611],[121.299246,23.69361],[121.299247,23.693519]],[[121.299347,23.69334],[121.299444,23.693431],[121.299346,23.69343],[121.299347,23.69334]],[[121.300231,23.693259],[121.300328,23.693351],[121.300424,23.693442],[121.300228,23.69344],[121.300231,23.693259]],[[121.299939,23.693076],[121.29984,23.693165],[121.299841,23.693075],[121.299939,23.693076]],[[121.299449,23.69307],[121.299647,23.692892],[121.299842,23.692984],[121.299841,23.693075],[121.299449,23.69307]],[[121.300139,23.692807],[121.300039,23.692896],[121.30004,23.692806],[121.300139,23.692807]],[[121.30004,23.692806],[121.299944,23.692714],[121.300042,23.692716],[121.30004,23.692806]],[[121.299164,23.692345],[121.299261,23.692436],[121.299163,23.692435],[121.299164,23.692345]]],[[[121.305121,23.694216],[121.304731,23.694031],[121.304235,23.694477],[121.304233,23.694658],[121.303742,23.694743],[121.303933,23.695106],[121.303736,23.695194],[121.303632,23.695644],[121.303433,23.695823],[121.30324,23.69564],[121.302846,23.695726],[121.302745,23.695996],[121.302939,23.696179],[121.303233,23.696182],[121.303234,23.696092],[121.303821,23.696188],[121.30392,23.696099],[121.303826,23.695827],[121.304023,23.695739],[121.304025,23.695559],[121.30422,23.695651],[121.304221,23.695561],[121.304615,23.695475],[121.304715,23.695295],[121.305206,23.69521],[121.305603,23.694853],[121.305509,23.694581],[121.305806,23.694314],[121.305611,23.694221],[121.30561,23.694312],[121.305217,23.694398],[121.305121,23.694216]],[[121.304025,23.695559],[121.303928,23.695467],[121.304026,23.695468],[121.304025,23.695559]],[[121.304925,23.694214],[121.304826,23.694303],[121.304827,23.694213],[121.304925,23.694214]],[[121.303432,23.695913],[121.303431,23.696003],[121.303235,23.696001],[121.303236,23.695911],[121.303432,23.695913]]],[[[121.298902,23.697399],[121.299397,23.697043],[121.298909,23.696857],[121.299109,23.696588],[121.298816,23.696495],[121.298618,23.696673],[121.298811,23.696856],[121.298612,23.697124],[121.298902,23.697399]]],[[[121.300569,23.697417],[121.300377,23.697144],[121.30018,23.697142],[121.299987,23.696959],[121.299791,23.696957],[121.299592,23.697135],[121.299687,23.697407],[121.299885,23.697229],[121.300081,23.697231],[121.300274,23.697504],[121.300569,23.697417]]]]}},{"type":"Feature","properties":{"kind":"water","month":"2023-11","area_ha":5.57},"geometry":{"type":"MultiPolygon","coordinates":[[[[121.283197,23.691085],[121.28291,23.69054],[121.282517,23.690626],[121.282709,23.690899],[121.283197,23.691085]]],[[[121.291733,23.698223],[121.291245,23.698037],[121.291243,23.698217],[121.291732,23.698313],[121.291733,23.698223]]],[[[121.291926,23.698496],[121.291928,23.698315],[121.291732,23.698313],[121.291731,23.698403],[121.291926,23.698496]]],[[[121.291926,23.698496],[121.292023,23.698587],[121.292024,23.698497],[121.291926,23.698496]]],[[[121.292023,23.698587],[121.29212,23.698678],[121.292121,23.698588],[121.292023,23.698587]]],[[[121.296431,23.698906],[121.296236,23.698814],[121.296142,23.698542],[121.29575,23.698538],[121.295845,23.698719],[121.295649,23.698717],[121.295647,23.698898],[121.295942,23.698811],[121.295941,23.698901],[121.296332,23.698996],[121.29633,23.699176],[121.296526,23.699178],[121.296431,23.698906]]],[[[121.295349,23.699165],[121.29545,23.698986],[121.295646,23.698988],[121.29555,23.698806],[121.295354,23.698804],[121.295154,23.699073],[121.294666,23.698887],[121.294664,23.699068],[121.294858,23.69925],[121.295349,23.699165]]],[[[121.312661,23.687436],[121.312368,23.687342],[121.312371,23.687071],[121.312175,23.687069],[121.312176,23.686979],[121.31198,23.686977],[121.311978,23.687157],[121.311683,23.687244],[121.31168,23.687425],[121.311879,23.687246],[121.312075,23.687249],[121.312169,23.687521],[121.312462,23.687614],[121.312458,23.687975],[121.312653,23.688068],[121.312661,23.687436]]],[[[121.30622,23.692693],[121.306416,23.692695],[121.306812,23.692338],[121.307402,23.692254],[121.307699,23.691987],[121.308191,23.691902],[121.308193,23.691721],[121.308389,23.691723],[121.308688,23.691365],[121.308884,23.691368],[121.308892,23.690736],[121.308794,23.690735],[121.308702,23.690282],[121.308604,23.690281],[121.308596,23.690913],[121.308498,23.690912],[121.308591,23.691274],[121.308393,23.691453],[121.308099,23.691449],[121.307997,23.691719],[121.307801,23.691717],[121.3078,23.691807],[121.306916,23.691888],[121.306816,23.692067],[121.306523,23.691974],[121.306521,23.692154],[121.306227,23.692151],[121.305929,23.692419],[121.305927,23.692599],[121.306025,23.692601],[121.305923,23.69287],[121.30602,23.692962],[121.306217,23.692874],[121.30622,23.692693]],[[121.306222,23.692512],[121.306224,23.692332],[121.306322,23.692333],[121.30632,23.692513],[121.306222,23.692512]],[[121.307502,23.692075],[121.307405,23.691984],[121.307503,23.691985],[121.307502,23.692075]]],[[[121.30613,23.69206],[121.306227,23.692151],[121.306228,23.692061],[121.30613,23.69206]]],[[[121.305716,23.693681],[121.305816,23.693592],[121.30562,23.693589],[121.305615,23.693951],[121.305026,23.694034],[121.305023,23.694215],[121.30561,23.694312],[121.30571,23.694222],[121.305716,23.693681]]],[[[121.296526,23.699178],[121.296623,23.69927],[121.296624,23.699179],[121.296526,23.699178]]],[[[121.298782,23.699113],[121.298684,23.699112],[121.29869,23.69866],[121.298985,23.698573],[121.29909,23.698033],[121.298796,23.698029],[121.2988,23.697759],[121.298702,23.697758],[121.298601,23.697937],[121.298307,23.697934],[121.298404,23.698025],[121.2983,23.698476],[121.298006,23.698472],[121.2978,23.699192],[121.297702,23.699191],[121.297499,23.699731],[121.297695,23.699733],[121.297981,23.700368],[121.298177,23.70037],[121.298172,23.700822],[121.298072,23.700911],[121.298266,23.701094],[121.29807,23.701092],[121.298069,23.701182],[121.298461,23.701186],[121.298463,23.701006],[121.298365,23.701005],[121.298375,23.700282],[121.298473,23.700283],[121.298567,23.700555],[121.298762,23.700648],[121.29876,23.700828],[121.298954,23.701011],[121.298949,23.701372],[121.299047,23.701373],[121.29915,23.701013],[121.298956,23.700831],[121.298961,23.700469],[121.298863,23.700468],[121.298768,23.700196],[121.298377,23.700102],[121.298382,23.699741],[121.298676,23.699744],[121.298582,23.699382],[121.29878,23.699294],[121.298782,23.699113]],[[121.298386,23.699379],[121.298388,23.699289],[121.298584,23.699291],[121.298582,23.699382],[121.298386,23.699379]],[[121.298186,23.699738],[121.298183,23.699919],[121.298085,23.699918],[121.297989,23.699736],[121.298186,23.699738]]]]}}]}