{"type":"FeatureCollection","features":[{"type":"Feature","properties":{"kind":"bare_slide","month":"2023-01","area_ha":129.2},"geometry":{"type":"MultiPolygon","coordinates":[[[[121.299032,23.702547],[121.299131,23.702458],[121.299042,23.701734],[121.29914,23.701736],[121.299243,23.701375],[121.298753,23.70137],[121.298657,23.701188],[121.298069,23.701182],[121.298244,23.702809],[121.298533,23.703174],[121.29853,23.703445],[121.299112,23.703902],[121.299002,23.704804],[121.299197,23.704897],[121.299396,23.704718],[121.299398,23.704538],[121.299595,23.70445],[121.299598,23.704269],[121.299696,23.70427],[121.299699,23.703999],[121.299601,23.703998],[121.299702,23.703819],[121.29941,23.703635],[121.299412,23.703454],[121.299218,23.703271],[121.299224,23.70282],[121.299029,23.702728],[121.299129,23.702638],[121.299032,23.702547]],[[121.299029,23.702728],[121.29893,23.702817],[121.298931,23.702727],[121.299029,23.702728]],[[121.299503,23.703997],[121.299406,23.703906],[121.299504,23.703907],[121.299503,23.703997]],[[121.299309,23.703814],[121.299213,23.703723],[121.299311,23.703724],[121.299309,23.703814]],[[121.298921,23.703539],[121.298924,23.703268],[121.299022,23.703269],[121.299019,23.70354],[121.298921,23.703539]],[[121.298831,23.702906],[121.298734,23.702815],[121.298832,23.702816],[121.298831,23.702906]]],[[[121.299084,23.706069],[121.298988,23.705888],[121.298692,23.706065],[121.298698,23.705614],[121.298797,23.705524],[121.298406,23.70543],[121.298407,23.705339],[121.298211,23.705337],[121.29821,23.705428],[121.298015,23.705335],[121.297913,23.705605],[121.297618,23.705692],[121.297616,23.705873],[121.297809,23.706055],[121.298495,23.706153],[121.298489,23.706605],[121.298586,23.706696],[121.298783,23.706608],[121.298788,23.706247],[121.299084,23.706069]],[[121.298788,23.706247],[121.298691,23.706155],[121.298789,23.706156],[121.298788,23.706247]]],[[[121.298095,23.706691],[121.297993,23.707051],[121.298482,23.707146],[121.298478,23.707417],[121.298771,23.707511],[121.298872,23.707331],[121.298677,23.707239],[121.298683,23.706787],[121.298586,23.706696],[121.298486,23.706785],[121.298095,23.706691]]],[[[121.298248,23.710033],[121.297956,23.709849],[121.297959,23.709669],[121.297765,23.709486],[121.297666,23.709575],[121.297471,23.709483],[121.297377,23.709121],[121.297576,23.708942],[121.297284,23.708758],[121.297182,23.709028],[121.296885,23.709296],[121.296983,23.709297],[121.297173,23.709751],[121.29737,23.709662],[121.297269,23.709932],[121.297657,23.710207],[121.297655,23.710388],[121.29785,23.71048],[121.297945,23.710752],[121.297746,23.710931],[121.29764,23.711562],[121.297148,23.711647],[121.296949,23.711915],[121.296754,23.711823],[121.296655,23.711912],[121.29675,23.712094],[121.297242,23.712009],[121.297241,23.712099],[121.29773,23.712195],[121.297831,23.711925],[121.298327,23.711479],[121.298438,23.710487],[121.298342,23.710395],[121.298144,23.710484],[121.298147,23.710303],[121.298049,23.710302],[121.298248,23.710033]],[[121.297854,23.71021],[121.297563,23.709935],[121.297565,23.709755],[121.298051,23.710121],[121.29805,23.710212],[121.297854,23.71021]]],[[[121.298002,23.713913],[121.297712,23.713549],[121.297515,23.713637],[121.297511,23.713908],[121.297413,23.713907],[121.29741,23.714178],[121.297213,23.714266],[121.29721,23.714446],[121.297404,23.714629],[121.297698,23.714632],[121.298279,23.715181],[121.298379,23.715091],[121.298285,23.714729],[121.298187,23.714728],[121.298292,23.714188],[121.298099,23.714005],[121.297902,23.714003],[121.298002,23.713913]],[[121.297902,23.714003],[121.297803,23.714092],[121.297804,23.714002],[121.297902,23.714003]],[[121.297897,23.714454],[121.297996,23.714365],[121.297995,23.714455],[121.297897,23.714454]]],[[[121.284059,23.715204],[121.284061,23.715024],[121.284258,23.714935],[121.284262,23.714665],[121.284067,23.714572],[121.28407,23.714301],[121.284467,23.713945],[121.284374,23.713582],[121.284079,23.713669],[121.282987,23.71465],[121.282982,23.715012],[121.283275,23.715105],[121.283565,23.71547],[121.283859,23.715473],[121.28396,23.715203],[121.284059,23.715204]]],[[[121.294348,23.71586],[121.294643,23.715773],[121.294647,23.715502],[121.294941,23.715505],[121.295134,23.715688],[121.295236,23.715418],[121.294943,23.715325],[121.29475,23.715051],[121.294456,23.715048],[121.294356,23.715228],[121.29416,23.715226],[121.293763,23.715582],[121.29366,23.715942],[121.293855,23.716035],[121.293856,23.715945],[121.294346,23.71595],[121.294348,23.71586]]],[[[121.293156,23.71702],[121.292864,23.716837],[121.292667,23.716925],[121.292664,23.717105],[121.292957,23.717199],[121.292956,23.717289],[121.293153,23.717201],[121.293156,23.71702]]],[[[121.298133,23.718881],[121.298238,23.718341],[121.298833,23.717896],[121.298835,23.717715],[121.299033,23.717537],[121.298939,23.717265],[121.298443,23.717711],[121.29844,23.717891],[121.298043,23.718248],[121.298041,23.718429],[121.297645,23.718695],[121.297643,23.718876],[121.297837,23.719059],[121.298133,23.718881]]],[[[121.286174,23.718388],[121.286465,23.718662],[121.286566,23.718483],[121.286274,23.718299],[121.286174,23.718388]]],[[[121.293133,23.726321],[121.293525,23.726325],[121.293527,23.726145],[121.29392,23.726149],[121.293922,23.725969],[121.294412,23.725974],[121.294315,23.725883],[121.294415,23.725793],[121.294422,23.725252],[121.29452,23.725253],[121.294426,23.724891],[121.294524,23.724892],[121.294626,23.724622],[121.294821,23.724714],[121.294915,23.724986],[121.295307,23.725081],[121.295302,23.725442],[121.295496,23.725625],[121.29579,23.725628],[121.296076,23.726263],[121.296764,23.72618],[121.296954,23.726634],[121.29715,23.726636],[121.297348,23.726458],[121.297156,23.726185],[121.297254,23.726186],[121.297259,23.725825],[121.297457,23.725646],[121.29736,23.725555],[121.297462,23.725285],[121.297855,23.725199],[121.298146,23.725473],[121.298343,23.725385],[121.298345,23.725205],[121.29786,23.724838],[121.297863,23.724567],[121.297961,23.724568],[121.29787,23.724025],[121.297675,23.723933],[121.297477,23.724111],[121.297479,23.723931],[121.297187,23.723747],[121.297189,23.723657],[121.297679,23.723662],[121.297678,23.723752],[121.297875,23.723664],[121.297887,23.722761],[121.29779,23.72267],[121.297593,23.722758],[121.297587,23.72321],[121.297388,23.723388],[121.297192,23.723386],[121.297092,23.723565],[121.296798,23.723562],[121.296799,23.723472],[121.296405,23.723558],[121.29631,23.723376],[121.295623,23.723369],[121.295527,23.723187],[121.295037,23.723182],[121.29494,23.72309],[121.295139,23.722912],[121.295146,23.72237],[121.295442,23.722193],[121.295445,23.722012],[121.295738,23.722106],[121.295839,23.721836],[121.296038,23.721658],[121.296431,23.721572],[121.296432,23.721481],[121.296723,23.721755],[121.296923,23.721487],[121.297119,23.721489],[121.297317,23.72131],[121.297223,23.721038],[121.296927,23.721126],[121.29693,23.720945],[121.297323,23.720859],[121.297325,23.720678],[121.297227,23.720677],[121.29733,23.720317],[121.297135,23.720225],[121.297143,23.719593],[121.297241,23.719594],[121.29715,23.719051],[121.296857,23.718958],[121.296856,23.719048],[121.296463,23.719134],[121.296753,23.719408],[121.29675,23.719679],[121.296652,23.719678],[121.296649,23.719858],[121.296451,23.720037],[121.296448,23.720308],[121.296349,23.720306],[121.296543,23.720489],[121.296539,23.72085],[121.296145,23.720936],[121.295647,23.721563],[121.294665,23.721642],[121.294465,23.721911],[121.294269,23.721909],[121.294173,23.721727],[121.293684,23.721632],[121.293588,23.72145],[121.293392,23.721448],[121.293297,23.721266],[121.2931,23.721264],[121.292907,23.721081],[121.292916,23.720359],[121.292819,23.720268],[121.292622,23.720356],[121.292617,23.720717],[121.292322,23.720804],[121.292128,23.720621],[121.292035,23.720259],[121.291163,23.719437],[121.290675,23.719251],[121.290774,23.719161],[121.290678,23.71898],[121.290971,23.719073],[121.291171,23.718805],[121.291563,23.718809],[121.291562,23.718899],[121.29176,23.718721],[121.291954,23.718903],[121.29225,23.718816],[121.292154,23.718635],[121.291861,23.718541],[121.29197,23.71773],[121.292069,23.717641],[121.292265,23.717643],[121.292361,23.717824],[121.292656,23.717737],[121.292758,23.717468],[121.292659,23.717466],[121.292664,23.717105],[121.292469,23.717013],[121.292473,23.716742],[121.292964,23.716657],[121.293065,23.716478],[121.293261,23.71648],[121.293459,23.716301],[121.293364,23.71612],[121.293264,23.716209],[121.292677,23.716112],[121.291876,23.717368],[121.291582,23.717364],[121.291185,23.717721],[121.290496,23.717894],[121.290295,23.718253],[121.290199,23.718162],[121.289903,23.718249],[121.289799,23.718699],[121.289406,23.718785],[121.28931,23.718603],[121.290005,23.717979],[121.289817,23.717345],[121.290113,23.717167],[121.290118,23.716806],[121.290412,23.71681],[121.290611,23.716631],[121.290613,23.716451],[121.291106,23.716275],[121.291207,23.716006],[121.291702,23.71565],[121.291804,23.71538],[121.292,23.715382],[121.292101,23.715203],[121.292391,23.715477],[121.29259,23.715299],[121.292884,23.715302],[121.292885,23.715212],[121.292983,23.715213],[121.293078,23.715485],[121.293765,23.715402],[121.29426,23.715046],[121.294263,23.714866],[121.294952,23.714602],[121.295151,23.714424],[121.295153,23.714243],[121.295449,23.714156],[121.295451,23.713976],[121.295745,23.713979],[121.295944,23.7138],[121.295948,23.713439],[121.296146,23.713351],[121.296149,23.71308],[121.296348,23.712902],[121.296351,23.712631],[121.296157,23.712448],[121.29596,23.712536],[121.295758,23.712986],[121.295268,23.71298],[121.29497,23.713248],[121.294677,23.713154],[121.294476,23.713513],[121.29428,23.713511],[121.293884,23.713778],[121.29359,23.713775],[121.293392,23.713953],[121.293389,23.714133],[121.292801,23.714127],[121.2928,23.714217],[121.292409,23.714123],[121.29231,23.714212],[121.292403,23.714574],[121.292204,23.714753],[121.292008,23.71475],[121.292013,23.714389],[121.291915,23.714388],[121.29182,23.714116],[121.291622,23.714295],[121.291525,23.714203],[121.291329,23.714201],[121.291328,23.714291],[121.290937,23.714197],[121.290836,23.714376],[121.290542,23.714373],[121.290442,23.714552],[121.29005,23.714548],[121.28995,23.714637],[121.290144,23.71482],[121.290044,23.715],[121.289849,23.714907],[121.28965,23.715085],[121.289752,23.714816],[121.289459,23.714722],[121.28936,23.714811],[121.289454,23.715083],[121.289061,23.715169],[121.288861,23.715438],[121.288569,23.715254],[121.28847,23.715343],[121.288563,23.715706],[121.288367,23.715703],[121.288371,23.715433],[121.288177,23.71525],[121.28798,23.715338],[121.287982,23.715157],[121.288277,23.71507],[121.288378,23.714891],[121.287987,23.714796],[121.287895,23.714344],[121.287598,23.714521],[121.287888,23.714885],[121.287787,23.715065],[121.287493,23.715062],[121.287494,23.714971],[121.287101,23.715057],[121.287109,23.714425],[121.287012,23.714334],[121.286521,23.714419],[121.286322,23.714597],[121.28632,23.714778],[121.286514,23.71496],[121.286315,23.715139],[121.286313,23.715319],[121.286019,23.715316],[121.285918,23.715496],[121.285329,23.715579],[121.285129,23.715848],[121.284735,23.715934],[121.284634,23.716204],[121.284339,23.716291],[121.284233,23.716831],[121.283741,23.717007],[121.283244,23.717453],[121.283135,23.718354],[121.28333,23.718447],[121.283326,23.718718],[121.283129,23.718806],[121.283027,23.719076],[121.282733,23.719072],[121.282534,23.719251],[121.282728,23.719433],[121.282726,23.719614],[121.28243,23.719701],[121.28233,23.71988],[121.281938,23.719876],[121.281639,23.720234],[121.281636,23.720415],[121.282024,23.72078],[121.282416,23.720784],[121.282517,23.720605],[121.282811,23.720608],[121.283208,23.720251],[121.28321,23.720071],[121.283606,23.719804],[121.283608,23.719624],[121.283804,23.719626],[121.284003,23.719448],[121.284007,23.719177],[121.284401,23.719],[121.28411,23.718726],[121.284113,23.718546],[121.284408,23.718459],[121.284314,23.718187],[121.284707,23.718101],[121.284708,23.718011],[121.284903,23.718103],[121.285004,23.717924],[121.28481,23.717741],[121.285108,23.717473],[121.285402,23.717477],[121.285498,23.717658],[121.285792,23.717661],[121.285791,23.717752],[121.285594,23.71775],[121.285494,23.717929],[121.285199,23.718016],[121.285294,23.718198],[121.285097,23.718286],[121.285095,23.718466],[121.285288,23.718649],[121.284891,23.719006],[121.285376,23.719463],[121.285372,23.719734],[121.285174,23.719912],[121.285467,23.720006],[121.285665,23.719827],[121.285858,23.7201],[121.285659,23.720279],[121.285368,23.720095],[121.285169,23.720273],[121.285362,23.720546],[121.284868,23.720812],[121.284578,23.720447],[121.28468,23.720177],[121.284582,23.720176],[121.284489,23.719814],[121.284295,23.719631],[121.284097,23.71972],[121.28419,23.720172],[121.283992,23.72026],[121.28399,23.720441],[121.284283,23.720534],[121.284377,23.720806],[121.284572,23.720899],[121.284564,23.721531],[121.284466,23.72153],[121.284363,23.72189],[121.283968,23.722156],[121.283965,23.722337],[121.284355,23.722522],[121.284459,23.722071],[121.284655,23.722073],[121.284751,23.722255],[121.285047,23.722078],[121.284943,23.722528],[121.285041,23.722529],[121.285136,23.722801],[121.285528,23.722806],[121.285624,23.722987],[121.286114,23.722993],[121.286113,23.723083],[121.286602,23.723179],[121.286704,23.722909],[121.286901,23.722821],[121.286904,23.72264],[121.287003,23.722551],[121.287198,23.722643],[121.287396,23.722465],[121.2874,23.722194],[121.287598,23.722016],[121.287504,23.721744],[121.287994,23.721749],[121.28809,23.721931],[121.288482,23.721935],[121.288584,23.721665],[121.288682,23.721667],[121.288685,23.721396],[121.288782,23.721487],[121.288979,23.721399],[121.289073,23.721761],[121.289661,23.721768],[121.289662,23.721677],[121.289958,23.72159],[121.290345,23.721956],[121.290446,23.721776],[121.290741,23.721689],[121.290743,23.721509],[121.291036,23.721602],[121.291235,23.721424],[121.291237,23.721243],[121.291335,23.721244],[121.291241,23.720972],[121.291438,23.720884],[121.291531,23.721247],[121.291629,23.721248],[121.291624,23.721699],[121.292015,23.721794],[121.292402,23.722159],[121.292399,23.72243],[121.292301,23.722429],[121.292298,23.72261],[121.292396,23.722611],[121.292386,23.723423],[121.292679,23.723517],[121.292772,23.723879],[121.293064,23.724063],[121.293062,23.724243],[121.292666,23.72451],[121.292661,23.724871],[121.292855,23.725054],[121.293149,23.725057],[121.292949,23.725326],[121.292262,23.725408],[121.292163,23.725498],[121.292257,23.72577],[121.29206,23.725858],[121.292056,23.726129],[121.291861,23.726036],[121.291761,23.726216],[121.291565,23.726213],[121.291562,23.726394],[121.292739,23.726407],[121.29274,23.726317],[121.292251,23.726221],[121.292254,23.72604],[121.292353,23.725951],[121.292842,23.726047],[121.292942,23.725867],[121.293335,23.725872],[121.293331,23.726143],[121.293133,23.726321]],[[121.295347,23.722011],[121.295349,23.721831],[121.295447,23.721832],[121.295445,23.722012],[121.295347,23.722011]],[[121.294559,23.714688],[121.294462,23.714597],[121.29456,23.714598],[121.294559,23.714688]],[[121.28481,23.717741],[121.284713,23.717649],[121.284811,23.717651],[121.28481,23.717741]],[[121.288587,23.721395],[121.288589,23.721214],[121.288688,23.721215],[121.288685,23.721396],[121.288587,23.721395]],[[121.29315,23.724967],[121.293346,23.724969],[121.293345,23.725059],[121.293149,23.725057],[121.29315,23.724967]],[[121.293335,23.725872],[121.293434,23.725783],[121.293433,23.725873],[121.293335,23.725872]],[[121.296964,23.725821],[121.297064,23.725732],[121.297062,23.725823],[121.296964,23.725821]],[[121.296968,23.725551],[121.29687,23.72555],[121.296873,23.725279],[121.297069,23.725281],[121.296968,23.725551]],[[121.294562,23.722002],[121.294854,23.722186],[121.29485,23.722457],[121.294551,23.722815],[121.294355,23.722813],[121.294457,23.722543],[121.294555,23.722544],[121.294562,23.722002]],[[121.293193,23.721716],[121.292902,23.721442],[121.293098,23.721444],[121.293292,23.721627],[121.293287,23.721988],[121.293189,23.721987],[121.293193,23.721716]],[[121.285643,23.721543],[121.285545,23.721542],[121.285542,23.721722],[121.285248,23.721719],[121.285351,23.721359],[121.285645,23.721362],[121.285643,23.721543]],[[121.285651,23.720911],[121.285948,23.720733],[121.286141,23.720916],[121.286139,23.721097],[121.285843,23.721274],[121.285649,23.721091],[121.285651,23.720911]],[[121.289472,23.721224],[121.289275,23.721312],[121.289181,23.72095],[121.289476,23.720953],[121.289472,23.721224]],[[121.290945,23.72106],[121.291043,23.721061],[121.29104,23.721331],[121.290942,23.72133],[121.290945,23.72106]],[[121.292612,23.721078],[121.292711,23.721079],[121.292708,23.72126],[121.29261,23.721259],[121.292612,23.721078]],[[121.286631,23.721012],[121.286531,23.721101],[121.286533,23.721011],[121.286631,23.721012]],[[121.286729,23.721013],[121.286534,23.72092],[121.286634,23.720741],[121.287123,23.720837],[121.287122,23.720927],[121.28673,23.720923],[121.286729,23.721013]],[[121.287218,23.721109],[121.287317,23.721019],[121.287316,23.72111],[121.287218,23.721109]],[[121.284867,23.720902],[121.285063,23.720904],[121.285062,23.720994],[121.284865,23.720992],[121.284867,23.720902]],[[121.287611,23.721023],[121.287513,23.721022],[121.287417,23.72084],[121.287614,23.720842],[121.287611,23.721023]],[[121.288104,23.720847],[121.28781,23.720844],[121.287811,23.720754],[121.288106,23.720667],[121.288104,23.720847]],[[121.286352,23.719835],[121.286548,23.719837],[121.286544,23.720108],[121.286739,23.7202],[121.286736,23.720471],[121.28654,23.720469],[121.286538,23.720559],[121.286342,23.720557],[121.286442,23.720468],[121.286352,23.719835]],[[121.287326,23.720297],[121.287525,23.720119],[121.287521,23.72039],[121.287128,23.720475],[121.28713,23.720295],[121.287326,23.720297]],[[121.287917,23.720123],[121.2889,23.719953],[121.288992,23.720406],[121.288011,23.720485],[121.288012,23.720395],[121.287816,23.720393],[121.287917,23.720123]],[[121.287729,23.719489],[121.287922,23.719762],[121.287723,23.71994],[121.287527,23.719938],[121.287435,23.719486],[121.287729,23.719489]],[[121.286945,23.71948],[121.28724,23.719393],[121.286941,23.719751],[121.286745,23.719749],[121.286945,23.71948]],[[121.283513,23.719442],[121.283415,23.719441],[121.283418,23.71917],[121.283614,23.719172],[121.283513,23.719442]],[[121.28657,23.718122],[121.286764,23.718304],[121.286662,23.718574],[121.286857,23.718667],[121.286855,23.718847],[121.286558,23.719024],[121.286268,23.71875],[121.285871,23.719107],[121.285678,23.718834],[121.285975,23.718657],[121.286078,23.718297],[121.286274,23.718299],[121.286374,23.718119],[121.28657,23.718122]],[[121.290388,23.718706],[121.290386,23.718796],[121.29019,23.718794],[121.290191,23.718703],[121.290388,23.718706]],[[121.290191,23.718703],[121.290095,23.718612],[121.290193,23.718613],[121.290191,23.718703]],[[121.290095,23.718612],[121.289998,23.718521],[121.290096,23.718522],[121.290095,23.718612]],[[121.283823,23.718181],[121.283918,23.718453],[121.283624,23.71845],[121.283725,23.71818],[121.283823,23.718181]],[[121.29128,23.717993],[121.291476,23.717995],[121.291473,23.718176],[121.291375,23.718175],[121.291373,23.718355],[121.291079,23.718352],[121.291081,23.718171],[121.29128,23.717993]],[[121.285984,23.717934],[121.28618,23.717937],[121.286179,23.718027],[121.285983,23.718025],[121.285984,23.717934]],[[121.28638,23.717668],[121.286677,23.717491],[121.286869,23.717764],[121.286573,23.717941],[121.28638,23.717668]],[[121.284125,23.717643],[121.284224,23.717554],[121.284223,23.717644],[121.284125,23.717643]],[[121.284426,23.717104],[121.284623,23.717016],[121.284528,23.716835],[121.284726,23.716656],[121.285019,23.71675],[121.285121,23.71648],[121.285514,23.716394],[121.285812,23.716127],[121.285619,23.715854],[121.28601,23.715948],[121.28631,23.7155],[121.286602,23.715684],[121.2866,23.715864],[121.286698,23.715865],[121.286694,23.716136],[121.286497,23.716224],[121.286495,23.716405],[121.28669,23.716497],[121.286588,23.716767],[121.286096,23.716852],[121.286199,23.716492],[121.286004,23.7164],[121.285704,23.716848],[121.285215,23.716752],[121.28462,23.717287],[121.284617,23.717468],[121.284421,23.717466],[121.28452,23.717376],[121.284426,23.717104]],[[121.289524,23.717251],[121.28972,23.717253],[121.289719,23.717344],[121.289523,23.717342],[121.289524,23.717251]],[[121.288741,23.717152],[121.28884,23.717063],[121.288839,23.717153],[121.288741,23.717152]],[[121.289432,23.716799],[121.289727,23.716712],[121.289926,23.716533],[121.289824,23.716803],[121.289628,23.716801],[121.289428,23.71707],[121.289035,23.717156],[121.289037,23.716975],[121.289431,23.716889],[121.289432,23.716799]],[[121.288449,23.716968],[121.288548,23.716879],[121.288547,23.71697],[121.288449,23.716968]],[[121.287274,23.716775],[121.287176,23.716774],[121.28718,23.716503],[121.287376,23.716505],[121.287274,23.716775]],[[121.288745,23.716791],[121.288845,23.716702],[121.288843,23.716792],[121.288745,23.716791]],[[121.288944,23.716613],[121.289042,23.716614],[121.289039,23.716794],[121.288941,23.716793],[121.288944,23.716613]],[[121.290122,23.716535],[121.289928,23.716353],[121.28993,23.716172],[121.290126,23.716174],[121.290523,23.715818],[121.290526,23.715637],[121.290234,23.715453],[121.290237,23.715182],[121.290435,23.715094],[121.290437,23.714914],[121.290731,23.714917],[121.29073,23.715007],[121.291123,23.714921],[121.291317,23.715104],[121.29131,23.715646],[121.291016,23.715642],[121.290618,23.716089],[121.290422,23.716087],[121.290323,23.716177],[121.290418,23.716358],[121.29032,23.716357],[121.290219,23.716627],[121.290022,23.716625],[121.290122,23.716535]],[[121.286886,23.7165],[121.286985,23.71641],[121.286984,23.716501],[121.286886,23.7165]],[[121.28934,23.716346],[121.289536,23.716348],[121.289533,23.716529],[121.289337,23.716527],[121.28934,23.716346]],[[121.287576,23.716236],[121.28787,23.71624],[121.287869,23.71633],[121.287573,23.716417],[121.287576,23.716236]],[[121.28787,23.71624],[121.287969,23.71615],[121.287968,23.716241],[121.28787,23.71624]],[[121.288655,23.716158],[121.288459,23.716156],[121.288463,23.715885],[121.288561,23.715886],[121.288655,23.716158]],[[121.289152,23.715712],[121.28925,23.715713],[121.289244,23.716165],[121.289049,23.716072],[121.289152,23.715712]],[[121.287388,23.715602],[121.287486,23.715603],[121.287483,23.715784],[121.287385,23.715783],[121.287388,23.715602]],[[121.28768,23.715786],[121.287779,23.715697],[121.287778,23.715787],[121.28768,23.715786]],[[121.289056,23.71553],[121.289155,23.715441],[121.289154,23.715531],[121.289056,23.71553]],[[121.292695,23.714758],[121.292891,23.71476],[121.29289,23.71485],[121.292694,23.714848],[121.292695,23.714758]],[[121.294766,23.713878],[121.29457,23.713876],[121.294468,23.714145],[121.29437,23.714144],[121.294474,23.713694],[121.294768,23.713697],[121.294766,23.713878]],[[121.29477,23.713517],[121.29487,23.713427],[121.294868,23.713518],[121.29477,23.713517]]],[[[121.291003,23.72413],[121.290899,23.724581],[121.2908,23.72467],[121.290507,23.724576],[121.290407,23.724756],[121.290505,23.724757],[121.290599,23.725029],[121.290892,23.725122],[121.29089,23.725303],[121.290694,23.725301],[121.290592,23.725571],[121.290885,23.725664],[121.290884,23.725754],[121.291276,23.725759],[121.291478,23.725309],[121.291577,23.725311],[121.291383,23.725128],[121.291385,23.724947],[121.291582,23.724859],[121.291775,23.725132],[121.291972,23.725044],[121.291982,23.724322],[121.29218,23.724143],[121.292186,23.723692],[121.292088,23.723691],[121.292092,23.72342],[121.2918,23.723236],[121.2917,23.723325],[121.291696,23.723686],[121.291794,23.723688],[121.291688,23.724318],[121.291293,23.724495],[121.291198,23.724223],[121.2911,23.724222],[121.291299,23.724043],[121.291202,23.723952],[121.291208,23.7235],[121.29111,23.723499],[121.291114,23.723138],[121.291212,23.723139],[121.291117,23.722958],[121.291018,23.723047],[121.290626,23.722952],[121.290427,23.723221],[121.290133,23.723218],[121.289932,23.723577],[121.289738,23.723394],[121.289441,23.723571],[121.289347,23.723299],[121.289445,23.7233],[121.289548,23.72294],[121.289745,23.722852],[121.289747,23.722672],[121.290044,23.722494],[121.290047,23.722223],[121.290245,23.722135],[121.290149,23.721954],[121.289854,23.722041],[121.289358,23.722487],[121.289355,23.722667],[121.289453,23.722668],[121.289353,23.722848],[121.289157,23.722846],[121.289155,23.722936],[121.288961,23.722844],[121.288762,23.723022],[121.28876,23.723203],[121.288564,23.7232],[121.288463,23.72338],[121.288169,23.723377],[121.288168,23.723467],[121.287872,23.723554],[121.287865,23.724096],[121.287963,23.724097],[121.288057,23.724459],[121.288351,23.724462],[121.288451,23.724283],[121.288647,23.724285],[121.288747,23.724196],[121.288653,23.723833],[121.288848,23.723926],[121.289047,23.723747],[121.289049,23.723567],[121.289245,23.723569],[121.289341,23.723751],[121.289538,23.723663],[121.289634,23.723844],[121.290224,23.723761],[121.29022,23.724031],[121.290023,23.724119],[121.290118,23.724301],[121.290315,23.724303],[121.290712,23.723946],[121.290715,23.723676],[121.29091,23.723768],[121.290905,23.724129],[121.291003,23.72413]],[[121.290617,23.723675],[121.290619,23.723494],[121.290717,23.723495],[121.290715,23.723676],[121.290617,23.723675]],[[121.291191,23.724764],[121.291291,23.724675],[121.291289,23.724766],[121.291191,23.724764]]],[[[121.298439,23.725567],[121.298342,23.725475],[121.298145,23.725564],[121.298239,23.725836],[121.298437,23.725747],[121.298439,23.725567]]],[[[121.299551,23.70788],[121.299749,23.707702],[121.299554,23.70761],[121.29946,23.707338],[121.299166,23.707334],[121.299165,23.707425],[121.29897,23.707332],[121.29887,23.707421],[121.298967,23.707513],[121.298866,23.707783],[121.299257,23.707877],[121.299351,23.708149],[121.299549,23.708061],[121.299551,23.70788]]],[[[121.311097,23.709903],[121.311103,23.709452],[121.3115,23.709095],[121.311892,23.709099],[121.311893,23.709009],[121.312382,23.709105],[121.312381,23.709195],[121.312676,23.709108],[121.312671,23.709559],[121.312964,23.709653],[121.313063,23.709563],[121.313069,23.709112],[121.312874,23.70902],[121.312878,23.708658],[121.312585,23.708565],[121.31249,23.708383],[121.312293,23.708381],[121.312003,23.708107],[121.311611,23.708103],[121.311515,23.707921],[121.311025,23.707916],[121.310832,23.707643],[121.31044,23.707639],[121.310247,23.707366],[121.309953,23.707362],[121.309663,23.706998],[121.310059,23.706731],[121.310063,23.70646],[121.309966,23.706369],[121.309672,23.706366],[121.30967,23.706456],[121.309181,23.706361],[121.30908,23.70663],[121.309372,23.706814],[121.309271,23.706994],[121.309075,23.706992],[121.308979,23.70681],[121.308685,23.706807],[121.308684,23.706897],[121.308389,23.706984],[121.308386,23.707165],[121.308484,23.707166],[121.308473,23.708069],[121.308667,23.708251],[121.308961,23.708254],[121.308962,23.708164],[121.309157,23.708257],[121.309356,23.707988],[121.309651,23.707991],[121.309844,23.708174],[121.309839,23.708625],[121.310033,23.708718],[121.30993,23.709168],[121.310221,23.709352],[121.310219,23.709532],[121.310801,23.710081],[121.311097,23.709903]],[[121.311014,23.708728],[121.310528,23.708362],[121.31063,23.708092],[121.311118,23.708278],[121.311312,23.708461],[121.311309,23.708641],[121.311014,23.708728]]],[[[121.308747,23.709607],[121.308651,23.709425],[121.308356,23.709512],[121.308451,23.709784],[121.308747,23.709607]]],[[[121.311474,23.711081],[121.311867,23.710995],[121.311873,23.710544],[121.31168,23.710361],[121.311483,23.710359],[121.311388,23.710177],[121.310992,23.710444],[121.311087,23.710716],[121.310889,23.710804],[121.310796,23.710442],[121.310602,23.710259],[121.310014,23.710253],[121.309723,23.709978],[121.309725,23.709798],[121.30953,23.709705],[121.309534,23.709435],[121.308856,23.708795],[121.308658,23.708883],[121.308655,23.709154],[121.30846,23.709062],[121.308459,23.709152],[121.308163,23.709239],[121.308259,23.709421],[121.308752,23.709245],[121.309138,23.709701],[121.309334,23.709703],[121.309332,23.709884],[121.309134,23.710062],[121.309328,23.710155],[121.309325,23.710426],[121.309423,23.710427],[121.309518,23.710699],[121.310498,23.710709],[121.310788,23.711074],[121.311082,23.711077],[121.311178,23.711259],[121.311374,23.711261],[121.311474,23.711081]]],[[[121.301176,23.711149],[121.301081,23.710877],[121.300693,23.710602],[121.300695,23.710421],[121.300111,23.710054],[121.300115,23.709783],[121.299822,23.709689],[121.299726,23.709508],[121.29953,23.709506],[121.299239,23.709231],[121.299139,23.709411],[121.299624,23.709778],[121.299619,23.710229],[121.29942,23.710407],[121.299615,23.7105],[121.299715,23.71032],[121.30001,23.710324],[121.300008,23.710414],[121.300205,23.710416],[121.3003,23.710598],[121.300496,23.7106],[121.30069,23.710783],[121.300784,23.711145],[121.301077,23.711238],[121.301176,23.711149]]],[[[121.301935,23.713144],[121.301842,23.712691],[121.30155,23.712508],[121.301553,23.712327],[121.301359,23.712144],[121.301163,23.712142],[121.301061,23.712412],[121.300864,23.7125],[121.300959,23.712772],[121.30076,23.71295],[121.300947,23.713675],[121.301238,23.713949],[121.301234,23.71422],[121.301036,23.714398],[121.30113,23.71467],[121.301526,23.714404],[121.301731,23.713684],[121.301929,23.713595],[121.301833,23.713414],[121.30203,23.713326],[121.302033,23.713145],[121.301935,23.713144]],[[121.301833,23.713414],[121.301736,23.713322],[121.301834,23.713323],[121.301833,23.713414]],[[121.301344,23.713318],[121.301442,23.713319],[121.301438,23.71359],[121.30134,23.713589],[121.301344,23.713318]]],[[[121.302125,23.721183],[121.302027,23.721182],[121.301933,23.720819],[121.302031,23.72082],[121.302035,23.72055],[121.302233,23.720371],[121.30224,23.719829],[121.302045,23.719737],[121.301843,23.720186],[121.301745,23.720185],[121.301637,23.720997],[121.301735,23.720998],[121.301827,23.72145],[121.302023,23.721452],[121.302125,23.721183]]],[[[121.29975,23.722782],[121.300147,23.722425],[121.299952,23.722333],[121.299956,23.722062],[121.300054,23.722063],[121.300156,23.721703],[121.300354,23.721615],[121.300363,23.720892],[121.300169,23.72071],[121.299972,23.720798],[121.299975,23.720527],[121.300174,23.720349],[121.300368,23.720531],[121.300664,23.720354],[121.300574,23.719721],[121.300476,23.71972],[121.300286,23.719266],[121.299988,23.719534],[121.300084,23.719715],[121.30028,23.719718],[121.300082,23.719896],[121.300176,23.720168],[121.29978,23.720435],[121.299778,23.720615],[121.29968,23.720614],[121.299678,23.720795],[121.299379,23.721152],[121.299372,23.721694],[121.299274,23.721693],[121.29927,23.721964],[121.299465,23.722056],[121.299459,23.722508],[121.29975,23.722782]]],[[[121.303259,23.724446],[121.303359,23.724357],[121.303262,23.724265],[121.303269,23.723724],[121.303565,23.723546],[121.303568,23.723366],[121.303374,23.723183],[121.303768,23.723007],[121.303675,23.722644],[121.304068,23.722558],[121.304267,23.72238],[121.304171,23.722198],[121.303975,23.722196],[121.303974,23.722287],[121.303092,23.722187],[121.302894,23.722365],[121.302984,23.722998],[121.302788,23.722996],[121.302497,23.722722],[121.302394,23.723082],[121.302,23.723258],[121.302092,23.723711],[121.302481,23.723986],[121.302477,23.724257],[121.302768,23.724531],[121.302965,23.724443],[121.302967,23.724262],[121.303259,23.724446]],[[121.302869,23.724261],[121.302872,23.72408],[121.30297,23.724082],[121.302967,23.724262],[121.302869,23.724261]]],[[[121.305799,23.725286],[121.305894,23.725468],[121.306288,23.725382],[121.306193,23.72511],[121.305799,23.725286]]],[[[121.306584,23.725205],[121.306777,23.725478],[121.307071,23.725481],[121.307167,23.725663],[121.307463,23.725485],[121.307368,23.725304],[121.307172,23.725301],[121.306784,23.724936],[121.306588,23.724934],[121.306587,23.725024],[121.306294,23.724931],[121.306194,23.72502],[121.30629,23.725202],[121.306584,23.725205]]],[[[121.302565,23.72507],[121.302663,23.725071],[121.302568,23.724799],[121.30237,23.724978],[121.301979,23.724883],[121.301879,23.724973],[121.301975,23.725154],[121.301877,23.725153],[121.301775,23.725423],[121.301285,23.725417],[121.301189,23.725236],[121.300895,23.725233],[121.300799,23.725051],[121.300505,23.725048],[121.30041,23.724866],[121.300115,23.724863],[121.30002,23.724681],[121.29953,23.724586],[121.299427,23.725036],[121.299228,23.725214],[121.298934,23.725211],[121.298833,23.725391],[121.299225,23.725485],[121.299325,23.725306],[121.299913,23.725312],[121.300592,23.725952],[121.300589,23.726132],[121.300391,23.726311],[121.300487,23.726492],[121.300879,23.726497],[121.300979,23.726317],[121.30137,23.726412],[121.301372,23.726321],[121.301764,23.726326],[121.301864,23.726146],[121.30206,23.726148],[121.302056,23.72651],[121.301958,23.726508],[121.301955,23.726689],[121.301758,23.726777],[121.301754,23.727048],[121.301656,23.727047],[121.301745,23.72777],[121.302233,23.727956],[121.302232,23.728047],[121.303213,23.728057],[121.303412,23.727789],[121.303218,23.727606],[121.303119,23.727695],[121.302924,23.727603],[121.303126,23.727153],[121.302833,23.72706],[121.302834,23.72697],[121.302932,23.726971],[121.302937,23.72661],[121.303231,23.726613],[121.30323,23.726703],[121.303427,23.726615],[121.303439,23.725712],[121.303342,23.725621],[121.302362,23.72561],[121.302565,23.72507]],[[121.30236,23.7257],[121.302164,23.725698],[121.302163,23.725788],[121.301968,23.725696],[121.302072,23.725246],[121.30217,23.725247],[121.302167,23.725517],[121.30236,23.7257]]],[[[121.305682,23.72673],[121.306067,23.727276],[121.306362,23.727189],[121.306465,23.726829],[121.306368,23.726737],[121.306073,23.726825],[121.305782,23.72655],[121.305785,23.72637],[121.305883,23.726371],[121.305885,23.72619],[121.305787,23.726189],[121.305888,23.725919],[121.305792,23.725828],[121.305302,23.725732],[121.305104,23.725911],[121.304813,23.725637],[121.304421,23.725633],[121.304422,23.725542],[121.304225,23.72563],[121.304419,23.725813],[121.304416,23.725994],[121.304219,23.726082],[121.304214,23.726443],[121.304409,23.726535],[121.3044,23.727258],[121.304301,23.727347],[121.304398,23.727438],[121.304594,23.72744],[121.304595,23.72735],[121.305084,23.727446],[121.305082,23.727626],[121.305372,23.7279],[121.305667,23.727904],[121.305762,23.728085],[121.306055,23.728179],[121.306156,23.727999],[121.305961,23.727907],[121.305966,23.727546],[121.305189,23.726905],[121.305194,23.726544],[121.305388,23.726727],[121.305682,23.72673]],[[121.305194,23.726544],[121.305097,23.726453],[121.305195,23.726454],[121.305194,23.726544]]]]}},{"type":"Feature","properties":{"kind":"bare_dam","month":"2023-01","area_ha":15.76},"geometry":{"type":"MultiPolygon","coordinates":[[[[121.301156,23.689928],[121.300863,23.689835],[121.300664,23.690104],[121.301153,23.690199],[121.301252,23.69011],[121.301156,23.689928]]],[[[121.301348,23.690292],[121.301544,23.690294],[121.301644,23.690114],[121.301351,23.690021],[121.301252,23.69011],[121.301348,23.690292]]],[[[121.302704,23.691571],[121.302608,23.691389],[121.302412,23.691387],[121.302218,23.691204],[121.302021,23.691292],[121.301731,23.691018],[121.301533,23.691107],[121.301438,23.690925],[121.301045,23.690921],[121.300562,23.690373],[121.300169,23.690459],[121.300066,23.69082],[121.299773,23.690726],[121.299774,23.690636],[121.29948,23.690632],[121.299483,23.690452],[121.299289,23.690269],[121.30027,23.69019],[121.30037,23.6901],[121.300276,23.689738],[121.299982,23.689735],[121.299783,23.690004],[121.299194,23.689997],[121.299093,23.690267],[121.298799,23.690264],[121.2989,23.689994],[121.298706,23.689811],[121.298215,23.689896],[121.297522,23.69043],[121.297614,23.690883],[121.297808,23.691066],[121.298201,23.69098],[121.298301,23.6908],[121.298498,23.690802],[121.298496,23.690893],[121.298988,23.690808],[121.298884,23.691258],[121.299078,23.691441],[121.299667,23.691357],[121.299769,23.691087],[121.299867,23.691088],[121.300059,23.691361],[121.300255,23.691363],[121.300256,23.691273],[121.300647,23.691368],[121.300747,23.691278],[121.300745,23.691369],[121.301432,23.691376],[121.301431,23.691467],[121.301921,23.691472],[121.30192,23.691562],[121.302312,23.691567],[121.302311,23.691657],[121.302704,23.691571]],[[121.300458,23.690824],[121.300359,23.690913],[121.30036,23.690823],[121.300458,23.690824]]],[[[121.30632,23.692513],[121.306718,23.692066],[121.30711,23.692071],[121.307111,23.69198],[121.307306,23.692073],[121.307505,23.691894],[121.307699,23.691987],[121.3078,23.691807],[121.307703,23.691716],[121.307604,23.691805],[121.307115,23.691709],[121.307114,23.6918],[121.306819,23.691797],[121.306818,23.691887],[121.306426,23.691883],[121.30603,23.692149],[121.305929,23.692419],[121.30632,23.692513]]],[[[121.299068,23.692163],[121.298878,23.691709],[121.298681,23.691798],[121.298677,23.692068],[121.298384,23.691975],[121.298186,23.692153],[121.298282,23.692335],[121.298577,23.692248],[121.298473,23.692698],[121.298957,23.693155],[121.298852,23.693696],[121.299046,23.693878],[121.299437,23.693973],[121.299436,23.694063],[121.299927,23.693978],[121.300026,23.693889],[121.299931,23.693708],[121.300323,23.693712],[121.300419,23.693894],[121.300713,23.693897],[121.301003,23.694171],[121.301104,23.693991],[121.30091,23.693809],[121.300914,23.693538],[121.300719,23.693445],[121.30052,23.693624],[121.300424,23.693442],[121.300228,23.69344],[121.300232,23.693169],[121.300429,23.693081],[121.300235,23.692898],[121.300337,23.692628],[121.300142,23.692536],[121.299844,23.692804],[121.299648,23.692801],[121.299551,23.69271],[121.299654,23.69235],[121.299557,23.692259],[121.29936,23.692347],[121.299264,23.692165],[121.299068,23.692163]],[[121.29936,23.692347],[121.299261,23.692436],[121.299262,23.692346],[121.29936,23.692347]],[[121.299345,23.693521],[121.299347,23.69334],[121.299445,23.693341],[121.299443,23.693522],[121.299345,23.693521]],[[121.299842,23.692984],[121.300036,23.693167],[121.29984,23.693165],[121.299842,23.692984]],[[121.299449,23.69307],[121.29945,23.69298],[121.299744,23.692983],[121.299743,23.693073],[121.299449,23.69307]]],[[[121.303824,23.695918],[121.303927,23.695557],[121.304417,23.695563],[121.305013,23.695028],[121.304819,23.694845],[121.304524,23.694932],[121.304423,23.695111],[121.304326,23.69502],[121.30413,23.695018],[121.304129,23.695108],[121.303836,23.695015],[121.303737,23.695104],[121.30373,23.695646],[121.303533,23.695734],[121.303627,23.696006],[121.303824,23.695918]]],[[[121.298731,23.6955],[121.298728,23.695681],[121.298923,23.695773],[121.299023,23.695684],[121.298926,23.695593],[121.299028,23.695233],[121.298835,23.69505],[121.298639,23.695048],[121.29874,23.694778],[121.298643,23.694687],[121.298348,23.694774],[121.29835,23.694593],[121.297866,23.694136],[121.29767,23.694134],[121.297471,23.694313],[121.297565,23.694675],[121.297467,23.694674],[121.297364,23.695034],[121.297559,23.695126],[121.297557,23.695307],[121.29775,23.69549],[121.297649,23.695759],[121.297844,23.695852],[121.297935,23.696395],[121.29813,23.696487],[121.297928,23.696936],[121.298221,23.69703],[121.29851,23.697394],[121.298709,23.697216],[121.299098,23.697401],[121.299298,23.697132],[121.299103,23.69704],[121.299206,23.69668],[121.298914,23.696496],[121.298918,23.696225],[121.299016,23.696226],[121.29892,23.696044],[121.298623,23.696222],[121.298621,23.696402],[121.298719,23.696403],[121.298619,23.696583],[121.298812,23.696765],[121.298809,23.697036],[121.298223,23.696849],[121.298322,23.69676],[121.298228,23.696488],[121.298423,23.696581],[121.298524,23.696311],[121.298133,23.696216],[121.29814,23.695675],[121.298238,23.695676],[121.29834,23.695406],[121.298731,23.6955]],[[121.299103,23.69704],[121.299004,23.697129],[121.299005,23.697039],[121.299103,23.69704]],[[121.29834,23.695406],[121.298243,23.695314],[121.298341,23.695316],[121.29834,23.695406]]],[[[121.30214,23.697254],[121.302144,23.696983],[121.302535,23.697077],[121.302832,23.69681],[121.302738,23.696538],[121.302836,23.696539],[121.302838,23.696358],[121.303035,23.69627],[121.303038,23.696089],[121.303236,23.695911],[121.303141,23.695729],[121.302943,23.695818],[121.302841,23.696178],[121.302546,23.696174],[121.302249,23.696442],[121.302146,23.696802],[121.30175,23.697069],[121.301845,23.697341],[121.30214,23.697254]]],[[[121.300657,23.698231],[121.301247,23.698056],[121.301447,23.697788],[121.301253,23.697605],[121.300958,23.697692],[121.300957,23.697782],[121.300074,23.697773],[121.299977,23.697681],[121.29958,23.698038],[121.299676,23.69822],[121.300363,23.698227],[121.300364,23.698137],[121.300658,23.69814],[121.300657,23.698231]]],[[[121.299062,23.7002],[121.298964,23.700199],[121.298968,23.699928],[121.298774,23.699745],[121.298777,23.699474],[121.298976,23.699296],[121.299082,23.698665],[121.29948,23.698218],[121.298992,23.698032],[121.298693,23.69839],[121.298498,23.698297],[121.2983,23.698476],[121.298291,23.699198],[121.298193,23.699197],[121.29809,23.699557],[121.297795,23.699644],[121.297694,23.699823],[121.297792,23.699824],[121.297788,23.700186],[121.297886,23.700187],[121.29798,23.700459],[121.299157,23.700472],[121.299062,23.7002]]]]}},{"type":"Feature","properties":{"kind":"water","month":"2023-01","area_ha":4.01},"geometry":{"type":"MultiPolygon","coordinates":[[[[121.298243,23.695314],[121.29834,23.695406],[121.298341,23.695316],[121.298243,23.695314]]],[[[121.298238,23.695676],[121.29814,23.695675],[121.298133,23.696216],[121.298525,23.696221],[121.298522,23.696491],[121.298718,23.696494],[121.298621,23.696402],[121.298725,23.695952],[121.298823,23.695953],[121.298731,23.6955],[121.29834,23.695406],[121.298238,23.695676]]],[[[121.303031,23.696631],[121.303034,23.69636],[121.303132,23.696361],[121.303136,23.696091],[121.302838,23.696358],[121.302735,23.696718],[121.303031,23.696631]]],[[[121.298714,23.696764],[121.298717,23.696584],[121.29852,23.696672],[121.298522,23.696491],[121.298423,23.696581],[121.298228,23.696488],[121.29832,23.696941],[121.298809,23.697036],[121.298812,23.696765],[121.298714,23.696764]],[[121.298614,23.696944],[121.298713,23.696855],[121.298712,23.696945],[121.298614,23.696944]]],[[[121.298498,23.698297],[121.298693,23.69839],[121.298696,23.698209],[121.298892,23.698211],[121.298992,23.698032],[121.299481,23.698127],[121.299977,23.697681],[121.300074,23.697773],[121.300957,23.697782],[121.301155,23.697604],[121.300763,23.6976],[121.300765,23.697419],[121.300274,23.697504],[121.300276,23.697323],[121.300079,23.697411],[121.300081,23.697231],[121.299983,23.69723],[121.299487,23.697676],[121.299291,23.697674],[121.299292,23.697583],[121.298899,23.697669],[121.298805,23.697307],[121.298609,23.697305],[121.298508,23.697575],[121.298801,23.697668],[121.298798,23.697849],[121.298307,23.697934],[121.298306,23.698024],[121.298502,23.698026],[121.298304,23.698205],[121.2983,23.698476],[121.298498,23.698297]]],[[[121.297699,23.699462],[121.297697,23.699643],[121.29809,23.699557],[121.298092,23.699376],[121.298291,23.699198],[121.2983,23.698476],[121.298202,23.698474],[121.298198,23.698745],[121.298004,23.698653],[121.298,23.698924],[121.297902,23.698923],[121.297898,23.699194],[121.2978,23.699192],[121.297797,23.699463],[121.297699,23.699462]],[[121.297898,23.699194],[121.298096,23.699105],[121.298093,23.699286],[121.297895,23.699464],[121.297898,23.699194]],[[121.298096,23.699105],[121.298195,23.699016],[121.298194,23.699106],[121.298096,23.699105]]],[[[121.311683,23.687244],[121.312075,23.687249],[121.312175,23.687069],[121.312078,23.686978],[121.311588,23.686972],[121.311586,23.687153],[121.311287,23.687511],[121.311581,23.687514],[121.311683,23.687244]]],[[[121.30889,23.690916],[121.308792,23.690915],[121.308891,23.690826],[121.308797,23.690554],[121.308602,23.690462],[121.308692,23.691095],[121.30889,23.690916]]],[[[121.308192,23.691812],[121.308589,23.691455],[121.30869,23.691185],[121.308494,23.691183],[121.308492,23.691363],[121.308198,23.69136],[121.3079,23.691628],[121.307799,23.691898],[121.308192,23.691812]]],[[[121.306814,23.692248],[121.307207,23.692162],[121.307209,23.691981],[121.306718,23.692066],[121.306519,23.692245],[121.306517,23.692425],[121.306713,23.692427],[121.306814,23.692248]]],[[[121.304325,23.69511],[121.304524,23.694932],[121.304917,23.694846],[121.305019,23.694576],[121.305708,23.694313],[121.305817,23.693501],[121.30562,23.693589],[121.305615,23.693951],[121.305419,23.693948],[121.305513,23.69422],[121.305315,23.694399],[121.305218,23.694307],[121.304727,23.694392],[121.304724,23.694573],[121.304531,23.69439],[121.304427,23.694841],[121.304033,23.694926],[121.304031,23.695107],[121.30413,23.695018],[121.304326,23.69502],[121.304325,23.69511]],[[121.304525,23.694842],[121.304527,23.694661],[121.304625,23.694662],[121.304623,23.694843],[121.304525,23.694842]]]]}}]}