{"type":"FeatureCollection","features":[{"type":"Feature","properties":{"kind":"bare_slide","month":"2023-07","area_ha":99.07},"geometry":{"type":"MultiPolygon","coordinates":[[[[121.298872,23.707331],[121.29858,23.707147],[121.298582,23.706967],[121.29868,23.706968],[121.298785,23.706427],[121.299083,23.70616],[121.299088,23.705798],[121.298893,23.705706],[121.298798,23.705434],[121.298014,23.705425],[121.297912,23.705695],[121.297519,23.705781],[121.297808,23.706146],[121.298493,23.706243],[121.298486,23.706785],[121.298387,23.706874],[121.298192,23.706782],[121.297994,23.70696],[121.297991,23.707141],[121.298088,23.707232],[121.298384,23.707145],[121.298575,23.707508],[121.298771,23.707511],[121.298872,23.707331]]],[[[121.297745,23.711021],[121.297737,23.711653],[121.296755,23.711733],[121.296656,23.711822],[121.296749,23.712184],[121.297043,23.712187],[121.297045,23.712097],[121.29773,23.712195],[121.297831,23.711925],[121.298227,23.711658],[121.298335,23.710937],[121.298433,23.710938],[121.298441,23.710306],[121.297955,23.70994],[121.297861,23.709668],[121.29747,23.709573],[121.297577,23.708852],[121.29797,23.708766],[121.298072,23.708496],[121.29817,23.708497],[121.298174,23.708226],[121.297979,23.708134],[121.298081,23.707774],[121.297791,23.7075],[121.297497,23.707497],[121.297495,23.707587],[121.297102,23.707673],[121.297002,23.707852],[121.297098,23.707944],[121.297786,23.707861],[121.297883,23.707952],[121.297881,23.708133],[121.297782,23.708132],[121.297877,23.708404],[121.297484,23.70849],[121.297382,23.70876],[121.297185,23.708848],[121.297181,23.709119],[121.297082,23.709208],[121.296887,23.709115],[121.296787,23.709295],[121.296982,23.709387],[121.296979,23.709568],[121.297173,23.709751],[121.297369,23.709753],[121.297364,23.710114],[121.297656,23.710298],[121.297654,23.710478],[121.297947,23.710572],[121.297943,23.710843],[121.297745,23.711021]],[[121.297947,23.710572],[121.298046,23.710483],[121.298045,23.710573],[121.297947,23.710572]]],[[[121.298284,23.71482],[121.298186,23.714818],[121.298188,23.714638],[121.298286,23.714639],[121.298192,23.714367],[121.298291,23.714278],[121.298097,23.714095],[121.297801,23.714272],[121.297905,23.713822],[121.297613,23.713638],[121.297209,23.714537],[121.297502,23.71463],[121.297501,23.714721],[121.297795,23.714724],[121.298084,23.715088],[121.298282,23.715],[121.298284,23.71482]],[[121.297993,23.714545],[121.297897,23.714454],[121.297995,23.714455],[121.297993,23.714545]]],[[[121.283958,23.715384],[121.28396,23.715203],[121.284355,23.715027],[121.284357,23.714846],[121.284066,23.714662],[121.284069,23.714392],[121.284567,23.713855],[121.284472,23.713583],[121.284174,23.713851],[121.28388,23.713848],[121.282987,23.71465],[121.282982,23.715012],[121.283272,23.715376],[121.283468,23.715378],[121.283563,23.71556],[121.28376,23.715562],[121.283958,23.715384]]],[[[121.286473,23.71803],[121.28628,23.717847],[121.286179,23.718027],[121.286374,23.718119],[121.286473,23.71803]]],[[[121.298036,23.71879],[121.298135,23.718791],[121.298237,23.718431],[121.298831,23.717986],[121.298834,23.717805],[121.299032,23.717627],[121.298939,23.717265],[121.298742,23.717353],[121.298738,23.717624],[121.298442,23.717801],[121.298339,23.718161],[121.297645,23.718695],[121.297544,23.718965],[121.297738,23.719148],[121.297934,23.71915],[121.298036,23.71879]]],[[[121.285039,23.72271],[121.285332,23.722803],[121.285331,23.722894],[121.285625,23.722897],[121.285624,23.722987],[121.286114,23.722993],[121.28621,23.723174],[121.286602,23.723179],[121.286704,23.722909],[121.287,23.722732],[121.287003,23.722551],[121.287197,23.722734],[121.287394,23.722646],[121.287602,23.721745],[121.287699,23.721836],[121.287896,23.721748],[121.288089,23.722021],[121.288383,23.722024],[121.288384,23.721934],[121.288679,23.721847],[121.288682,23.721667],[121.28888,23.721488],[121.289174,23.721491],[121.289268,23.721854],[121.290055,23.721682],[121.290148,23.722044],[121.289952,23.722042],[121.289157,23.722846],[121.288961,23.722844],[121.288663,23.723111],[121.288561,23.723381],[121.288365,23.723379],[121.287969,23.723645],[121.287967,23.723826],[121.287869,23.723825],[121.287959,23.724458],[121.288056,23.724549],[121.288449,23.724463],[121.288945,23.724017],[121.289047,23.723747],[121.289145,23.723749],[121.289143,23.723929],[121.289044,23.723928],[121.28904,23.724289],[121.288841,23.724468],[121.288936,23.72474],[121.289231,23.724653],[121.289236,23.724291],[121.289334,23.724292],[121.289438,23.723842],[121.289632,23.724025],[121.289828,23.724027],[121.290027,23.723758],[121.290224,23.723761],[121.290219,23.724122],[121.290022,23.72421],[121.290117,23.724391],[121.290413,23.724304],[121.29071,23.724037],[121.29052,23.723583],[121.290716,23.723585],[121.291006,23.72395],[121.291203,23.723862],[121.291106,23.72377],[121.291205,23.723681],[121.291112,23.723319],[121.291309,23.723231],[121.291214,23.723049],[121.291018,23.723047],[121.291016,23.723137],[121.290625,23.723043],[121.290328,23.72331],[121.290035,23.723217],[121.289931,23.723667],[121.289833,23.723666],[121.289738,23.723394],[121.289443,23.723481],[121.289445,23.7233],[121.289543,23.723301],[121.289547,23.723031],[121.289942,23.722764],[121.289946,23.722493],[121.290242,23.722316],[121.290245,23.722135],[121.290741,23.721689],[121.291134,23.721603],[121.291048,23.720699],[121.290854,23.720517],[121.29056,23.720513],[121.290666,23.719883],[121.290863,23.719885],[121.291061,23.719706],[121.291071,23.718984],[121.29117,23.718895],[121.29166,23.7189],[121.291661,23.71881],[121.291857,23.718812],[121.291953,23.718994],[121.29215,23.718906],[121.29186,23.718632],[121.291768,23.718179],[121.291866,23.71818],[121.291968,23.71782],[121.292166,23.717732],[121.292169,23.717461],[121.292267,23.717462],[121.292361,23.717824],[121.292656,23.717737],[121.292659,23.717466],[121.292465,23.717374],[121.292472,23.716832],[121.29267,23.716654],[121.292964,23.716657],[121.292965,23.716567],[121.293359,23.716481],[121.293459,23.716301],[121.293362,23.71621],[121.293263,23.716299],[121.292676,23.716202],[121.292474,23.716652],[121.292177,23.716829],[121.291974,23.717369],[121.291483,23.717454],[121.291184,23.717811],[121.290495,23.717984],[121.290393,23.718254],[121.289903,23.718249],[121.289804,23.718338],[121.289806,23.718157],[121.290004,23.718069],[121.289915,23.717346],[121.290211,23.717169],[121.290117,23.716897],[121.29041,23.71699],[121.290612,23.716541],[121.29081,23.716362],[121.291007,23.716365],[121.291404,23.716008],[121.291406,23.715827],[121.292,23.715382],[121.292196,23.715385],[121.292292,23.715566],[121.292488,23.715568],[121.292588,23.715389],[121.292981,23.715393],[121.293076,23.715575],[121.293568,23.71549],[121.293569,23.7154],[121.293961,23.715404],[121.293959,23.715585],[121.293762,23.715673],[121.293855,23.716035],[121.294543,23.715952],[121.294645,23.715592],[121.295231,23.715779],[121.295325,23.716141],[121.295523,23.715963],[121.295719,23.715965],[121.29582,23.715786],[121.295723,23.715694],[121.295428,23.715781],[121.295333,23.715509],[121.295139,23.715327],[121.294943,23.715325],[121.294849,23.715053],[121.294259,23.715136],[121.294261,23.714956],[121.294557,23.714869],[121.294756,23.7146],[121.294952,23.714602],[121.295349,23.714245],[121.295352,23.714065],[121.295646,23.714068],[121.295647,23.713978],[121.295942,23.713891],[121.295947,23.71353],[121.296045,23.713531],[121.296049,23.71326],[121.296147,23.713261],[121.296251,23.712811],[121.296349,23.712812],[121.296157,23.712448],[121.295862,23.712535],[121.295957,23.712807],[121.295858,23.712806],[121.295757,23.713076],[121.295167,23.71316],[121.294969,23.713338],[121.294677,23.713154],[121.294475,23.713604],[121.294181,23.7136],[121.294081,23.71378],[121.293589,23.713865],[121.29329,23.714223],[121.2928,23.714217],[121.292799,23.714308],[121.292408,23.714213],[121.292308,23.714302],[121.292403,23.714574],[121.292105,23.714842],[121.292007,23.714841],[121.292012,23.714479],[121.291914,23.714478],[121.291819,23.714206],[121.29123,23.71429],[121.291134,23.714109],[121.290737,23.714465],[121.290541,23.714463],[121.290441,23.714643],[121.29005,23.714548],[121.289948,23.714818],[121.289851,23.714727],[121.289262,23.71481],[121.289062,23.715079],[121.288868,23.714896],[121.288672,23.714894],[121.288671,23.714984],[121.287888,23.714885],[121.287786,23.715155],[121.287689,23.715064],[121.287003,23.715056],[121.286804,23.715235],[121.286707,23.715143],[121.286809,23.714873],[121.286419,23.714689],[121.286319,23.714868],[121.286514,23.71496],[121.286511,23.715141],[121.286413,23.71514],[121.286312,23.71541],[121.286408,23.715501],[121.286998,23.715417],[121.2867,23.715685],[121.286698,23.715865],[121.287087,23.716141],[121.287085,23.716231],[121.286693,23.716227],[121.286493,23.716495],[121.28659,23.716587],[121.286786,23.716589],[121.286788,23.716499],[121.287081,23.716592],[121.287181,23.716413],[121.287377,23.716415],[121.287571,23.716598],[121.287272,23.716955],[121.286978,23.716952],[121.28668,23.71722],[121.286678,23.7174],[121.286968,23.717674],[121.286573,23.717941],[121.28657,23.718122],[121.286765,23.718214],[121.286763,23.718395],[121.286564,23.718573],[121.286271,23.718479],[121.286073,23.718658],[121.285783,23.718293],[121.285392,23.718199],[121.285395,23.718018],[121.285593,23.71784],[121.286084,23.717845],[121.286082,23.717936],[121.28628,23.717847],[121.286186,23.717485],[121.286483,23.717308],[121.286586,23.716948],[121.286489,23.716856],[121.286095,23.716942],[121.286,23.716761],[121.285801,23.716939],[121.285605,23.716937],[121.285606,23.716847],[121.285409,23.716935],[121.28541,23.716845],[121.285116,23.716841],[121.285119,23.71657],[121.285021,23.716569],[121.285024,23.716389],[121.285218,23.716571],[121.285317,23.716482],[121.28561,23.716576],[121.285711,23.716306],[121.286009,23.716038],[121.285912,23.715947],[121.285714,23.716125],[121.285518,23.716123],[121.285519,23.716033],[121.285717,23.715855],[121.285913,23.715857],[121.286014,23.715677],[121.285917,23.715586],[121.285425,23.715671],[121.285226,23.715939],[121.284832,23.716025],[121.284633,23.716294],[121.284337,23.716381],[121.28433,23.716923],[121.284036,23.71692],[121.283936,23.717099],[121.28374,23.717097],[121.283638,23.717367],[121.283242,23.717633],[121.283239,23.717904],[121.283337,23.717905],[121.283233,23.718355],[121.283426,23.718538],[121.283423,23.718809],[121.282927,23.719255],[121.282823,23.719705],[121.282627,23.719703],[121.282427,23.719972],[121.282033,23.720058],[121.281736,23.720325],[121.281732,23.720596],[121.282023,23.72087],[121.282317,23.720874],[121.282417,23.720694],[121.282712,23.720697],[121.283009,23.72043],[121.282915,23.720158],[121.283208,23.720251],[121.283406,23.720073],[121.283409,23.719892],[121.283705,23.719715],[121.28361,23.719534],[121.283216,23.719619],[121.28322,23.719349],[121.283613,23.719263],[121.283708,23.719535],[121.283903,23.719627],[121.284005,23.719267],[121.284498,23.719092],[121.284305,23.718819],[121.284109,23.718817],[121.284113,23.718546],[121.28421,23.718637],[121.284407,23.718549],[121.284313,23.718277],[121.284511,23.718099],[121.284802,23.718373],[121.285293,23.718288],[121.285388,23.71856],[121.285189,23.718738],[121.284895,23.718735],[121.284799,23.718553],[121.284601,23.718732],[121.284795,23.718915],[121.284991,23.718917],[121.284693,23.719184],[121.28479,23.719276],[121.285183,23.71919],[121.285277,23.719552],[121.285472,23.719644],[121.285372,23.719734],[121.285464,23.720186],[121.285267,23.720274],[121.285359,23.720727],[121.285064,23.720814],[121.285059,23.721175],[121.284565,23.72144],[121.284562,23.721711],[121.284464,23.72171],[121.284361,23.72207],[121.284064,23.722248],[121.28416,23.722429],[121.284356,23.722431],[121.284458,23.722162],[121.284756,23.721894],[121.284854,23.721895],[121.284948,23.722167],[121.285245,23.72199],[121.285241,23.722261],[121.285044,23.722349],[121.285039,23.72271]],[[121.289802,23.718519],[121.290092,23.718793],[121.290288,23.718795],[121.290384,23.718976],[121.289894,23.718971],[121.289795,23.71906],[121.289889,23.719332],[121.289693,23.71933],[121.289694,23.71924],[121.289301,23.719326],[121.289011,23.718961],[121.289209,23.718873],[121.289211,23.718693],[121.289509,23.718425],[121.289804,23.718338],[121.289802,23.718519]],[[121.294259,23.715136],[121.29416,23.715226],[121.294161,23.715135],[121.294259,23.715136]],[[121.289948,23.714818],[121.290045,23.714909],[121.289947,23.714908],[121.289948,23.714818]],[[121.286971,23.717494],[121.287267,23.717317],[121.287556,23.717771],[121.28716,23.718038],[121.287063,23.717946],[121.287165,23.717677],[121.286971,23.717494]],[[121.285879,23.718475],[121.28578,23.718564],[121.285781,23.718474],[121.285879,23.718475]],[[121.285518,23.716123],[121.285418,23.716213],[121.285319,23.716302],[121.285321,23.716121],[121.285518,23.716123]],[[121.282817,23.720157],[121.282819,23.719976],[121.283016,23.719888],[121.283014,23.720069],[121.282817,23.720157]],[[121.285251,23.721538],[121.28535,23.721449],[121.285743,23.721363],[121.28574,23.721634],[121.285343,23.721991],[121.285245,23.72199],[121.285251,23.721538]],[[121.286808,23.722459],[121.286907,23.722369],[121.286906,23.72246],[121.286808,23.722459]],[[121.287106,23.722191],[121.287205,23.722102],[121.287204,23.722192],[121.287106,23.722191]],[[121.287114,23.721559],[121.287213,23.72147],[121.287212,23.72156],[121.287114,23.721559]],[[121.288784,23.721307],[121.288684,23.721486],[121.288488,23.721484],[121.288588,23.721304],[121.288784,23.721307]],[[121.289279,23.720951],[121.289572,23.721044],[121.28947,23.721404],[121.289177,23.721311],[121.289279,23.720951]],[[121.288006,23.720846],[121.2882,23.721029],[121.288098,23.721299],[121.287903,23.721206],[121.288006,23.720846]],[[121.285844,23.721184],[121.285943,23.721094],[121.285942,23.721185],[121.285844,23.721184]],[[121.290062,23.72114],[121.290161,23.721051],[121.29016,23.721141],[121.290062,23.72114]],[[121.286835,23.720382],[121.286537,23.72065],[121.286436,23.720919],[121.286143,23.720826],[121.28644,23.720558],[121.286543,23.720198],[121.286835,23.720382]],[[121.286543,23.720198],[121.286348,23.720106],[121.286351,23.719925],[121.286547,23.719927],[121.286543,23.720198]],[[121.288887,23.720946],[121.288986,23.720857],[121.288985,23.720948],[121.288887,23.720946]],[[121.289577,23.720683],[121.289186,23.720589],[121.289086,23.720768],[121.28889,23.720766],[121.288698,23.720403],[121.288599,23.720492],[121.287912,23.720484],[121.287916,23.720213],[121.288211,23.720126],[121.288213,23.720036],[121.288899,23.720044],[121.289287,23.720409],[121.289386,23.72032],[121.289777,23.720415],[121.289577,23.720683]],[[121.289777,23.720415],[121.289876,23.720325],[121.289875,23.720416],[121.289777,23.720415]],[[121.287325,23.720387],[121.287524,23.720209],[121.287618,23.720481],[121.287127,23.720566],[121.287129,23.720385],[121.287325,23.720387]],[[121.287631,23.719488],[121.287826,23.71958],[121.287823,23.719851],[121.287526,23.720028],[121.287434,23.719576],[121.28763,23.719578],[121.287631,23.719488]],[[121.286847,23.719479],[121.286554,23.719386],[121.286556,23.719205],[121.286755,23.719027],[121.286951,23.719029],[121.287338,23.719394],[121.287237,23.719664],[121.287041,23.719662],[121.28694,23.719841],[121.286842,23.71984],[121.286844,23.71966],[121.286942,23.719661],[121.286847,23.719479]],[[121.288514,23.719498],[121.288612,23.719499],[121.288708,23.71968],[121.288315,23.719676],[121.288418,23.719316],[121.288516,23.719317],[121.288514,23.719498]],[[121.287439,23.719215],[121.287244,23.719122],[121.287246,23.718942],[121.287445,23.718763],[121.287155,23.718399],[121.287354,23.718221],[121.28755,23.718223],[121.287743,23.718405],[121.287943,23.718137],[121.288236,23.71823],[121.288534,23.717963],[121.288728,23.718145],[121.288725,23.718326],[121.287934,23.718859],[121.28783,23.719309],[121.287634,23.719307],[121.287538,23.719126],[121.287439,23.719215]],[[121.285577,23.719104],[121.285382,23.719011],[121.285483,23.718742],[121.285677,23.718924],[121.285873,23.718927],[121.285974,23.718747],[121.286265,23.718931],[121.285968,23.719198],[121.285774,23.719016],[121.285578,23.719014],[121.285577,23.719104]],[[121.288228,23.718862],[121.288524,23.718685],[121.288717,23.718958],[121.28842,23.719135],[121.288228,23.718862]],[[121.291274,23.718444],[121.291373,23.718355],[121.291372,23.718446],[121.291274,23.718444]],[[121.283827,23.717911],[121.283925,23.717912],[121.283923,23.718092],[121.283825,23.718091],[121.283827,23.717911]],[[121.284908,23.717742],[121.285205,23.717565],[121.285397,23.717838],[121.285101,23.718015],[121.284908,23.717742]],[[121.284318,23.717826],[121.284415,23.717917],[121.284317,23.717916],[121.284318,23.717826]],[[121.284122,23.717824],[121.284028,23.717552],[121.284226,23.717373],[121.284318,23.717826],[121.284122,23.717824]],[[121.28815,23.717326],[121.288052,23.717325],[121.288151,23.717236],[121.288057,23.716964],[121.288156,23.716875],[121.288351,23.716967],[121.288549,23.716789],[121.288742,23.717062],[121.288444,23.71733],[121.288735,23.717604],[121.288439,23.717691],[121.288441,23.7176],[121.288244,23.717598],[121.28815,23.717326]],[[121.285892,23.717482],[121.285991,23.717393],[121.28599,23.717483],[121.285892,23.717482]],[[121.289618,23.717523],[121.28952,23.717522],[121.289523,23.717342],[121.289621,23.717343],[121.289618,23.717523]],[[121.289621,23.717343],[121.28972,23.717253],[121.289719,23.717344],[121.289621,23.717343]],[[121.287566,23.716959],[121.287764,23.716871],[121.287956,23.717144],[121.287758,23.717322],[121.287562,23.71732],[121.287465,23.717228],[121.287566,23.716959]],[[121.285898,23.717031],[121.285996,23.717032],[121.285994,23.717212],[121.285896,23.717211],[121.285898,23.717031]],[[121.289428,23.71707],[121.289232,23.717067],[121.289233,23.716977],[121.289431,23.716889],[121.289428,23.71707]],[[121.288941,23.716793],[121.289041,23.716704],[121.289039,23.716794],[121.288941,23.716793]],[[121.289536,23.716348],[121.289337,23.716527],[121.28934,23.716346],[121.289536,23.716348]],[[121.287968,23.716241],[121.288067,23.716152],[121.288066,23.716242],[121.287968,23.716241]],[[121.28944,23.716167],[121.289539,23.716078],[121.289538,23.716168],[121.28944,23.716167]],[[121.289245,23.716074],[121.289049,23.716072],[121.289151,23.715802],[121.289249,23.715803],[121.289245,23.716074]],[[121.289739,23.715809],[121.289837,23.71581],[121.289835,23.715991],[121.289737,23.715989],[121.289739,23.715809]],[[121.290625,23.715548],[121.290234,23.715453],[121.290236,23.715273],[121.290434,23.715184],[121.290437,23.714914],[121.29073,23.715007],[121.290729,23.715097],[121.291025,23.71492],[121.291023,23.715101],[121.291316,23.715194],[121.29131,23.715646],[121.29062,23.715909],[121.290623,23.715728],[121.290721,23.715729],[121.290625,23.715548]],[[121.287389,23.715512],[121.287487,23.715513],[121.287483,23.715784],[121.287385,23.715783],[121.287389,23.715512]],[[121.288465,23.715704],[121.288565,23.715615],[121.288563,23.715706],[121.288465,23.715704]],[[121.289448,23.715535],[121.289546,23.715536],[121.289544,23.715716],[121.289446,23.715715],[121.289448,23.715535]],[[121.288472,23.715163],[121.288569,23.715254],[121.288469,23.715434],[121.28798,23.715338],[121.287982,23.715157],[121.288472,23.715163]],[[121.289452,23.715264],[121.289551,23.715175],[121.28955,23.715265],[121.289452,23.715264]]],[[[121.29392,23.726149],[121.293922,23.725969],[121.294412,23.725974],[121.294418,23.725523],[121.294516,23.725524],[121.294522,23.725072],[121.294425,23.724981],[121.294523,23.724982],[121.294528,23.724621],[121.294725,23.724533],[121.294729,23.724262],[121.295022,23.724355],[121.295019,23.724536],[121.294724,23.724623],[121.295014,23.724987],[121.295601,23.725084],[121.295704,23.724724],[121.295802,23.724725],[121.295706,23.724543],[121.295217,23.724448],[121.295123,23.724086],[121.294928,23.723993],[121.294934,23.723542],[121.294642,23.723358],[121.295137,23.723002],[121.295145,23.72246],[121.295342,23.722372],[121.295344,23.722192],[121.295638,23.722195],[121.296432,23.721481],[121.296529,23.721573],[121.296725,23.721575],[121.296726,23.721484],[121.297019,23.721578],[121.297021,23.721488],[121.297316,23.721401],[121.297221,23.721129],[121.297023,23.721307],[121.296829,23.721124],[121.29693,23.720945],[121.297126,23.720947],[121.297125,23.721037],[121.297322,23.720949],[121.297324,23.720769],[121.297129,23.720676],[121.297132,23.720496],[121.29723,23.720497],[121.297232,23.720316],[121.297134,23.720315],[121.297245,23.719323],[121.297147,23.719322],[121.297052,23.71905],[121.296561,23.719135],[121.296558,23.719315],[121.29685,23.719499],[121.296848,23.71968],[121.296651,23.719768],[121.296648,23.719949],[121.296349,23.720306],[121.296639,23.720671],[121.296537,23.720941],[121.296046,23.721026],[121.295645,23.721653],[121.29486,23.721735],[121.294859,23.721825],[121.294664,23.721733],[121.294465,23.721911],[121.294853,23.722277],[121.294849,23.722547],[121.294651,23.722726],[121.294553,23.722725],[121.29456,23.722183],[121.294366,23.722],[121.29417,23.721998],[121.293971,23.722177],[121.293776,23.722084],[121.293782,23.721633],[121.293103,23.721083],[121.293105,23.720903],[121.29291,23.72081],[121.293011,23.720631],[121.292913,23.72063],[121.292818,23.720358],[121.292621,23.720446],[121.292616,23.720807],[121.292224,23.720803],[121.292032,23.720439],[121.291835,23.720528],[121.291731,23.720978],[121.291829,23.720979],[121.291924,23.721251],[121.29212,23.721253],[121.292117,23.721434],[121.291823,23.72143],[121.291722,23.7217],[121.292208,23.721976],[121.292206,23.722157],[121.292304,23.722158],[121.292298,23.72261],[121.2922,23.722608],[121.292289,23.723332],[121.292387,23.723333],[121.292481,23.723605],[121.292774,23.723698],[121.292771,23.723969],[121.293063,23.724153],[121.293059,23.724424],[121.292663,23.72469],[121.29266,23.724961],[121.293051,23.725056],[121.29305,23.725146],[121.293346,23.724969],[121.293441,23.725241],[121.293147,23.725238],[121.293046,23.725417],[121.292654,23.725413],[121.292653,23.725503],[121.292259,23.725589],[121.292256,23.72586],[121.292057,23.726038],[121.292547,23.726134],[121.292446,23.726313],[121.29186,23.726126],[121.291562,23.726394],[121.292935,23.726409],[121.292937,23.726319],[121.293525,23.726325],[121.293527,23.726145],[121.29392,23.726149]],[[121.29345,23.724519],[121.29355,23.724429],[121.293548,23.72452],[121.29345,23.724519]],[[121.293356,23.724247],[121.293455,23.724157],[121.293454,23.724248],[121.293356,23.724247]],[[121.294042,23.724254],[121.294142,23.724165],[121.29414,23.724255],[121.294042,23.724254]],[[121.294339,23.724077],[121.294438,23.723988],[121.294437,23.724078],[121.294339,23.724077]],[[121.293657,23.723708],[121.293755,23.723709],[121.293753,23.72389],[121.293655,23.723889],[121.293657,23.723708]],[[121.294244,23.723805],[121.294145,23.723894],[121.294146,23.723804],[121.294244,23.723805]],[[121.294247,23.723624],[121.293954,23.723531],[121.293955,23.723441],[121.294249,23.723444],[121.294537,23.723898],[121.294341,23.723896],[121.294247,23.723624]],[[121.293167,23.723703],[121.293266,23.723614],[121.293265,23.723704],[121.293167,23.723703]],[[121.292881,23.723067],[121.292878,23.723248],[121.29278,23.723247],[121.292783,23.723066],[121.292881,23.723067]],[[121.292685,23.723065],[121.292687,23.722885],[121.292883,23.722887],[121.292882,23.722977],[121.292685,23.723065]],[[121.292883,23.722887],[121.292982,23.722798],[121.292981,23.722888],[121.292883,23.722887]],[[121.292982,23.722798],[121.293082,23.722708],[121.29308,23.722799],[121.292982,23.722798]],[[121.294156,23.723082],[121.294255,23.722992],[121.294254,23.723083],[121.294156,23.723082]],[[121.293866,23.722717],[121.293965,23.722628],[121.293964,23.722718],[121.293866,23.722717]],[[121.293967,23.722538],[121.294066,23.722448],[121.294065,23.722539],[121.293967,23.722538]],[[121.292993,23.721985],[121.293091,23.721986],[121.293087,23.722257],[121.292989,23.722256],[121.292993,23.721985]],[[121.292407,23.721798],[121.292505,23.721799],[121.292503,23.72198],[121.292405,23.721979],[121.292407,23.721798]],[[121.292409,23.721617],[121.292213,23.721615],[121.292214,23.721525],[121.292412,23.721437],[121.292409,23.721617]]],[[[121.29788,23.723303],[121.297978,23.723304],[121.297886,23.722852],[121.297691,23.722759],[121.297492,23.722938],[121.297586,23.7233],[121.297387,23.723478],[121.297191,23.723476],[121.297091,23.723656],[121.297775,23.723844],[121.297874,23.723755],[121.29788,23.723303]]],[[[121.291376,23.72567],[121.291481,23.725129],[121.291287,23.724946],[121.29109,23.725034],[121.290995,23.724762],[121.291291,23.724675],[121.291386,23.724857],[121.291582,23.724859],[121.291873,23.725133],[121.291972,23.725044],[121.291982,23.724322],[121.29218,23.724143],[121.291995,23.723329],[121.291801,23.723146],[121.291604,23.723234],[121.2917,23.723325],[121.291695,23.723777],[121.291793,23.723778],[121.291686,23.724409],[121.291587,23.724498],[121.291098,23.724402],[121.290602,23.724848],[121.290599,23.725029],[121.290891,23.725213],[121.290889,23.725393],[121.290693,23.725391],[121.290592,23.725571],[121.290981,23.725846],[121.291177,23.725848],[121.291376,23.72567]]],[[[121.296862,23.726182],[121.296864,23.726001],[121.296669,23.725909],[121.296768,23.725819],[121.296675,23.725457],[121.296971,23.72528],[121.296974,23.725099],[121.297172,23.724921],[121.297367,23.725013],[121.297863,23.724567],[121.297869,23.724116],[121.297674,23.724023],[121.297573,23.724293],[121.297377,23.724291],[121.297177,23.72456],[121.296687,23.724554],[121.296689,23.724374],[121.296988,23.724016],[121.29699,23.723835],[121.296698,23.723651],[121.296599,23.723741],[121.296694,23.724013],[121.296495,23.724191],[121.296492,23.724462],[121.295903,23.724455],[121.295804,23.724544],[121.2959,23.724726],[121.296194,23.724729],[121.296192,23.72491],[121.295798,23.724996],[121.295597,23.725355],[121.29589,23.725448],[121.296189,23.725091],[121.296681,23.725006],[121.296677,23.725277],[121.296088,23.72536],[121.29579,23.725628],[121.295788,23.725809],[121.295886,23.72581],[121.295882,23.72608],[121.296173,23.726355],[121.296565,23.726359],[121.296566,23.726269],[121.296862,23.726182]],[[121.296473,23.725906],[121.296572,23.725817],[121.296571,23.725907],[121.296473,23.725906]]],[[[121.299192,23.705348],[121.299093,23.705347],[121.299196,23.704987],[121.299294,23.704988],[121.299297,23.704807],[121.299595,23.70445],[121.2996,23.704088],[121.299698,23.704089],[121.299605,23.703727],[121.299217,23.703362],[121.299321,23.702911],[121.299126,23.702819],[121.299025,23.703089],[121.298927,23.703088],[121.298931,23.702727],[121.299129,23.702638],[121.299032,23.702547],[121.299131,23.702458],[121.299041,23.701825],[121.299139,23.701826],[121.299243,23.701375],[121.298753,23.70137],[121.298657,23.701188],[121.298069,23.701182],[121.298064,23.701543],[121.298455,23.701638],[121.298453,23.701818],[121.298356,23.701727],[121.298159,23.701815],[121.298254,23.701997],[121.298452,23.701909],[121.298448,23.702179],[121.298351,23.702088],[121.298154,23.702176],[121.298337,23.703172],[121.298435,23.703173],[121.298529,23.703535],[121.299111,23.703993],[121.299103,23.704625],[121.299005,23.704624],[121.299001,23.704894],[121.298903,23.704893],[121.298899,23.705255],[121.298997,23.705256],[121.298895,23.705525],[121.29909,23.705618],[121.299192,23.705348]],[[121.29892,23.703629],[121.298922,23.703449],[121.29902,23.70345],[121.299018,23.70363],[121.29892,23.703629]],[[121.298637,23.702723],[121.29864,23.702543],[121.298738,23.702544],[121.298735,23.702724],[121.298637,23.702723]]],[[[121.300333,23.70807],[121.30092,23.708166],[121.300919,23.708257],[121.301116,23.708169],[121.300924,23.707895],[121.300532,23.707891],[121.30053,23.707981],[121.299747,23.707883],[121.299456,23.707608],[121.299362,23.707337],[121.29887,23.707421],[121.298868,23.707602],[121.298966,23.707603],[121.298865,23.707873],[121.299158,23.707966],[121.299155,23.708147],[121.299349,23.70833],[121.299546,23.708242],[121.29955,23.707971],[121.299648,23.707972],[121.299647,23.708062],[121.299843,23.708064],[121.29984,23.708245],[121.300034,23.708428],[121.30023,23.70843],[121.300333,23.70807]]],[[[121.301273,23.71124],[121.300982,23.710966],[121.300984,23.710786],[121.300403,23.710238],[121.300207,23.710235],[121.300112,23.709963],[121.299628,23.709507],[121.299432,23.709504],[121.299336,23.709323],[121.299139,23.709411],[121.299137,23.709592],[121.299623,23.709868],[121.299619,23.710229],[121.299812,23.710412],[121.300495,23.71069],[121.300689,23.710873],[121.300686,23.711144],[121.300979,23.711237],[121.301074,23.711419],[121.301273,23.71124]]],[[[121.301526,23.714404],[121.301528,23.714223],[121.301727,23.714045],[121.30173,23.713774],[121.301928,23.713686],[121.302033,23.713145],[121.301935,23.713144],[121.301841,23.712782],[121.301646,23.712689],[121.301649,23.712509],[121.30126,23.712234],[121.300962,23.712501],[121.300852,23.713403],[121.30095,23.713404],[121.301044,23.713766],[121.301239,23.713859],[121.301232,23.7144],[121.301033,23.714579],[121.301326,23.714672],[121.301428,23.714403],[121.301526,23.714404]]],[[[121.302121,23.721454],[121.301933,23.720819],[121.302031,23.72082],[121.302135,23.72037],[121.302233,23.720371],[121.302141,23.719919],[121.301944,23.720007],[121.301941,23.720187],[121.301743,23.720366],[121.301839,23.720547],[121.30164,23.720726],[121.30173,23.721359],[121.301924,23.721542],[121.302121,23.721454]]],[[[121.299949,23.722604],[121.300047,23.722605],[121.299954,23.722152],[121.300052,23.722153],[121.300156,23.721703],[121.300254,23.721704],[121.300261,23.721162],[121.299971,23.720888],[121.299973,23.720708],[121.299778,23.720615],[121.299576,23.721064],[121.299478,23.721063],[121.299475,23.721334],[121.299377,23.721333],[121.299269,23.722054],[121.299464,23.722147],[121.299458,23.722598],[121.299749,23.722872],[121.299946,23.722784],[121.299949,23.722604]]],[[[121.303168,23.723903],[121.303466,23.723635],[121.303376,23.723002],[121.303669,23.723096],[121.303768,23.723007],[121.303675,23.722644],[121.304067,23.722649],[121.304266,23.72247],[121.30417,23.722289],[121.303287,23.722279],[121.303191,23.722188],[121.302893,23.722455],[121.302983,23.723088],[121.302495,23.722902],[121.302393,23.723172],[121.302098,23.723259],[121.302091,23.723801],[121.302482,23.723896],[121.302574,23.724348],[121.30277,23.72435],[121.302872,23.72408],[121.303164,23.724264],[121.303263,23.724175],[121.303168,23.723903]]],[[[121.30316,23.724535],[121.303357,23.724447],[121.303262,23.724265],[121.303064,23.724353],[121.30316,23.724535]]],[[[121.301376,23.72596],[121.301674,23.725693],[121.301869,23.725785],[121.30207,23.725426],[121.302265,23.725519],[121.302565,23.72507],[121.302468,23.724979],[121.302369,23.725068],[121.301977,23.724974],[121.301874,23.725424],[121.301677,23.725422],[121.301577,23.725601],[121.301282,23.725688],[121.301376,23.72596]]],[[[121.302925,23.727512],[121.302928,23.727332],[121.302733,23.727239],[121.302631,23.727509],[121.302728,23.727601],[121.302925,23.727512]]],[[[121.302241,23.727324],[121.302242,23.727234],[121.301947,23.727321],[121.301945,23.727502],[121.302043,23.727503],[121.30204,23.727683],[121.301843,23.727771],[121.301939,23.727953],[121.302428,23.728049],[121.302427,23.728139],[121.303211,23.728148],[121.303311,23.728058],[121.303215,23.727877],[121.302824,23.727782],[121.302437,23.727326],[121.302241,23.727324]]]]}},{"type":"Feature","properties":{"kind":"bare_dam","month":"2023-07","area_ha":27.17},"geometry":{"type":"MultiPolygon","coordinates":[[[[121.298708,23.689721],[121.298805,23.689812],[121.298806,23.689722],[121.298708,23.689721]]],[[[121.298904,23.689723],[121.299001,23.689815],[121.299002,23.689724],[121.298904,23.689723]]],[[[121.299664,23.691628],[121.299861,23.69154],[121.299767,23.691177],[121.299963,23.69118],[121.300058,23.691452],[121.300254,23.691454],[121.300255,23.691363],[121.300352,23.691455],[121.301529,23.691468],[121.301827,23.69111],[121.301534,23.691016],[121.301439,23.690835],[121.301143,23.690922],[121.301048,23.69074],[121.300852,23.690738],[121.300758,23.690376],[121.300858,23.690286],[121.301739,23.690386],[121.301839,23.690207],[121.301057,23.690018],[121.301058,23.689927],[121.300764,23.689924],[121.300566,23.690103],[121.300374,23.689739],[121.2991,23.689725],[121.298899,23.690084],[121.298704,23.689992],[121.298706,23.689811],[121.298215,23.689896],[121.297522,23.69043],[121.297613,23.690973],[121.297807,23.691156],[121.298003,23.691158],[121.2983,23.69089],[121.298594,23.690894],[121.298788,23.691076],[121.298882,23.691439],[121.299078,23.691441],[121.299173,23.691622],[121.299273,23.691533],[121.299665,23.691537],[121.299664,23.691628]],[[121.300065,23.69091],[121.299965,23.691089],[121.299769,23.691087],[121.299869,23.690908],[121.300065,23.69091]],[[121.299876,23.690366],[121.299779,23.690275],[121.300072,23.690368],[121.300067,23.690729],[121.299872,23.690637],[121.299876,23.690366]]],[[[121.300319,23.693983],[121.300712,23.693987],[121.300806,23.694259],[121.301295,23.694355],[121.301682,23.69481],[121.302075,23.694724],[121.301882,23.694451],[121.301686,23.694449],[121.301689,23.694269],[121.301494,23.694176],[121.301497,23.693905],[121.300525,23.693263],[121.300336,23.692719],[121.300045,23.692445],[121.299849,23.692443],[121.299463,23.691987],[121.299166,23.692164],[121.299072,23.691892],[121.298779,23.691799],[121.298781,23.691618],[121.298391,23.691433],[121.298291,23.691613],[121.29868,23.691888],[121.298677,23.692068],[121.29848,23.692157],[121.298286,23.691974],[121.298185,23.692244],[121.298282,23.692335],[121.298577,23.692248],[121.298478,23.692337],[121.298472,23.692789],[121.298667,23.692881],[121.298664,23.693062],[121.299052,23.693427],[121.298852,23.693696],[121.299337,23.694153],[121.300024,23.69407],[121.300123,23.693981],[121.300028,23.693799],[121.300224,23.693801],[121.300319,23.693983]],[[121.299832,23.693797],[121.299833,23.693707],[121.300029,23.693709],[121.300028,23.693799],[121.299832,23.693797]],[[121.301199,23.694173],[121.301299,23.694084],[121.301298,23.694174],[121.301199,23.694173]],[[121.301201,23.694083],[121.301104,23.693991],[121.301202,23.693992],[121.301201,23.694083]],[[121.299443,23.693522],[121.299346,23.69343],[121.299444,23.693431],[121.299443,23.693522]],[[121.300328,23.693351],[121.300231,23.693259],[121.300329,23.69326],[121.300328,23.693351]]],[[[121.302237,23.697345],[121.302336,23.697256],[121.302438,23.696986],[121.302634,23.696988],[121.302635,23.696898],[121.302928,23.696991],[121.303027,23.696902],[121.303132,23.696361],[121.30323,23.696362],[121.303234,23.696092],[121.303332,23.696093],[121.303239,23.69573],[121.302942,23.695908],[121.302841,23.696178],[121.302545,23.696265],[121.302543,23.696445],[121.301749,23.697159],[121.301942,23.697432],[121.302237,23.697345]]],[[[121.300085,23.69696],[121.29989,23.696868],[121.299789,23.697047],[121.299984,23.69714],[121.300085,23.69696]]],[[[121.298392,23.698928],[121.298294,23.698927],[121.29819,23.699377],[121.297799,23.699283],[121.297698,23.699553],[121.2975,23.699641],[121.297498,23.699821],[121.297791,23.699915],[121.297882,23.700458],[121.299157,23.700472],[121.298966,23.700018],[121.298868,23.700017],[121.298872,23.699746],[121.298774,23.699745],[121.298878,23.699295],[121.299076,23.699116],[121.299181,23.698576],[121.299577,23.698309],[121.300361,23.698318],[121.300363,23.698227],[121.300852,23.698323],[121.301149,23.698055],[121.301345,23.698057],[121.301645,23.697609],[121.301452,23.697427],[121.300276,23.697323],[121.300082,23.697141],[121.299983,23.69723],[121.299788,23.697137],[121.299686,23.697497],[121.299489,23.697495],[121.299393,23.697404],[121.299495,23.697044],[121.299205,23.69677],[121.299207,23.696589],[121.299012,23.696497],[121.299017,23.696136],[121.298919,23.696135],[121.299018,23.696045],[121.299027,23.695323],[121.298736,23.695139],[121.298838,23.694779],[121.298545,23.694686],[121.298445,23.694865],[121.298249,23.694863],[121.298251,23.694682],[121.298153,23.694681],[121.298256,23.694321],[121.298061,23.694229],[121.297958,23.694589],[121.297665,23.694495],[121.297562,23.694855],[121.297464,23.694854],[121.29746,23.695216],[121.29775,23.69549],[121.297949,23.695311],[121.298241,23.695495],[121.298041,23.695764],[121.297944,23.695672],[121.297649,23.695759],[121.297646,23.69594],[121.297841,23.696032],[121.297736,23.696573],[121.297931,23.696665],[121.297927,23.697027],[121.29822,23.69712],[121.29841,23.697574],[121.298902,23.697399],[121.2989,23.697579],[121.299291,23.697674],[121.299387,23.697855],[121.299782,23.697589],[121.299979,23.697591],[121.299977,23.697681],[121.300175,23.697593],[121.300171,23.697864],[121.29968,23.697949],[121.299184,23.698395],[121.298889,23.698392],[121.29869,23.69866],[121.298395,23.698747],[121.298392,23.698928]],[[121.29869,23.69866],[121.298787,23.698752],[121.298689,23.698751],[121.29869,23.69866]],[[121.298085,23.699918],[121.298088,23.699737],[121.298186,23.699738],[121.298183,23.699919],[121.298085,23.699918]],[[121.300665,23.697599],[121.300662,23.697779],[121.300564,23.697778],[121.300469,23.697596],[121.300665,23.697599]],[[121.298417,23.697032],[121.298516,23.696943],[121.298515,23.697033],[121.298417,23.697032]],[[121.298418,23.696942],[121.298321,23.69685],[121.298419,23.696851],[121.298418,23.696942]],[[121.298713,23.696855],[121.298616,23.696763],[121.298714,23.696764],[121.298713,23.696855]],[[121.298229,23.696398],[121.298232,23.696127],[121.29833,23.696128],[121.298327,23.696399],[121.298229,23.696398]],[[121.298822,23.696043],[121.298721,23.696223],[121.298623,23.696222],[121.298626,23.696041],[121.298822,23.696043]],[[121.298534,23.695589],[121.298727,23.695771],[121.29853,23.695859],[121.298534,23.695589]]],[[[121.298695,23.698299],[121.298893,23.698121],[121.298797,23.697939],[121.298698,23.698028],[121.298405,23.697935],[121.298207,23.698113],[121.298301,23.698385],[121.298695,23.698299]]],[[[121.295447,23.699167],[121.295643,23.699169],[121.295843,23.6989],[121.296332,23.698996],[121.296432,23.698816],[121.296139,23.698723],[121.296141,23.698632],[121.295846,23.698629],[121.29535,23.699075],[121.295056,23.699072],[121.294863,23.698889],[121.294665,23.698977],[121.294858,23.69925],[121.295152,23.699254],[121.295151,23.699344],[121.295347,23.699346],[121.295447,23.699167]]],[[[121.312754,23.687798],[121.312656,23.687797],[121.31276,23.687346],[121.312467,23.687253],[121.312277,23.686799],[121.311589,23.686882],[121.311592,23.686702],[121.311398,23.686519],[121.311201,23.686607],[121.311394,23.68679],[121.311284,23.687782],[121.311186,23.687781],[121.311281,23.687962],[121.311777,23.687516],[121.311584,23.687334],[121.311586,23.687153],[121.31188,23.687156],[121.312267,23.687522],[121.312265,23.687702],[121.31246,23.687795],[121.312555,23.688067],[121.312752,23.687978],[121.312754,23.687798]]],[[[121.310585,23.688767],[121.311079,23.688412],[121.310984,23.68823],[121.310491,23.688405],[121.310292,23.688674],[121.310585,23.688767]]],[[[121.308792,23.690915],[121.308989,23.690827],[121.308993,23.690556],[121.308798,23.690464],[121.308706,23.690011],[121.308511,23.689919],[121.308411,23.690008],[121.308499,23.690822],[121.308596,23.690913],[121.308793,23.690825],[121.308792,23.690915]]],[[[121.308488,23.691634],[121.308985,23.691188],[121.308595,23.691003],[121.308097,23.69154],[121.308488,23.691634]],[[121.308589,23.691455],[121.308492,23.691363],[121.30859,23.691364],[121.308589,23.691455]]],[[[121.303093,23.691846],[121.303291,23.691668],[121.303195,23.691486],[121.302802,23.691572],[121.302706,23.69139],[121.302411,23.691477],[121.302122,23.691113],[121.301924,23.691201],[121.302017,23.691654],[121.3028,23.691752],[121.302799,23.691843],[121.303093,23.691846]]],[[[121.306018,23.693142],[121.306613,23.692607],[121.306618,23.692246],[121.306816,23.692067],[121.306719,23.691976],[121.306425,23.691973],[121.306424,23.692063],[121.305935,23.691967],[121.305646,23.691513],[121.305351,23.6916],[121.304953,23.692047],[121.304757,23.692045],[121.304663,23.691773],[121.304464,23.691951],[121.30417,23.691948],[121.304169,23.692038],[121.303484,23.691941],[121.303485,23.69185],[121.30319,23.691937],[121.303577,23.692303],[121.303676,23.692214],[121.303773,23.692305],[121.304263,23.69231],[121.304364,23.692131],[121.304658,23.692134],[121.304754,23.692316],[121.30495,23.692318],[121.305248,23.69196],[121.305737,23.692056],[121.305931,23.692238],[121.305823,23.69305],[121.306018,23.693142]]],[[[121.304248,23.693484],[121.304742,23.693219],[121.304646,23.693037],[121.304547,23.693126],[121.304253,23.693123],[121.304254,23.693033],[121.30396,23.693029],[121.303961,23.692939],[121.303764,23.693027],[121.304248,23.693484]]],[[[121.305311,23.69467],[121.305608,23.694492],[121.305515,23.69413],[121.305812,23.693862],[121.305718,23.69359],[121.305122,23.694126],[121.304729,23.694212],[121.304233,23.694658],[121.30384,23.694744],[121.303933,23.695106],[121.303736,23.695194],[121.30373,23.695646],[121.303632,23.695644],[121.303529,23.696005],[121.303724,23.696097],[121.303824,23.695918],[121.30412,23.69583],[121.304221,23.695561],[121.304318,23.695652],[121.304614,23.695565],[121.30501,23.695208],[121.304915,23.695026],[121.305211,23.694849],[121.305215,23.694578],[121.305311,23.69467]],[[121.305117,23.694577],[121.305119,23.694397],[121.305217,23.694398],[121.305215,23.694578],[121.305117,23.694577]],[[121.304321,23.695471],[121.304124,23.695469],[121.304126,23.695379],[121.304323,23.695291],[121.304321,23.695471]],[[121.304326,23.69502],[121.304426,23.694931],[121.304424,23.695021],[121.304326,23.69502]]]]}},{"type":"Feature","properties":{"kind":"water","month":"2023-07","area_ha":1.33},"geometry":{"type":"MultiPolygon","coordinates":[[[[121.298298,23.698656],[121.298493,23.698749],[121.298889,23.698392],[121.299184,23.698395],[121.29968,23.697949],[121.300171,23.697864],[121.300175,23.697593],[121.300075,23.697682],[121.299782,23.697589],[121.299387,23.697855],[121.299291,23.697674],[121.298997,23.697671],[121.298902,23.697399],[121.298706,23.697396],[121.298604,23.697756],[121.298505,23.697755],[121.298502,23.698026],[121.298797,23.697939],[121.298892,23.698211],[121.2984,23.698296],[121.298398,23.698477],[121.2983,23.698476],[121.298298,23.698656]]],[[[121.298787,23.698752],[121.29869,23.69866],[121.298689,23.698751],[121.298787,23.698752]]],[[[121.298193,23.699197],[121.298291,23.699198],[121.298294,23.698927],[121.298392,23.698928],[121.298298,23.698656],[121.297901,23.699013],[121.297994,23.699375],[121.29819,23.699377],[121.298193,23.699197]]]]}}]}