{"type":"FeatureCollection","features":[{"type":"Feature","properties":{"kind":"bare_slide","month":"2024-03","area_ha":81.47},"geometry":{"type":"MultiPolygon","coordinates":[[[[121.298627,23.703536],[121.298924,23.703268],[121.299119,23.703361],[121.299221,23.703091],[121.299418,23.703003],[121.299127,23.702729],[121.299133,23.702277],[121.299035,23.702276],[121.299243,23.701375],[121.298753,23.70137],[121.298657,23.701188],[121.298069,23.701182],[121.298058,23.701995],[121.298156,23.701996],[121.298243,23.7029],[121.298341,23.702901],[121.298433,23.703353],[121.298627,23.703536]]],[[[121.30043,23.708161],[121.300432,23.70798],[121.300239,23.707798],[121.299944,23.707794],[121.299948,23.707524],[121.299656,23.70734],[121.299756,23.70716],[121.30015,23.707074],[121.300054,23.706893],[121.299858,23.70689],[121.299462,23.707157],[121.299557,23.707429],[121.299361,23.707427],[121.299362,23.707337],[121.29887,23.707421],[121.29858,23.707147],[121.298785,23.706427],[121.299083,23.70616],[121.29909,23.705618],[121.299287,23.70553],[121.299093,23.705347],[121.299197,23.704897],[121.299494,23.704719],[121.299497,23.704448],[121.299695,23.70436],[121.299702,23.703819],[121.299409,23.703725],[121.299411,23.703545],[121.299216,23.703452],[121.298918,23.70372],[121.299013,23.703992],[121.299111,23.703993],[121.299103,23.704625],[121.299005,23.704624],[121.299,23.704985],[121.298902,23.704984],[121.298995,23.705346],[121.298896,23.705435],[121.297916,23.705424],[121.297815,23.705604],[121.297521,23.705601],[121.29742,23.70587],[121.297713,23.705964],[121.297905,23.706237],[121.298004,23.706148],[121.2982,23.70615],[121.298199,23.70624],[121.298495,23.706153],[121.298486,23.706785],[121.298387,23.706874],[121.298192,23.706782],[121.297994,23.70696],[121.297991,23.707141],[121.298088,23.707232],[121.298384,23.707145],[121.298575,23.707508],[121.298966,23.707603],[121.298964,23.707784],[121.298866,23.707783],[121.298961,23.707964],[121.299257,23.707877],[121.299449,23.70815],[121.299843,23.708064],[121.300035,23.708337],[121.300232,23.708339],[121.30043,23.708161]]],[[[121.298054,23.709851],[121.297568,23.709574],[121.297475,23.709122],[121.297573,23.709123],[121.297577,23.708852],[121.29817,23.708497],[121.298174,23.708226],[121.29798,23.708044],[121.297982,23.707863],[121.29808,23.707864],[121.298086,23.707413],[121.297989,23.707321],[121.297596,23.707407],[121.297595,23.707498],[121.297398,23.707496],[121.297298,23.707675],[121.297003,23.707762],[121.297098,23.707944],[121.297884,23.707862],[121.297779,23.708403],[121.297386,23.708489],[121.297083,23.709117],[121.296887,23.709115],[121.296888,23.709025],[121.296691,23.709113],[121.296784,23.709475],[121.297172,23.709841],[121.297369,23.709753],[121.297366,23.710024],[121.29785,23.71048],[121.297844,23.710932],[121.297746,23.710931],[121.297738,23.711563],[121.296755,23.711733],[121.296656,23.711822],[121.29675,23.712094],[121.297242,23.712009],[121.297241,23.712099],[121.29773,23.712195],[121.297831,23.711925],[121.298326,23.711569],[121.298332,23.711118],[121.29843,23.711119],[121.298434,23.710848],[121.298532,23.710849],[121.298635,23.710489],[121.298248,23.710033],[121.298052,23.710031],[121.298054,23.709851]],[[121.298052,23.710031],[121.297953,23.71012],[121.297954,23.71003],[121.298052,23.710031]]],[[[121.30108,23.710967],[121.300986,23.710695],[121.300597,23.71042],[121.300506,23.709877],[121.300312,23.709695],[121.29953,23.709506],[121.29924,23.709141],[121.299043,23.709229],[121.299138,23.709501],[121.299624,23.709778],[121.299619,23.710229],[121.299322,23.710406],[121.299418,23.710588],[121.299614,23.71059],[121.299912,23.710322],[121.300299,23.710688],[121.300593,23.710691],[121.300687,23.711053],[121.300977,23.711327],[121.301175,23.711239],[121.301178,23.710968],[121.30108,23.710967]]],[[[121.292685,23.71548],[121.292201,23.715023],[121.292203,23.714843],[121.292008,23.71475],[121.292108,23.714661],[121.291914,23.714478],[121.292015,23.714209],[121.291919,23.714117],[121.291427,23.714202],[121.29153,23.713842],[121.291238,23.713658],[121.29104,23.713837],[121.291035,23.714198],[121.290737,23.714465],[121.290834,23.714557],[121.291227,23.714471],[121.291421,23.714654],[121.291418,23.714924],[121.291613,23.715017],[121.29151,23.715377],[121.291704,23.71556],[121.292195,23.715475],[121.292389,23.715658],[121.29239,23.715567],[121.292685,23.71548]]],[[[121.295229,23.71596],[121.295321,23.716412],[121.295618,23.716235],[121.295614,23.716506],[121.295516,23.716505],[121.295412,23.716955],[121.295314,23.716954],[121.295508,23.717137],[121.295806,23.716869],[121.29581,23.716508],[121.296008,23.71642],[121.295814,23.716237],[121.295816,23.716057],[121.296112,23.715969],[121.296215,23.715519],[121.296409,23.715702],[121.296605,23.715704],[121.296698,23.716157],[121.296994,23.715979],[121.2969,23.715707],[121.297297,23.71535],[121.297202,23.715079],[121.2973,23.71508],[121.297403,23.71472],[121.297696,23.714813],[121.298179,23.71536],[121.298278,23.715271],[121.298671,23.715275],[121.298669,23.715366],[121.298965,23.715278],[121.298968,23.715008],[121.298675,23.714914],[121.298385,23.71464],[121.298387,23.714459],[121.298289,23.714458],[121.29839,23.714189],[121.298097,23.714095],[121.297907,23.713641],[121.297615,23.713458],[121.297409,23.714268],[121.297111,23.714536],[121.296915,23.714534],[121.296814,23.714713],[121.29652,23.71471],[121.29642,23.714889],[121.296224,23.714887],[121.296124,23.714976],[121.296218,23.715339],[121.29592,23.715606],[121.295724,23.715604],[121.295526,23.715782],[121.295528,23.715602],[121.295334,23.715419],[121.295138,23.715417],[121.29514,23.715236],[121.294753,23.714871],[121.294755,23.71469],[121.295149,23.714604],[121.295348,23.714336],[121.295644,23.714249],[121.295646,23.714068],[121.295844,23.71389],[121.29604,23.713892],[121.296239,23.713713],[121.296241,23.713533],[121.296339,23.713534],[121.296353,23.71245],[121.296257,23.712359],[121.295961,23.712446],[121.295957,23.712807],[121.295659,23.713075],[121.295267,23.713071],[121.295068,23.713249],[121.295066,23.71343],[121.294676,23.713245],[121.294376,23.713693],[121.294181,23.7136],[121.293883,23.713868],[121.29359,23.713775],[121.293489,23.714044],[121.293293,23.714042],[121.293291,23.714132],[121.293194,23.714041],[121.292899,23.714128],[121.292707,23.713855],[121.292216,23.71385],[121.292117,23.713939],[121.292111,23.71439],[121.292208,23.714482],[121.292405,23.714394],[121.292403,23.714574],[121.292985,23.715032],[121.292883,23.715392],[121.293173,23.715666],[121.293369,23.715668],[121.293568,23.71549],[121.293862,23.715493],[121.293759,23.715853],[121.293661,23.715852],[121.293757,23.716034],[121.294247,23.716039],[121.294348,23.71586],[121.294641,23.715953],[121.294741,23.715774],[121.295229,23.71596]],[[121.296605,23.715704],[121.296705,23.715615],[121.296703,23.715705],[121.296605,23.715704]],[[121.297403,23.71472],[121.297306,23.714628],[121.297404,23.714629],[121.297403,23.71472]],[[121.294348,23.71586],[121.294251,23.715768],[121.294349,23.715769],[121.294348,23.71586]],[[121.294741,23.715774],[121.294644,23.715682],[121.294742,23.715683],[121.294741,23.715774]],[[121.297003,23.715257],[121.296706,23.715525],[121.296714,23.714893],[121.29691,23.714895],[121.297003,23.715257]],[[121.29446,23.714777],[121.294559,23.714688],[121.294558,23.714778],[121.29446,23.714777]]],[[[121.289635,23.716259],[121.290031,23.715993],[121.289937,23.71563],[121.290132,23.715723],[121.29043,23.715455],[121.290432,23.715275],[121.290044,23.715],[121.290046,23.714819],[121.290145,23.71473],[121.290536,23.714824],[121.290636,23.714735],[121.290541,23.714463],[121.290343,23.714642],[121.29005,23.714548],[121.289851,23.714727],[121.289947,23.714908],[121.289751,23.714906],[121.28946,23.714632],[121.289067,23.714718],[121.289162,23.714899],[121.289455,23.714993],[121.289449,23.715444],[121.289546,23.715536],[121.289842,23.715449],[121.28974,23.715719],[121.289445,23.715806],[121.289245,23.716074],[121.289342,23.716166],[121.289539,23.716078],[121.289635,23.716259]],[[121.289842,23.715449],[121.289941,23.71536],[121.28994,23.71545],[121.289842,23.715449]],[[121.289539,23.716078],[121.289638,23.715988],[121.289637,23.716079],[121.289539,23.716078]]],[[[121.29823,23.718973],[121.298136,23.718701],[121.298432,23.718523],[121.298436,23.718253],[121.298831,23.717986],[121.299037,23.717266],[121.299532,23.71691],[121.299535,23.716639],[121.299634,23.71664],[121.299739,23.7161],[121.299937,23.715921],[121.299941,23.71565],[121.300137,23.715653],[121.300534,23.715296],[121.300438,23.715114],[121.300046,23.71511],[121.299944,23.71538],[121.299747,23.715468],[121.299743,23.715739],[121.299545,23.715917],[121.299151,23.716003],[121.299144,23.716545],[121.298948,23.716543],[121.29875,23.716721],[121.298745,23.717082],[121.298843,23.717083],[121.298739,23.717533],[121.298542,23.717622],[121.298439,23.717982],[121.298043,23.718248],[121.298041,23.718429],[121.297845,23.718427],[121.297547,23.718694],[121.297641,23.719056],[121.298131,23.719062],[121.29823,23.718973]]],[[[121.292357,23.718095],[121.292552,23.718188],[121.293147,23.717652],[121.29315,23.717472],[121.293546,23.717205],[121.293548,23.717025],[121.293745,23.716937],[121.293553,23.716664],[121.293356,23.716662],[121.293158,23.71684],[121.292865,23.716746],[121.292965,23.716567],[121.293162,23.716569],[121.293557,23.716303],[121.293462,23.716121],[121.293166,23.716208],[121.293165,23.716298],[121.292677,23.716112],[121.292573,23.716563],[121.292078,23.716918],[121.291975,23.717278],[121.291679,23.717456],[121.291871,23.717729],[121.292167,23.717642],[121.292361,23.717824],[121.292357,23.718095]],[[121.292865,23.716746],[121.292766,23.716836],[121.292567,23.717014],[121.292571,23.716743],[121.292865,23.716746]],[[121.292169,23.717461],[121.292267,23.717462],[121.292265,23.717643],[121.292167,23.717642],[121.292169,23.717461]]],[[[121.292157,23.718364],[121.292351,23.718547],[121.292551,23.718278],[121.292356,23.718186],[121.292157,23.718364]]],[[[121.294594,23.719565],[121.294596,23.719384],[121.294402,23.719201],[121.294406,23.718931],[121.294212,23.718748],[121.294016,23.718746],[121.29392,23.718564],[121.293722,23.718742],[121.293528,23.71856],[121.293234,23.718556],[121.292936,23.718824],[121.293031,23.719096],[121.293522,23.719011],[121.293617,23.719283],[121.294009,23.719287],[121.294006,23.719468],[121.294297,23.719742],[121.294594,23.719565]]],[[[121.282808,23.720789],[121.283106,23.720521],[121.283111,23.72016],[121.283013,23.720159],[121.283113,23.719979],[121.282918,23.719887],[121.283123,23.719257],[121.283026,23.719166],[121.282536,23.71916],[121.282435,23.71934],[121.282727,23.719524],[121.282725,23.719704],[121.282526,23.719883],[121.282232,23.719879],[121.282231,23.71997],[121.28174,23.719964],[121.281641,23.720053],[121.281738,23.720145],[121.281634,23.720595],[121.28212,23.720962],[121.282316,23.720964],[121.282416,23.720784],[121.282808,23.720789]],[[121.282422,23.720333],[121.282226,23.720331],[121.282227,23.720241],[121.282425,23.720152],[121.282422,23.720333]],[[121.282817,23.720157],[121.282718,23.720246],[121.282719,23.720156],[121.282817,23.720157]],[[121.282817,23.720157],[121.282916,23.720068],[121.282915,23.720158],[121.282817,23.720157]]],[[[121.293297,23.721266],[121.293106,23.720812],[121.293008,23.720811],[121.293109,23.720632],[121.292818,23.720358],[121.292921,23.719998],[121.292533,23.719632],[121.292538,23.719271],[121.292245,23.719178],[121.292144,23.719357],[121.292243,23.719358],[121.292335,23.719811],[121.292433,23.719812],[121.29243,23.719992],[121.29272,23.720357],[121.292421,23.720715],[121.292226,23.720622],[121.292126,23.720802],[121.292223,23.720893],[121.292518,23.720806],[121.292905,23.721171],[121.293,23.721443],[121.293297,23.721266]]],[[[121.298292,23.721773],[121.29849,23.721594],[121.298597,23.720963],[121.298893,23.720786],[121.299095,23.720337],[121.299291,23.720339],[121.29949,23.72016],[121.299492,23.71998],[121.299689,23.719892],[121.299595,23.71962],[121.299399,23.719618],[121.299297,23.719887],[121.299101,23.719885],[121.2991,23.719976],[121.29871,23.719791],[121.298611,23.71988],[121.298606,23.720241],[121.298704,23.720242],[121.298599,23.720783],[121.298402,23.720871],[121.298404,23.72069],[121.298209,23.720598],[121.298108,23.720868],[121.29791,23.720956],[121.298004,23.721318],[121.297609,23.721494],[121.297702,23.721856],[121.297995,23.72195],[121.298096,23.72177],[121.298292,23.721773]],[[121.298999,23.720155],[121.299099,23.720066],[121.299098,23.720156],[121.298999,23.720155]]],[[[121.300432,23.723151],[121.300434,23.72297],[121.300239,23.722878],[121.300341,23.722608],[121.300243,23.722607],[121.300148,23.722335],[121.299951,23.722423],[121.299954,23.722152],[121.300052,23.722153],[121.300155,23.721793],[121.300453,23.721525],[121.30046,23.720984],[121.300755,23.720897],[121.300857,23.720627],[121.300662,23.720535],[121.300761,23.720445],[121.300671,23.719812],[121.300477,23.719629],[121.300482,23.719268],[121.300287,23.719176],[121.299987,23.719624],[121.30028,23.719718],[121.300175,23.720258],[121.300563,23.720624],[121.300465,23.720623],[121.300363,23.720892],[121.300266,23.720801],[121.299971,23.720888],[121.299876,23.720616],[121.29958,23.720794],[121.299577,23.720974],[121.299379,23.721152],[121.299375,23.721423],[121.299277,23.721422],[121.29927,23.721964],[121.299465,23.722056],[121.299458,23.722598],[121.299846,23.722964],[121.300043,23.722875],[121.300037,23.723327],[121.300428,23.723422],[121.300528,23.723332],[121.30053,23.723152],[121.300432,23.723151]]],[[[121.292754,23.725233],[121.292262,23.725408],[121.29217,23.724956],[121.292072,23.724955],[121.292174,23.724595],[121.291881,23.724501],[121.290888,23.725484],[121.290202,23.725386],[121.290102,23.725565],[121.290395,23.725659],[121.290491,23.72584],[121.29147,23.725941],[121.291573,23.725581],[121.291769,23.725584],[121.292067,23.725316],[121.292159,23.725768],[121.291862,23.725946],[121.291859,23.726217],[121.291565,23.726213],[121.291562,23.726394],[121.293525,23.726325],[121.293527,23.726145],[121.29392,23.726149],[121.293922,23.725969],[121.29451,23.725975],[121.294513,23.725794],[121.294611,23.725796],[121.294524,23.724892],[121.294622,23.724893],[121.294626,23.724622],[121.294822,23.724624],[121.29482,23.724805],[121.295014,23.724987],[121.294914,23.725076],[121.29491,23.725438],[121.295008,23.725439],[121.294906,23.725708],[121.2951,23.725891],[121.295789,23.725718],[121.295881,23.726171],[121.296075,23.726353],[121.296565,23.726359],[121.296566,23.726269],[121.296862,23.726182],[121.296676,23.725367],[121.297172,23.724921],[121.297466,23.724924],[121.297863,23.724567],[121.297872,23.723935],[121.29826,23.72421],[121.298355,23.724482],[121.298552,23.724394],[121.298455,23.724303],[121.298557,23.724033],[121.297875,23.723664],[121.297984,23.722853],[121.298182,23.722674],[121.298576,23.722588],[121.29858,23.722227],[121.298387,23.722045],[121.29819,23.722042],[121.298189,23.722133],[121.297798,23.722038],[121.297699,23.722127],[121.297587,23.72321],[121.29719,23.723566],[121.297384,23.723749],[121.297378,23.724201],[121.297476,23.724202],[121.297277,23.72438],[121.297275,23.724561],[121.296785,23.724555],[121.296788,23.724284],[121.296985,23.724196],[121.296992,23.723655],[121.296896,23.723563],[121.2966,23.72365],[121.296596,23.724011],[121.296397,23.72419],[121.295807,23.724274],[121.295707,23.724453],[121.295511,23.724451],[121.295512,23.724361],[121.295315,23.724449],[121.295221,23.724087],[121.295026,23.723994],[121.29494,23.72309],[121.295236,23.723003],[121.295243,23.722461],[121.295439,23.722464],[121.296034,23.721928],[121.296036,23.721748],[121.296233,23.72175],[121.296431,23.721572],[121.296627,23.721574],[121.296619,23.722206],[121.296814,23.722298],[121.297016,23.721849],[121.297312,23.721672],[121.297422,23.72077],[121.297618,23.720772],[121.297817,23.720594],[121.297722,23.720322],[121.297426,23.720499],[121.297331,23.720227],[121.297233,23.720226],[121.297244,23.719413],[121.297343,23.719324],[121.297148,23.719232],[121.297154,23.71878],[121.29696,23.718598],[121.296469,23.718682],[121.296564,23.718864],[121.29686,23.718777],[121.296857,23.718958],[121.296365,23.719133],[121.296459,23.719405],[121.296753,23.719408],[121.29675,23.719679],[121.296356,23.719765],[121.296255,23.720035],[121.296058,23.720123],[121.296153,23.720304],[121.29645,23.720127],[121.29654,23.72076],[121.296341,23.720938],[121.295948,23.721024],[121.295547,23.721652],[121.294666,23.721552],[121.294467,23.72173],[121.294465,23.721911],[121.294271,23.721728],[121.294075,23.721726],[121.293972,23.722086],[121.293874,23.722085],[121.293878,23.721814],[121.29378,23.721813],[121.293685,23.721541],[121.293389,23.721719],[121.293482,23.722081],[121.293186,23.722258],[121.293279,23.72262],[121.293181,23.722619],[121.293078,23.722979],[121.292881,23.723067],[121.292877,23.723338],[121.292581,23.723516],[121.292774,23.723698],[121.292771,23.723969],[121.292966,23.724062],[121.292964,23.724242],[121.292766,23.72433],[121.292477,23.723966],[121.292281,23.723964],[121.292082,23.724142],[121.292079,23.724413],[121.292274,23.724506],[121.292464,23.724959],[121.292952,23.725145],[121.292851,23.725325],[121.292754,23.725233]],[[121.295217,23.724448],[121.295411,23.72463],[121.295115,23.724718],[121.295117,23.724537],[121.295217,23.724448]],[[121.295607,23.724633],[121.295605,23.724723],[121.295409,23.724721],[121.295411,23.72463],[121.295607,23.724633]],[[121.29494,23.72309],[121.294843,23.722999],[121.294941,23.723],[121.29494,23.72309]],[[121.292953,23.725055],[121.293149,23.725057],[121.293147,23.725238],[121.293049,23.725236],[121.292953,23.725055]],[[121.29314,23.725779],[121.293239,23.72569],[121.293238,23.72578],[121.29314,23.725779]],[[121.295106,23.72544],[121.295302,23.725442],[121.295301,23.725532],[121.295105,23.72553],[121.295106,23.72544]],[[121.293343,23.72524],[121.293539,23.725242],[121.293538,23.725332],[121.293342,23.72533],[121.293343,23.72524]],[[121.294227,23.725159],[121.294326,23.72507],[121.294325,23.72516],[121.294227,23.725159]],[[121.296482,23.725184],[121.296581,23.725095],[121.29658,23.725185],[121.296482,23.725184]],[[121.293446,23.72488],[121.293252,23.724697],[121.292858,23.724783],[121.292763,23.724601],[121.293057,23.724604],[121.293058,23.724514],[121.293351,23.724608],[121.29355,23.724429],[121.293447,23.724789],[121.293641,23.724972],[121.293443,23.72506],[121.293446,23.72488]],[[121.293642,23.724882],[121.293741,23.724793],[121.29374,23.724883],[121.293642,23.724882]],[[121.294132,23.724887],[121.294034,23.724886],[121.293938,23.724705],[121.294134,23.724707],[121.294132,23.724887]],[[121.293947,23.724073],[121.294144,23.723984],[121.294236,23.724437],[121.293945,23.724163],[121.293749,23.724161],[121.29385,23.723981],[121.293947,23.724073]],[[121.293749,23.724161],[121.29365,23.72425],[121.293651,23.72416],[121.293749,23.724161]],[[121.294829,23.724082],[121.294927,23.724083],[121.294925,23.724264],[121.294827,23.724263],[121.294829,23.724082]],[[121.293456,23.724067],[121.293555,23.723978],[121.293554,23.724068],[121.293456,23.724067]],[[121.294048,23.723803],[121.293755,23.723709],[121.293756,23.723619],[121.294248,23.723534],[121.294442,23.723717],[121.294438,23.723988],[121.29434,23.723987],[121.294245,23.723715],[121.294049,23.723712],[121.294048,23.723803]],[[121.293364,23.723615],[121.293658,23.723618],[121.293657,23.723708],[121.293363,23.723705],[121.293364,23.723615]],[[121.294657,23.722274],[121.294853,23.722277],[121.29485,23.722457],[121.294654,23.722455],[121.294657,23.722274]]],[[[121.295809,23.724183],[121.295615,23.724001],[121.295415,23.724269],[121.29561,23.724362],[121.295809,23.724183]]],[[[121.301525,23.714494],[121.301527,23.714313],[121.301724,23.714225],[121.301831,23.713594],[121.302125,23.713598],[121.302319,23.71378],[121.302316,23.713961],[121.302511,23.714053],[121.302613,23.713783],[121.30271,23.713875],[121.303005,23.713788],[121.303009,23.713517],[121.302815,23.713334],[121.302225,23.713418],[121.302128,23.713327],[121.302232,23.712876],[121.302037,23.712784],[121.301847,23.71233],[121.30136,23.712054],[121.300962,23.712501],[121.301058,23.712683],[121.300859,23.712861],[121.300852,23.713403],[121.301047,23.713495],[121.301044,23.713766],[121.301239,23.713859],[121.301233,23.71431],[121.301034,23.714489],[121.301228,23.714671],[121.301525,23.714494]]],[[[121.304928,23.716789],[121.304931,23.716518],[121.304833,23.716517],[121.304936,23.716157],[121.304838,23.716156],[121.30484,23.715975],[121.304551,23.715611],[121.304256,23.715607],[121.304261,23.715246],[121.304163,23.715245],[121.30407,23.714883],[121.303779,23.714609],[121.303485,23.714606],[121.303486,23.714515],[121.303095,23.714421],[121.302707,23.714055],[121.302607,23.714235],[121.302802,23.714327],[121.302895,23.71469],[121.303286,23.714784],[121.303479,23.715057],[121.303676,23.714969],[121.30387,23.715152],[121.303863,23.715693],[121.304156,23.715787],[121.304154,23.715968],[121.304446,23.716151],[121.304442,23.716422],[121.30454,23.716423],[121.304537,23.716694],[121.304635,23.716695],[121.304728,23.717057],[121.305023,23.71697],[121.305026,23.71679],[121.304928,23.716789]]],[[[121.306974,23.717804],[121.307273,23.717447],[121.307469,23.717449],[121.307564,23.717721],[121.307955,23.717815],[121.308153,23.717637],[121.308156,23.717456],[121.307959,23.717454],[121.307961,23.717364],[121.307665,23.717451],[121.307569,23.717269],[121.30708,23.717174],[121.306683,23.71753],[121.306681,23.717711],[121.306974,23.717804]]],[[[121.300494,23.718365],[121.300605,23.717373],[121.301199,23.716928],[121.301011,23.716294],[121.300814,23.716382],[121.300809,23.716744],[121.300611,23.716922],[121.300607,23.717193],[121.300211,23.717459],[121.300099,23.718542],[121.300294,23.718634],[121.300396,23.718364],[121.300494,23.718365]]],[[[121.306575,23.718342],[121.306874,23.717984],[121.306484,23.717799],[121.306583,23.71771],[121.306491,23.717257],[121.306785,23.717261],[121.306885,23.717081],[121.306494,23.716987],[121.306495,23.716896],[121.306396,23.716985],[121.306299,23.716894],[121.305808,23.716979],[121.305712,23.716797],[121.305516,23.716795],[121.305515,23.716885],[121.305222,23.716792],[121.305023,23.71697],[121.305117,23.717333],[121.305606,23.717428],[121.305605,23.717519],[121.3059,23.717431],[121.306093,23.717705],[121.306387,23.717708],[121.306385,23.717888],[121.305992,23.717884],[121.305994,23.717794],[121.305796,23.717882],[121.305891,23.718154],[121.305989,23.718155],[121.305985,23.718426],[121.306278,23.718519],[121.306379,23.71834],[121.306575,23.718342]],[[121.305218,23.717063],[121.305414,23.717065],[121.305413,23.717155],[121.305217,23.717153],[121.305218,23.717063]]],[[[121.306268,23.719332],[121.306466,23.719153],[121.306073,23.719239],[121.306172,23.71915],[121.306076,23.718969],[121.305878,23.719147],[121.305388,23.719142],[121.305194,23.718959],[121.3051,23.718597],[121.304804,23.718774],[121.305092,23.719229],[121.305288,23.719231],[121.305677,23.719506],[121.306069,23.71951],[121.306165,23.719692],[121.306263,23.719693],[121.306268,23.719332]]],[[[121.302218,23.721545],[121.30222,23.721364],[121.302027,23.721182],[121.302034,23.72064],[121.302232,23.720461],[121.302438,23.719741],[121.302146,23.719558],[121.301749,23.719914],[121.301643,23.720545],[121.301544,23.720544],[121.301539,23.720996],[121.301637,23.720997],[121.301633,23.721268],[121.302022,23.721543],[121.302116,23.721815],[121.302314,23.721727],[121.302316,23.721546],[121.302218,23.721545]]],[[[121.3016,23.723796],[121.301709,23.722984],[121.301515,23.722801],[121.301621,23.72217],[121.301427,23.722078],[121.301325,23.722348],[121.301227,23.722347],[121.301123,23.722797],[121.30083,23.722704],[121.30063,23.722972],[121.300921,23.723246],[121.300721,23.723515],[121.300915,23.723698],[121.301111,23.7237],[121.301206,23.723972],[121.301402,23.723974],[121.3016,23.723796]]],[[[121.305235,23.723384],[121.304847,23.723019],[121.304354,23.723194],[121.304352,23.723374],[121.304546,23.723557],[121.305235,23.723384]]],[[[121.306017,23.723573],[121.306117,23.723394],[121.305922,23.723301],[121.305828,23.723029],[121.30563,23.723117],[121.305628,23.723298],[121.305235,23.723384],[121.305524,23.723748],[121.306017,23.723573]]],[[[121.304622,23.725274],[121.304235,23.724818],[121.304039,23.724816],[121.303847,23.724543],[121.30365,23.72454],[121.303556,23.724269],[121.303262,23.724265],[121.303266,23.723904],[121.303463,23.723906],[121.303564,23.723637],[121.30376,23.723639],[121.304156,23.723372],[121.304158,23.723192],[121.30377,23.722916],[121.303871,23.722647],[121.304165,23.72265],[121.304164,23.72274],[121.304558,23.722654],[121.304555,23.722835],[121.30475,23.722927],[121.304851,23.722748],[121.305047,23.72275],[121.305245,23.722571],[121.305249,23.722301],[121.305152,23.722209],[121.30476,23.722205],[121.304758,23.722295],[121.304562,23.722293],[121.304563,23.722203],[121.304464,23.722292],[121.302994,23.722185],[121.302895,23.722275],[121.302799,23.722093],[121.302603,23.722091],[121.302409,23.721908],[121.302308,23.722178],[121.302503,23.72227],[121.302596,23.722633],[121.302794,23.722544],[121.302796,23.722364],[121.302992,23.722366],[121.302893,23.722455],[121.302984,23.722998],[121.302496,23.722812],[121.302394,23.723082],[121.3019,23.723347],[121.301896,23.723709],[121.301994,23.72371],[121.301892,23.723979],[121.301989,23.724071],[121.30248,23.724076],[121.302571,23.724619],[121.302472,23.724618],[121.30237,23.724978],[121.301881,23.724882],[121.301682,23.725061],[121.301775,23.725423],[121.301283,23.725598],[121.301177,23.726229],[121.301273,23.72632],[121.301569,23.726233],[121.301575,23.725782],[121.302064,23.725878],[121.302165,23.725608],[121.302262,23.725699],[121.30246,23.725611],[121.302464,23.72525],[121.30286,23.724983],[121.302964,23.724533],[121.303061,23.724624],[121.303454,23.724538],[121.303452,23.724719],[121.303744,23.724903],[121.30374,23.725174],[121.30423,23.725269],[121.304323,23.725631],[121.304521,23.725453],[121.304618,23.725544],[121.305109,23.72555],[121.305208,23.725461],[121.305112,23.725279],[121.304622,23.725274]],[[121.304622,23.725274],[121.304523,23.725363],[121.304524,23.725272],[121.304622,23.725274]]],[[[121.30658,23.725566],[121.306485,23.725294],[121.306777,23.725478],[121.306975,23.725299],[121.306881,23.725027],[121.305901,23.724926],[121.3059,23.725017],[121.305606,23.725013],[121.305407,23.725192],[121.305794,23.725648],[121.306381,23.725744],[121.30658,23.725566]]],[[[121.304615,23.725815],[121.304421,23.725633],[121.304321,23.725812],[121.304516,23.725904],[121.304615,23.725815]]],[[[121.30586,23.728086],[121.305961,23.727907],[121.305767,23.727724],[121.305571,23.727722],[121.305382,23.727178],[121.304603,23.726718],[121.304708,23.726177],[121.304513,23.726085],[121.30441,23.726445],[121.304213,23.726533],[121.304504,23.726807],[121.3045,23.727078],[121.304988,23.727264],[121.304986,23.727445],[121.305181,23.727537],[121.305177,23.727808],[121.305468,23.728082],[121.305567,23.727993],[121.30586,23.728086]]],[[[121.303026,23.727333],[121.302735,23.727059],[121.302538,23.727147],[121.302728,23.727601],[121.302924,23.727603],[121.303026,23.727333]]],[[[121.302242,23.727234],[121.302046,23.727232],[121.302047,23.727142],[121.30185,23.72723],[121.301947,23.727321],[121.301942,23.727682],[121.301745,23.72777],[121.301841,23.727952],[121.302135,23.727955],[121.302329,23.728138],[121.303211,23.728148],[121.303311,23.728058],[121.303216,23.727786],[121.302726,23.727781],[121.302728,23.727601],[121.302242,23.727234]]]]}},{"type":"Feature","properties":{"kind":"bare_dam","month":"2024-03","area_ha":23.56},"geometry":{"type":"MultiPolygon","coordinates":[[[[121.300155,23.691543],[121.300254,23.691454],[121.300547,23.691547],[121.300647,23.691368],[121.300844,23.69137],[121.300842,23.69146],[121.301431,23.691467],[121.301624,23.691649],[121.301724,23.69156],[121.301628,23.691378],[121.301826,23.6912],[121.301923,23.691291],[121.302218,23.691204],[121.302123,23.691023],[121.301829,23.691019],[121.30183,23.690929],[121.301633,23.691017],[121.30144,23.690744],[121.301143,23.690922],[121.300853,23.690648],[121.300957,23.690197],[121.301935,23.690389],[121.301934,23.690479],[121.30262,23.690486],[121.302621,23.690396],[121.302914,23.69049],[121.303014,23.69031],[121.302918,23.690219],[121.302622,23.690306],[121.302623,23.690215],[121.302329,23.690212],[121.302331,23.690122],[121.30184,23.690117],[121.301745,23.689935],[121.301645,23.690024],[121.300862,23.689925],[121.300762,23.690105],[121.30037,23.6901],[121.300273,23.690009],[121.300374,23.689739],[121.30008,23.689736],[121.300177,23.689827],[121.300076,23.690097],[121.299879,23.690095],[121.299881,23.690005],[121.299685,23.690003],[121.299683,23.690093],[121.29939,23.689999],[121.299291,23.690089],[121.299097,23.689906],[121.299198,23.689726],[121.298708,23.689721],[121.298607,23.6899],[121.298117,23.689895],[121.297522,23.69043],[121.297615,23.690793],[121.297906,23.691067],[121.298102,23.691069],[121.298301,23.6908],[121.298792,23.690806],[121.298883,23.691348],[121.299076,23.691531],[121.299273,23.691533],[121.299271,23.691623],[121.299371,23.691534],[121.299861,23.69154],[121.299961,23.69136],[121.300155,23.691543]],[[121.299863,23.691359],[121.299865,23.691178],[121.299963,23.69118],[121.299961,23.69136],[121.299863,23.691359]],[[121.299865,23.691178],[121.299769,23.691087],[121.299867,23.691088],[121.299865,23.691178]],[[121.299965,23.691089],[121.299674,23.690815],[121.299971,23.690638],[121.299877,23.690276],[121.300073,23.690278],[121.300066,23.69082],[121.300163,23.690911],[121.299965,23.691089]]],[[[121.301199,23.694173],[121.301682,23.69481],[121.302075,23.694724],[121.301882,23.694451],[121.301686,23.694449],[121.30169,23.694178],[121.301495,23.694086],[121.301305,23.693632],[121.300817,23.693446],[121.300519,23.693714],[121.300325,23.693531],[121.300524,23.693353],[121.300527,23.693082],[121.300333,23.692899],[121.300336,23.692719],[121.300434,23.69272],[121.300338,23.692538],[121.300142,23.692536],[121.300046,23.692354],[121.299849,23.692443],[121.299851,23.692262],[121.299561,23.691988],[121.299167,23.692074],[121.29917,23.691893],[121.298877,23.6918],[121.298879,23.691619],[121.298685,23.691436],[121.29839,23.691523],[121.298388,23.691704],[121.298678,23.691978],[121.298482,23.691976],[121.298289,23.691793],[121.2981,23.691249],[121.297803,23.691427],[121.297895,23.691879],[121.298188,23.691973],[121.298185,23.692244],[121.298478,23.692337],[121.298473,23.692698],[121.298957,23.693155],[121.298954,23.693426],[121.299052,23.693427],[121.298853,23.693605],[121.298949,23.693787],[121.299145,23.693789],[121.299338,23.694062],[121.299631,23.694156],[121.299731,23.693976],[121.300122,23.694071],[121.300221,23.693982],[121.300127,23.69371],[121.300225,23.693711],[121.300417,23.693984],[121.300615,23.693896],[121.300904,23.69426],[121.301199,23.694173]],[[121.301202,23.693992],[121.3013,23.693994],[121.301298,23.694174],[121.301199,23.694173],[121.301202,23.693992]],[[121.300028,23.693799],[121.299931,23.693708],[121.300029,23.693709],[121.300028,23.693799]],[[121.299443,23.693522],[121.299346,23.69343],[121.299444,23.693431],[121.299443,23.693522]],[[121.299651,23.692621],[121.299848,23.692533],[121.30004,23.692806],[121.299745,23.692893],[121.299648,23.692801],[121.299651,23.692621]]],[[[121.303053,23.694916],[121.303152,23.694827],[121.303056,23.694645],[121.30237,23.694637],[121.302271,23.694727],[121.302464,23.695],[121.302563,23.69491],[121.303053,23.694916]]],[[[121.2988,23.697759],[121.299094,23.697762],[121.299095,23.697672],[121.299488,23.697586],[121.299295,23.697403],[121.299297,23.697222],[121.299495,23.697044],[121.299398,23.696953],[121.299201,23.697041],[121.299207,23.696589],[121.298914,23.696496],[121.299013,23.696406],[121.298916,23.696315],[121.299026,23.695413],[121.298832,23.695231],[121.298636,23.695228],[121.298639,23.695048],[121.298737,23.695049],[121.298641,23.694867],[121.298248,23.694953],[121.298153,23.694681],[121.297958,23.694589],[121.297859,23.694678],[121.297955,23.69486],[121.297559,23.695126],[121.297651,23.695579],[121.297749,23.69558],[121.297645,23.69603],[121.297839,23.696213],[121.297737,23.696483],[121.298029,23.696667],[121.297928,23.696936],[121.298412,23.697393],[121.298406,23.697845],[121.298699,23.697938],[121.2988,23.697759]],[[121.298613,23.697034],[121.298712,23.696945],[121.298711,23.697035],[121.298613,23.697034]],[[121.298614,23.696944],[121.298517,23.696853],[121.298615,23.696854],[121.298614,23.696944]],[[121.298517,23.696853],[121.29842,23.696761],[121.298518,23.696762],[121.298517,23.696853]],[[121.29823,23.696308],[121.298136,23.696036],[121.298232,23.696127],[121.298626,23.696041],[121.298521,23.696582],[121.298227,23.696578],[121.298326,23.696489],[121.298328,23.696309],[121.29823,23.696308]],[[121.298339,23.695496],[121.298536,23.695408],[121.29863,23.69568],[121.298728,23.695681],[121.298529,23.69595],[121.298335,23.695767],[121.298339,23.695496]],[[121.298043,23.695583],[121.297946,23.695492],[121.298045,23.695493],[121.298043,23.695583]]],[[[121.302239,23.697164],[121.302534,23.697168],[121.302831,23.6969],[121.302445,23.696444],[121.302248,23.696532],[121.302145,23.696892],[121.301848,23.69707],[121.301943,23.697342],[121.302139,23.697344],[121.302239,23.697164]]],[[[121.300084,23.69705],[121.299891,23.696777],[121.299694,23.696865],[121.299691,23.697046],[121.299789,23.697047],[121.299687,23.697407],[121.299784,23.697499],[121.300078,23.697502],[121.300276,23.697323],[121.30018,23.697142],[121.299984,23.69714],[121.300084,23.69705]],[[121.299984,23.69714],[121.299885,23.697229],[121.299886,23.697138],[121.299984,23.69714]]],[[[121.296625,23.699089],[121.296527,23.699088],[121.296435,23.698636],[121.296239,23.698633],[121.29624,23.698543],[121.295748,23.698628],[121.295746,23.698809],[121.296235,23.698904],[121.296427,23.699268],[121.296625,23.699089]]],[[[121.298891,23.698301],[121.298494,23.698658],[121.298491,23.698839],[121.298295,23.698837],[121.298299,23.698566],[121.298496,23.698478],[121.2984,23.698296],[121.298204,23.698294],[121.298002,23.698743],[121.297904,23.698742],[121.298195,23.699016],[121.298193,23.699197],[121.298095,23.699196],[121.298189,23.699468],[121.297993,23.699465],[121.297799,23.699283],[121.297698,23.699553],[121.2975,23.699641],[121.297595,23.699913],[121.297986,23.700007],[121.297788,23.700186],[121.297882,23.700458],[121.299157,23.700472],[121.298776,23.699564],[121.298975,23.699386],[121.298879,23.699204],[121.299076,23.699116],[121.29908,23.698845],[121.299377,23.698578],[121.29938,23.698397],[121.299576,23.698399],[121.299577,23.698309],[121.29987,23.698402],[121.300068,23.698224],[121.30095,23.698324],[121.301445,23.697968],[121.301447,23.697788],[121.301154,23.697694],[121.301155,23.697604],[121.300763,23.6976],[121.300662,23.697779],[121.300566,23.697688],[121.30027,23.697775],[121.300269,23.697865],[121.299976,23.697772],[121.299876,23.697951],[121.299583,23.697858],[121.299383,23.698126],[121.298891,23.698301]],[[121.299383,23.698126],[121.29948,23.698218],[121.299382,23.698217],[121.299383,23.698126]],[[121.298392,23.698928],[121.298489,23.699019],[121.298686,23.698931],[121.29878,23.699294],[121.298386,23.699379],[121.298389,23.699199],[121.298291,23.699198],[121.298392,23.698928]]],[[[121.295446,23.699257],[121.295545,23.699168],[121.295451,23.698896],[121.295352,23.698985],[121.295057,23.698982],[121.294864,23.698799],[121.294666,23.698887],[121.294858,23.69925],[121.294957,23.699161],[121.295446,23.699257]]],[[[121.312076,23.687158],[121.311978,23.687157],[121.311883,23.686885],[121.311591,23.686792],[121.311691,23.686612],[121.311302,23.686337],[121.3112,23.686697],[121.311298,23.686698],[121.311294,23.686969],[121.311392,23.68697],[121.311389,23.687241],[121.311291,23.68724],[121.311386,23.687422],[121.311288,23.687421],[121.311184,23.687871],[121.311379,23.687963],[121.312076,23.687158]],[[121.311878,23.687337],[121.311781,23.687245],[121.311879,23.687246],[121.311878,23.687337]],[[121.311582,23.687424],[121.311486,23.687332],[121.311584,23.687334],[121.311582,23.687424]]],[[[121.312759,23.687437],[121.312565,23.687254],[121.31227,23.687341],[121.312367,23.687432],[121.312265,23.687702],[121.312555,23.688067],[121.312752,23.687978],[121.312759,23.687437]]],[[[121.308587,23.691635],[121.308785,23.691457],[121.308787,23.691276],[121.308495,23.691092],[121.3079,23.691628],[121.308289,23.691903],[121.30839,23.691633],[121.308587,23.691635]],[[121.30839,23.691633],[121.308294,23.691542],[121.308392,23.691543],[121.30839,23.691633]]],[[[121.305641,23.691964],[121.305839,23.691786],[121.305746,23.691424],[121.305547,23.691602],[121.30545,23.691511],[121.305253,23.691599],[121.305251,23.691779],[121.305445,23.691962],[121.305641,23.691964]]],[[[121.303871,23.692306],[121.30397,23.692217],[121.303873,23.692125],[121.303974,23.691946],[121.303683,23.691672],[121.303292,23.691577],[121.303197,23.691396],[121.303,23.691393],[121.302999,23.691484],[121.302803,23.691482],[121.302707,23.6913],[121.302314,23.691386],[121.302408,23.691748],[121.302702,23.691751],[121.3027,23.691842],[121.303094,23.691756],[121.303091,23.691936],[121.303576,23.692393],[121.303871,23.692306]]],[[[121.310835,23.692202],[121.310641,23.692019],[121.310347,23.692016],[121.310348,23.691925],[121.310054,23.691922],[121.310055,23.691832],[121.30976,23.691919],[121.309855,23.692101],[121.310442,23.692197],[121.310636,23.69238],[121.310835,23.692202]]],[[[121.304723,23.694663],[121.304529,23.69448],[121.305122,23.694126],[121.305027,23.693944],[121.304235,23.694477],[121.304525,23.694842],[121.304723,23.694663]]],[[[121.305205,23.695301],[121.305801,23.694765],[121.305803,23.694585],[121.305609,23.694402],[121.305315,23.694399],[121.304521,23.695112],[121.304615,23.695475],[121.304813,23.695296],[121.305205,23.695301]]],[[[121.303932,23.695196],[121.304325,23.69511],[121.304131,23.694928],[121.304232,23.694748],[121.303841,23.694653],[121.303742,23.694743],[121.303835,23.695105],[121.303637,23.695283],[121.303831,23.695376],[121.303932,23.695196]]]]}},{"type":"Feature","properties":{"kind":"water","month":"2024-03","area_ha":4.08},"geometry":{"type":"MultiPolygon","coordinates":[[[[121.304521,23.695112],[121.304819,23.694845],[121.304525,23.694842],[121.304331,23.694659],[121.304133,23.694837],[121.304325,23.69511],[121.303932,23.695196],[121.303733,23.695375],[121.303729,23.695736],[121.304022,23.695829],[121.304223,23.69547],[121.304517,23.695474],[121.304519,23.695293],[121.304617,23.695294],[121.304521,23.695112]],[[121.304521,23.695112],[121.304424,23.695021],[121.304522,23.695022],[121.304521,23.695112]]],[[[121.298431,23.695949],[121.298728,23.695681],[121.298438,23.695407],[121.298339,23.695496],[121.298431,23.695949]]],[[[121.303033,23.696451],[121.303131,23.696452],[121.303235,23.696001],[121.303333,23.696002],[121.303237,23.695821],[121.302444,23.696534],[121.302734,23.696809],[121.30293,23.696811],[121.303033,23.696451]]],[[[121.298626,23.696041],[121.298527,23.69613],[121.298136,23.696036],[121.298133,23.696216],[121.298328,23.696309],[121.298227,23.696578],[121.298521,23.696582],[121.298626,23.696041]]],[[[121.301254,23.697515],[121.300961,23.697421],[121.300763,23.6976],[121.301253,23.697605],[121.301254,23.697515]]],[[[121.30057,23.697327],[121.300569,23.697417],[121.300079,23.697411],[121.300078,23.697502],[121.299684,23.697588],[121.299584,23.697767],[121.299487,23.697676],[121.299193,23.697673],[121.299192,23.697763],[121.299386,23.697946],[121.299582,23.697948],[121.299583,23.697858],[121.299876,23.697951],[121.299879,23.69768],[121.300073,23.697863],[121.300269,23.697865],[121.300273,23.697594],[121.300371,23.697595],[121.300368,23.697776],[121.300468,23.697687],[121.300662,23.697779],[121.300765,23.697419],[121.30057,23.697327]]],[[[121.299288,23.697945],[121.299384,23.698036],[121.299386,23.697946],[121.299288,23.697945]]],[[[121.298782,23.699113],[121.298684,23.699112],[121.298686,23.698931],[121.298293,23.699017],[121.298386,23.699379],[121.29878,23.699294],[121.298782,23.699113]],[[121.298585,23.699201],[121.298488,23.69911],[121.298586,23.699111],[121.298585,23.699201]]],[[[121.312368,23.687342],[121.312178,23.686889],[121.311883,23.686885],[121.311978,23.687157],[121.312173,23.68725],[121.312171,23.68743],[121.312368,23.687342]]],[[[121.312269,23.687431],[121.312266,23.687612],[121.312364,23.687613],[121.312367,23.687432],[121.312269,23.687431]]],[[[121.308597,23.690823],[121.308694,23.690914],[121.308689,23.691275],[121.308885,23.691277],[121.308891,23.690826],[121.308597,23.690823]]],[[[121.30505,23.692138],[121.305349,23.69178],[121.305153,23.691778],[121.305052,23.691958],[121.304465,23.691861],[121.304365,23.692041],[121.30466,23.691953],[121.304756,23.692135],[121.30505,23.692138]]],[[[121.30602,23.692962],[121.306118,23.692963],[121.30622,23.692693],[121.306416,23.692695],[121.306615,23.692426],[121.306811,23.692429],[121.306814,23.692248],[121.307206,23.692252],[121.307404,23.692074],[121.307698,23.692077],[121.3078,23.691807],[121.308093,23.691901],[121.308095,23.69172],[121.3079,23.691628],[121.307505,23.691894],[121.30731,23.691802],[121.307308,23.691892],[121.306916,23.691888],[121.306915,23.691978],[121.306622,23.691885],[121.30662,23.692065],[121.306033,23.691969],[121.306032,23.692059],[121.306228,23.692061],[121.306225,23.692242],[121.30593,23.692329],[121.306025,23.692601],[121.305927,23.692599],[121.305923,23.69287],[121.305726,23.692958],[121.305819,23.693321],[121.305917,23.693322],[121.30602,23.692962]],[[121.30642,23.692334],[121.306323,23.692243],[121.306421,23.692244],[121.30642,23.692334]]],[[[121.305817,23.693501],[121.305621,23.693499],[121.305519,23.693769],[121.305715,23.693771],[121.305817,23.693501]]],[[[121.305316,23.694308],[121.305707,23.694403],[121.30571,23.694222],[121.305611,23.694221],[121.305713,23.693952],[121.305519,23.693769],[121.304925,23.694214],[121.305118,23.694487],[121.305314,23.694489],[121.305316,23.694308]]],[[[121.304826,23.694303],[121.304529,23.69448],[121.304722,23.694753],[121.304918,23.694756],[121.30492,23.694575],[121.305115,23.694667],[121.305118,23.694487],[121.304922,23.694485],[121.304826,23.694303]]]]}}]}