{"type":"FeatureCollection","features":[{"type":"Feature","properties":{"kind":"bare_slide","month":"2024-06","area_ha":55.11},"geometry":{"type":"MultiPolygon","coordinates":[[[[121.297632,23.712194],[121.298326,23.711569],[121.298229,23.711478],[121.298331,23.711208],[121.298136,23.711116],[121.298042,23.710844],[121.297745,23.711021],[121.297737,23.711653],[121.296755,23.711733],[121.296656,23.711822],[121.29675,23.712094],[121.297632,23.712194]],[[121.298131,23.711477],[121.298034,23.711385],[121.298133,23.711386],[121.298131,23.711477]]],[[[121.287612,23.713438],[121.287224,23.713162],[121.287226,23.712982],[121.287624,23.712535],[121.287918,23.712538],[121.287919,23.712448],[121.288412,23.712273],[121.288121,23.711998],[121.287827,23.711995],[121.287826,23.712085],[121.287141,23.711988],[121.28704,23.712167],[121.286647,23.712253],[121.286741,23.712525],[121.287135,23.712439],[121.286737,23.712886],[121.286734,23.713067],[121.287025,23.713341],[121.28702,23.713702],[121.287508,23.713888],[121.287612,23.713438]]],[[[121.296612,23.715162],[121.29671,23.715163],[121.296714,23.714893],[121.297103,23.715168],[121.297202,23.715079],[121.297106,23.714897],[121.297404,23.714629],[121.2975,23.714811],[121.297794,23.714814],[121.297887,23.715176],[121.298083,23.715179],[121.298179,23.71536],[121.298376,23.715272],[121.298569,23.715545],[121.298965,23.715278],[121.298967,23.715098],[121.298674,23.715004],[121.298286,23.714639],[121.298386,23.71455],[121.298292,23.714188],[121.297999,23.714094],[121.298002,23.713913],[121.297712,23.713549],[121.297515,23.713637],[121.297509,23.714089],[121.297211,23.714356],[121.297209,23.714537],[121.296915,23.714534],[121.296518,23.71489],[121.296124,23.714976],[121.296217,23.715429],[121.29641,23.715612],[121.296608,23.715523],[121.296612,23.715162]]],[[[121.28376,23.715562],[121.283958,23.715384],[121.28406,23.715114],[121.284256,23.715116],[121.28435,23.715388],[121.284548,23.7153],[121.284357,23.714846],[121.284066,23.714662],[121.284069,23.714392],[121.284268,23.714213],[121.28427,23.714033],[121.284076,23.71385],[121.28388,23.713848],[121.282987,23.71465],[121.282981,23.715102],[121.283465,23.715559],[121.28376,23.715562]]],[[[121.288729,23.718055],[121.288626,23.718415],[121.289109,23.718962],[121.289403,23.718966],[121.289504,23.718786],[121.2897,23.718788],[121.289894,23.718971],[121.289792,23.719241],[121.290183,23.719335],[121.290279,23.719517],[121.290573,23.71952],[121.290669,23.719702],[121.290963,23.719705],[121.291065,23.719435],[121.291261,23.719438],[121.29146,23.719169],[121.291753,23.719262],[121.291854,23.719083],[121.291561,23.718989],[121.291563,23.718809],[121.291859,23.718722],[121.291955,23.718813],[121.29195,23.719265],[121.292048,23.719266],[121.292044,23.719537],[121.291946,23.719535],[121.292037,23.720078],[121.291841,23.720076],[121.291739,23.720346],[121.29203,23.72062],[121.292129,23.720531],[121.292324,23.720623],[121.292425,23.720444],[121.292328,23.720352],[121.29213,23.720441],[121.292134,23.72017],[121.292728,23.719725],[121.29283,23.719455],[121.292344,23.719088],[121.292543,23.71891],[121.292545,23.718729],[121.292448,23.718638],[121.292153,23.718725],[121.292154,23.718635],[121.291958,23.718633],[121.29196,23.718452],[121.292159,23.718274],[121.292453,23.718277],[121.292554,23.718007],[121.293745,23.716937],[121.293649,23.716755],[121.29316,23.716659],[121.293558,23.716212],[121.293462,23.716121],[121.293362,23.71621],[121.292677,23.716112],[121.292479,23.716291],[121.292574,23.716472],[121.292179,23.716739],[121.291975,23.717278],[121.291484,23.717363],[121.291382,23.717633],[121.290987,23.7179],[121.29089,23.717808],[121.290496,23.717894],[121.290395,23.718164],[121.2901,23.718161],[121.290103,23.71798],[121.290301,23.717802],[121.290008,23.717708],[121.289915,23.717346],[121.29041,23.71699],[121.2909,23.716996],[121.291288,23.717361],[121.291388,23.717182],[121.291194,23.716999],[121.291393,23.71682],[121.291298,23.716548],[121.291396,23.71655],[121.2914,23.716279],[121.291498,23.71628],[121.291503,23.715919],[121.291601,23.71592],[121.291704,23.71556],[121.291998,23.715563],[121.292098,23.715383],[121.292292,23.715566],[121.292488,23.715568],[121.292489,23.715478],[121.292982,23.715303],[121.292977,23.715664],[121.292879,23.715663],[121.292972,23.716025],[121.293269,23.715848],[121.293271,23.715667],[121.29347,23.715489],[121.293863,23.715403],[121.29386,23.715674],[121.293661,23.715852],[121.293757,23.716034],[121.294149,23.716038],[121.29435,23.715679],[121.294447,23.715771],[121.29484,23.715685],[121.294936,23.715866],[121.29523,23.715869],[121.295322,23.716322],[121.295519,23.716324],[121.29552,23.716234],[121.295715,23.716326],[121.295817,23.715966],[121.296113,23.715879],[121.296116,23.715608],[121.295921,23.715516],[121.295526,23.715782],[121.295528,23.715602],[121.295041,23.715326],[121.294755,23.71469],[121.295445,23.714427],[121.295644,23.714249],[121.295647,23.713978],[121.29614,23.713803],[121.296144,23.713441],[121.296242,23.713443],[121.296246,23.713172],[121.296344,23.713173],[121.296349,23.712812],[121.296251,23.712811],[121.296353,23.71245],[121.296158,23.712358],[121.29596,23.712536],[121.295955,23.712898],[121.295757,23.713076],[121.295265,23.713161],[121.295067,23.713339],[121.294676,23.713245],[121.294376,23.713693],[121.294082,23.71369],[121.293981,23.713869],[121.293589,23.713865],[121.293291,23.714132],[121.293194,23.714041],[121.292899,23.714128],[121.292803,23.713946],[121.292117,23.713939],[121.292118,23.713849],[121.291627,23.713933],[121.291434,23.71366],[121.291238,23.713658],[121.290934,23.714377],[121.290541,23.714463],[121.290441,23.714643],[121.28995,23.714637],[121.28985,23.714817],[121.289556,23.714814],[121.289455,23.714993],[121.289262,23.71481],[121.288966,23.714897],[121.288678,23.714443],[121.288481,23.714531],[121.28819,23.714257],[121.287696,23.714522],[121.287693,23.714793],[121.287791,23.714794],[121.287689,23.715064],[121.286707,23.715143],[121.286809,23.714873],[121.28642,23.714598],[121.286319,23.714868],[121.286514,23.71496],[121.286511,23.715141],[121.286314,23.715229],[121.286312,23.71541],[121.286017,23.715406],[121.286016,23.715497],[121.285425,23.715671],[121.285226,23.715939],[121.284734,23.716024],[121.284633,23.716294],[121.284535,23.716293],[121.285017,23.71693],[121.285214,23.716842],[121.285119,23.71657],[121.285318,23.716392],[121.285514,23.716394],[121.285512,23.716575],[121.285802,23.716849],[121.285998,23.716851],[121.286191,23.717124],[121.286387,23.717126],[121.286388,23.717036],[121.286582,23.717219],[121.287074,23.717134],[121.287459,23.71768],[121.287851,23.717684],[121.287947,23.717866],[121.288241,23.717869],[121.28824,23.717959],[121.288535,23.717872],[121.288729,23.718055]],[[121.288537,23.717692],[121.288439,23.717691],[121.288345,23.717419],[121.288149,23.717417],[121.288148,23.717507],[121.287855,23.717413],[121.287856,23.717323],[121.28756,23.71741],[121.287173,23.717045],[121.287081,23.716592],[121.287378,23.716325],[121.287769,23.716419],[121.287771,23.716329],[121.28836,23.716245],[121.288261,23.716334],[121.288353,23.716787],[121.288552,23.716608],[121.288748,23.716611],[121.288843,23.716792],[121.289629,23.716711],[121.289232,23.717067],[121.289227,23.717429],[121.288932,23.717516],[121.288633,23.717873],[121.288535,23.717872],[121.288537,23.717692]],[[121.28836,23.716245],[121.288459,23.716156],[121.288458,23.716246],[121.28836,23.716245]],[[121.290284,23.719156],[121.290385,23.718886],[121.290677,23.71907],[121.290575,23.71934],[121.290284,23.719156]],[[121.291464,23.718898],[121.291364,23.719078],[121.291265,23.719076],[121.291268,23.718896],[121.291464,23.718898]],[[121.288924,23.718148],[121.289123,23.717879],[121.289415,23.718063],[121.289216,23.718331],[121.288924,23.718148]],[[121.289518,23.717703],[121.289615,23.717794],[121.289517,23.717793],[121.289518,23.717703]],[[121.289616,23.717704],[121.289715,23.717615],[121.289714,23.717705],[121.289616,23.717704]],[[121.28972,23.717253],[121.289718,23.717434],[121.289522,23.717432],[121.289523,23.717342],[121.28972,23.717253]],[[121.292659,23.717466],[121.292662,23.717286],[121.29276,23.717287],[121.292758,23.717468],[121.292659,23.717466]],[[121.286392,23.716765],[121.286098,23.716762],[121.285905,23.716489],[121.285709,23.716487],[121.285811,23.716217],[121.286204,23.716131],[121.286107,23.71604],[121.286208,23.71586],[121.286502,23.715863],[121.286694,23.716136],[121.28689,23.716139],[121.286495,23.716405],[121.28659,23.716587],[121.286392,23.716765]],[[121.28659,23.716587],[121.286687,23.716678],[121.286589,23.716677],[121.28659,23.716587]],[[121.291102,23.716546],[121.2911,23.716727],[121.290903,23.716815],[121.290905,23.716634],[121.291102,23.716546]],[[121.289829,23.716442],[121.289732,23.716351],[121.28983,23.716352],[121.289829,23.716442]],[[121.285319,23.716302],[121.285321,23.716121],[121.28542,23.716122],[121.285417,23.716303],[121.285319,23.716302]],[[121.289539,23.716078],[121.289442,23.715986],[121.28954,23.715987],[121.289539,23.716078]],[[121.288663,23.715616],[121.288759,23.715708],[121.288661,23.715707],[121.288663,23.715616]],[[121.288763,23.715437],[121.288861,23.715438],[121.288863,23.715257],[121.289058,23.71535],[121.288957,23.71562],[121.288761,23.715617],[121.288763,23.715437]],[[121.290037,23.715541],[121.290038,23.715451],[121.290234,23.715453],[121.290233,23.715543],[121.290037,23.715541]],[[121.290333,23.715364],[121.290434,23.715184],[121.29063,23.715187],[121.290528,23.715456],[121.290333,23.715364]],[[121.29397,23.714772],[121.293967,23.714953],[121.293672,23.71504],[121.293674,23.714859],[121.29397,23.714772]],[[121.293288,23.714403],[121.293191,23.714312],[121.293289,23.714313],[121.293288,23.714403]],[[121.292115,23.714119],[121.292112,23.7143],[121.292014,23.714299],[121.291919,23.714117],[121.292115,23.714119]],[[121.291623,23.714204],[121.291526,23.714113],[121.291624,23.714114],[121.291623,23.714204]]],[[[121.28913,23.717337],[121.289133,23.717157],[121.28884,23.717063],[121.288443,23.71742],[121.288932,23.717516],[121.28913,23.717337]]],[[[121.297818,23.720503],[121.297427,23.720409],[121.297332,23.720137],[121.297234,23.720136],[121.297334,23.720046],[121.297338,23.719685],[121.29724,23.719684],[121.297342,23.719414],[121.297147,23.719322],[121.29715,23.719051],[121.296955,23.718959],[121.297055,23.718869],[121.296959,23.718688],[121.296762,23.718776],[121.296856,23.719048],[121.29597,23.719309],[121.296163,23.719582],[121.296655,23.719407],[121.296653,23.719587],[121.296457,23.719585],[121.296356,23.719765],[121.297036,23.720314],[121.29713,23.720586],[121.297718,23.720683],[121.297818,23.720503]]],[[[121.295422,23.723728],[121.29562,23.723639],[121.295524,23.723458],[121.295132,23.723453],[121.29513,23.723544],[121.294837,23.72345],[121.294637,23.723809],[121.295121,23.724266],[121.295317,23.724268],[121.295416,23.724179],[121.295422,23.723728]]],[[[121.293824,23.725967],[121.293827,23.725697],[121.294026,23.725518],[121.293735,23.725244],[121.293437,23.725512],[121.293241,23.72551],[121.292942,23.725867],[121.29294,23.726048],[121.293231,23.726322],[121.293525,23.726325],[121.293527,23.726145],[121.29392,23.726149],[121.293922,23.725969],[121.293824,23.725967]]],[[[121.298785,23.706427],[121.299084,23.706069],[121.299089,23.705708],[121.298895,23.705525],[121.297916,23.705424],[121.297815,23.705604],[121.29752,23.705691],[121.297518,23.705871],[121.297905,23.706237],[121.298004,23.706148],[121.298495,23.706153],[121.298489,23.706605],[121.298586,23.706696],[121.298783,23.706608],[121.298785,23.706427]]],[[[121.298193,23.706692],[121.297995,23.70687],[121.298189,23.707053],[121.298385,23.707055],[121.298574,23.707599],[121.298673,23.70751],[121.298868,23.707602],[121.29896,23.708055],[121.299257,23.707877],[121.299253,23.708148],[121.299155,23.708147],[121.299251,23.708329],[121.299447,23.708331],[121.299547,23.708151],[121.299842,23.708155],[121.300131,23.708519],[121.300328,23.708431],[121.300135,23.708248],[121.300137,23.708067],[121.300332,23.70816],[121.300432,23.70798],[121.300239,23.707798],[121.299944,23.707794],[121.299847,23.707703],[121.299948,23.707524],[121.299656,23.70734],[121.299756,23.70716],[121.300052,23.707073],[121.299956,23.706892],[121.299462,23.707157],[121.299557,23.707429],[121.29936,23.707517],[121.299361,23.707427],[121.299067,23.707424],[121.299068,23.707333],[121.29887,23.707421],[121.29858,23.707147],[121.298582,23.706967],[121.29868,23.706968],[121.298586,23.706696],[121.298486,23.706785],[121.298192,23.706782],[121.298193,23.706692]],[[121.299258,23.707787],[121.299161,23.707696],[121.299259,23.707697],[121.299258,23.707787]],[[121.299455,23.707699],[121.299358,23.707607],[121.299456,23.707608],[121.299455,23.707699]]],[[[121.298436,23.710667],[121.298534,23.710669],[121.298536,23.710488],[121.298438,23.710487],[121.298539,23.710307],[121.298246,23.710214],[121.297861,23.709668],[121.29747,23.709573],[121.297577,23.708852],[121.297775,23.708674],[121.29797,23.708766],[121.298073,23.708406],[121.298171,23.708407],[121.298174,23.708226],[121.297882,23.708043],[121.297778,23.708493],[121.297484,23.70849],[121.297382,23.70876],[121.297185,23.708848],[121.297181,23.709119],[121.297082,23.709208],[121.296789,23.709114],[121.296689,23.709294],[121.296787,23.709295],[121.29688,23.709657],[121.297076,23.709659],[121.297172,23.709841],[121.297369,23.709753],[121.297366,23.710024],[121.297657,23.710207],[121.297654,23.710478],[121.297945,23.710752],[121.298142,23.710664],[121.298235,23.711026],[121.298433,23.710938],[121.298436,23.710667]]],[[[121.301326,23.714672],[121.301724,23.714225],[121.30173,23.713774],[121.301829,23.713685],[121.302222,23.713689],[121.302219,23.713869],[121.302512,23.713963],[121.302514,23.713873],[121.302808,23.713876],[121.303007,23.713607],[121.302616,23.713513],[121.302617,23.713422],[121.302419,23.713601],[121.302126,23.713507],[121.302133,23.712966],[121.301938,23.712873],[121.301942,23.712602],[121.301359,23.712144],[121.301061,23.712412],[121.301057,23.712773],[121.300858,23.712952],[121.300852,23.713403],[121.30095,23.713404],[121.301044,23.713766],[121.301239,23.713859],[121.301233,23.71431],[121.301036,23.714398],[121.301033,23.714579],[121.301326,23.714672]]],[[[121.30426,23.715337],[121.304162,23.715336],[121.304164,23.715155],[121.303969,23.715063],[121.303972,23.714882],[121.303778,23.714699],[121.303484,23.714696],[121.303485,23.714606],[121.303094,23.714511],[121.302804,23.714147],[121.302607,23.714235],[121.302898,23.714509],[121.302991,23.714871],[121.303384,23.714785],[121.303674,23.71515],[121.30387,23.715152],[121.303863,23.715693],[121.304057,23.715876],[121.304254,23.715788],[121.30426,23.715337]]],[[[121.299234,23.717178],[121.299533,23.71682],[121.299639,23.716189],[121.299937,23.715921],[121.299941,23.71565],[121.300434,23.715385],[121.30034,23.715113],[121.300046,23.71511],[121.299743,23.715739],[121.299545,23.715917],[121.299151,23.716003],[121.299146,23.716454],[121.299242,23.716546],[121.298948,23.716543],[121.29875,23.716721],[121.298745,23.717082],[121.298939,23.717265],[121.299234,23.717178]]],[[[121.297836,23.719149],[121.298132,23.718972],[121.298036,23.71879],[121.298333,23.718613],[121.298336,23.718342],[121.298732,23.718075],[121.298735,23.717895],[121.298833,23.717896],[121.298738,23.717624],[121.298541,23.717712],[121.298438,23.718072],[121.298042,23.718339],[121.29804,23.718519],[121.297844,23.718517],[121.297546,23.718785],[121.297543,23.719055],[121.29764,23.719147],[121.297837,23.719059],[121.297836,23.719149]]],[[[121.30222,23.721364],[121.301929,23.721181],[121.301933,23.720819],[121.302031,23.72082],[121.302135,23.72037],[121.302334,23.720192],[121.302339,23.71974],[121.302243,23.719649],[121.301748,23.720005],[121.301641,23.720636],[121.301543,23.720634],[121.301537,23.721086],[121.301636,23.721087],[121.301729,23.721449],[121.301923,23.721632],[121.302119,23.721634],[121.302218,23.721545],[121.30222,23.721364]]],[[[121.300142,23.722786],[121.300244,23.722516],[121.299951,23.722423],[121.299954,23.722152],[121.300052,23.722153],[121.300156,23.721703],[121.300354,23.721615],[121.300358,23.721254],[121.299968,23.721069],[121.299973,23.720708],[121.299778,23.720615],[121.299576,23.721064],[121.299478,23.721063],[121.29927,23.721964],[121.299465,23.722056],[121.299456,23.722779],[121.299847,23.722873],[121.299846,23.722964],[121.300142,23.722786]],[[121.299866,23.721429],[121.299965,23.72134],[121.299964,23.72143],[121.299866,23.721429]]]]}},{"type":"Feature","properties":{"kind":"bare_dam","month":"2024-06","area_ha":19.98},"geometry":{"type":"MultiPolygon","coordinates":[[[[121.303793,23.69077],[121.303695,23.690769],[121.303893,23.690591],[121.303798,23.690409],[121.303698,23.690498],[121.303307,23.690404],[121.303311,23.690133],[121.303408,23.690224],[121.303703,23.690137],[121.303609,23.689865],[121.303412,23.689863],[121.303411,23.689953],[121.302824,23.689856],[121.302823,23.689947],[121.30243,23.690033],[121.302622,23.690306],[121.302426,23.690304],[121.302427,23.690213],[121.302132,23.6903],[121.302228,23.690482],[121.302424,23.690484],[121.302425,23.690394],[121.303012,23.690491],[121.303595,23.690949],[121.303793,23.69077]]],[[[121.304666,23.691502],[121.304182,23.691045],[121.303984,23.691133],[121.304372,23.691499],[121.304466,23.691771],[121.304664,23.691683],[121.304666,23.691502]]],[[[121.303683,23.691672],[121.303195,23.691486],[121.303197,23.691396],[121.302901,23.691483],[121.303094,23.691756],[121.303388,23.691759],[121.303387,23.691849],[121.303583,23.691851],[121.303683,23.691672]]],[[[121.298753,23.693785],[121.298556,23.693873],[121.298553,23.694054],[121.298747,23.694236],[121.298943,23.694239],[121.299038,23.69451],[121.299136,23.694512],[121.299131,23.694873],[121.299229,23.694874],[121.299127,23.695234],[121.298834,23.69514],[121.298935,23.694871],[121.298644,23.694596],[121.298249,23.694863],[121.298253,23.694502],[121.298452,23.694323],[121.298359,23.693961],[121.297864,23.694317],[121.297958,23.694589],[121.297861,23.694498],[121.297664,23.694586],[121.297858,23.694768],[121.297756,23.695038],[121.298145,23.695313],[121.298143,23.695494],[121.298239,23.695585],[121.298436,23.695587],[121.298437,23.695497],[121.29873,23.695591],[121.298727,23.695771],[121.29853,23.695859],[121.298723,23.696132],[121.299019,23.695955],[121.299023,23.695684],[121.299318,23.695597],[121.299418,23.695418],[121.299612,23.6956],[121.299809,23.695512],[121.299813,23.695241],[121.299619,23.695059],[121.299422,23.695147],[121.299327,23.694875],[121.29982,23.6947],[121.300207,23.695065],[121.300406,23.694887],[121.300213,23.694614],[121.300507,23.694617],[121.300701,23.6948],[121.300598,23.69516],[121.30089,23.695344],[121.300887,23.695614],[121.301177,23.695888],[121.301375,23.6958],[121.30128,23.695528],[121.301867,23.695625],[121.302158,23.695899],[121.302355,23.695811],[121.302066,23.695447],[121.301869,23.695445],[121.301775,23.695173],[121.30148,23.69526],[121.301189,23.694986],[121.300992,23.695074],[121.300996,23.694713],[121.300803,23.69453],[121.300607,23.694528],[121.300512,23.694256],[121.301294,23.694445],[121.301592,23.694177],[121.301594,23.693997],[121.301301,23.693903],[121.301103,23.694082],[121.300813,23.693717],[121.300518,23.693804],[121.300324,23.693622],[121.300328,23.693351],[121.29994,23.692985],[121.299743,23.693073],[121.299162,23.692525],[121.299165,23.692254],[121.299263,23.692255],[121.299169,23.691984],[121.29897,23.692162],[121.298382,23.692155],[121.298283,23.692245],[121.298476,23.692427],[121.298568,23.69297],[121.298955,23.693336],[121.298757,23.693514],[121.298753,23.693785]],[[121.300992,23.695074],[121.300892,23.695163],[121.300894,23.695073],[121.300992,23.695074]],[[121.298954,23.693426],[121.299051,23.693517],[121.298953,23.693516],[121.298954,23.693426]],[[121.299638,23.693614],[121.299543,23.693342],[121.29984,23.693165],[121.300128,23.693619],[121.29993,23.693798],[121.299638,23.693614]]],[[[121.301974,23.694904],[121.302172,23.694816],[121.302174,23.694635],[121.302076,23.694634],[121.301981,23.694362],[121.301785,23.69436],[121.301587,23.694538],[121.301583,23.694809],[121.30168,23.694901],[121.301976,23.694814],[121.301974,23.694904]]],[[[121.303442,23.695191],[121.302856,23.695004],[121.303054,23.694825],[121.303346,23.695009],[121.303446,23.69483],[121.303253,23.694647],[121.303153,23.694736],[121.30286,23.694643],[121.302464,23.695],[121.302656,23.695273],[121.30295,23.695276],[121.303046,23.695457],[121.30334,23.695461],[121.303442,23.695191]]],[[[121.301546,23.697699],[121.301841,23.697611],[121.301943,23.697342],[121.302237,23.697345],[121.302437,23.697076],[121.302243,23.696893],[121.302047,23.696891],[121.301848,23.69707],[121.301746,23.69743],[121.301157,23.697423],[121.301061,23.697332],[121.30096,23.697511],[121.300667,23.697418],[121.300469,23.697596],[121.300564,23.697778],[121.301251,23.697786],[121.30125,23.697876],[121.301446,23.697878],[121.301546,23.697699]]],[[[121.298963,23.700289],[121.298966,23.700018],[121.298773,23.699835],[121.298877,23.699385],[121.298682,23.699292],[121.298683,23.699202],[121.298978,23.699115],[121.298881,23.699024],[121.298982,23.698844],[121.298691,23.69857],[121.298493,23.698749],[121.298296,23.698746],[121.298299,23.698566],[121.298495,23.698568],[121.298595,23.698388],[121.29879,23.698481],[121.299187,23.698124],[121.298993,23.697941],[121.298996,23.697761],[121.299486,23.697766],[121.299582,23.697948],[121.299778,23.69795],[121.299976,23.697772],[121.299882,23.6975],[121.300078,23.697502],[121.300276,23.697323],[121.300278,23.697143],[121.2996,23.696503],[121.2995,23.696683],[121.299598,23.696684],[121.299593,23.697045],[121.299691,23.697046],[121.299689,23.697227],[121.299591,23.697226],[121.299686,23.697497],[121.299489,23.697495],[121.299393,23.697404],[121.299495,23.697044],[121.299202,23.69695],[121.299207,23.696589],[121.299012,23.696497],[121.299014,23.696316],[121.29882,23.696224],[121.298423,23.696581],[121.298327,23.696399],[121.298131,23.696397],[121.297937,23.696214],[121.297941,23.695943],[121.297649,23.695759],[121.29745,23.695938],[121.297448,23.696118],[121.297546,23.696119],[121.297445,23.696389],[121.297639,23.696482],[121.297441,23.69666],[121.297536,23.696932],[121.297829,23.697026],[121.297924,23.697207],[121.29842,23.696761],[121.298712,23.696945],[121.298512,23.697214],[121.298416,23.697122],[121.298218,23.69721],[121.298315,23.697302],[121.298214,23.697572],[121.298409,23.697664],[121.298405,23.697935],[121.298207,23.698113],[121.298202,23.698474],[121.297904,23.698742],[121.297798,23.699373],[121.297992,23.699556],[121.298188,23.699558],[121.298086,23.699828],[121.298281,23.69992],[121.298372,23.700463],[121.298764,23.700467],[121.298963,23.700289]],[[121.298195,23.699016],[121.298391,23.699018],[121.29839,23.699109],[121.298194,23.699106],[121.298195,23.699016]],[[121.297644,23.696121],[121.297742,23.696122],[121.29774,23.696302],[121.297642,23.696301],[121.297644,23.696121]]],[[[121.296818,23.699362],[121.296337,23.698635],[121.295845,23.698719],[121.295941,23.698901],[121.296332,23.698996],[121.29633,23.699176],[121.29662,23.69945],[121.296818,23.699362]]],[[[121.31276,23.687346],[121.312468,23.687163],[121.312279,23.686619],[121.311687,23.686883],[121.311789,23.686613],[121.311595,23.686431],[121.311399,23.686429],[121.311305,23.686157],[121.311107,23.686245],[121.311294,23.686969],[121.311392,23.68697],[121.31139,23.687151],[121.311292,23.68715],[121.311385,23.687512],[121.311187,23.68769],[121.311281,23.687962],[121.311578,23.687785],[121.311486,23.687332],[121.311777,23.687516],[121.311778,23.687426],[121.312073,23.687429],[121.312271,23.687251],[121.312168,23.687611],[121.312653,23.688068],[121.312752,23.687978],[121.31276,23.687346]],[[121.312076,23.687158],[121.311979,23.687067],[121.312077,23.687068],[121.312076,23.687158]]],[[[121.310585,23.688767],[121.311177,23.688413],[121.311083,23.688141],[121.310884,23.688319],[121.310491,23.688405],[121.310292,23.688674],[121.310585,23.688767]]],[[[121.308912,23.689201],[121.30921,23.688933],[121.309113,23.688842],[121.308819,23.688838],[121.308818,23.688929],[121.308623,23.688836],[121.308522,23.689016],[121.30862,23.689017],[121.308712,23.689469],[121.30891,23.689381],[121.308912,23.689201]]],[[[121.308395,23.691272],[121.3081,23.691359],[121.307999,23.691539],[121.308096,23.69163],[121.308292,23.691632],[121.308294,23.691542],[121.308587,23.691635],[121.308687,23.691456],[121.308883,23.691458],[121.308982,23.691369],[121.30889,23.690916],[121.309088,23.690738],[121.308798,23.690464],[121.308801,23.690193],[121.308606,23.6901],[121.308513,23.689738],[121.308316,23.689826],[121.308312,23.690097],[121.308506,23.69028],[121.308498,23.690912],[121.308596,23.690913],[121.308397,23.691091],[121.308395,23.691272]],[[121.308594,23.691094],[121.308694,23.690914],[121.308792,23.690915],[121.30879,23.691096],[121.308594,23.691094]],[[121.308787,23.691276],[121.30869,23.691185],[121.308788,23.691186],[121.308787,23.691276]]],[[[121.305844,23.691425],[121.305649,23.691332],[121.30545,23.691511],[121.305448,23.691691],[121.305642,23.691874],[121.305839,23.691786],[121.305844,23.691425]]],[[[121.310835,23.692202],[121.310641,23.692019],[121.310347,23.692016],[121.310348,23.691925],[121.310054,23.691922],[121.310055,23.691832],[121.30976,23.691919],[121.309855,23.692101],[121.310442,23.692197],[121.310636,23.69238],[121.310835,23.692202]]],[[[121.305733,23.692417],[121.306029,23.692239],[121.305936,23.691877],[121.30574,23.691875],[121.305638,23.692145],[121.30554,23.692144],[121.305733,23.692417]]],[[[121.305337,23.692683],[121.305243,23.692411],[121.305538,23.692324],[121.305442,23.692143],[121.305246,23.69214],[121.304948,23.692408],[121.30514,23.692771],[121.305337,23.692683]]],[[[121.305503,23.695033],[121.305701,23.694854],[121.305704,23.694674],[121.305606,23.694673],[121.305707,23.694403],[121.30561,23.694312],[121.305414,23.69431],[121.305314,23.694489],[121.304822,23.694574],[121.30482,23.694755],[121.305015,23.694847],[121.305013,23.695028],[121.304915,23.695026],[121.305009,23.695298],[121.305205,23.695301],[121.305307,23.695031],[121.305503,23.695033]]]]}},{"type":"Feature","properties":{"kind":"water","month":"2024-06","area_ha":0.15},"geometry":{"type":"Polygon","coordinates":[[[121.299187,23.698124],[121.298993,23.697941],[121.298996,23.697761],[121.299486,23.697766],[121.299482,23.698037],[121.299187,23.698124]]]}}]}