{"type":"FeatureCollection","features":[{"type":"Feature","properties":{"kind":"bare_slide","month":"2024-02","area_ha":156.37},"geometry":{"type":"MultiPolygon","coordinates":[[[[121.298872,23.707331],[121.298581,23.707057],[121.298679,23.707058],[121.298785,23.706427],[121.299083,23.70616],[121.29909,23.705618],[121.299188,23.705619],[121.299095,23.705257],[121.299193,23.705258],[121.299197,23.704897],[121.299395,23.704809],[121.299397,23.704628],[121.299696,23.70427],[121.299702,23.703819],[121.299217,23.703362],[121.29932,23.703002],[121.299125,23.702909],[121.299134,23.702187],[121.299038,23.702096],[121.299136,23.702097],[121.299243,23.701375],[121.298753,23.70137],[121.298657,23.701188],[121.298069,23.701182],[121.298058,23.701995],[121.298156,23.701996],[121.298243,23.7029],[121.298341,23.702901],[121.298337,23.703172],[121.298435,23.703173],[121.298529,23.703535],[121.299111,23.703993],[121.299103,23.704625],[121.299005,23.704624],[121.298798,23.705434],[121.297916,23.705424],[121.297815,23.705604],[121.297521,23.705601],[121.29742,23.70587],[121.297713,23.705964],[121.297808,23.706146],[121.2982,23.70615],[121.298199,23.70624],[121.298495,23.706153],[121.298486,23.706785],[121.298289,23.706873],[121.298095,23.706691],[121.297991,23.707141],[121.298088,23.707232],[121.298384,23.707145],[121.298575,23.707508],[121.298771,23.707511],[121.298872,23.707331]]],[[[121.300332,23.70816],[121.30043,23.708161],[121.300432,23.70798],[121.300239,23.707798],[121.299944,23.707794],[121.299948,23.707524],[121.299656,23.70734],[121.299855,23.707161],[121.299759,23.70698],[121.299462,23.707157],[121.299557,23.707429],[121.299068,23.707333],[121.298869,23.707512],[121.298966,23.707603],[121.298964,23.707784],[121.298866,23.707783],[121.29896,23.708055],[121.299257,23.707877],[121.299449,23.70815],[121.299842,23.708155],[121.300034,23.708428],[121.30023,23.70843],[121.300332,23.70816]]],[[[121.298077,23.708135],[121.297979,23.708134],[121.297981,23.707953],[121.298079,23.707955],[121.298086,23.707413],[121.297989,23.707321],[121.297791,23.7075],[121.297596,23.707407],[121.297595,23.707498],[121.297398,23.707496],[121.297003,23.707762],[121.297098,23.707944],[121.297786,23.707861],[121.297883,23.707952],[121.297881,23.708133],[121.297782,23.708132],[121.297877,23.708404],[121.298074,23.708316],[121.298077,23.708135]]],[[[121.298027,23.711927],[121.298129,23.711657],[121.298227,23.711658],[121.298133,23.711386],[121.29833,23.711298],[121.298136,23.711116],[121.29814,23.710845],[121.298431,23.711029],[121.298633,23.710579],[121.298438,23.710487],[121.298539,23.710307],[121.298246,23.710214],[121.29815,23.710032],[121.297855,23.710119],[121.298053,23.709941],[121.297861,23.709668],[121.297566,23.709665],[121.297276,23.70939],[121.297573,23.709123],[121.297676,23.708763],[121.29807,23.708677],[121.297877,23.708404],[121.297681,23.708402],[121.297285,23.708668],[121.297083,23.709117],[121.29669,23.709203],[121.296687,23.709384],[121.297075,23.709749],[121.296976,23.709839],[121.297071,23.71002],[121.297369,23.709753],[121.297366,23.710024],[121.297561,23.710116],[121.297654,23.710478],[121.297849,23.710571],[121.297738,23.711563],[121.297345,23.711649],[121.297244,23.711828],[121.296755,23.711733],[121.296652,23.712093],[121.296749,23.712184],[121.297241,23.712099],[121.297239,23.712189],[121.297729,23.712285],[121.297831,23.711925],[121.298027,23.711927]],[[121.297144,23.712008],[121.297243,23.711918],[121.297242,23.712009],[121.297144,23.712008]],[[121.29795,23.710301],[121.29805,23.710212],[121.298049,23.710302],[121.29795,23.710301]]],[[[121.297914,23.7131],[121.297919,23.712739],[121.297724,23.712646],[121.297521,23.713186],[121.297716,23.713278],[121.297914,23.7131]]],[[[121.284454,23.714938],[121.284066,23.714662],[121.284069,23.714392],[121.284565,23.713946],[121.284472,23.713583],[121.284274,23.713762],[121.28388,23.713848],[121.282987,23.71465],[121.282981,23.715102],[121.283465,23.715559],[121.283858,23.715563],[121.284056,23.715385],[121.28406,23.715114],[121.284256,23.715116],[121.284255,23.715206],[121.284452,23.715118],[121.284454,23.714938]]],[[[121.297598,23.714812],[121.297692,23.715084],[121.297985,23.715177],[121.298081,23.715359],[121.298572,23.715274],[121.298766,23.715457],[121.298965,23.715278],[121.298967,23.715098],[121.298674,23.715004],[121.298286,23.714639],[121.298387,23.714459],[121.298289,23.714458],[121.298292,23.714188],[121.297999,23.714094],[121.298002,23.713913],[121.297904,23.713912],[121.297907,23.713641],[121.297809,23.71364],[121.297911,23.713371],[121.297814,23.713279],[121.297516,23.713547],[121.297511,23.713908],[121.297413,23.713907],[121.297309,23.714357],[121.297111,23.714536],[121.296817,23.714532],[121.296518,23.71489],[121.296124,23.714976],[121.296318,23.715159],[121.29612,23.715337],[121.296312,23.715611],[121.296608,23.715523],[121.296714,23.714893],[121.297005,23.715167],[121.297002,23.715347],[121.296605,23.715704],[121.296698,23.716157],[121.296994,23.715979],[121.296898,23.715798],[121.297197,23.71544],[121.2971,23.715348],[121.297203,23.714988],[121.297402,23.71481],[121.297598,23.714812]],[[121.297203,23.714988],[121.297106,23.714897],[121.297204,23.714898],[121.297203,23.714988]]],[[[121.284546,23.71539],[121.284353,23.715207],[121.284252,23.715387],[121.284447,23.715479],[121.284546,23.71539]]],[[[121.295614,23.716506],[121.295314,23.716954],[121.29541,23.717136],[121.295706,23.716958],[121.295809,23.716598],[121.295614,23.716506]]],[[[121.298133,23.718881],[121.298332,23.718703],[121.298436,23.718253],[121.298831,23.717986],[121.299037,23.717266],[121.299532,23.71691],[121.299638,23.716279],[121.299936,23.716012],[121.299939,23.715741],[121.300532,23.715386],[121.30034,23.715113],[121.300046,23.71511],[121.299944,23.71538],[121.299747,23.715468],[121.299743,23.715739],[121.29915,23.716093],[121.299242,23.716546],[121.299143,23.716635],[121.298948,23.716543],[121.29875,23.716721],[121.298744,23.717172],[121.298841,23.717264],[121.298642,23.717442],[121.298639,23.717713],[121.298442,23.717801],[121.298339,23.718161],[121.297546,23.718785],[121.297544,23.718965],[121.297738,23.719148],[121.29813,23.719152],[121.298229,23.719063],[121.298231,23.718882],[121.298133,23.718881]]],[[[121.293745,23.716937],[121.293649,23.716755],[121.293453,23.716753],[121.293452,23.716843],[121.293257,23.716751],[121.293059,23.716929],[121.292766,23.716836],[121.292665,23.717015],[121.292469,23.717013],[121.292571,23.716743],[121.292865,23.716746],[121.292965,23.716567],[121.293162,23.716569],[121.293557,23.716303],[121.293462,23.716121],[121.293263,23.716299],[121.292774,23.716204],[121.292576,23.716382],[121.292573,23.716563],[121.291978,23.717098],[121.291875,23.717458],[121.291483,23.717454],[121.291086,23.71781],[121.290596,23.717805],[121.290695,23.717716],[121.290599,23.717534],[121.2905,23.717623],[121.290207,23.71753],[121.290208,23.717439],[121.290011,23.717528],[121.290013,23.717347],[121.29021,23.717259],[121.290214,23.716988],[121.290508,23.716991],[121.29061,23.716721],[121.290907,23.716454],[121.291103,23.716456],[121.291102,23.716546],[121.291398,23.716459],[121.291504,23.715828],[121.291701,23.71574],[121.291704,23.71556],[121.291997,23.715653],[121.292098,23.715383],[121.292292,23.715566],[121.292586,23.715569],[121.292687,23.71539],[121.292981,23.715393],[121.292978,23.715574],[121.29288,23.715573],[121.292974,23.715935],[121.29317,23.715937],[121.293368,23.715759],[121.293371,23.715578],[121.293863,23.715403],[121.29386,23.715674],[121.293762,23.715673],[121.293855,23.716035],[121.294247,23.716039],[121.294346,23.71595],[121.294251,23.715768],[121.29484,23.715685],[121.294936,23.715866],[121.29523,23.715869],[121.295224,23.716321],[121.295321,23.716412],[121.295618,23.716235],[121.295615,23.716416],[121.29581,23.716508],[121.29591,23.716419],[121.295816,23.716057],[121.296112,23.715969],[121.296116,23.715608],[121.295921,23.715516],[121.295624,23.715784],[121.295428,23.715781],[121.29543,23.715601],[121.295236,23.715418],[121.29504,23.715416],[121.295043,23.715145],[121.294754,23.714781],[121.294952,23.714602],[121.295346,23.714516],[121.295644,23.714249],[121.295646,23.714068],[121.295842,23.71407],[121.296338,23.713624],[121.296241,23.713533],[121.296341,23.713444],[121.296349,23.712812],[121.296251,23.712811],[121.296353,23.71245],[121.296257,23.712359],[121.29596,23.712536],[121.295957,23.712807],[121.295858,23.712806],[121.295757,23.713076],[121.295167,23.71316],[121.295067,23.713339],[121.294676,23.713245],[121.294475,23.713604],[121.294279,23.713602],[121.293883,23.713868],[121.293589,23.713865],[121.293291,23.714132],[121.293194,23.714041],[121.292899,23.714128],[121.292707,23.713855],[121.292314,23.713851],[121.292116,23.714029],[121.292113,23.71421],[121.292405,23.714394],[121.292203,23.714843],[121.292008,23.71475],[121.292014,23.714299],[121.291917,23.714208],[121.291623,23.714204],[121.291622,23.714295],[121.291329,23.714201],[121.29133,23.714111],[121.291626,23.714024],[121.291336,23.713659],[121.29104,23.713837],[121.291032,23.714378],[121.289949,23.714728],[121.290142,23.715001],[121.289356,23.715082],[121.289555,23.714904],[121.289361,23.714721],[121.289063,23.714989],[121.288867,23.714987],[121.288771,23.714805],[121.288672,23.714894],[121.287986,23.714886],[121.287889,23.714795],[121.287492,23.715152],[121.287395,23.715061],[121.287296,23.71515],[121.2871,23.715148],[121.287101,23.715057],[121.286707,23.715143],[121.286809,23.714873],[121.286615,23.714691],[121.286419,23.714689],[121.286319,23.714868],[121.286514,23.71496],[121.286511,23.715141],[121.286314,23.715229],[121.286312,23.71541],[121.286115,23.715408],[121.285917,23.715586],[121.285525,23.715582],[121.285226,23.715939],[121.284734,23.716024],[121.284633,23.716294],[121.284437,23.716292],[121.284136,23.71674],[121.283846,23.716466],[121.283547,23.716824],[121.283252,23.716911],[121.283347,23.717093],[121.283641,23.717096],[121.283742,23.716916],[121.283938,23.716918],[121.283936,23.717099],[121.28374,23.717097],[121.283243,23.717543],[121.283135,23.718354],[121.28333,23.718447],[121.283325,23.718808],[121.283128,23.718896],[121.283025,23.719256],[121.282829,23.719254],[121.28283,23.719164],[121.282534,23.719251],[121.28263,23.719432],[121.282924,23.719436],[121.282526,23.719883],[121.28164,23.720144],[121.281731,23.720687],[121.282022,23.720961],[121.282316,23.720964],[121.282416,23.720784],[121.282808,23.720789],[121.282909,23.720609],[121.283105,23.720611],[121.283605,23.719895],[121.283898,23.719988],[121.283897,23.720078],[121.28488,23.719909],[121.284878,23.719999],[121.284682,23.719997],[121.284681,23.720087],[121.283991,23.72035],[121.284086,23.720622],[121.284575,23.720718],[121.28527,23.720094],[121.285266,23.720365],[121.285067,23.720543],[121.285163,23.720725],[121.284967,23.720722],[121.284669,23.72099],[121.284665,23.721351],[121.284467,23.721439],[121.284362,23.72198],[121.284066,23.722157],[121.284061,23.722518],[121.284158,23.72261],[121.28504,23.72262],[121.285233,23.722893],[121.285527,23.722896],[121.285623,23.723077],[121.286211,23.723084],[121.286405,23.723267],[121.286699,23.72327],[121.286998,23.722912],[121.287002,23.722641],[121.287198,23.722643],[121.287098,23.722733],[121.287194,23.722914],[121.287392,23.722826],[121.287296,23.722645],[121.287493,23.722556],[121.287695,23.722107],[121.288481,23.722026],[121.28848,23.722116],[121.288773,23.722209],[121.288872,23.72212],[121.288777,23.721848],[121.289267,23.721944],[121.289164,23.722304],[121.289457,23.722398],[121.289456,23.722488],[121.289158,23.722755],[121.288962,23.722753],[121.288763,23.722932],[121.288761,23.723112],[121.288465,23.723199],[121.288266,23.723468],[121.287972,23.723465],[121.28777,23.723914],[121.287868,23.723915],[121.288054,23.724639],[121.288547,23.724464],[121.288647,23.724285],[121.288844,23.724287],[121.288738,23.724828],[121.288835,23.724919],[121.289131,23.724832],[121.289317,23.725556],[121.289612,23.72556],[121.28981,23.725381],[121.290017,23.724571],[121.290213,23.724573],[121.290908,23.723949],[121.290904,23.72422],[121.290806,23.724218],[121.290898,23.724671],[121.290702,23.724669],[121.290703,23.724578],[121.290506,23.724667],[121.290502,23.724937],[121.290697,23.72503],[121.290595,23.72539],[121.2904,23.725298],[121.290201,23.725476],[121.290394,23.725749],[121.29059,23.725751],[121.290589,23.725841],[121.290884,23.725754],[121.290883,23.725845],[121.291177,23.725848],[121.291176,23.725938],[121.291373,23.72585],[121.29147,23.725941],[121.291573,23.725581],[121.291866,23.725675],[121.291965,23.725586],[121.291871,23.725314],[121.292068,23.725226],[121.292077,23.724503],[121.292274,23.724506],[121.292271,23.724686],[121.292466,23.724779],[121.292561,23.725051],[121.292952,23.725145],[121.292851,23.725325],[121.292558,23.725231],[121.292359,23.7255],[121.292164,23.725407],[121.292064,23.725497],[121.292159,23.725768],[121.291862,23.725946],[121.291859,23.726217],[121.291663,23.726214],[121.291562,23.726394],[121.292935,23.726409],[121.292937,23.726319],[121.293525,23.726325],[121.293527,23.726145],[121.29392,23.726149],[121.293922,23.725969],[121.29451,23.725975],[121.29462,23.725073],[121.294426,23.724891],[121.294624,23.724802],[121.294626,23.724622],[121.294918,23.724806],[121.294906,23.725708],[121.2951,23.725891],[121.295789,23.725718],[121.295881,23.726171],[121.296075,23.726353],[121.296565,23.726359],[121.296566,23.726269],[121.296862,23.726182],[121.296676,23.725367],[121.296872,23.725369],[121.297172,23.724921],[121.297367,23.725013],[121.297468,23.724834],[121.297664,23.724836],[121.297862,23.724657],[121.297872,23.723935],[121.298356,23.724392],[121.298448,23.724845],[121.298545,23.724936],[121.298742,23.724848],[121.298746,23.724577],[121.298551,23.724484],[121.298557,23.724033],[121.297875,23.723664],[121.29788,23.723303],[121.297978,23.723304],[121.297882,23.723123],[121.29798,23.723124],[121.298083,23.722764],[121.298576,23.722588],[121.298579,23.722318],[121.298288,23.722043],[121.297993,23.722131],[121.297897,23.721949],[121.298291,23.721863],[121.298489,23.721684],[121.298597,23.720963],[121.298893,23.720786],[121.298996,23.720426],[121.299192,23.720428],[121.29949,23.72016],[121.299593,23.7198],[121.299398,23.719708],[121.2991,23.719976],[121.298709,23.719881],[121.29861,23.71997],[121.298605,23.720331],[121.298703,23.720332],[121.298599,23.720783],[121.298402,23.720871],[121.298404,23.72069],[121.298209,23.720598],[121.298008,23.720957],[121.297715,23.720863],[121.297614,23.721133],[121.297516,23.721132],[121.297413,23.721492],[121.297799,23.721948],[121.297698,23.722218],[121.2976,23.722217],[121.297596,23.722487],[121.297498,23.722486],[121.297595,23.722578],[121.29759,23.722939],[121.297492,23.722938],[121.297586,23.7233],[121.297092,23.723565],[121.297187,23.723747],[121.297384,23.723749],[121.297378,23.724201],[121.297475,23.724292],[121.297375,23.724381],[121.297082,23.724288],[121.296982,23.724467],[121.296786,23.724465],[121.296984,23.724287],[121.296987,23.724106],[121.296889,23.724105],[121.296991,23.723745],[121.296699,23.723561],[121.296702,23.723381],[121.2968,23.723382],[121.296704,23.7232],[121.296507,23.723288],[121.296604,23.723379],[121.296601,23.72356],[121.296503,23.723559],[121.2966,23.72365],[121.296594,23.724102],[121.295807,23.724274],[121.29581,23.724093],[121.295517,23.724],[121.295416,23.724179],[121.29522,23.724177],[121.295125,23.723995],[121.294928,23.723993],[121.294934,23.723542],[121.295032,23.723543],[121.29494,23.72309],[121.295236,23.723003],[121.295145,23.72246],[121.295343,23.722282],[121.295736,23.722196],[121.296034,23.721928],[121.296036,23.721748],[121.296233,23.72175],[121.296432,23.721481],[121.296627,23.721574],[121.296618,23.722296],[121.296519,23.722385],[121.296714,23.722478],[121.296912,23.722299],[121.296914,23.722119],[121.297112,23.722031],[121.297115,23.72176],[121.297312,23.721672],[121.297421,23.72086],[121.297323,23.720859],[121.29733,23.720317],[121.297135,23.720225],[121.297245,23.719323],[121.297147,23.719322],[121.29715,23.719051],[121.296955,23.718959],[121.297056,23.718779],[121.296861,23.718687],[121.296762,23.718776],[121.296856,23.719048],[121.296364,23.719223],[121.296459,23.719405],[121.296752,23.719498],[121.296749,23.719769],[121.296455,23.719766],[121.296058,23.720123],[121.296251,23.720305],[121.296549,23.720038],[121.296547,23.720218],[121.296349,23.720306],[121.296446,23.720398],[121.296347,23.720487],[121.296439,23.72094],[121.295948,23.721024],[121.295845,23.721384],[121.295547,23.721652],[121.294465,23.721911],[121.294853,23.722277],[121.294849,23.722547],[121.294554,23.722634],[121.29456,23.722183],[121.294366,23.722],[121.29417,23.721998],[121.293872,23.722266],[121.293775,23.722174],[121.293783,23.721542],[121.29349,23.721449],[121.2932,23.721175],[121.293202,23.720994],[121.293007,23.720902],[121.29292,23.720088],[121.292822,23.720087],[121.292537,23.719361],[121.292245,23.719178],[121.292543,23.71891],[121.292545,23.718729],[121.292448,23.718638],[121.291958,23.718633],[121.291667,23.718359],[121.291671,23.718088],[121.291967,23.71791],[121.292069,23.717641],[121.292361,23.717824],[121.292357,23.718095],[121.292552,23.718188],[121.293048,23.717742],[121.293051,23.717561],[121.293446,23.717295],[121.29345,23.717024],[121.293745,23.716937]],[[121.294426,23.724891],[121.294329,23.724799],[121.294428,23.7248],[121.294426,23.724891]],[[121.29494,23.72309],[121.294843,23.722999],[121.294941,23.723],[121.29494,23.72309]],[[121.291671,23.718088],[121.291574,23.717996],[121.291672,23.717997],[121.291671,23.718088]],[[121.292169,23.717461],[121.292267,23.717462],[121.292265,23.717643],[121.292167,23.717642],[121.292169,23.717461]],[[121.29345,23.717024],[121.293353,23.716932],[121.293451,23.716933],[121.29345,23.717024]],[[121.295203,23.725531],[121.295302,23.725442],[121.295301,23.725532],[121.295203,23.725531]],[[121.293537,23.725422],[121.293439,23.725421],[121.293343,23.72524],[121.293539,23.725242],[121.293537,23.725422]],[[121.296581,23.725095],[121.29648,23.725365],[121.296284,23.725362],[121.296385,23.725093],[121.296581,23.725095]],[[121.293245,23.725239],[121.293049,23.725236],[121.293051,23.725056],[121.293149,23.725057],[121.293245,23.725239]],[[121.294129,23.725158],[121.294228,23.725069],[121.294227,23.725159],[121.294129,23.725158]],[[121.293444,23.72497],[121.293544,23.724881],[121.293543,23.724971],[121.293444,23.72497]],[[121.293642,23.724882],[121.294038,23.724615],[121.294035,23.724796],[121.293642,23.724882]],[[121.295408,23.724811],[121.295505,23.724902],[121.295407,23.724901],[121.295408,23.724811]],[[121.29531,23.72481],[121.295311,23.72472],[121.295115,23.724718],[121.295117,23.724537],[121.295509,23.724632],[121.29531,23.72481]],[[121.292763,23.724601],[121.293057,23.724604],[121.293055,23.724785],[121.292858,23.724783],[121.292763,23.724601]],[[121.293057,23.724604],[121.293156,23.724515],[121.293155,23.724606],[121.293057,23.724604]],[[121.293449,23.724609],[121.29335,23.724698],[121.293351,23.724608],[121.293449,23.724609]],[[121.293449,23.724609],[121.293352,23.724517],[121.293355,23.724337],[121.293452,23.724428],[121.293845,23.724342],[121.293843,23.724523],[121.293646,23.724521],[121.293645,23.724611],[121.293449,23.724609]],[[121.291404,23.723503],[121.291306,23.723502],[121.291407,23.723232],[121.291604,23.723234],[121.291693,23.723867],[121.291595,23.723866],[121.291589,23.724317],[121.29149,23.724407],[121.291392,23.724406],[121.291396,23.724135],[121.291494,23.724136],[121.291404,23.723503]],[[121.294139,23.724346],[121.294236,23.724437],[121.294138,23.724436],[121.294139,23.724346]],[[121.294139,23.724346],[121.294042,23.724254],[121.29414,23.724255],[121.294139,23.724346]],[[121.292767,23.72424],[121.292477,23.723966],[121.292383,23.723604],[121.292774,23.723698],[121.29277,23.72406],[121.292964,23.724242],[121.292767,23.72424]],[[121.293651,23.72416],[121.293748,23.724251],[121.29365,23.72425],[121.293651,23.72416]],[[121.293651,23.72416],[121.293554,23.724068],[121.293457,23.723977],[121.293654,23.723979],[121.293651,23.72416]],[[121.288944,23.724108],[121.289043,23.724018],[121.289042,23.724109],[121.288944,23.724108]],[[121.293947,23.724073],[121.294143,23.724075],[121.294142,23.724165],[121.293945,23.724163],[121.293947,23.724073]],[[121.294247,23.723624],[121.294442,23.723717],[121.294438,23.723988],[121.294149,23.723623],[121.293854,23.72362],[121.293856,23.72353],[121.294249,23.723444],[121.294247,23.723624]],[[121.293854,23.72362],[121.293755,23.723709],[121.293756,23.723619],[121.293854,23.72362]],[[121.291991,23.723599],[121.292089,23.723601],[121.292087,23.723781],[121.291989,23.72378],[121.291991,23.723599]],[[121.293462,23.723616],[121.293658,23.723618],[121.293657,23.723708],[121.293461,23.723706],[121.293462,23.723616]],[[121.291894,23.723508],[121.291993,23.723419],[121.291992,23.723509],[121.291894,23.723508]],[[121.292287,23.723512],[121.291801,23.723146],[121.291803,23.722965],[121.292001,23.722877],[121.291904,23.722786],[121.292003,23.722697],[121.291911,23.722244],[121.292009,23.722245],[121.292011,23.722065],[121.292207,23.722067],[121.292304,23.722158],[121.292299,23.722519],[121.292201,23.722518],[121.292287,23.723512]],[[121.289643,23.723122],[121.289742,23.723123],[121.289739,23.723304],[121.289641,23.723303],[121.289643,23.723122]],[[121.28994,23.722945],[121.290039,23.722855],[121.290038,23.722946],[121.28994,23.722945]],[[121.294353,23.722993],[121.294452,23.722904],[121.294451,23.722994],[121.294353,23.722993]],[[121.290735,23.722141],[121.290541,23.721958],[121.29074,23.72178],[121.291032,23.721963],[121.29123,23.721785],[121.291236,23.721334],[121.291041,23.721241],[121.291045,23.72097],[121.290947,23.720969],[121.291048,23.720699],[121.29056,23.720513],[121.290669,23.719702],[121.290767,23.719703],[121.290769,23.719522],[121.290866,23.719614],[121.291063,23.719526],[121.291067,23.719255],[121.291165,23.719256],[121.291071,23.718984],[121.291269,23.718806],[121.291366,23.718897],[121.291857,23.718812],[121.291854,23.719083],[121.292243,23.719358],[121.292238,23.719719],[121.292433,23.719812],[121.292332,23.719991],[121.292624,23.720175],[121.29262,23.720536],[121.292226,23.720622],[121.292133,23.72026],[121.291938,23.720167],[121.291739,23.720346],[121.29173,23.721068],[121.291533,23.721156],[121.291726,23.721339],[121.291723,23.72161],[121.291427,23.721697],[121.291523,23.721879],[121.291719,23.721881],[121.291716,23.722152],[121.291325,23.722057],[121.291123,23.722506],[121.290927,23.722504],[121.290733,23.722321],[121.290735,23.722141]],[[121.293969,23.722357],[121.294067,23.722358],[121.294065,23.722539],[121.293967,23.722538],[121.293969,23.722357]],[[121.293284,23.722259],[121.293382,23.72226],[121.293379,23.722441],[121.293281,23.72244],[121.293284,23.722259]],[[121.287106,23.722191],[121.287205,23.722102],[121.287204,23.722192],[121.287106,23.722191]],[[121.292993,23.721985],[121.293092,23.721896],[121.293091,23.721986],[121.292993,23.721985]],[[121.285345,23.72181],[121.285644,23.721452],[121.285642,23.721633],[121.285544,23.721632],[121.285541,23.721812],[121.285345,23.72181]],[[121.289964,23.721139],[121.290063,23.72105],[121.290062,23.72114],[121.289964,23.721139]],[[121.28654,23.720469],[121.286639,23.72038],[121.286638,23.72047],[121.28654,23.720469]],[[121.289975,23.720236],[121.290075,23.720147],[121.290073,23.720237],[121.289975,23.720236]],[[121.290274,23.719878],[121.290076,23.720057],[121.290079,23.719786],[121.290274,23.719878]],[[121.290182,23.719426],[121.290381,23.719247],[121.290275,23.719788],[121.290177,23.719787],[121.290182,23.719426]],[[121.290381,23.719247],[121.29048,23.719158],[121.290479,23.719248],[121.290381,23.719247]],[[121.298999,23.720155],[121.299099,23.720066],[121.299098,23.720156],[121.298999,23.720155]],[[121.285372,23.719734],[121.285272,23.719913],[121.285076,23.719911],[121.285176,23.719731],[121.285372,23.719734]],[[121.28371,23.719354],[121.28361,23.719534],[121.283413,23.719531],[121.283514,23.719352],[121.28371,23.719354]],[[121.285083,23.719369],[121.285279,23.719371],[121.285277,23.719552],[121.28508,23.71955],[121.285083,23.719369]],[[121.283615,23.719082],[121.284009,23.718996],[121.284008,23.719086],[121.283515,23.719262],[121.283519,23.718991],[121.283615,23.719082]],[[121.284203,23.719179],[121.284399,23.719181],[121.284398,23.719271],[121.284201,23.719269],[121.284203,23.719179]],[[121.285672,23.719285],[121.285383,23.718921],[121.285581,23.718743],[121.285778,23.718745],[121.286067,23.719109],[121.285869,23.719288],[121.285672,23.719285]],[[121.284401,23.719],[121.284112,23.718636],[121.284407,23.718549],[121.284311,23.718367],[121.28451,23.718189],[121.284803,23.718283],[121.285101,23.718015],[121.28481,23.717741],[121.285006,23.717743],[121.285106,23.717564],[121.285499,23.717568],[121.285692,23.717751],[121.285295,23.718107],[121.285391,23.718289],[121.285193,23.718467],[121.284802,23.718373],[121.284504,23.71864],[121.284597,23.719003],[121.284401,23.719]],[[121.290678,23.71898],[121.290972,23.718983],[121.290971,23.719073],[121.290677,23.71907],[121.290678,23.71898]],[[121.290384,23.718976],[121.289992,23.718972],[121.289994,23.718792],[121.290288,23.718795],[121.290384,23.718976]],[[121.286171,23.718659],[121.285879,23.718475],[121.286078,23.718297],[121.285981,23.718205],[121.286081,23.718026],[121.286179,23.718027],[121.286176,23.718298],[121.286371,23.71839],[121.286171,23.718659]],[[121.286182,23.717846],[121.28628,23.717847],[121.286277,23.718028],[121.286179,23.718027],[121.286182,23.717846]],[[121.286372,23.7183],[121.286764,23.718304],[121.286763,23.718395],[121.286371,23.71839],[121.286372,23.7183]],[[121.290388,23.718706],[121.290487,23.718616],[121.290486,23.718707],[121.290388,23.718706]],[[121.29127,23.718715],[121.291369,23.718626],[121.291368,23.718716],[121.29127,23.718715]],[[121.290782,23.718529],[121.290881,23.71844],[121.29088,23.71853],[121.290782,23.718529]],[[121.283925,23.717912],[121.284021,23.718093],[121.283823,23.718181],[121.283729,23.717909],[121.283925,23.717912]],[[121.290201,23.717981],[121.290298,23.718073],[121.290295,23.718253],[121.290002,23.71816],[121.290005,23.717979],[121.290201,23.717981]],[[121.286477,23.717759],[121.286773,23.717582],[121.286966,23.717855],[121.28667,23.718032],[121.286477,23.717759]],[[121.287162,23.717857],[121.287261,23.717768],[121.28726,23.717858],[121.287162,23.717857]],[[121.286189,23.717305],[121.286288,23.717215],[121.286287,23.717306],[121.286189,23.717305]],[[121.292466,23.717284],[121.292565,23.717195],[121.292564,23.717285],[121.292466,23.717284]],[[121.292662,23.717286],[121.292761,23.717197],[121.29276,23.717287],[121.292662,23.717286]],[[121.286299,23.716403],[121.285904,23.716579],[121.286,23.716761],[121.285801,23.716939],[121.285116,23.716841],[121.285119,23.71657],[121.285316,23.716573],[121.285317,23.716482],[121.28561,23.716576],[121.285909,23.716218],[121.286204,23.716131],[121.286107,23.71604],[121.28621,23.715679],[121.286703,23.715504],[121.286799,23.715596],[121.286601,23.715774],[121.286692,23.716317],[121.286496,23.716315],[121.286395,23.716494],[121.286299,23.716403]],[[121.286799,23.715596],[121.286899,23.715507],[121.286897,23.715597],[121.286799,23.715596]],[[121.286395,23.716494],[121.286492,23.716586],[121.286394,23.716585],[121.286395,23.716494]],[[121.286392,23.716765],[121.286195,23.716853],[121.286099,23.716672],[121.286394,23.716585],[121.286392,23.716765]],[[121.289135,23.716976],[121.289234,23.716887],[121.289233,23.716977],[121.289135,23.716976]],[[121.289529,23.71689],[121.289826,23.716623],[121.289824,23.716803],[121.289529,23.71689]],[[121.290221,23.716446],[121.290122,23.716535],[121.290123,23.716445],[121.290221,23.716446]],[[121.290221,23.716446],[121.29032,23.716357],[121.290319,23.716447],[121.290221,23.716446]],[[121.29032,23.716357],[121.290224,23.716175],[121.289929,23.716262],[121.28993,23.716172],[121.29003,23.716083],[121.290715,23.716181],[121.290516,23.716359],[121.29032,23.716357]],[[121.290716,23.716091],[121.290912,23.716093],[121.290911,23.716183],[121.290715,23.716181],[121.290716,23.716091]],[[121.285319,23.716302],[121.285418,23.716213],[121.285417,23.716303],[121.285319,23.716302]],[[121.289642,23.715717],[121.289444,23.715896],[121.289348,23.715714],[121.289642,23.715717]],[[121.290523,23.715818],[121.290623,23.715728],[121.290621,23.715819],[121.290523,23.715818]],[[121.288465,23.715704],[121.288861,23.715438],[121.288963,23.715168],[121.289159,23.71517],[121.289057,23.71544],[121.288759,23.715708],[121.288465,23.715704]],[[121.290723,23.715549],[121.290234,23.715453],[121.290235,23.715363],[121.29053,23.715276],[121.290532,23.715186],[121.291022,23.715191],[121.291115,23.715553],[121.291016,23.715642],[121.290822,23.71546],[121.290723,23.715549]],[[121.288469,23.715434],[121.288275,23.715251],[121.288471,23.715253],[121.288469,23.715434]],[[121.288079,23.715249],[121.28808,23.715158],[121.288276,23.715161],[121.288275,23.715251],[121.288079,23.715249]]],[[[121.301228,23.714671],[121.301724,23.714225],[121.30173,23.713774],[121.301829,23.713685],[121.302124,23.713688],[121.302316,23.713961],[121.302512,23.713963],[121.302514,23.713873],[121.302905,23.713967],[121.303007,23.713607],[121.302909,23.713606],[121.302815,23.713334],[121.302421,23.71342],[121.30242,23.71351],[121.302225,23.713418],[121.302228,23.713237],[121.302129,23.713236],[121.302231,23.712967],[121.301939,23.712783],[121.30204,23.712603],[121.301749,23.712329],[121.301456,23.712236],[121.301458,23.712055],[121.301556,23.712056],[121.301459,23.711965],[121.301466,23.711423],[121.301175,23.711239],[121.301178,23.710968],[121.300983,23.710876],[121.300986,23.710695],[121.300597,23.71042],[121.300505,23.709968],[121.300214,23.709694],[121.299432,23.709504],[121.299141,23.70923],[121.299041,23.70941],[121.299623,23.709868],[121.299619,23.710229],[121.299322,23.710406],[121.29932,23.710587],[121.299613,23.71068],[121.299714,23.710411],[121.300008,23.710414],[121.300201,23.710687],[121.300495,23.71069],[121.300689,23.710873],[121.300782,23.711235],[121.300979,23.711237],[121.301172,23.71142],[121.301068,23.71187],[121.301359,23.712144],[121.300963,23.712411],[121.300957,23.712862],[121.300859,23.712861],[121.300758,23.713131],[121.300856,23.713132],[121.300851,23.713493],[121.300949,23.713494],[121.300947,23.713675],[121.301236,23.714039],[121.301034,23.714489],[121.301228,23.714671]]],[[[121.3059,23.717431],[121.306093,23.717705],[121.306289,23.717707],[121.306287,23.717887],[121.305992,23.717884],[121.305994,23.717794],[121.305796,23.717882],[121.305891,23.718154],[121.305989,23.718155],[121.305985,23.718426],[121.306278,23.718519],[121.306379,23.71834],[121.306575,23.718342],[121.306773,23.718163],[121.306776,23.717983],[121.306484,23.717799],[121.306583,23.71771],[121.306491,23.717257],[121.306784,23.717351],[121.306884,23.717171],[121.30669,23.716989],[121.306298,23.716984],[121.306299,23.716894],[121.3062,23.716983],[121.30571,23.716978],[121.305711,23.716888],[121.305319,23.716883],[121.30532,23.716793],[121.304926,23.716879],[121.304743,23.715884],[121.304453,23.71561],[121.304255,23.715698],[121.304357,23.715428],[121.303969,23.715063],[121.303972,23.714882],[121.303681,23.714608],[121.303484,23.714696],[121.303388,23.714514],[121.302997,23.71442],[121.302706,23.714146],[121.302606,23.714325],[121.302898,23.714509],[121.302894,23.71478],[121.303285,23.714874],[121.303381,23.715056],[121.303675,23.715059],[121.303869,23.715242],[121.303863,23.715693],[121.304444,23.716242],[121.304533,23.716965],[121.304727,23.717148],[121.304826,23.717059],[121.305217,23.717153],[121.305312,23.717425],[121.3059,23.717431]],[[121.305217,23.717153],[121.305316,23.717064],[121.305315,23.717154],[121.305217,23.717153]]],[[[121.300396,23.718364],[121.300594,23.718186],[121.300604,23.717464],[121.3011,23.717018],[121.301102,23.716837],[121.300908,23.716654],[121.300711,23.716742],[121.300607,23.717193],[121.300111,23.717639],[121.300109,23.717819],[121.300207,23.717821],[121.300098,23.718632],[121.300195,23.718723],[121.300392,23.718635],[121.300396,23.718364]]],[[[121.300574,23.719721],[121.300476,23.71972],[121.300286,23.719266],[121.299889,23.719623],[121.299985,23.719805],[121.300279,23.719808],[121.300174,23.720349],[121.300466,23.720532],[121.300461,23.720893],[121.300656,23.720986],[121.300956,23.720538],[121.300665,23.720264],[121.300574,23.719721]],[[121.300761,23.720445],[121.300662,23.720535],[121.300663,23.720444],[121.300761,23.720445]]],[[[121.302314,23.721727],[121.30222,23.721364],[121.302025,23.721272],[121.302032,23.72073],[121.302131,23.720731],[121.302236,23.720191],[121.302433,23.720102],[121.302436,23.719832],[121.302146,23.719558],[121.301749,23.719914],[121.301745,23.720185],[121.301647,23.720184],[121.301644,23.720455],[121.301546,23.720454],[121.301536,23.721176],[121.302116,23.721815],[121.302314,23.721727]]],[[[121.303787,23.721562],[121.303592,23.72147],[121.303492,23.721649],[121.303687,23.721742],[121.303787,23.721562]]],[[[121.300528,23.723332],[121.300433,23.72306],[121.300238,23.722968],[121.300242,23.722697],[121.300143,23.722696],[121.300244,23.722516],[121.299951,23.722423],[121.299954,23.722152],[121.300052,23.722153],[121.300155,23.721793],[121.300352,23.721705],[121.300455,23.721345],[121.300261,23.721162],[121.300362,23.720983],[121.300265,23.720891],[121.29997,23.720978],[121.299973,23.720708],[121.299778,23.720615],[121.299677,23.720885],[121.299379,23.721152],[121.299374,23.721514],[121.299276,23.721513],[121.299172,23.721963],[121.299464,23.722147],[121.299554,23.72278],[121.299944,23.722965],[121.299939,23.723326],[121.300428,23.723422],[121.300528,23.723332]],[[121.299947,23.722694],[121.300047,23.722605],[121.300045,23.722695],[121.299947,23.722694]],[[121.300065,23.72116],[121.300165,23.721071],[121.300163,23.721161],[121.300065,23.72116]]],[[[121.301795,23.723888],[121.301708,23.723074],[121.301513,23.722982],[121.301621,23.72217],[121.301427,23.722078],[121.301325,23.722348],[121.301227,23.722347],[121.301223,23.722618],[121.301124,23.722707],[121.300929,23.722614],[121.300631,23.722882],[121.300726,23.723154],[121.300921,23.723246],[121.300723,23.723425],[121.300819,23.723516],[121.300717,23.723876],[121.300814,23.723968],[121.301109,23.72388],[121.301205,23.724062],[121.301795,23.723888]],[[121.301017,23.723428],[121.301116,23.723339],[121.301115,23.723429],[121.301017,23.723428]]],[[[121.307203,23.722864],[121.306522,23.722405],[121.306129,23.722491],[121.306221,23.722943],[121.306415,23.723126],[121.306808,23.72304],[121.306609,23.723309],[121.306996,23.723674],[121.307291,23.723677],[121.307386,23.723859],[121.307682,23.723772],[121.307782,23.723592],[121.307587,23.7235],[121.307493,23.723228],[121.307197,23.723315],[121.307203,23.722864]],[[121.307197,23.723315],[121.307098,23.723404],[121.307099,23.723314],[121.307197,23.723315]]],[[[121.30596,23.727997],[121.305865,23.727725],[121.305475,23.72754],[121.305479,23.727269],[121.305091,23.726904],[121.304797,23.726901],[121.304506,23.726627],[121.304608,23.726357],[121.304706,23.726358],[121.304708,23.726177],[121.30461,23.726176],[121.304716,23.725545],[121.305107,23.72564],[121.305405,23.725372],[121.305601,23.725375],[121.305793,23.725738],[121.305989,23.72574],[121.30599,23.72565],[121.306479,23.725745],[121.306975,23.725299],[121.306979,23.725028],[121.306099,23.724838],[121.306097,23.724928],[121.305606,23.725013],[121.305308,23.725281],[121.304916,23.725277],[121.304917,23.725186],[121.304623,23.725183],[121.304527,23.725002],[121.304331,23.724999],[121.304235,23.724818],[121.303941,23.724815],[121.30365,23.72454],[121.303556,23.724269],[121.303262,23.724265],[121.303266,23.723904],[121.303562,23.723817],[121.303761,23.723548],[121.303956,23.723641],[121.304058,23.723371],[121.304254,23.723373],[121.30435,23.723555],[121.304644,23.723558],[121.304643,23.723648],[121.304742,23.723559],[121.30533,23.723566],[121.305815,23.724022],[121.305914,23.723933],[121.30582,23.723661],[121.306016,23.723663],[121.306017,23.723573],[121.30631,23.723667],[121.30641,23.723487],[121.305634,23.722847],[121.305733,23.722757],[121.305636,23.722666],[121.305642,23.722215],[121.305349,23.722121],[121.304963,23.721665],[121.304668,23.721662],[121.304475,23.721479],[121.303984,23.721474],[121.303785,23.721743],[121.304075,23.722017],[121.303877,23.722195],[121.303682,23.722103],[121.303582,23.722282],[121.302603,23.722091],[121.302313,23.721817],[121.302212,23.721996],[121.302503,23.72227],[121.302499,23.722541],[121.302596,23.722633],[121.302794,23.722544],[121.302984,23.722998],[121.302788,23.722996],[121.302497,23.722722],[121.302295,23.723171],[121.302001,23.723168],[121.301802,23.723346],[121.3018,23.723527],[121.301898,23.723528],[121.301895,23.723799],[121.301993,23.7238],[121.301892,23.723979],[121.301989,23.724071],[121.30248,23.724076],[121.302475,23.724437],[121.302573,23.724438],[121.302667,23.72471],[121.302471,23.724708],[121.302171,23.725156],[121.301877,23.725153],[121.301676,23.725512],[121.301382,23.725509],[121.301581,23.72533],[121.301485,23.725149],[121.301189,23.725236],[121.301286,23.725327],[121.301177,23.726229],[121.301468,23.726413],[121.301568,23.726324],[121.301574,23.725872],[121.301673,23.725783],[121.301966,23.725876],[121.302065,23.725787],[121.301969,23.725606],[121.302069,23.725516],[121.302263,23.725609],[121.302462,23.72543],[121.302464,23.72525],[121.30286,23.724983],[121.302865,23.724622],[121.303257,23.724626],[121.30345,23.724899],[121.303646,23.724902],[121.303643,23.725082],[121.303837,23.725265],[121.304228,23.72536],[121.304225,23.72563],[121.304514,23.725995],[121.30441,23.726445],[121.304212,23.726624],[121.304504,23.726807],[121.3045,23.727078],[121.304987,23.727354],[121.304985,23.727535],[121.30518,23.727627],[121.305177,23.727808],[121.305468,23.728082],[121.30586,23.728086],[121.30596,23.727997]],[[121.306483,23.725475],[121.306582,23.725385],[121.306581,23.725476],[121.306483,23.725475]],[[121.302677,23.723988],[121.302775,23.723989],[121.302773,23.72417],[121.302674,23.724169],[121.302677,23.723988]],[[121.305044,23.72293],[121.305339,23.722934],[121.305434,23.723115],[121.305139,23.723202],[121.30514,23.723112],[121.304944,23.72311],[121.305044,23.72293]],[[121.304061,23.7231],[121.303771,23.722826],[121.303969,23.722648],[121.304359,23.722833],[121.304061,23.7231]],[[121.304554,23.722925],[121.304553,23.723015],[121.304357,23.723013],[121.304358,23.722923],[121.304554,23.722925]],[[121.302795,23.722454],[121.302894,23.722365],[121.302893,23.722455],[121.302795,23.722454]]],[[[121.303411,23.727879],[121.303217,23.727696],[121.303118,23.727785],[121.302629,23.72769],[121.302631,23.727509],[121.303022,23.727604],[121.303125,23.727244],[121.302834,23.72697],[121.302541,23.726876],[121.302448,23.726514],[121.302154,23.726511],[121.301953,23.72687],[121.302246,23.726963],[121.302245,23.727053],[121.302539,23.727057],[121.302534,23.727418],[121.301951,23.72705],[121.301851,23.727139],[121.301942,23.727682],[121.301744,23.727861],[121.302232,23.728047],[121.302231,23.728137],[121.30331,23.728149],[121.303409,23.728059],[121.303411,23.727879]]]]}},{"type":"Feature","properties":{"kind":"bare_dam","month":"2024-02","area_ha":24.31},"geometry":{"type":"MultiPolygon","coordinates":[[[[121.302916,23.690309],[121.30282,23.690218],[121.302231,23.690211],[121.302232,23.690121],[121.302035,23.690209],[121.301843,23.689936],[121.301647,23.689934],[121.301546,23.690113],[121.301449,23.690022],[121.301056,23.690108],[121.301249,23.690381],[121.301837,23.690387],[121.301836,23.690478],[121.302816,23.690488],[121.302916,23.690309]]],[[[121.301722,23.69165],[121.301921,23.691472],[121.301825,23.69129],[121.302022,23.691202],[121.301927,23.691021],[121.301534,23.691016],[121.301439,23.690835],[121.301142,23.691012],[121.300852,23.690738],[121.300854,23.690557],[121.300756,23.690556],[121.300758,23.690376],[121.300956,23.690287],[121.300863,23.689835],[121.299978,23.690096],[121.299982,23.689735],[121.298708,23.689721],[121.298607,23.6899],[121.298117,23.689895],[121.297522,23.69043],[121.297613,23.690973],[121.297807,23.691156],[121.298003,23.691158],[121.298202,23.690889],[121.298889,23.690897],[121.298786,23.691257],[121.299076,23.691531],[121.299665,23.691537],[121.299863,23.691359],[121.299769,23.691087],[121.299966,23.690999],[121.299973,23.690457],[121.29968,23.690364],[121.299681,23.690273],[121.300073,23.690278],[121.30017,23.690369],[121.300071,23.690458],[121.300065,23.69091],[121.300162,23.691001],[121.299965,23.691089],[121.299962,23.69127],[121.300156,23.691453],[121.300255,23.691363],[121.300451,23.691366],[121.30045,23.691456],[121.300942,23.691371],[121.30094,23.691461],[121.301431,23.691467],[121.301526,23.691648],[121.301722,23.69165]],[[121.299676,23.690635],[121.29958,23.690543],[121.299678,23.690544],[121.299676,23.690635]],[[121.298897,23.690265],[121.298898,23.690175],[121.299094,23.690177],[121.299093,23.690267],[121.298897,23.690265]]],[[[121.304744,23.693038],[121.305135,23.693133],[121.305531,23.692866],[121.305533,23.692685],[121.304948,23.692408],[121.305049,23.692229],[121.304854,23.692136],[121.304664,23.691683],[121.303973,23.692036],[121.303488,23.691579],[121.303194,23.691576],[121.303195,23.691486],[121.302704,23.691571],[121.302705,23.691481],[121.302411,23.691477],[121.302315,23.691296],[121.302019,23.691473],[121.302309,23.691747],[121.3028,23.691752],[121.302799,23.691843],[121.30329,23.691758],[121.303188,23.692028],[121.303479,23.692302],[121.303675,23.692304],[121.303676,23.692214],[121.303773,23.692305],[121.304067,23.692308],[121.304068,23.692218],[121.304361,23.692311],[121.304462,23.692132],[121.304658,23.692134],[121.30436,23.692402],[121.304357,23.692673],[121.304259,23.692671],[121.304256,23.692852],[121.304548,23.693036],[121.304349,23.693305],[121.304642,23.693398],[121.304744,23.693038]],[[121.304849,23.692497],[121.304847,23.692678],[121.304552,23.692765],[121.304554,23.692584],[121.304849,23.692497]]],[[[121.300128,23.693619],[121.300323,23.693712],[121.300417,23.693984],[121.300713,23.693897],[121.300807,23.694169],[121.301003,23.694171],[121.301301,23.693903],[121.301205,23.693722],[121.301009,23.693719],[121.300915,23.693448],[121.300716,23.693626],[121.300424,23.693442],[121.300624,23.693173],[121.300526,23.693172],[121.300528,23.692992],[121.300333,23.692899],[121.300337,23.692628],[121.300046,23.692354],[121.299752,23.692351],[121.299755,23.692171],[121.299561,23.691988],[121.299167,23.692074],[121.29917,23.691893],[121.298491,23.691344],[121.298292,23.691522],[121.298582,23.691887],[121.298287,23.691884],[121.29829,23.691703],[121.298095,23.691611],[121.298196,23.691341],[121.298001,23.691248],[121.297803,23.691427],[121.2978,23.691698],[121.298187,23.692063],[121.298282,23.692335],[121.298479,23.692247],[121.298473,23.692698],[121.298957,23.693155],[121.298855,23.693515],[121.299243,23.69379],[121.299143,23.69397],[121.299632,23.694066],[121.299633,23.693975],[121.299829,23.693977],[121.300128,23.693619]],[[121.298583,23.691796],[121.298682,23.691707],[121.298681,23.691798],[121.298583,23.691796]],[[121.300029,23.693709],[121.299932,23.693617],[121.30003,23.693618],[121.300029,23.693709]],[[121.299247,23.693519],[121.299248,23.693429],[121.299444,23.693431],[121.299443,23.693522],[121.299247,23.693519]],[[121.300328,23.693351],[121.300231,23.693259],[121.300329,23.69326],[121.300328,23.693351]]],[[[121.297659,23.694947],[121.297461,23.695125],[121.297559,23.695126],[121.297748,23.69567],[121.297551,23.695758],[121.297449,23.696028],[121.297839,23.696213],[121.297736,23.696573],[121.298029,23.696667],[121.298026,23.696937],[121.29851,23.697394],[121.298409,23.697664],[121.298505,23.697755],[121.298703,23.697667],[121.298798,23.697849],[121.299291,23.697674],[121.299391,23.697494],[121.299198,23.697312],[121.299496,23.696954],[121.2994,23.696862],[121.299202,23.69695],[121.299208,23.696499],[121.298915,23.696405],[121.299026,23.695413],[121.298639,23.695048],[121.298343,23.695135],[121.298152,23.694772],[121.297854,23.695039],[121.297658,23.695037],[121.297659,23.694947]],[[121.297854,23.695039],[121.297951,23.695131],[121.297853,23.69513],[121.297854,23.695039]],[[121.298323,23.69667],[121.298228,23.696488],[121.298524,23.696311],[121.298528,23.69604],[121.298626,23.696041],[121.298621,23.696402],[121.298423,23.696581],[121.29852,23.696672],[121.298913,23.696586],[121.298912,23.696676],[121.298713,23.696855],[121.298323,23.69667]],[[121.29834,23.695406],[121.298633,23.695499],[121.298628,23.69586],[121.298432,23.695858],[121.298436,23.695587],[121.298337,23.695586],[121.29834,23.695406]]],[[[121.301843,23.697521],[121.302239,23.697164],[121.302434,23.697257],[121.302732,23.696989],[121.302738,23.696538],[121.302641,23.696446],[121.302936,23.696359],[121.302841,23.696178],[121.302644,23.696175],[121.302347,23.696443],[121.302344,23.696624],[121.302147,23.696712],[121.302145,23.696892],[121.301749,23.697159],[121.301843,23.697521]]],[[[121.298305,23.698114],[121.298205,23.698204],[121.298301,23.698385],[121.298005,23.698563],[121.297903,23.698832],[121.298098,23.698925],[121.2982,23.698655],[121.298496,23.698478],[121.298593,23.698569],[121.298491,23.698839],[121.298393,23.698838],[121.298486,23.69929],[121.298291,23.699198],[121.298091,23.699467],[121.297799,23.699283],[121.297698,23.699553],[121.297402,23.69964],[121.297302,23.699819],[121.297399,23.69991],[121.297694,23.699823],[121.297786,23.700276],[121.29798,23.700459],[121.299157,23.700472],[121.299062,23.7002],[121.298964,23.700199],[121.298968,23.699928],[121.298774,23.699745],[121.298777,23.699474],[121.299076,23.699116],[121.299081,23.698755],[121.299278,23.698667],[121.29928,23.698486],[121.299576,23.698399],[121.299577,23.698309],[121.300263,23.698317],[121.300264,23.698226],[121.30095,23.698324],[121.301445,23.697968],[121.301447,23.697788],[121.301645,23.697609],[121.301452,23.697427],[121.301255,23.697424],[121.301154,23.697694],[121.301056,23.697693],[121.301058,23.697513],[121.300863,23.69742],[121.300761,23.69778],[121.300466,23.697777],[121.300267,23.698046],[121.300071,23.698044],[121.299975,23.697862],[121.299777,23.69804],[121.299484,23.697947],[121.299285,23.698125],[121.299283,23.698306],[121.299087,23.698304],[121.299086,23.698394],[121.298989,23.698303],[121.298595,23.698388],[121.298596,23.698298],[121.298305,23.698114]],[[121.298498,23.698297],[121.298399,23.698386],[121.2984,23.698296],[121.298498,23.698297]],[[121.297991,23.699646],[121.297894,23.699555],[121.297992,23.699556],[121.297991,23.699646]]],[[[121.295154,23.699073],[121.294861,23.698979],[121.294761,23.699159],[121.295054,23.699253],[121.295154,23.699073]]],[[[121.295347,23.699346],[121.295643,23.699169],[121.295646,23.698988],[121.295353,23.698895],[121.295152,23.699254],[121.295347,23.699346]]],[[[121.31148,23.687784],[121.311876,23.687427],[121.311781,23.687245],[121.311978,23.687157],[121.312081,23.686797],[121.311886,23.686705],[121.311687,23.686883],[121.311494,23.6867],[121.311394,23.68679],[121.311389,23.687241],[121.311291,23.68724],[121.311287,23.687511],[121.311385,23.687512],[121.311285,23.687692],[121.31148,23.687784]],[[121.31158,23.687604],[121.311483,23.687513],[121.311581,23.687514],[121.31158,23.687604]]],[[[121.312755,23.687708],[121.312464,23.687524],[121.312565,23.687254],[121.31237,23.687162],[121.312169,23.687521],[121.312364,23.687613],[121.312555,23.688067],[121.312752,23.687978],[121.312755,23.687708]]],[[[121.308695,23.690824],[121.308991,23.690646],[121.308994,23.690466],[121.308606,23.6901],[121.308507,23.69019],[121.3085,23.690731],[121.308695,23.690824]]],[[[121.308094,23.69181],[121.307997,23.691719],[121.308295,23.691451],[121.308588,23.691545],[121.308786,23.691367],[121.308694,23.690914],[121.307603,23.691895],[121.307994,23.69199],[121.308094,23.69181]]],[[[121.304666,23.691502],[121.304471,23.69141],[121.304371,23.691589],[121.304566,23.691682],[121.304666,23.691502]]],[[[121.30602,23.692962],[121.305826,23.692779],[121.305628,23.692957],[121.305625,23.693138],[121.30582,23.69323],[121.305922,23.692961],[121.30602,23.692962]]],[[[121.306014,23.693413],[121.30582,23.69323],[121.30562,23.693589],[121.305815,23.693682],[121.305916,23.693412],[121.306014,23.693413]]],[[[121.304416,23.695653],[121.304614,23.695565],[121.304616,23.695384],[121.305206,23.69521],[121.305703,23.694764],[121.305607,23.694583],[121.305805,23.694404],[121.305708,23.694313],[121.305511,23.694401],[121.305515,23.69413],[121.30571,23.694222],[121.305811,23.693953],[121.305617,23.69377],[121.305125,23.693945],[121.305023,23.694215],[121.304827,23.694213],[121.304828,23.694123],[121.304533,23.69421],[121.304626,23.694572],[121.304429,23.69466],[121.304423,23.695111],[121.304228,23.695019],[121.304231,23.694838],[121.304329,23.694839],[121.304233,23.694658],[121.303742,23.694743],[121.303835,23.695105],[121.303638,23.695193],[121.303735,23.695284],[121.303634,23.695464],[121.303829,23.695556],[121.304128,23.695198],[121.304127,23.695289],[121.304323,23.695291],[121.304319,23.695562],[121.304416,23.695653]],[[121.305511,23.694401],[121.305412,23.69449],[121.305413,23.6944],[121.305511,23.694401]],[[121.304323,23.695291],[121.304422,23.695202],[121.304421,23.695292],[121.304323,23.695291]],[[121.305217,23.694398],[121.305314,23.694489],[121.305216,23.694488],[121.305217,23.694398]],[[121.305217,23.694398],[121.30512,23.694306],[121.305218,23.694307],[121.305217,23.694398]]]]}},{"type":"Feature","properties":{"kind":"water","month":"2024-02","area_ha":1.89},"geometry":{"type":"MultiPolygon","coordinates":[[[[121.298633,23.695499],[121.298536,23.695408],[121.29834,23.695406],[121.298432,23.695858],[121.298628,23.69586],[121.298633,23.695499]]],[[[121.2987,23.697848],[121.298703,23.697667],[121.298605,23.697666],[121.298602,23.697847],[121.2987,23.697848]]],[[[121.298405,23.697935],[121.298305,23.698114],[121.298403,23.698115],[121.298595,23.698388],[121.298791,23.698391],[121.29899,23.698212],[121.299283,23.698306],[121.299285,23.698125],[121.299484,23.697947],[121.299777,23.69804],[121.299979,23.697591],[121.299095,23.697672],[121.299094,23.697762],[121.2987,23.697848],[121.298698,23.698028],[121.298405,23.697935]]],[[[121.298498,23.698297],[121.298399,23.698386],[121.298497,23.698387],[121.298498,23.698297]]],[[[121.298989,23.698303],[121.299086,23.698394],[121.299087,23.698304],[121.298989,23.698303]]],[[[121.298193,23.699197],[121.298486,23.69929],[121.298393,23.698838],[121.298491,23.698839],[121.298593,23.698569],[121.2982,23.698655],[121.298294,23.698927],[121.298098,23.698925],[121.298194,23.699106],[121.298096,23.699105],[121.297993,23.699465],[121.29819,23.699377],[121.298193,23.699197]]],[[[121.312273,23.68707],[121.311982,23.686886],[121.311977,23.687248],[121.312173,23.68725],[121.312171,23.68743],[121.312269,23.687431],[121.312273,23.68707]]],[[[121.308892,23.690736],[121.308696,23.690733],[121.308693,23.691004],[121.308791,23.691005],[121.308689,23.691275],[121.308886,23.691187],[121.308892,23.690736]]],[[[121.303824,23.695918],[121.304121,23.69574],[121.304024,23.695649],[121.304124,23.695469],[121.304319,23.695562],[121.304322,23.695381],[121.304128,23.695198],[121.30383,23.695466],[121.303824,23.695918]]],[[[121.302733,23.696899],[121.30303,23.696721],[121.303235,23.696001],[121.30294,23.696088],[121.302936,23.696359],[121.302738,23.696538],[121.302733,23.696899]]],[[[121.302641,23.696446],[121.302738,23.696538],[121.302739,23.696447],[121.302641,23.696446]]],[[[121.300468,23.697687],[121.300761,23.69778],[121.300764,23.697509],[121.300471,23.697416],[121.300368,23.697776],[121.300468,23.697687]]]]}}]}