{"type":"FeatureCollection","features":[{"type":"Feature","properties":{"kind":"bare_slide","month":"2024-05","area_ha":3.19},"geometry":{"type":"MultiPolygon","coordinates":[[[[121.298833,23.702725],[121.299131,23.702458],[121.29904,23.701915],[121.299138,23.701916],[121.299243,23.701375],[121.298753,23.70137],[121.298657,23.701188],[121.297971,23.701181],[121.298068,23.701272],[121.297967,23.701452],[121.298161,23.701634],[121.298359,23.701456],[121.298651,23.70164],[121.298649,23.70182],[121.29845,23.701999],[121.298257,23.701816],[121.298059,23.701904],[121.298149,23.702537],[121.298246,23.702629],[121.298541,23.702542],[121.298637,23.702723],[121.298833,23.702725]]],[[[121.299399,23.704447],[121.299696,23.70427],[121.299702,23.703819],[121.299216,23.703452],[121.298918,23.70372],[121.298916,23.7039],[121.299014,23.703901],[121.299204,23.704355],[121.299401,23.704357],[121.299399,23.704447]]],[[[121.298687,23.706426],[121.298886,23.706248],[121.298594,23.706064],[121.298596,23.705883],[121.298793,23.705795],[121.298698,23.705614],[121.298499,23.705792],[121.298112,23.705427],[121.297916,23.705424],[121.297717,23.705603],[121.298297,23.706241],[121.298592,23.706244],[121.298687,23.706426]]],[[[121.299951,23.707253],[121.300249,23.706985],[121.300153,23.706803],[121.29976,23.706889],[121.299462,23.707157],[121.29946,23.707338],[121.299849,23.707613],[121.299748,23.707792],[121.299942,23.707975],[121.300139,23.707887],[121.299947,23.707614],[121.300143,23.707616],[121.300144,23.707526],[121.300535,23.70762],[121.300733,23.707442],[121.300541,23.707169],[121.299951,23.707253]],[[121.29995,23.707343],[121.299754,23.707341],[121.299755,23.707251],[121.299951,23.707253],[121.29995,23.707343]]]]}},{"type":"Feature","properties":{"kind":"bare_dam","month":"2024-05","area_ha":16.91},"geometry":{"type":"MultiPolygon","coordinates":[[[[121.301605,23.693184],[121.301707,23.692824],[121.301317,23.692639],[121.301216,23.692909],[121.301118,23.692908],[121.301114,23.693179],[121.301211,23.69327],[121.301605,23.693184]]],[[[121.302953,23.695095],[121.30325,23.694828],[121.303155,23.694646],[121.302173,23.694725],[121.30198,23.694452],[121.301784,23.69445],[121.30159,23.694268],[121.301498,23.693815],[121.301111,23.69345],[121.300517,23.693895],[121.300805,23.694349],[121.301099,23.694353],[121.301098,23.694443],[121.301489,23.694537],[121.30168,23.694901],[121.30178,23.694811],[121.301976,23.694814],[121.301974,23.694904],[121.30227,23.694817],[121.302657,23.695182],[121.30334,23.695461],[121.303442,23.695191],[121.302953,23.695095]],[[121.302758,23.695003],[121.302759,23.694913],[121.302955,23.694915],[121.302954,23.695005],[121.302758,23.695003]]],[[[121.299707,23.695872],[121.299904,23.695784],[121.29971,23.695601],[121.299813,23.695241],[121.299422,23.695147],[121.299425,23.694876],[121.299721,23.694789],[121.299722,23.694699],[121.299916,23.694881],[121.300113,23.694793],[121.300115,23.694613],[121.299825,23.694339],[121.299628,23.694336],[121.299528,23.694516],[121.299037,23.694601],[121.299134,23.694692],[121.299128,23.695144],[121.299028,23.695233],[121.29893,23.695232],[121.298936,23.69478],[121.298839,23.694689],[121.298643,23.694687],[121.298445,23.694865],[121.298639,23.695048],[121.298538,23.695227],[121.298927,23.695503],[121.298828,23.695592],[121.298921,23.695954],[121.299314,23.695868],[121.299409,23.69614],[121.299604,23.696232],[121.299707,23.695872]]],[[[121.298118,23.69739],[121.298504,23.697846],[121.298706,23.697396],[121.298804,23.697397],[121.298898,23.69776],[121.298997,23.697671],[121.299487,23.697676],[121.299587,23.697496],[121.299393,23.697404],[121.299498,23.696863],[121.299303,23.696771],[121.299305,23.69659],[121.298918,23.696225],[121.298621,23.696402],[121.298619,23.696583],[121.298814,23.696675],[121.298712,23.696945],[121.298907,23.697037],[121.298905,23.697218],[121.298709,23.697216],[121.298711,23.697035],[121.298517,23.696853],[121.29832,23.696941],[121.298224,23.696759],[121.298027,23.696847],[121.297833,23.696664],[121.297836,23.696484],[121.298133,23.696216],[121.297745,23.695941],[121.297749,23.69558],[121.297948,23.695401],[121.298144,23.695404],[121.298239,23.695585],[121.298437,23.695497],[121.298439,23.695317],[121.29805,23.695041],[121.297752,23.695399],[121.297456,23.695486],[121.297553,23.695578],[121.297454,23.695667],[121.297438,23.696931],[121.297921,23.697478],[121.298118,23.69739]],[[121.298804,23.697397],[121.298904,23.697308],[121.298902,23.697399],[121.298804,23.697397]],[[121.298216,23.697391],[121.298021,23.697299],[121.298022,23.697208],[121.298218,23.69721],[121.298216,23.697391]]],[[[121.300372,23.697505],[121.300472,23.697326],[121.30018,23.697142],[121.300183,23.696961],[121.299602,23.696413],[121.299502,23.696502],[121.299593,23.697045],[121.299691,23.697046],[121.299589,23.697406],[121.299782,23.697589],[121.299882,23.6975],[121.300372,23.697505]]],[[[121.297232,23.697651],[121.29733,23.697652],[121.297237,23.69729],[121.296944,23.697196],[121.296842,23.697466],[121.296744,23.697465],[121.296838,23.697827],[121.29713,23.697921],[121.297232,23.697651]]],[[[121.299157,23.700472],[121.298968,23.699928],[121.298774,23.699745],[121.298976,23.699296],[121.298685,23.699022],[121.298884,23.698843],[121.299079,23.698936],[121.29938,23.698397],[121.301048,23.698325],[121.301345,23.698057],[121.301348,23.697877],[121.301153,23.697784],[121.301155,23.697604],[121.301253,23.697605],[121.301159,23.697333],[121.300864,23.69733],[121.300666,23.697508],[121.300664,23.697689],[121.300271,23.697685],[121.300171,23.697864],[121.299878,23.69777],[121.299778,23.69795],[121.299681,23.697859],[121.299386,23.697946],[121.299086,23.698394],[121.298793,23.6983],[121.298691,23.69857],[121.298494,23.698658],[121.29839,23.699109],[121.298092,23.699376],[121.297799,23.699283],[121.297601,23.699461],[121.297598,23.699642],[121.297011,23.699545],[121.296722,23.699181],[121.296525,23.699269],[121.297105,23.699907],[121.297791,23.699915],[121.297882,23.700458],[121.299157,23.700472]]],[[[121.311484,23.687423],[121.311684,23.687154],[121.31149,23.686971],[121.311687,23.686883],[121.311789,23.686613],[121.3114,23.686338],[121.311404,23.686067],[121.311209,23.685975],[121.311009,23.686244],[121.311495,23.68661],[121.311296,23.686789],[121.311294,23.686969],[121.311392,23.68697],[121.311289,23.68733],[121.311484,23.687423]]],[[[121.309275,23.691462],[121.309568,23.691556],[121.309668,23.691376],[121.309379,23.691012],[121.309182,23.6911],[121.308988,23.690917],[121.308889,23.691006],[121.308986,23.691098],[121.308882,23.691548],[121.309175,23.691642],[121.309275,23.691462]]],[[[121.310835,23.692202],[121.310446,23.691926],[121.310152,23.691923],[121.310153,23.691833],[121.30976,23.691919],[121.310147,23.692284],[121.310734,23.692381],[121.310835,23.692202]]],[[[121.304066,23.692398],[121.303575,23.692483],[121.303567,23.693115],[121.303665,23.693116],[121.303758,23.693479],[121.304053,23.693392],[121.303952,23.693661],[121.304244,23.693845],[121.304443,23.693576],[121.304639,23.693579],[121.304838,23.6934],[121.30484,23.69322],[121.304742,23.693219],[121.304842,23.693039],[121.305136,23.693042],[121.305138,23.692952],[121.305433,23.692865],[121.305341,23.692412],[121.305636,23.692325],[121.305732,23.692507],[121.305928,23.692509],[121.306126,23.692331],[121.305932,23.692148],[121.306034,23.691878],[121.305936,23.691877],[121.305845,23.691334],[121.305748,23.691243],[121.305552,23.691241],[121.305551,23.691331],[121.305062,23.691235],[121.304962,23.691325],[121.305056,23.691687],[121.304957,23.691776],[121.304566,23.691682],[121.304466,23.691771],[121.30466,23.691953],[121.304559,23.692223],[121.304265,23.69222],[121.304066,23.692398]],[[121.304559,23.692223],[121.304656,23.692315],[121.304557,23.692314],[121.304559,23.692223]],[[121.304455,23.692674],[121.304456,23.692583],[121.304161,23.69267],[121.304163,23.69249],[121.304555,23.692494],[121.304554,23.692584],[121.304947,23.692498],[121.304845,23.692858],[121.304651,23.692676],[121.304455,23.692674]],[[121.305246,23.69214],[121.305247,23.69205],[121.305541,23.692053],[121.30554,23.692144],[121.305246,23.69214]]],[[[121.304724,23.694573],[121.304826,23.694303],[121.305122,23.694126],[121.305027,23.693944],[121.304831,23.693942],[121.30473,23.694121],[121.304436,23.694118],[121.304335,23.694388],[121.304037,23.694656],[121.303742,23.694743],[121.303835,23.695105],[121.303637,23.695283],[121.303831,23.695376],[121.304031,23.695107],[121.304226,23.6952],[121.304325,23.69511],[121.304231,23.694838],[121.304622,23.694933],[121.304721,23.694844],[121.304626,23.694572],[121.304724,23.694573]]],[[[121.304915,23.695026],[121.305014,23.694937],[121.305305,23.695211],[121.305703,23.694764],[121.30541,23.694671],[121.305314,23.694489],[121.305215,23.694578],[121.304922,23.694485],[121.304822,23.694574],[121.304918,23.694756],[121.304721,23.694844],[121.304915,23.695026]]]]}},{"type":"Feature","properties":{"kind":"water","month":"2024-05","area_ha":1.45},"geometry":{"type":"MultiPolygon","coordinates":[[[[121.31188,23.687156],[121.311781,23.687245],[121.311879,23.687246],[121.31188,23.687156]]],[[[121.311781,23.687245],[121.311386,23.687422],[121.311382,23.687783],[121.311579,23.687695],[121.311781,23.687245]]],[[[121.298229,23.696398],[121.298529,23.69595],[121.298821,23.696133],[121.298825,23.695772],[121.298923,23.695773],[121.298828,23.695592],[121.298927,23.695503],[121.298733,23.69532],[121.298537,23.695318],[121.298436,23.695587],[121.298238,23.695676],[121.298131,23.696397],[121.298229,23.696398]]],[[[121.298327,23.696399],[121.298229,23.696398],[121.298228,23.696488],[121.298326,23.696489],[121.298327,23.696399]]],[[[121.298811,23.696856],[121.298814,23.696675],[121.298618,23.696673],[121.29862,23.696492],[121.298521,23.696582],[121.298326,23.696489],[121.298516,23.696943],[121.298811,23.696856]]],[[[121.298322,23.69676],[121.298223,23.696849],[121.298321,23.69685],[121.298322,23.69676]]],[[[121.298419,23.696851],[121.29832,23.696941],[121.298418,23.696942],[121.298419,23.696851]]],[[[121.298805,23.697307],[121.298902,23.697399],[121.298904,23.697308],[121.298805,23.697307]]],[[[121.298602,23.697847],[121.298699,23.697938],[121.299093,23.697852],[121.299091,23.697942],[121.299384,23.698036],[121.299583,23.697858],[121.299778,23.69795],[121.299879,23.69768],[121.300073,23.697863],[121.30027,23.697775],[121.300273,23.697594],[121.300664,23.697689],[121.300765,23.697419],[121.299882,23.6975],[121.29988,23.69759],[121.298997,23.697671],[121.298996,23.697761],[121.2988,23.697759],[121.298804,23.697397],[121.298706,23.697396],[121.298602,23.697847]]]]}}]}