{"type":"FeatureCollection","features":[{"type":"Feature","properties":{"kind":"bare_slide","month":"2024-04","area_ha":151.51},"geometry":{"type":"MultiPolygon","coordinates":[[[[121.298785,23.706427],[121.299084,23.706069],[121.299091,23.705528],[121.299189,23.705529],[121.299095,23.705257],[121.299193,23.705258],[121.299197,23.704897],[121.299395,23.704809],[121.299499,23.704358],[121.299597,23.704359],[121.299604,23.703818],[121.299409,23.703725],[121.299411,23.703545],[121.299217,23.703362],[121.299223,23.70291],[121.299125,23.702909],[121.299129,23.702638],[121.299031,23.702637],[121.299033,23.702457],[121.299131,23.702458],[121.299041,23.701825],[121.299139,23.701826],[121.299243,23.701375],[121.298753,23.70137],[121.298657,23.701188],[121.298069,23.701182],[121.298058,23.701995],[121.298156,23.701996],[121.298243,23.7029],[121.298341,23.702901],[121.298337,23.703172],[121.298532,23.703264],[121.298529,23.703535],[121.299111,23.703993],[121.299102,23.704715],[121.299004,23.704714],[121.299,23.704985],[121.298902,23.704984],[121.298899,23.705255],[121.298997,23.705256],[121.298896,23.705435],[121.298014,23.705425],[121.298013,23.705516],[121.297619,23.705602],[121.297518,23.705871],[121.297905,23.706237],[121.298004,23.706148],[121.2982,23.70615],[121.298199,23.70624],[121.298495,23.706153],[121.298489,23.706605],[121.298586,23.706696],[121.298783,23.706608],[121.298785,23.706427]]],[[[121.30043,23.708161],[121.300432,23.70798],[121.299944,23.707794],[121.299851,23.707432],[121.299656,23.70734],[121.299756,23.70716],[121.300052,23.707073],[121.299956,23.706892],[121.299462,23.707157],[121.299557,23.707429],[121.299067,23.707424],[121.299068,23.707333],[121.29887,23.707421],[121.29858,23.707147],[121.298582,23.706967],[121.29868,23.706968],[121.298586,23.706696],[121.298387,23.706874],[121.298193,23.706692],[121.297996,23.70678],[121.298093,23.706871],[121.297991,23.707141],[121.298088,23.707232],[121.298384,23.707145],[121.298477,23.707507],[121.298868,23.707602],[121.298767,23.707872],[121.29906,23.707965],[121.299057,23.708146],[121.299251,23.708329],[121.299447,23.708331],[121.299547,23.708151],[121.299842,23.708155],[121.300034,23.708428],[121.30023,23.70843],[121.300332,23.70816],[121.30043,23.708161]]],[[[121.297731,23.712104],[121.298326,23.711569],[121.298335,23.710937],[121.298632,23.71067],[121.298438,23.710487],[121.298539,23.710307],[121.298246,23.710214],[121.297861,23.709668],[121.297468,23.709663],[121.297577,23.708852],[121.297775,23.708674],[121.29797,23.708766],[121.298072,23.708496],[121.29817,23.708497],[121.298174,23.708226],[121.29798,23.708044],[121.297982,23.707863],[121.29808,23.707864],[121.298086,23.707413],[121.297989,23.707321],[121.297791,23.7075],[121.297398,23.707496],[121.297101,23.707763],[121.297197,23.707945],[121.297491,23.707948],[121.297492,23.707858],[121.297883,23.707952],[121.297784,23.708042],[121.297778,23.708493],[121.297384,23.708579],[121.297082,23.709208],[121.296985,23.709116],[121.29669,23.709203],[121.296783,23.709566],[121.297076,23.709659],[121.297172,23.709841],[121.297369,23.709753],[121.297366,23.710024],[121.297657,23.710207],[121.297654,23.710478],[121.297849,23.710571],[121.297737,23.711653],[121.296755,23.711733],[121.296653,23.712002],[121.29675,23.712094],[121.297339,23.7121],[121.297338,23.71219],[121.297632,23.712194],[121.297631,23.712284],[121.297828,23.712196],[121.297731,23.712104]]],[[[121.301365,23.711693],[121.301466,23.711423],[121.301175,23.711239],[121.301081,23.710877],[121.300596,23.710511],[121.300505,23.709968],[121.300214,23.709694],[121.299822,23.709689],[121.299726,23.709508],[121.299432,23.709504],[121.299141,23.70923],[121.299041,23.70941],[121.299623,23.709868],[121.299619,23.710229],[121.299812,23.710412],[121.300107,23.710415],[121.300299,23.710688],[121.300495,23.71069],[121.300689,23.710873],[121.300686,23.711144],[121.301172,23.71142],[121.30117,23.7116],[121.301268,23.711602],[121.301166,23.711871],[121.301263,23.711963],[121.301461,23.711875],[121.301463,23.711694],[121.301365,23.711693]]],[[[121.296708,23.715344],[121.29671,23.715163],[121.296612,23.715162],[121.296714,23.714893],[121.297103,23.715168],[121.297202,23.715079],[121.297106,23.714897],[121.297304,23.714809],[121.297306,23.714628],[121.2975,23.714811],[121.297696,23.714813],[121.297793,23.714904],[121.297692,23.715084],[121.298083,23.715179],[121.298179,23.71536],[121.298278,23.715271],[121.298572,23.715274],[121.298571,23.715364],[121.298965,23.715278],[121.298967,23.715098],[121.298674,23.715004],[121.298286,23.714639],[121.298386,23.71455],[121.298292,23.714188],[121.297999,23.714094],[121.297713,23.713459],[121.297516,23.713547],[121.297409,23.714268],[121.297111,23.714536],[121.296915,23.714534],[121.296814,23.714713],[121.296618,23.714711],[121.296518,23.71489],[121.296124,23.714976],[121.296318,23.715159],[121.296217,23.715429],[121.29641,23.715612],[121.296708,23.715344]]],[[[121.28396,23.715203],[121.28406,23.715114],[121.284256,23.715116],[121.284252,23.715387],[121.284349,23.715478],[121.284546,23.71539],[121.284454,23.714938],[121.284066,23.714662],[121.28417,23.714212],[121.284466,23.714035],[121.28447,23.713764],[121.284568,23.713765],[121.284472,23.713583],[121.284274,23.713762],[121.283979,23.713758],[121.282987,23.71465],[121.282982,23.715012],[121.283465,23.715559],[121.283858,23.715563],[121.28396,23.715203]]],[[[121.295706,23.716958],[121.295809,23.716598],[121.295614,23.716506],[121.295313,23.717044],[121.295508,23.717137],[121.295706,23.716958]]],[[[121.298328,23.718974],[121.298133,23.718881],[121.298136,23.718701],[121.298333,23.718613],[121.298436,23.718253],[121.298833,23.717896],[121.298835,23.717715],[121.299033,23.717537],[121.299038,23.717176],[121.299432,23.71709],[121.299434,23.716909],[121.299632,23.716731],[121.299639,23.716189],[121.299937,23.715921],[121.299941,23.71565],[121.300137,23.715653],[121.300434,23.715385],[121.30034,23.715113],[121.300046,23.71511],[121.299743,23.715739],[121.29915,23.716093],[121.299144,23.716545],[121.298948,23.716543],[121.29875,23.716721],[121.298744,23.717172],[121.298841,23.717264],[121.298743,23.717263],[121.298639,23.717713],[121.298442,23.717801],[121.29824,23.71825],[121.297447,23.718874],[121.29764,23.719147],[121.298228,23.719153],[121.298328,23.718974]]],[[[121.300397,23.718274],[121.300594,23.718186],[121.300602,23.717554],[121.300506,23.717463],[121.300902,23.717106],[121.301198,23.717019],[121.300908,23.716654],[121.300711,23.716742],[121.300607,23.717193],[121.30021,23.71755],[121.300099,23.718542],[121.300294,23.718634],[121.300397,23.718274]]],[[[121.285918,23.715496],[121.285917,23.715586],[121.285525,23.715582],[121.285226,23.715939],[121.284734,23.716024],[121.284633,23.716294],[121.284437,23.716292],[121.284238,23.71647],[121.284236,23.716651],[121.28394,23.716738],[121.284035,23.71701],[121.283839,23.717008],[121.283243,23.717543],[121.283334,23.718086],[121.283136,23.718264],[121.283331,23.718357],[121.283424,23.718719],[121.283128,23.718896],[121.283124,23.719167],[121.282729,23.719343],[121.282823,23.719705],[121.282627,23.719703],[121.28223,23.72006],[121.281738,23.720145],[121.281731,23.720687],[121.282022,23.720961],[121.282415,23.720875],[121.282515,23.720695],[121.28281,23.720699],[121.283208,23.720251],[121.283503,23.720164],[121.283606,23.719804],[121.283802,23.719807],[121.283898,23.719988],[121.284585,23.719906],[121.284587,23.719815],[121.28488,23.719909],[121.284779,23.720088],[121.284485,23.720085],[121.284089,23.720352],[121.284282,23.720625],[121.28487,23.720631],[121.284969,23.720542],[121.284874,23.72036],[121.28507,23.720362],[121.285171,23.720093],[121.285368,23.720095],[121.285365,23.720275],[121.285069,23.720453],[121.285164,23.720634],[121.284769,23.720901],[121.284766,23.721081],[121.284668,23.72108],[121.284764,23.721262],[121.284567,23.72135],[121.284361,23.72207],[121.284064,23.722248],[121.284062,23.722428],[121.284355,23.722522],[121.284354,23.722612],[121.28514,23.72253],[121.285137,23.722711],[121.285331,23.722894],[121.285625,23.722897],[121.285721,23.723079],[121.286114,23.722993],[121.286405,23.723267],[121.286601,23.723269],[121.286899,23.723001],[121.287002,23.722641],[121.2871,23.722642],[121.287194,23.722914],[121.287392,23.722826],[121.287395,23.722555],[121.287693,23.722288],[121.287696,23.722017],[121.287793,23.722108],[121.287892,23.722019],[121.288579,23.722027],[121.288676,23.722118],[121.288775,23.722029],[121.288781,23.721577],[121.288977,23.72158],[121.288975,23.72176],[121.289267,23.721944],[121.289263,23.722215],[121.289458,23.722307],[121.289456,23.722488],[121.289158,23.722755],[121.288962,23.722753],[121.288266,23.723468],[121.28807,23.723466],[121.288071,23.723375],[121.287874,23.723464],[121.287864,23.724186],[121.287962,23.724187],[121.288056,23.724549],[121.28835,23.724552],[121.288746,23.724286],[121.288542,23.724825],[121.288736,23.725008],[121.28903,23.725011],[121.289414,23.725648],[121.289712,23.72538],[121.290007,23.725293],[121.29001,23.725113],[121.289912,23.725112],[121.290016,23.724661],[121.290214,23.724483],[121.29041,23.724485],[121.290501,23.725028],[121.290403,23.725027],[121.2904,23.725298],[121.290102,23.725565],[121.290395,23.725659],[121.290491,23.72584],[121.291372,23.72594],[121.291571,23.725762],[121.291573,23.725581],[121.292066,23.725406],[121.292159,23.725768],[121.291862,23.725946],[121.291859,23.726217],[121.291663,23.726214],[121.291562,23.726394],[121.293525,23.726325],[121.293527,23.726145],[121.29392,23.726149],[121.293922,23.725969],[121.29451,23.725975],[121.294514,23.725704],[121.294612,23.725705],[121.294515,23.725614],[121.294521,23.725162],[121.294619,23.725164],[121.294527,23.724711],[121.294822,23.724624],[121.29482,23.724805],[121.295014,23.724987],[121.294914,23.725076],[121.294911,23.725347],[121.295009,23.725348],[121.294906,23.725708],[121.2951,23.725891],[121.295493,23.725805],[121.295494,23.725715],[121.295789,23.725718],[121.295881,23.726171],[121.296075,23.726353],[121.296762,23.726271],[121.296862,23.726182],[121.296765,23.72609],[121.296771,23.725639],[121.296672,23.725638],[121.296775,23.725278],[121.296678,23.725186],[121.296383,23.725273],[121.296382,23.725364],[121.296088,23.72536],[121.296089,23.72527],[121.296485,23.725003],[121.296779,23.725007],[121.29678,23.724916],[121.296877,23.725008],[121.297466,23.724924],[121.297665,23.724746],[121.297667,23.724565],[121.297865,23.724477],[121.297773,23.723934],[121.298068,23.723937],[121.298065,23.724118],[121.298259,23.724301],[121.298556,23.724123],[121.29846,23.723942],[121.298264,23.723939],[121.298168,23.723758],[121.297875,23.723664],[121.297986,23.722672],[121.298083,23.722764],[121.298378,23.722677],[121.298577,23.722498],[121.298579,23.722318],[121.298288,23.722043],[121.29809,23.722222],[121.297896,23.722039],[121.297699,23.722127],[121.297586,23.7233],[121.297289,23.723477],[121.29738,23.72402],[121.297575,23.724113],[121.297573,23.724293],[121.297377,23.724291],[121.297176,23.72465],[121.296688,23.724464],[121.296985,23.724196],[121.296991,23.723745],[121.296798,23.723562],[121.2966,23.72365],[121.296594,23.724102],[121.296398,23.7241],[121.296002,23.724366],[121.295807,23.724274],[121.295707,23.724453],[121.295218,23.724357],[121.295221,23.724087],[121.295026,23.723994],[121.29494,23.72309],[121.295236,23.723003],[121.295145,23.72246],[121.295343,23.722282],[121.295736,23.722196],[121.295935,23.722018],[121.295937,23.721837],[121.296233,23.72175],[121.296432,23.721481],[121.296627,23.721574],[121.296619,23.722206],[121.296716,23.722297],[121.296913,23.722209],[121.297016,23.721849],[121.297213,23.721761],[121.29732,23.72113],[121.297418,23.721131],[121.297327,23.720588],[121.297618,23.720772],[121.29772,23.720502],[121.297623,23.720411],[121.297328,23.720498],[121.29733,23.720317],[121.297135,23.720225],[121.29714,23.719864],[121.297238,23.719865],[121.297243,23.719504],[121.297341,23.719505],[121.297147,23.719322],[121.297149,23.719141],[121.297247,23.719142],[121.297154,23.71878],[121.296861,23.718687],[121.296862,23.718596],[121.296567,23.718683],[121.296857,23.718958],[121.296562,23.719045],[121.296362,23.719313],[121.296753,23.719408],[121.296749,23.719769],[121.296455,23.719766],[121.296058,23.720123],[121.296251,23.720305],[121.296549,23.720038],[121.296547,23.720218],[121.296449,23.720217],[121.296539,23.72085],[121.295948,23.721024],[121.295845,23.721384],[121.295547,23.721652],[121.29486,23.721735],[121.294859,23.721825],[121.294664,23.721733],[121.294465,23.721911],[121.294853,23.722277],[121.294849,23.722547],[121.294553,23.722725],[121.29456,23.722183],[121.294366,23.722],[121.29417,23.721998],[121.293872,23.722266],[121.293775,23.722174],[121.293783,23.721542],[121.29349,23.721449],[121.2932,23.721175],[121.293202,23.720994],[121.293007,23.720902],[121.293013,23.72045],[121.292818,23.720358],[121.292917,23.720269],[121.292825,23.719816],[121.292246,23.719087],[121.292247,23.718997],[121.292543,23.71891],[121.292545,23.718729],[121.291861,23.718541],[121.291864,23.71827],[121.291766,23.718269],[121.291965,23.718091],[121.29197,23.71773],[121.292264,23.717733],[121.292357,23.718095],[121.292552,23.718188],[121.293048,23.717742],[121.293151,23.717382],[121.293446,23.717295],[121.29345,23.717024],[121.293745,23.716937],[121.293649,23.716755],[121.293356,23.716662],[121.293059,23.716929],[121.292766,23.716836],[121.292567,23.717014],[121.292571,23.716743],[121.292865,23.716746],[121.292965,23.716567],[121.293359,23.716481],[121.293558,23.716212],[121.293364,23.71612],[121.293362,23.71621],[121.293067,23.716297],[121.293068,23.716207],[121.292677,23.716112],[121.292578,23.716201],[121.292674,23.716383],[121.292078,23.716918],[121.291974,23.717369],[121.291483,23.717454],[121.291086,23.71781],[121.290596,23.717805],[121.290305,23.717531],[121.290009,23.717618],[121.290013,23.717347],[121.29031,23.71717],[121.290312,23.716989],[121.290607,23.716902],[121.29061,23.716721],[121.290907,23.716454],[121.291103,23.716456],[121.291102,23.716546],[121.291398,23.716459],[121.291704,23.71556],[121.291998,23.715563],[121.292098,23.715383],[121.292196,23.715385],[121.292291,23.715656],[121.292586,23.715569],[121.292687,23.71539],[121.292981,23.715393],[121.292978,23.715574],[121.29278,23.715752],[121.292876,23.715934],[121.29317,23.715937],[121.29347,23.715489],[121.293863,23.715403],[121.293759,23.715853],[121.293661,23.715852],[121.293757,23.716034],[121.294247,23.716039],[121.294346,23.71595],[121.294251,23.715768],[121.29484,23.715685],[121.294936,23.715866],[121.29523,23.715869],[121.295224,23.716321],[121.295321,23.716412],[121.295618,23.716235],[121.295615,23.716416],[121.29581,23.716508],[121.29591,23.716419],[121.295816,23.716057],[121.296112,23.715969],[121.296116,23.715608],[121.295921,23.715516],[121.295526,23.715782],[121.295431,23.71551],[121.295041,23.715326],[121.295045,23.715055],[121.294753,23.714871],[121.294755,23.71469],[121.295445,23.714427],[121.295644,23.714249],[121.295646,23.714068],[121.296239,23.713713],[121.296353,23.71245],[121.296158,23.712358],[121.29596,23.712536],[121.295957,23.712807],[121.295858,23.712806],[121.295757,23.713076],[121.295167,23.71316],[121.294969,23.713338],[121.294676,23.713245],[121.294475,23.713604],[121.294279,23.713602],[121.293883,23.713868],[121.293589,23.713865],[121.293291,23.714132],[121.292801,23.714127],[121.292608,23.713854],[121.292215,23.71394],[121.292112,23.7143],[121.292405,23.714394],[121.292403,23.714574],[121.292204,23.714753],[121.292008,23.71475],[121.292012,23.714479],[121.291914,23.714478],[121.292014,23.714299],[121.291917,23.714208],[121.291623,23.714204],[121.291622,23.714295],[121.291329,23.714201],[121.291331,23.71402],[121.291526,23.714113],[121.291627,23.713933],[121.291433,23.713751],[121.291139,23.713747],[121.29104,23.713837],[121.291034,23.714288],[121.290542,23.714373],[121.290441,23.714643],[121.289951,23.714547],[121.289851,23.714727],[121.289361,23.714721],[121.28926,23.714901],[121.288867,23.714987],[121.288771,23.714805],[121.288477,23.714802],[121.288476,23.714892],[121.287987,23.714796],[121.28799,23.714525],[121.287795,23.714433],[121.287597,23.714611],[121.287791,23.714794],[121.287787,23.715065],[121.286905,23.715055],[121.286903,23.715145],[121.286707,23.715143],[121.286907,23.714875],[121.286419,23.714689],[121.286319,23.714868],[121.286514,23.71496],[121.286511,23.715141],[121.286314,23.715229],[121.28631,23.7155],[121.286213,23.715409],[121.285918,23.715496]],[[121.29345,23.717024],[121.293353,23.716932],[121.293451,23.716933],[121.29345,23.717024]],[[121.286408,23.715501],[121.286407,23.715591],[121.286801,23.715505],[121.286798,23.715686],[121.286503,23.715773],[121.286697,23.715956],[121.286597,23.716045],[121.286692,23.716317],[121.286495,23.716405],[121.286688,23.716588],[121.286686,23.716768],[121.286587,23.716858],[121.285803,23.716759],[121.285703,23.716938],[121.285214,23.716842],[121.285119,23.71657],[121.285316,23.716573],[121.285317,23.716482],[121.28561,23.716576],[121.285808,23.716397],[121.285811,23.716217],[121.286106,23.71613],[121.286108,23.715949],[121.286206,23.71595],[121.286112,23.715678],[121.286408,23.715501]],[[121.2953,23.725623],[121.295201,23.725621],[121.295106,23.72544],[121.295302,23.725442],[121.2953,23.725623]],[[121.292077,23.724503],[121.292562,23.72496],[121.292558,23.725231],[121.29236,23.725409],[121.292166,23.725227],[121.292077,23.724503]],[[121.291493,23.724226],[121.291393,23.724315],[121.291395,23.724225],[121.291493,23.724226]],[[121.291495,23.724045],[121.291593,23.724047],[121.291591,23.724227],[121.291493,23.724226],[121.291495,23.724045]],[[121.292766,23.72433],[121.292476,23.724056],[121.292383,23.723604],[121.292678,23.723607],[121.292964,23.724242],[121.292766,23.72433]],[[121.291311,23.72314],[121.29141,23.723051],[121.291605,23.723144],[121.2916,23.723505],[121.291698,23.723506],[121.291594,23.723956],[121.291399,23.723864],[121.291311,23.72314]],[[121.291802,23.723056],[121.291999,23.722967],[121.292003,23.722697],[121.292101,23.722698],[121.29201,23.722155],[121.292305,23.722068],[121.292298,23.72261],[121.2922,23.722608],[121.292197,23.722879],[121.292295,23.72288],[121.292192,23.72324],[121.292289,23.723332],[121.292093,23.72333],[121.291802,23.723056]],[[121.290339,23.722407],[121.290439,23.722318],[121.290443,23.721957],[121.290932,23.722053],[121.29123,23.721785],[121.291235,23.721424],[121.29104,23.721331],[121.291046,23.72088],[121.291145,23.720791],[121.290854,23.720517],[121.290658,23.720515],[121.290665,23.719973],[121.290864,23.719794],[121.290961,23.719886],[121.291158,23.719798],[121.291061,23.719706],[121.291066,23.719345],[121.291263,23.719257],[121.29117,23.718895],[121.291857,23.718812],[121.291854,23.719083],[121.292243,23.719358],[121.292335,23.719811],[121.292433,23.719812],[121.29243,23.719992],[121.29272,23.720357],[121.292622,23.720356],[121.29252,23.720625],[121.292226,23.720622],[121.292035,23.720259],[121.291739,23.720346],[121.291833,23.720708],[121.291735,23.720707],[121.29173,23.721068],[121.291533,23.721156],[121.291723,23.72161],[121.291427,23.721697],[121.291523,23.721879],[121.29172,23.72179],[121.291717,23.722061],[121.291424,23.721968],[121.291225,23.722146],[121.291123,23.722506],[121.290825,23.722774],[121.29014,23.722676],[121.290143,23.722405],[121.290339,23.722407]],[[121.293969,23.722357],[121.294067,23.722358],[121.294065,23.722539],[121.293967,23.722538],[121.293969,23.722357]],[[121.284554,23.722343],[121.284653,23.722254],[121.284652,23.722344],[121.284554,23.722343]],[[121.29799,23.722401],[121.298089,23.722312],[121.298088,23.722402],[121.29799,23.722401]],[[121.289856,23.72186],[121.290053,23.721772],[121.290051,23.721953],[121.289658,23.722039],[121.289661,23.721768],[121.289857,23.72177],[121.289856,23.72186]],[[121.285643,23.721543],[121.285544,23.721632],[121.285345,23.72181],[121.285447,23.72154],[121.285643,23.721543]],[[121.291922,23.721341],[121.292022,23.721252],[121.292021,23.721342],[121.291922,23.721341]],[[121.287617,23.720571],[121.287421,23.720569],[121.287325,23.720387],[121.287619,23.720391],[121.287617,23.720571]],[[121.286736,23.720471],[121.28654,23.720469],[121.286543,23.720198],[121.286641,23.720199],[121.286736,23.720471]],[[121.28821,23.720217],[121.288899,23.720044],[121.288898,23.720134],[121.289094,23.720136],[121.28909,23.720407],[121.288404,23.720399],[121.288405,23.720309],[121.288012,23.720395],[121.288015,23.720124],[121.288211,23.720126],[121.28821,23.720217]],[[121.285272,23.719913],[121.284978,23.71991],[121.284979,23.71982],[121.285274,23.719733],[121.285272,23.719913]],[[121.287531,23.719667],[121.287629,23.719668],[121.287627,23.719849],[121.287528,23.719848],[121.287531,23.719667]],[[121.290179,23.719697],[121.290277,23.719698],[121.290274,23.719878],[121.290176,23.719877],[121.290179,23.719697]],[[121.283515,23.719262],[121.283709,23.719444],[121.283413,23.719531],[121.283416,23.719351],[121.283515,23.719262]],[[121.285277,23.719552],[121.285179,23.719551],[121.285083,23.719369],[121.285279,23.719371],[121.285277,23.719552]],[[121.284203,23.719179],[121.284399,23.719181],[121.284398,23.719271],[121.284201,23.719269],[121.284203,23.719179]],[[121.28911,23.718872],[121.289507,23.718515],[121.289798,23.718789],[121.290288,23.718795],[121.290286,23.718975],[121.289895,23.718881],[121.289792,23.719241],[121.289695,23.719149],[121.289302,23.719235],[121.289108,23.719053],[121.28911,23.718872]],[[121.284499,23.719002],[121.284112,23.718636],[121.284504,23.71864],[121.284698,23.718823],[121.284695,23.719004],[121.284499,23.719002]],[[121.290775,23.719071],[121.290874,23.718982],[121.290873,23.719072],[121.290775,23.719071]],[[121.290295,23.718253],[121.290002,23.71816],[121.290005,23.717979],[121.290299,23.717982],[121.290295,23.718253]],[[121.287459,23.71768],[121.287161,23.717947],[121.287165,23.717677],[121.287459,23.71768]],[[121.292466,23.717284],[121.292565,23.717195],[121.292564,23.717285],[121.292466,23.717284]],[[121.292662,23.717286],[121.292761,23.717197],[121.29276,23.717287],[121.292662,23.717286]],[[121.284134,23.716921],[121.284233,23.716831],[121.284232,23.716922],[121.284134,23.716921]],[[121.286885,23.71659],[121.286984,23.716501],[121.286983,23.716591],[121.286885,23.71659]],[[121.285319,23.716302],[121.285418,23.716213],[121.285417,23.716303],[121.285319,23.716302]],[[121.286791,23.716228],[121.28689,23.716139],[121.286889,23.716229],[121.286791,23.716228]],[[121.290434,23.715184],[121.291022,23.715191],[121.291115,23.715553],[121.290332,23.715454],[121.290434,23.715184]],[[121.288372,23.715342],[121.288471,23.715253],[121.28847,23.715343],[121.288372,23.715342]],[[121.288079,23.715249],[121.288178,23.715159],[121.288177,23.71525],[121.288079,23.715249]]],[[[121.300761,23.720445],[121.300671,23.719812],[121.300476,23.71972],[121.300383,23.719358],[121.300188,23.719265],[121.299888,23.719713],[121.300279,23.719808],[121.300079,23.720077],[121.300177,23.720078],[121.300175,23.720258],[121.30037,23.720351],[121.300465,23.720623],[121.300761,23.720445]]],[[[121.298795,23.720785],[121.29949,23.72016],[121.299492,23.71998],[121.299689,23.719892],[121.299595,23.71962],[121.299399,23.719618],[121.299297,23.719887],[121.299101,23.719885],[121.2991,23.719976],[121.298807,23.719882],[121.298808,23.719792],[121.298611,23.71988],[121.298608,23.72006],[121.29851,23.720059],[121.298508,23.72024],[121.298703,23.720332],[121.2986,23.720692],[121.298795,23.720785]],[[121.298999,23.720155],[121.299099,23.720066],[121.299098,23.720156],[121.298999,23.720155]]],[[[121.300855,23.720808],[121.300759,23.720626],[121.300563,23.720624],[121.300462,23.720803],[121.300755,23.720897],[121.300855,23.720808]]],[[[121.298394,23.721503],[121.298499,23.720962],[121.298208,23.720688],[121.29791,23.720956],[121.298002,23.721408],[121.297611,23.721314],[121.297511,23.721493],[121.297706,23.721586],[121.297799,23.721948],[121.297995,23.72195],[121.298195,23.721681],[121.298391,23.721683],[121.29849,23.721594],[121.298394,23.721503]],[[121.298195,23.721681],[121.298098,23.72159],[121.298196,23.721591],[121.298195,23.721681]]],[[[121.300233,23.723329],[121.300433,23.72306],[121.300238,23.722968],[121.30024,23.722787],[121.299947,23.722694],[121.300047,23.722605],[121.299954,23.722152],[121.300153,23.721974],[121.300156,23.721703],[121.300354,23.721615],[121.300358,23.721254],[121.300065,23.72116],[121.299973,23.720708],[121.299778,23.720615],[121.299677,23.720885],[121.299479,23.720973],[121.299476,23.721244],[121.299378,23.721243],[121.299374,23.721514],[121.299276,23.721513],[121.29927,23.721964],[121.299465,23.722056],[121.299555,23.72269],[121.299749,23.722872],[121.300043,23.722875],[121.300038,23.723237],[121.300233,23.723329]]],[[[121.309823,23.702214],[121.310023,23.701945],[121.310611,23.701952],[121.31061,23.702042],[121.311001,23.702136],[121.311199,23.701958],[121.311209,23.701236],[121.311014,23.701143],[121.311018,23.700782],[121.310823,23.70069],[121.310829,23.700238],[121.310927,23.700239],[121.310836,23.699696],[121.31113,23.6997],[121.311224,23.700062],[121.311419,23.700154],[121.311421,23.699974],[121.311618,23.699886],[121.311624,23.699434],[121.311527,23.699343],[121.311428,23.699432],[121.31084,23.699426],[121.310744,23.699244],[121.310351,23.69933],[121.310352,23.69924],[121.310058,23.699236],[121.309864,23.699054],[121.309175,23.699227],[121.309072,23.699587],[121.309363,23.699861],[121.309657,23.699864],[121.310142,23.700321],[121.310138,23.700592],[121.310332,23.700775],[121.310327,23.701136],[121.31003,23.701403],[121.310026,23.701674],[121.30963,23.701941],[121.309628,23.702121],[121.309823,23.702214]]],[[[121.301525,23.714494],[121.301527,23.714313],[121.301724,23.714225],[121.301731,23.713684],[121.302222,23.713689],[121.302414,23.713962],[121.302514,23.713873],[121.302807,23.713966],[121.303007,23.713607],[121.302909,23.713606],[121.302815,23.713334],[121.302519,23.713421],[121.302518,23.713512],[121.302224,23.713508],[121.302127,23.713417],[121.302134,23.712875],[121.301939,23.712783],[121.301846,23.712421],[121.301359,23.712144],[121.301061,23.712412],[121.301057,23.712773],[121.300858,23.712952],[121.300852,23.713403],[121.30095,23.713404],[121.301044,23.713766],[121.301239,23.713859],[121.301233,23.71431],[121.301036,23.714398],[121.301033,23.714579],[121.301326,23.714672],[121.301525,23.714494]]],[[[121.304162,23.715336],[121.304164,23.715155],[121.303969,23.715063],[121.303972,23.714882],[121.303681,23.714608],[121.303484,23.714696],[121.303388,23.714514],[121.303094,23.714511],[121.302804,23.714147],[121.302607,23.714235],[121.302898,23.714509],[121.302991,23.714871],[121.303188,23.714783],[121.303284,23.714965],[121.30387,23.715152],[121.303863,23.715693],[121.304057,23.715876],[121.304254,23.715788],[121.30426,23.715337],[121.304162,23.715336]]],[[[121.305025,23.71688],[121.304831,23.716697],[121.304743,23.715884],[121.304451,23.7157],[121.304253,23.715878],[121.304251,23.716059],[121.30454,23.716423],[121.304631,23.716966],[121.304826,23.717059],[121.305025,23.71688]]],[[[121.306974,23.717804],[121.307273,23.717447],[121.307469,23.717449],[121.307662,23.717722],[121.308054,23.717726],[121.308156,23.717456],[121.307178,23.717175],[121.306683,23.71753],[121.306778,23.717802],[121.306974,23.717804]]],[[[121.306575,23.718342],[121.306773,23.718163],[121.306776,23.717983],[121.306483,23.717889],[121.306485,23.717709],[121.306583,23.71771],[121.306491,23.717257],[121.306687,23.71726],[121.306787,23.71708],[121.306396,23.716985],[121.306397,23.716895],[121.30571,23.716978],[121.305614,23.716796],[121.305515,23.716885],[121.305222,23.716792],[121.305023,23.71697],[121.305117,23.717333],[121.305606,23.717428],[121.305605,23.717519],[121.3059,23.717431],[121.306093,23.717705],[121.306386,23.717798],[121.306385,23.717888],[121.305893,23.717973],[121.305985,23.718426],[121.30618,23.718518],[121.306281,23.718339],[121.306575,23.718342]],[[121.305217,23.717153],[121.305316,23.717064],[121.305315,23.717154],[121.305217,23.717153]]],[[[121.302122,23.721363],[121.302028,23.721091],[121.30193,23.72109],[121.301933,23.720819],[121.302031,23.72082],[121.302034,23.72064],[121.302132,23.720641],[121.302134,23.72046],[121.302433,23.720102],[121.302436,23.719832],[121.302338,23.719831],[121.302244,23.719559],[121.301749,23.719914],[121.301643,23.720545],[121.301544,23.720544],[121.301633,23.721268],[121.302021,23.721633],[121.302218,23.721545],[121.30222,23.721364],[121.302122,23.721363]]],[[[121.301621,23.72217],[121.301525,23.722079],[121.301327,23.722167],[121.301421,23.722529],[121.301618,23.722441],[121.301621,23.72217]]],[[[121.301602,23.723705],[121.301707,23.723165],[121.301513,23.722982],[121.301518,23.722621],[121.301323,23.722528],[121.301123,23.722797],[121.30083,23.722704],[121.30063,23.722972],[121.300921,23.723246],[121.301312,23.723341],[121.301309,23.723612],[121.30111,23.72379],[121.301402,23.723974],[121.301504,23.723704],[121.301602,23.723705]]],[[[121.304719,23.725365],[121.304235,23.724818],[121.304038,23.724906],[121.303458,23.724267],[121.303262,23.724265],[121.303266,23.723904],[121.304058,23.723371],[121.303965,23.723009],[121.303671,23.722915],[121.303674,23.722735],[121.30387,23.722737],[121.303871,23.722647],[121.30436,23.722742],[121.304559,23.722564],[121.304555,23.722835],[121.30475,23.722927],[121.304851,23.722748],[121.305146,23.722661],[121.305248,23.722391],[121.305054,23.722208],[121.30476,23.722205],[121.304758,23.722295],[121.303287,23.722279],[121.303289,23.722189],[121.302994,23.722185],[121.302895,23.722275],[121.302799,23.722093],[121.302505,23.72209],[121.302405,23.722269],[121.302503,23.72227],[121.302596,23.722633],[121.302794,23.722544],[121.302796,23.722364],[121.302992,23.722366],[121.302893,23.722455],[121.302984,23.722998],[121.302496,23.722812],[121.302393,23.723172],[121.3019,23.723347],[121.30199,23.72398],[121.30248,23.724076],[121.302476,23.724347],[121.302767,23.724621],[121.302866,23.724532],[121.303062,23.724534],[121.303061,23.724624],[121.303454,23.724538],[121.303452,23.724719],[121.303744,23.724903],[121.303742,23.725083],[121.303935,23.725266],[121.30423,23.725269],[121.304323,23.725631],[121.304521,23.725453],[121.304912,23.725548],[121.305013,23.725368],[121.304916,23.725277],[121.304719,23.725365]],[[121.304622,23.725274],[121.304523,23.725363],[121.304524,23.725272],[121.304622,23.725274]]],[[[121.30658,23.725566],[121.306485,23.725294],[121.306877,23.725298],[121.306977,23.725209],[121.306881,23.725027],[121.305901,23.724926],[121.305702,23.725195],[121.305605,23.725104],[121.305407,23.725192],[121.305892,23.725649],[121.306283,23.725743],[121.306284,23.725653],[121.30658,23.725566]]],[[[121.301572,23.725962],[121.301575,23.725782],[121.301869,23.725785],[121.301868,23.725875],[121.302065,23.725787],[121.30197,23.725515],[121.302263,23.725609],[121.302462,23.72543],[121.302464,23.72525],[121.30286,23.724983],[121.302767,23.724621],[121.302271,23.725067],[121.302174,23.724976],[121.30178,23.725062],[121.301875,23.725334],[121.301182,23.725778],[121.301178,23.726139],[121.301373,23.726231],[121.301474,23.725961],[121.301572,23.725962]]],[[[121.305571,23.727722],[121.305478,23.72736],[121.304312,23.726444],[121.304212,23.726624],[121.304504,23.726807],[121.3045,23.727078],[121.305182,23.727447],[121.305177,23.727808],[121.305371,23.727991],[121.305567,23.727993],[121.305667,23.727904],[121.305669,23.727723],[121.305571,23.727722]]],[[[121.303313,23.727878],[121.303216,23.727786],[121.302825,23.727692],[121.303025,23.727423],[121.30283,23.727331],[121.302735,23.727059],[121.302538,23.727147],[121.302632,23.727419],[121.302241,23.727324],[121.301951,23.72705],[121.301753,23.727138],[121.301947,23.727321],[121.301944,23.727592],[121.301847,23.727501],[121.301649,23.727589],[121.301841,23.727952],[121.302037,23.727954],[121.302231,23.728137],[121.303211,23.728148],[121.303311,23.728058],[121.303313,23.727878]]]]}},{"type":"Feature","properties":{"kind":"bare_dam","month":"2024-04","area_ha":41.66},"geometry":{"type":"MultiPolygon","coordinates":[[[[121.30311,23.690492],[121.303014,23.69031],[121.302817,23.690398],[121.302913,23.69058],[121.30311,23.690492]]],[[[121.303792,23.69086],[121.303696,23.690679],[121.303993,23.690501],[121.303897,23.69032],[121.303599,23.690587],[121.303403,23.690585],[121.303404,23.690495],[121.303207,23.690583],[121.3034,23.690856],[121.303596,23.690858],[121.303595,23.690949],[121.303792,23.69086]]],[[[121.308988,23.690917],[121.308993,23.690556],[121.308895,23.690555],[121.308801,23.690193],[121.308606,23.6901],[121.30861,23.689829],[121.308415,23.689737],[121.308313,23.690007],[121.308411,23.690008],[121.308408,23.690279],[121.308506,23.69028],[121.308498,23.690912],[121.308596,23.690913],[121.308494,23.691183],[121.308296,23.691361],[121.3081,23.691359],[121.307801,23.691717],[121.307016,23.691799],[121.307014,23.691889],[121.306228,23.692061],[121.306229,23.691971],[121.305838,23.691876],[121.305939,23.691606],[121.305746,23.691424],[121.305547,23.691602],[121.305352,23.69151],[121.304954,23.691957],[121.304758,23.691955],[121.304666,23.691502],[121.304374,23.691318],[121.304274,23.691498],[121.304372,23.691499],[121.304465,23.691861],[121.303974,23.691946],[121.303975,23.691856],[121.303779,23.691854],[121.303683,23.691672],[121.303487,23.69167],[121.303391,23.691488],[121.303195,23.691486],[121.303002,23.691303],[121.302902,23.691392],[121.302413,23.691297],[121.302318,23.691115],[121.301634,23.690927],[121.301542,23.690474],[121.302325,23.690573],[121.302425,23.690394],[121.302718,23.690487],[121.302818,23.690308],[121.302721,23.690217],[121.302426,23.690304],[121.302232,23.690121],[121.301937,23.690208],[121.301941,23.689937],[121.30145,23.689932],[121.301355,23.68975],[121.299884,23.689734],[121.299883,23.689824],[121.299589,23.689821],[121.29959,23.689731],[121.298805,23.689812],[121.298708,23.689721],[121.298607,23.6899],[121.298117,23.689895],[121.297522,23.69043],[121.297612,23.691063],[121.297905,23.691157],[121.297805,23.691246],[121.297796,23.691968],[121.298089,23.692062],[121.298084,23.692423],[121.298377,23.692517],[121.298375,23.692697],[121.29857,23.69279],[121.298565,23.693151],[121.29876,23.693243],[121.29875,23.694056],[121.29865,23.694145],[121.299137,23.694421],[121.29923,23.694783],[121.29933,23.694694],[121.299525,23.694787],[121.299723,23.694608],[121.299728,23.694247],[121.299826,23.694248],[121.29973,23.694067],[121.300024,23.69407],[121.300315,23.694344],[121.300417,23.693984],[121.300614,23.693986],[121.300708,23.694258],[121.301002,23.694261],[121.301001,23.694351],[121.301392,23.694446],[121.30168,23.694901],[121.30178,23.694811],[121.301976,23.694814],[121.301974,23.694904],[121.302368,23.694818],[121.302464,23.695],[121.302758,23.695003],[121.302759,23.694913],[121.303152,23.694827],[121.303056,23.694645],[121.302173,23.694725],[121.30198,23.694452],[121.301687,23.694359],[121.301497,23.693905],[121.301206,23.693631],[121.30101,23.693629],[121.301013,23.693449],[121.300722,23.693174],[121.300526,23.693172],[121.300528,23.692992],[121.300333,23.692899],[121.300434,23.69272],[121.300143,23.692446],[121.300242,23.692357],[121.300437,23.692449],[121.300636,23.692271],[121.300638,23.69209],[121.30054,23.692089],[121.300546,23.691637],[121.300645,23.691548],[121.301331,23.691556],[121.301524,23.691829],[121.301722,23.69165],[121.302213,23.691656],[121.302406,23.691838],[121.302995,23.691845],[121.303576,23.692393],[121.303675,23.692304],[121.304262,23.692401],[121.304261,23.692491],[121.304555,23.692494],[121.304556,23.692404],[121.304653,23.692495],[121.304947,23.692498],[121.304948,23.692408],[121.305241,23.692502],[121.305243,23.692411],[121.305537,23.692415],[121.305538,23.692324],[121.305831,23.692418],[121.305726,23.692958],[121.305628,23.692957],[121.305625,23.693138],[121.305723,23.693139],[121.305618,23.69368],[121.305321,23.693947],[121.304929,23.693943],[121.304828,23.694123],[121.304632,23.69412],[121.304235,23.694477],[121.304233,23.694658],[121.303742,23.694743],[121.303835,23.695105],[121.303638,23.695193],[121.303735,23.695284],[121.303635,23.695374],[121.30373,23.695646],[121.303532,23.695824],[121.303626,23.696096],[121.303724,23.696097],[121.304122,23.69565],[121.304514,23.695654],[121.304813,23.695296],[121.305205,23.695301],[121.305307,23.695031],[121.305801,23.694765],[121.305714,23.693861],[121.305812,23.693862],[121.305816,23.693592],[121.306014,23.693413],[121.306118,23.692963],[121.306614,23.692517],[121.30681,23.692519],[121.307009,23.69234],[121.307303,23.692344],[121.307698,23.692077],[121.307992,23.69208],[121.308687,23.691456],[121.30898,23.691549],[121.309083,23.691189],[121.308986,23.691098],[121.308788,23.691186],[121.308791,23.691005],[121.308988,23.690917]],[[121.304023,23.695739],[121.303926,23.695648],[121.304024,23.695649],[121.304023,23.695739]],[[121.308791,23.691005],[121.308694,23.690914],[121.308792,23.690915],[121.308791,23.691005]],[[121.299337,23.694153],[121.299043,23.694149],[121.299044,23.694059],[121.299338,23.694062],[121.299337,23.694153]],[[121.304656,23.692315],[121.304557,23.692314],[121.30456,23.692133],[121.304658,23.692134],[121.304656,23.692315]],[[121.299266,23.692075],[121.299166,23.692164],[121.299167,23.692074],[121.299266,23.692075]],[[121.299853,23.692172],[121.299657,23.692169],[121.299758,23.6919],[121.299954,23.691902],[121.299853,23.692172]],[[121.299954,23.691902],[121.300053,23.691813],[121.300052,23.691903],[121.299954,23.691902]],[[121.305246,23.69214],[121.305445,23.691962],[121.30554,23.692144],[121.305246,23.69214]],[[121.299661,23.691808],[121.299465,23.691806],[121.299466,23.691716],[121.299662,23.691718],[121.299661,23.691808]],[[121.299172,23.691713],[121.298976,23.691711],[121.298977,23.69162],[121.299173,23.691622],[121.299172,23.691713]],[[121.298396,23.691072],[121.298493,23.691163],[121.298491,23.691344],[121.298195,23.691431],[121.2982,23.69107],[121.298396,23.691072]]],[[[121.301743,23.69761],[121.302041,23.697343],[121.302335,23.697346],[121.302634,23.696988],[121.303027,23.696902],[121.303131,23.696452],[121.303229,23.696453],[121.303234,23.696092],[121.303431,23.696003],[121.303239,23.69573],[121.302943,23.695818],[121.302841,23.696178],[121.302644,23.696175],[121.302248,23.696532],[121.302145,23.696892],[121.301749,23.697159],[121.301646,23.697519],[121.301743,23.69761]]],[[[121.298118,23.69739],[121.298406,23.697845],[121.298208,23.698023],[121.298202,23.698474],[121.298005,23.698563],[121.297798,23.699373],[121.2975,23.699641],[121.297791,23.699915],[121.297882,23.700458],[121.299157,23.700472],[121.298871,23.699836],[121.298773,23.699835],[121.298777,23.699474],[121.298875,23.699475],[121.298878,23.699295],[121.299076,23.699116],[121.299081,23.698755],[121.29938,23.698397],[121.299576,23.698399],[121.299577,23.698309],[121.29987,23.698402],[121.299871,23.698312],[121.300361,23.698318],[121.300363,23.698227],[121.30095,23.698324],[121.301445,23.697968],[121.301447,23.697788],[121.301742,23.697701],[121.30155,23.697428],[121.301157,23.697423],[121.301159,23.697333],[121.300766,23.697329],[121.300568,23.697507],[121.300472,23.697326],[121.300179,23.697232],[121.300183,23.696961],[121.299794,23.696686],[121.2997,23.696414],[121.299502,23.696502],[121.299688,23.697317],[121.299393,23.697404],[121.299498,23.696863],[121.299205,23.69677],[121.299208,23.696499],[121.298918,23.696225],[121.29862,23.696492],[121.298424,23.69649],[121.29823,23.696308],[121.298629,23.69577],[121.298921,23.695954],[121.299023,23.695684],[121.299219,23.695686],[121.299216,23.695867],[121.299604,23.696232],[121.299707,23.695872],[121.299805,23.695873],[121.299807,23.695693],[121.299709,23.695692],[121.299812,23.695332],[121.299421,23.695237],[121.299422,23.695147],[121.299223,23.695325],[121.29893,23.695232],[121.298933,23.695051],[121.298835,23.69505],[121.298935,23.694871],[121.298644,23.694596],[121.298448,23.694594],[121.29825,23.694773],[121.298154,23.694591],[121.298252,23.694592],[121.298354,23.694322],[121.298062,23.694139],[121.297864,23.694317],[121.297861,23.694498],[121.297665,23.694495],[121.297463,23.694945],[121.297365,23.694944],[121.29746,23.695216],[121.297655,23.695308],[121.297652,23.695489],[121.297554,23.695487],[121.297649,23.695759],[121.297452,23.695848],[121.297447,23.696209],[121.297545,23.69621],[121.297446,23.696299],[121.297543,23.69639],[121.297438,23.696931],[121.297921,23.697478],[121.298118,23.69739]],[[121.300568,23.697507],[121.300469,23.697596],[121.30047,23.697506],[121.300568,23.697507]],[[121.299589,23.697406],[121.299686,23.697497],[121.299587,23.697496],[121.299589,23.697406]],[[121.298216,23.697391],[121.298021,23.697299],[121.298023,23.697118],[121.29822,23.69712],[121.298216,23.697391]],[[121.298498,23.698297],[121.298501,23.698117],[121.298599,23.698118],[121.298596,23.698298],[121.298498,23.698297]],[[121.299192,23.697763],[121.299193,23.697673],[121.299389,23.697675],[121.299485,23.697856],[121.299289,23.697854],[121.299288,23.697945],[121.298797,23.697939],[121.2987,23.697848],[121.298702,23.697758],[121.299192,23.697763]],[[121.299584,23.697767],[121.299585,23.697677],[121.299781,23.697679],[121.29978,23.697769],[121.299584,23.697767]],[[121.300074,23.697773],[121.300077,23.697592],[121.300175,23.697593],[121.300172,23.697774],[121.300074,23.697773]],[[121.29774,23.696302],[121.297643,23.696211],[121.297741,23.696212],[121.29774,23.696302]]],[[[121.296818,23.699362],[121.296527,23.699088],[121.296337,23.698635],[121.295748,23.698628],[121.295352,23.698985],[121.294861,23.698979],[121.294863,23.698889],[121.294665,23.698977],[121.294858,23.69925],[121.295347,23.699346],[121.295843,23.6989],[121.296137,23.698903],[121.29662,23.69945],[121.296818,23.699362]]],[[[121.31276,23.687346],[121.312467,23.687253],[121.312471,23.686982],[121.312372,23.686981],[121.312278,23.686709],[121.311984,23.686706],[121.311983,23.686796],[121.311687,23.686883],[121.311591,23.686792],[121.311691,23.686612],[121.311399,23.686429],[121.311401,23.686248],[121.311305,23.686157],[121.311107,23.686245],[121.311201,23.686607],[121.311299,23.686608],[121.311294,23.686969],[121.311392,23.68697],[121.311285,23.687692],[121.311187,23.68769],[121.311282,23.687872],[121.311578,23.687785],[121.311679,23.687515],[121.312074,23.687339],[121.312168,23.687611],[121.312653,23.688068],[121.312752,23.687978],[121.31276,23.687346]]],[[[121.310685,23.688588],[121.310881,23.68859],[121.31118,23.688232],[121.310985,23.68814],[121.310884,23.688319],[121.310491,23.688405],[121.310292,23.688674],[121.310487,23.688766],[121.310685,23.688588]]],[[[121.30891,23.689381],[121.308912,23.689201],[121.30921,23.688933],[121.309113,23.688842],[121.308819,23.688838],[121.308818,23.688929],[121.308623,23.688836],[121.308523,23.688926],[121.308616,23.689378],[121.308712,23.689469],[121.30891,23.689381]]],[[[121.310835,23.692202],[121.310641,23.692019],[121.310347,23.692016],[121.310348,23.691925],[121.310054,23.691922],[121.310055,23.691832],[121.30976,23.691919],[121.309855,23.692101],[121.310442,23.692197],[121.310636,23.69238],[121.310835,23.692202]]],[[[121.304063,23.692669],[121.303967,23.692488],[121.303672,23.692575],[121.303665,23.693116],[121.304347,23.693395],[121.304448,23.693215],[121.303962,23.692849],[121.303965,23.692668],[121.304063,23.692669]],[[121.304059,23.69294],[121.30396,23.693029],[121.303961,23.692939],[121.304059,23.69294]]]]}},{"type":"Feature","properties":{"kind":"water","month":"2024-04","area_ha":0.15},"geometry":{"type":"Polygon","coordinates":[[[121.298797,23.697939],[121.298702,23.697758],[121.299192,23.697763],[121.299193,23.697673],[121.299486,23.697766],[121.299288,23.697945],[121.298797,23.697939]]]}}]}