{"type":"FeatureCollection","features":[{"type":"Feature","properties":{"kind":"bare_slide","month":"2024-10","area_ha":18.38},"geometry":{"type":"MultiPolygon","coordinates":[[[[121.293788,23.706101],[121.294284,23.705655],[121.29419,23.705383],[121.293699,23.705378],[121.2936,23.705467],[121.293596,23.705828],[121.293694,23.705829],[121.293593,23.706009],[121.293788,23.706101]]],[[[121.294078,23.706466],[121.294275,23.706378],[121.29418,23.706106],[121.293984,23.706103],[121.293983,23.706194],[121.293885,23.706193],[121.293886,23.706102],[121.293788,23.706101],[121.29359,23.70628],[121.293685,23.706461],[121.29398,23.706465],[121.293981,23.706374],[121.294078,23.706466]]],[[[121.2922,23.715114],[121.292197,23.715294],[121.292391,23.715477],[121.292687,23.71539],[121.292688,23.7153],[121.292982,23.715303],[121.292978,23.715574],[121.29288,23.715573],[121.292975,23.715845],[121.293171,23.715847],[121.293369,23.715668],[121.293372,23.715488],[121.293765,23.715402],[121.293766,23.715312],[121.293962,23.715314],[121.29386,23.715674],[121.293662,23.715762],[121.293758,23.715944],[121.29415,23.715948],[121.294252,23.715678],[121.294841,23.715594],[121.294937,23.715776],[121.29523,23.715869],[121.295322,23.716322],[121.295619,23.716145],[121.295617,23.716325],[121.295812,23.716418],[121.295911,23.716328],[121.295817,23.715966],[121.296113,23.715879],[121.296117,23.715518],[121.295922,23.715426],[121.295526,23.715782],[121.295431,23.71551],[121.295042,23.715235],[121.294756,23.7146],[121.295446,23.714337],[121.295645,23.714158],[121.295647,23.713978],[121.296141,23.713712],[121.296144,23.713441],[121.296342,23.713353],[121.296344,23.713173],[121.296246,23.713172],[121.296345,23.713082],[121.296348,23.712902],[121.29625,23.712901],[121.296352,23.712541],[121.296255,23.712449],[121.296058,23.712538],[121.296151,23.7129],[121.296053,23.712899],[121.296051,23.713079],[121.295758,23.712986],[121.29556,23.713164],[121.295656,23.713256],[121.295556,23.713435],[121.295458,23.713434],[121.295363,23.713162],[121.295069,23.713159],[121.294969,23.713338],[121.294676,23.713245],[121.294278,23.713692],[121.294082,23.71369],[121.293883,23.713868],[121.29359,23.713775],[121.293489,23.714044],[121.293291,23.714132],[121.293387,23.714314],[121.293191,23.714312],[121.293095,23.71413],[121.292314,23.713851],[121.292116,23.714029],[121.292406,23.714303],[121.292403,23.714574],[121.292204,23.714753],[121.292008,23.71475],[121.292012,23.714479],[121.291914,23.714478],[121.29182,23.714116],[121.291622,23.714295],[121.291426,23.714292],[121.291331,23.71402],[121.29153,23.713842],[121.291238,23.713658],[121.29104,23.713837],[121.291034,23.714288],[121.290836,23.714376],[121.290834,23.714557],[121.291029,23.714649],[121.291023,23.715101],[121.291121,23.715102],[121.291022,23.715191],[121.29102,23.715372],[121.291118,23.715373],[121.291015,23.715733],[121.29121,23.715825],[121.29131,23.715646],[121.291506,23.715648],[121.291507,23.715558],[121.291702,23.71565],[121.291803,23.71547],[121.291999,23.715473],[121.292098,23.715383],[121.292005,23.715021],[121.292201,23.715023],[121.292399,23.714845],[121.292397,23.715026],[121.2922,23.715114]],[[121.295458,23.713434],[121.295359,23.713523],[121.29536,23.713433],[121.295458,23.713434]],[[121.295359,23.713523],[121.29526,23.713612],[121.295261,23.713522],[121.295359,23.713523]],[[121.292399,23.714845],[121.292499,23.714756],[121.292497,23.714846],[121.292399,23.714845]],[[121.295621,23.715964],[121.295524,23.715873],[121.295622,23.715874],[121.295621,23.715964]],[[121.294941,23.715505],[121.29504,23.715416],[121.295039,23.715506],[121.294941,23.715505]],[[121.294746,23.715413],[121.294455,23.715139],[121.294556,23.714959],[121.294943,23.715325],[121.294942,23.715415],[121.294746,23.715413]],[[121.294355,23.715318],[121.294258,23.715227],[121.294356,23.715228],[121.294355,23.715318]],[[121.292694,23.714848],[121.292696,23.714668],[121.293185,23.714763],[121.293082,23.715123],[121.292886,23.715121],[121.292889,23.714941],[121.292694,23.714848]],[[121.293772,23.71486],[121.293873,23.714681],[121.294069,23.714683],[121.294065,23.714954],[121.293772,23.71486]],[[121.291715,23.714657],[121.291713,23.714837],[121.291615,23.714836],[121.291519,23.714655],[121.291715,23.714657]],[[121.294362,23.714776],[121.294265,23.714685],[121.294363,23.714686],[121.294362,23.714776]],[[121.294462,23.714597],[121.294656,23.71478],[121.29446,23.714777],[121.294462,23.714597]],[[121.291421,23.714654],[121.291324,23.714562],[121.291422,23.714563],[121.291421,23.714654]],[[121.293875,23.7145],[121.293778,23.714409],[121.293876,23.71441],[121.293875,23.7145]],[[121.293978,23.71414],[121.294078,23.71396],[121.294472,23.713875],[121.294369,23.714235],[121.294075,23.714231],[121.293978,23.71414]],[[121.294571,23.713785],[121.294572,23.713695],[121.294866,23.713698],[121.294865,23.713789],[121.294571,23.713785]]],[[[121.295708,23.716868],[121.295612,23.716686],[121.295415,23.716774],[121.29551,23.716956],[121.295708,23.716868]]],[[[121.292554,23.718007],[121.292952,23.71756],[121.292662,23.717286],[121.292466,23.717284],[121.292572,23.716653],[121.29336,23.716391],[121.293558,23.716212],[121.293463,23.716031],[121.293264,23.716209],[121.292873,23.716114],[121.292078,23.716918],[121.292164,23.717822],[121.292358,23.718005],[121.292554,23.718007]]],[[[121.285636,23.722084],[121.284958,23.721445],[121.284565,23.72144],[121.284263,23.722069],[121.284066,23.722157],[121.284062,23.722428],[121.284551,23.722524],[121.284552,23.722434],[121.285043,23.722439],[121.285142,23.72235],[121.285138,23.722621],[121.285529,23.722715],[121.285629,23.722626],[121.285636,23.722084]]],[[[121.298496,23.706063],[121.298495,23.706153],[121.29879,23.706066],[121.298693,23.705975],[121.298695,23.705794],[121.298793,23.705795],[121.2987,23.705433],[121.298406,23.70543],[121.298206,23.705698],[121.297916,23.705424],[121.297718,23.705512],[121.297912,23.705695],[121.297714,23.705874],[121.297809,23.706055],[121.2983,23.706061],[121.298299,23.706151],[121.298496,23.706063]]],[[[121.300429,23.708251],[121.300331,23.70825],[121.300432,23.70798],[121.300239,23.707798],[121.299847,23.707703],[121.29985,23.707522],[121.300145,23.707435],[121.300049,23.707254],[121.299558,23.707339],[121.29936,23.707517],[121.299356,23.707788],[121.299162,23.707605],[121.298867,23.707692],[121.299155,23.708147],[121.299254,23.708058],[121.299451,23.70806],[121.299449,23.70815],[121.299843,23.708064],[121.300034,23.708428],[121.300328,23.708431],[121.300429,23.708251]],[[121.299452,23.70797],[121.299355,23.707878],[121.299453,23.707879],[121.299452,23.70797]]],[[[121.301428,23.714403],[121.301726,23.714135],[121.301731,23.713684],[121.301829,23.713685],[121.30174,23.713052],[121.302031,23.713235],[121.302134,23.712875],[121.301842,23.712691],[121.301845,23.712511],[121.301651,23.712328],[121.301552,23.712417],[121.301161,23.712323],[121.301057,23.712773],[121.300859,23.712861],[121.300848,23.713764],[121.301239,23.713859],[121.301233,23.71431],[121.301034,23.714489],[121.301326,23.714672],[121.301428,23.714403]],[[121.301643,23.71296],[121.301645,23.71278],[121.301743,23.712781],[121.301741,23.712961],[121.301643,23.71296]]],[[[121.296609,23.715433],[121.296714,23.714893],[121.29691,23.714895],[121.296908,23.715075],[121.297103,23.715168],[121.297204,23.714898],[121.297302,23.714899],[121.297305,23.714718],[121.297207,23.714717],[121.297307,23.714538],[121.297501,23.714721],[121.297697,23.714723],[121.297791,23.714995],[121.298179,23.71536],[121.298376,23.715272],[121.298569,23.715545],[121.298765,23.715547],[121.298964,23.715369],[121.298968,23.715008],[121.298675,23.714914],[121.298288,23.714549],[121.298193,23.714277],[121.297898,23.714364],[121.2979,23.714183],[121.298099,23.714005],[121.298,23.714004],[121.298003,23.713823],[121.297713,23.713459],[121.297516,23.713547],[121.29741,23.714178],[121.297013,23.714535],[121.297109,23.714716],[121.296718,23.714622],[121.296716,23.714712],[121.296224,23.714887],[121.296221,23.715068],[121.296319,23.715069],[121.296218,23.715339],[121.296412,23.715521],[121.296609,23.715433]]],[[[121.29581,23.716508],[121.295615,23.716416],[121.295515,23.716595],[121.29571,23.716687],[121.29581,23.716508]]],[[[121.299751,23.722692],[121.300045,23.722695],[121.300343,23.722427],[121.300449,23.721796],[121.300256,23.721614],[121.300059,23.721611],[121.299762,23.721879],[121.299754,23.722511],[121.299456,23.722779],[121.299651,23.722871],[121.299751,23.722692]]]]}},{"type":"Feature","properties":{"kind":"bare_dam","month":"2024-10","area_ha":7.1},"geometry":{"type":"MultiPolygon","coordinates":[[[[121.298017,23.690075],[121.297917,23.690164],[121.298016,23.690165],[121.298017,23.690075]]],[[[121.297917,23.690164],[121.297522,23.69043],[121.297614,23.690883],[121.2981,23.691249],[121.298199,23.69116],[121.298103,23.690979],[121.2984,23.690801],[121.298402,23.690621],[121.297917,23.690164]]],[[[121.29996,23.69145],[121.299959,23.691541],[121.300547,23.691547],[121.300647,23.691368],[121.300158,23.691272],[121.30016,23.691182],[121.299863,23.691359],[121.299672,23.690996],[121.298885,23.691168],[121.299078,23.691441],[121.299568,23.691446],[121.299567,23.691536],[121.29996,23.69145]]],[[[121.299917,23.694791],[121.300014,23.694882],[121.300211,23.694794],[121.300117,23.694432],[121.300314,23.694434],[121.300312,23.694524],[121.30051,23.694436],[121.300513,23.694165],[121.300812,23.693808],[121.300715,23.693716],[121.30042,23.693803],[121.300324,23.693622],[121.300126,23.6938],[121.300029,23.693709],[121.299733,23.693796],[121.299347,23.69334],[121.300032,23.693438],[121.300232,23.693169],[121.300427,23.693262],[121.300528,23.692992],[121.300431,23.6929],[121.300235,23.692898],[121.300135,23.693078],[121.299646,23.692982],[121.29926,23.692526],[121.299064,23.692524],[121.29887,23.692341],[121.299068,23.692163],[121.299072,23.691892],[121.298587,23.691435],[121.298391,23.691433],[121.298291,23.691613],[121.298681,23.691798],[121.298677,23.692068],[121.298384,23.691975],[121.29829,23.691703],[121.298095,23.691611],[121.298195,23.691431],[121.298,23.691339],[121.297901,23.691428],[121.297998,23.691519],[121.297895,23.691879],[121.298188,23.691973],[121.298283,23.692245],[121.298577,23.692248],[121.298473,23.692698],[121.299053,23.693337],[121.298657,23.693603],[121.298555,23.693963],[121.299138,23.694331],[121.299232,23.694693],[121.299331,23.694604],[121.299526,23.694696],[121.299527,23.694606],[121.299822,23.694519],[121.299917,23.694791]],[[121.299826,23.694248],[121.299924,23.694249],[121.29992,23.69452],[121.299822,23.694519],[121.299826,23.694248]],[[121.298947,23.693968],[121.298949,23.693787],[121.299148,23.693609],[121.299536,23.693884],[121.299337,23.694153],[121.299141,23.69415],[121.298947,23.693968]]],[[[121.2993,23.696951],[121.29901,23.696677],[121.298811,23.696856],[121.298809,23.697036],[121.298907,23.697037],[121.298807,23.697217],[121.299002,23.697309],[121.2993,23.696951]],[[121.299102,23.69713],[121.299005,23.697039],[121.299103,23.69704],[121.299102,23.69713]]],[[[121.298509,23.697485],[121.298807,23.697217],[121.298612,23.697124],[121.298412,23.697393],[121.298509,23.697485]]],[[[121.301237,23.691284],[121.301633,23.691017],[121.301537,23.690836],[121.301145,23.690831],[121.301146,23.690741],[121.300755,23.690646],[121.300562,23.690373],[121.30007,23.690549],[121.300164,23.690821],[121.300751,23.690917],[121.300847,23.691099],[121.301044,23.691011],[121.301237,23.691284]]],[[[121.303582,23.691942],[121.303781,23.691673],[121.303488,23.691579],[121.303489,23.691489],[121.303195,23.691486],[121.303197,23.691396],[121.302901,23.691483],[121.302995,23.691845],[121.303291,23.691668],[121.303582,23.691942]]],[[[121.301686,23.694449],[121.30169,23.694178],[121.301496,23.693996],[121.301005,23.694081],[121.301099,23.694353],[121.301393,23.694356],[121.301489,23.694537],[121.301686,23.694449]]],[[[121.304912,23.695207],[121.305206,23.69521],[121.305308,23.69494],[121.305504,23.694943],[121.305604,23.694763],[121.305508,23.694672],[121.305212,23.694759],[121.305112,23.694938],[121.304916,23.694936],[121.304519,23.695293],[121.304714,23.695385],[121.304912,23.695207]]],[[[121.301049,23.698235],[121.301346,23.697967],[121.301251,23.697786],[121.300564,23.697778],[121.300464,23.697958],[121.300269,23.697865],[121.299971,23.698133],[121.300068,23.698224],[121.301049,23.698235]]]]}},{"type":"Feature","properties":{"kind":"water","month":"2024-10","area_ha":9.02},"geometry":{"type":"MultiPolygon","coordinates":[[[[121.278202,23.690668],[121.278105,23.690577],[121.278104,23.690667],[121.278202,23.690668]]],[[[121.278488,23.691303],[121.27888,23.691308],[121.27898,23.691128],[121.27849,23.691123],[121.278494,23.690852],[121.278396,23.690851],[121.278397,23.690761],[121.278299,23.69076],[121.2783,23.690669],[121.278202,23.690668],[121.278293,23.691211],[121.278489,23.691213],[121.278488,23.691303]]],[[[121.279668,23.691046],[121.279671,23.690775],[121.279573,23.690774],[121.279077,23.69122],[121.27937,23.691313],[121.279668,23.691046]]],[[[121.283682,23.691542],[121.283391,23.691268],[121.283194,23.691356],[121.283482,23.69181],[121.283679,23.691722],[121.283682,23.691542]]],[[[121.284929,23.693632],[121.28484,23.692909],[121.284645,23.692817],[121.284649,23.692546],[121.284455,23.692363],[121.284259,23.692361],[121.284158,23.692631],[121.284451,23.692724],[121.284448,23.692905],[121.284642,23.693087],[121.284637,23.693449],[121.284832,23.693541],[121.284827,23.693902],[121.285119,23.694086],[121.285124,23.693725],[121.284929,23.693632]]],[[[121.298147,23.695133],[121.298145,23.695313],[121.298341,23.695316],[121.298342,23.695225],[121.298147,23.695133]]],[[[121.285788,23.695448],[121.285497,23.695174],[121.285404,23.694812],[121.285109,23.694899],[121.285496,23.695264],[121.285591,23.695536],[121.285788,23.695448]]],[[[121.298721,23.696223],[121.298829,23.695501],[121.298535,23.695498],[121.298538,23.695227],[121.29844,23.695226],[121.298339,23.695496],[121.298241,23.695495],[121.298238,23.695676],[121.298433,23.695768],[121.298425,23.6964],[121.298326,23.696489],[121.298521,23.696582],[121.298623,23.696222],[121.298721,23.696223]]],[[[121.298229,23.696398],[121.298328,23.696309],[121.29823,23.696308],[121.298229,23.696398]]],[[[121.29076,23.69767],[121.290468,23.697486],[121.29047,23.697306],[121.290275,23.697213],[121.290183,23.696761],[121.28999,23.696578],[121.289404,23.696391],[121.289406,23.69621],[121.289504,23.696211],[121.289411,23.695849],[121.289017,23.695935],[121.289016,23.696025],[121.289309,23.696119],[121.28921,23.696208],[121.289304,23.69648],[121.289597,23.696574],[121.289691,23.696936],[121.289887,23.696938],[121.290081,23.697121],[121.290078,23.697301],[121.290563,23.697758],[121.29056,23.697939],[121.290757,23.697851],[121.29076,23.69767]]],[[[121.291148,23.697945],[121.291052,23.697854],[121.29105,23.697944],[121.291148,23.697945]]],[[[121.291342,23.698128],[121.291536,23.698311],[121.291638,23.698041],[121.291245,23.698037],[121.291247,23.697946],[121.291148,23.697945],[121.291048,23.698125],[121.291342,23.698128]]],[[[121.294959,23.698981],[121.294863,23.698889],[121.294861,23.698979],[121.294959,23.698981]]],[[[121.295054,23.699253],[121.295348,23.699256],[121.295349,23.699165],[121.295155,23.698983],[121.294959,23.698981],[121.294859,23.69916],[121.295055,23.699162],[121.295054,23.699253]]],[[[121.298766,23.700377],[121.298767,23.700287],[121.298571,23.700284],[121.29857,23.700375],[121.298766,23.700377]]],[[[121.298656,23.701279],[121.298755,23.70119],[121.298657,23.701188],[121.298656,23.701279]]],[[[121.31256,23.687615],[121.312662,23.687345],[121.312465,23.687433],[121.312277,23.686799],[121.311687,23.686883],[121.311397,23.686609],[121.311488,23.687152],[121.31139,23.687151],[121.311386,23.687422],[121.311288,23.687421],[121.311284,23.687782],[121.31148,23.687784],[121.311581,23.687514],[121.311879,23.687246],[121.312173,23.68725],[121.312171,23.68743],[121.312269,23.687431],[121.312266,23.687612],[121.312462,23.687614],[121.312458,23.687975],[121.312652,23.688158],[121.312658,23.687616],[121.31256,23.687615]]],[[[121.310292,23.688674],[121.31118,23.688232],[121.311282,23.687872],[121.310786,23.688318],[121.310492,23.688315],[121.310292,23.688674]]],[[[121.299785,23.689823],[121.299786,23.689733],[121.298805,23.689812],[121.298802,23.689993],[121.299194,23.689997],[121.299193,23.690088],[121.300077,23.690007],[121.300079,23.689826],[121.299785,23.689823]]],[[[121.308891,23.690826],[121.3088,23.690283],[121.308606,23.6901],[121.308613,23.689559],[121.308515,23.689558],[121.308414,23.689827],[121.308512,23.689828],[121.308597,23.690823],[121.308696,23.690733],[121.308891,23.690826]]],[[[121.298601,23.690352],[121.298501,23.690531],[121.299187,23.690539],[121.299189,23.690449],[121.298601,23.690352]]],[[[121.308787,23.691276],[121.308886,23.691187],[121.308788,23.691186],[121.308787,23.691276]]],[[[121.306914,23.692068],[121.307208,23.692072],[121.30721,23.691891],[121.307407,23.691893],[121.307307,23.691982],[121.307403,23.692164],[121.307698,23.692077],[121.307699,23.691987],[121.307994,23.69199],[121.308787,23.691276],[121.308494,23.691183],[121.3078,23.691807],[121.307016,23.691799],[121.306915,23.691978],[121.306621,23.691975],[121.306717,23.692157],[121.306913,23.692159],[121.306914,23.692068]]],[[[121.306621,23.691975],[121.306524,23.691884],[121.306523,23.691974],[121.306621,23.691975]]],[[[121.304022,23.695829],[121.304123,23.69556],[121.304518,23.695383],[121.304622,23.694933],[121.304423,23.695111],[121.304326,23.69502],[121.303933,23.695106],[121.303834,23.695195],[121.303928,23.695467],[121.303334,23.695912],[121.303725,23.696007],[121.303826,23.695827],[121.304022,23.695829]]],[[[121.303132,23.696361],[121.303232,23.696272],[121.303134,23.696271],[121.303132,23.696361]]],[[[121.302336,23.697256],[121.302635,23.696898],[121.302831,23.6969],[121.30303,23.696721],[121.303132,23.696361],[121.302735,23.696718],[121.302542,23.696536],[121.302246,23.696623],[121.302244,23.696803],[121.301848,23.69707],[121.301746,23.69743],[121.301941,23.697522],[121.302042,23.697252],[121.302336,23.697256]]],[[[121.299098,23.697401],[121.2991,23.69731],[121.298707,23.697306],[121.298509,23.697485],[121.298507,23.697665],[121.298702,23.697758],[121.298705,23.697487],[121.299098,23.697401]]],[[[121.299062,23.7002],[121.298867,23.700107],[121.298775,23.699655],[121.298581,23.699472],[121.298877,23.699385],[121.298879,23.699204],[121.298977,23.699205],[121.299084,23.698484],[121.29948,23.698218],[121.299971,23.698133],[121.299974,23.697952],[121.300268,23.697955],[121.300269,23.697865],[121.300464,23.697958],[121.300466,23.697777],[121.301055,23.697783],[121.300861,23.697601],[121.301061,23.697332],[121.300374,23.697324],[121.300469,23.697596],[121.30027,23.697775],[121.300074,23.697773],[121.299882,23.6975],[121.299587,23.697496],[121.29968,23.697949],[121.299481,23.698127],[121.299285,23.698125],[121.299185,23.698305],[121.298794,23.69821],[121.298889,23.698392],[121.298296,23.698746],[121.298093,23.699286],[121.297895,23.699464],[121.2977,23.699372],[121.297402,23.69964],[121.2974,23.69982],[121.297793,23.699734],[121.29789,23.699826],[121.297884,23.700277],[121.29808,23.700279],[121.29809,23.699557],[121.298287,23.699469],[121.298186,23.699738],[121.298284,23.69974],[121.298274,23.700462],[121.298371,23.700553],[121.298469,23.700554],[121.298383,23.69965],[121.298578,23.699743],[121.29867,23.700195],[121.298865,23.700288],[121.298559,23.701187],[121.298856,23.70101],[121.298858,23.700829],[121.299056,23.700651],[121.299062,23.7002]],[[121.298386,23.699379],[121.298486,23.69929],[121.298484,23.699381],[121.298386,23.699379]],[[121.298684,23.699112],[121.298782,23.699113],[121.29878,23.699294],[121.298682,23.699292],[121.298684,23.699112]]],[[[121.298956,23.700831],[121.299053,23.700922],[121.299054,23.700832],[121.298956,23.700831]]],[[[121.298856,23.70101],[121.298949,23.701372],[121.299145,23.701374],[121.299151,23.700923],[121.298856,23.70101]]],[[[121.298753,23.70137],[121.298852,23.701281],[121.298754,23.70128],[121.298753,23.70137]]]]}}]}