{"type":"FeatureCollection","features":[{"type":"Feature","properties":{"kind":"bare_slide","month":"2024-12","area_ha":192.62},"geometry":{"type":"MultiPolygon","coordinates":[[[[121.299241,23.701556],[121.299243,23.701375],[121.298753,23.70137],[121.298657,23.701188],[121.297971,23.701181],[121.298058,23.701995],[121.298156,23.701996],[121.298055,23.702265],[121.29825,23.702358],[121.298434,23.703263],[121.299111,23.703993],[121.299104,23.704534],[121.299006,23.704533],[121.299002,23.704804],[121.298904,23.704803],[121.299,23.704985],[121.299396,23.704718],[121.2995,23.704268],[121.299697,23.70418],[121.299699,23.703999],[121.299601,23.703998],[121.299702,23.703819],[121.29941,23.703635],[121.299412,23.703454],[121.299218,23.703271],[121.299224,23.70282],[121.299029,23.702728],[121.299129,23.702638],[121.299143,23.701555],[121.299241,23.701556]],[[121.299028,23.702818],[121.298831,23.702906],[121.298834,23.702635],[121.298933,23.702636],[121.299028,23.702818]],[[121.299503,23.703997],[121.299406,23.703906],[121.299504,23.703907],[121.299503,23.703997]],[[121.29902,23.70345],[121.298923,23.703359],[121.299021,23.70336],[121.29902,23.70345]],[[121.298743,23.702092],[121.298647,23.702001],[121.298745,23.702002],[121.298743,23.702092]],[[121.29865,23.70173],[121.298553,23.701639],[121.298651,23.70164],[121.29865,23.70173]]],[[[121.298873,23.707241],[121.298678,23.707148],[121.298685,23.706607],[121.298783,23.706608],[121.298786,23.706337],[121.299084,23.706069],[121.299086,23.705889],[121.298988,23.705888],[121.299089,23.705708],[121.298701,23.705343],[121.298407,23.705339],[121.298406,23.70543],[121.298015,23.705335],[121.297717,23.705603],[121.297521,23.705601],[121.297421,23.70578],[121.297714,23.705874],[121.297809,23.706055],[121.298496,23.706063],[121.298593,23.706154],[121.298493,23.706243],[121.298488,23.706695],[121.298388,23.706784],[121.298193,23.706692],[121.297995,23.70687],[121.297993,23.707051],[121.29809,23.707142],[121.298385,23.707055],[121.298575,23.707508],[121.298771,23.707511],[121.298873,23.707241]],[[121.29889,23.705887],[121.298793,23.705795],[121.298892,23.705796],[121.29889,23.705887]]],[[[121.297576,23.708942],[121.297479,23.708851],[121.297282,23.708939],[121.297088,23.708756],[121.296592,23.709202],[121.296784,23.709475],[121.296588,23.709473],[121.296394,23.70929],[121.296096,23.709648],[121.296193,23.70974],[121.296683,23.709745],[121.296973,23.710019],[121.29717,23.710021],[121.29727,23.709842],[121.297465,23.709934],[121.297566,23.709665],[121.297858,23.709848],[121.297958,23.709759],[121.297863,23.709487],[121.297376,23.709211],[121.297576,23.708942]],[[121.297379,23.70903],[121.297278,23.70921],[121.29718,23.709209],[121.297182,23.709028],[121.297379,23.70903]],[[121.297369,23.709753],[121.297272,23.709661],[121.29737,23.709662],[121.297369,23.709753]],[[121.297273,23.709571],[121.297276,23.70939],[121.297374,23.709392],[121.297372,23.709572],[121.297273,23.709571]]],[[[121.300214,23.709694],[121.30002,23.709511],[121.29992,23.70969],[121.300115,23.709783],[121.300214,23.709694]]],[[[121.297068,23.710291],[121.29707,23.710111],[121.296875,23.710018],[121.296675,23.710377],[121.29687,23.71047],[121.297068,23.710291]]],[[[121.300213,23.709784],[121.300212,23.709874],[121.299821,23.70978],[121.299724,23.709688],[121.299824,23.709509],[121.299433,23.709414],[121.299337,23.709233],[121.298942,23.709499],[121.299037,23.709681],[121.299333,23.709594],[121.299331,23.709684],[121.299624,23.709778],[121.29962,23.710139],[121.299323,23.710316],[121.299321,23.710497],[121.299515,23.710679],[121.299811,23.710502],[121.299814,23.710321],[121.30001,23.710324],[121.300202,23.710597],[121.300496,23.7106],[121.30069,23.710783],[121.300687,23.711053],[121.300977,23.711327],[121.301173,23.71133],[121.301274,23.71115],[121.300982,23.710966],[121.301084,23.710697],[121.30089,23.710514],[121.300694,23.710512],[121.300602,23.710059],[121.300213,23.709784]],[[121.300407,23.709967],[121.300307,23.710056],[121.300309,23.709966],[121.300407,23.709967]]],[[[121.298136,23.711116],[121.298431,23.711029],[121.29854,23.710217],[121.298345,23.710125],[121.298147,23.710303],[121.298248,23.710033],[121.298053,23.709941],[121.297954,23.71003],[121.29805,23.710212],[121.297852,23.7103],[121.297758,23.710028],[121.297563,23.709935],[121.297463,23.710115],[121.29785,23.71048],[121.297746,23.710931],[121.29794,23.711113],[121.298039,23.711024],[121.298136,23.711116]]],[[[121.297931,23.711836],[121.298326,23.711569],[121.29833,23.711298],[121.298233,23.711207],[121.298036,23.711295],[121.297842,23.711112],[121.297739,23.711472],[121.297443,23.71165],[121.297538,23.711831],[121.297244,23.711828],[121.297148,23.711647],[121.297049,23.711736],[121.296756,23.711642],[121.296653,23.712002],[121.29675,23.712094],[121.29685,23.712004],[121.29734,23.71201],[121.297339,23.7121],[121.297633,23.712103],[121.297827,23.712286],[121.297931,23.711836]],[[121.298033,23.711476],[121.297936,23.711384],[121.298034,23.711385],[121.298033,23.711476]]],[[[121.28386,23.715383],[121.283963,23.715022],[121.284159,23.715025],[121.284357,23.714846],[121.284067,23.714572],[121.28407,23.714301],[121.284467,23.713945],[121.284471,23.713674],[121.284569,23.713675],[121.284473,23.713493],[121.284275,23.713671],[121.284079,23.713669],[121.282987,23.71465],[121.282982,23.715012],[121.283275,23.715105],[121.283273,23.715286],[121.283563,23.71556],[121.28386,23.715383]]],[[[121.296491,23.716967],[121.296494,23.716696],[121.296693,23.716518],[121.296598,23.716246],[121.296003,23.716781],[121.296001,23.716962],[121.296194,23.717144],[121.296491,23.716967]]],[[[121.290142,23.715001],[121.289553,23.714994],[121.289555,23.714904],[121.289948,23.714818],[121.289852,23.714636],[121.288086,23.714707],[121.288186,23.714527],[121.287895,23.714344],[121.287696,23.714522],[121.287694,23.714703],[121.287792,23.714704],[121.28769,23.714973],[121.287201,23.714878],[121.2872,23.714968],[121.286906,23.714965],[121.286707,23.715143],[121.286612,23.714962],[121.28681,23.714783],[121.286423,23.714418],[121.286223,23.714686],[121.286418,23.714779],[121.286512,23.715051],[121.286316,23.715049],[121.286215,23.715318],[121.28592,23.715315],[121.285919,23.715405],[121.285329,23.715579],[121.285129,23.715848],[121.284933,23.715846],[121.284634,23.716204],[121.284438,23.716202],[121.284239,23.71638],[121.284433,23.716563],[121.284829,23.716296],[121.285023,23.716479],[121.284922,23.716659],[121.285214,23.716842],[121.285115,23.716932],[121.285209,23.717203],[121.284913,23.717381],[121.284719,23.717198],[121.284821,23.716928],[121.284626,23.716836],[121.284427,23.717014],[121.284233,23.716831],[121.284236,23.716651],[121.283847,23.716376],[121.283351,23.716822],[121.283445,23.717094],[121.283743,23.716826],[121.283939,23.716828],[121.283937,23.717009],[121.283641,23.717096],[121.283244,23.717453],[121.283335,23.717995],[121.283137,23.718174],[121.283132,23.718535],[121.283326,23.718718],[121.283031,23.718805],[121.283029,23.718895],[121.282735,23.718892],[121.282537,23.71907],[121.282534,23.719251],[121.282825,23.719525],[121.282629,23.719523],[121.282429,23.719791],[121.282135,23.719788],[121.282134,23.719878],[121.28174,23.719964],[121.28164,23.720144],[121.281738,23.720145],[121.281732,23.720596],[121.281927,23.720689],[121.281924,23.72096],[121.282414,23.720965],[121.282514,23.720786],[121.282808,23.720789],[121.282909,23.720609],[121.283105,23.720611],[121.283304,23.720433],[121.283306,23.720253],[121.283701,23.720076],[121.283705,23.719715],[121.284192,23.719991],[121.283994,23.72017],[121.283989,23.720531],[121.284282,23.720625],[121.284183,23.720714],[121.284275,23.721166],[121.283881,23.721252],[121.283484,23.721609],[121.283579,23.721881],[121.283873,23.721884],[121.283874,23.721794],[121.284367,23.721619],[121.284364,23.721799],[121.284068,23.721977],[121.284153,23.722971],[121.284349,23.722973],[121.28435,23.722883],[121.284447,23.722974],[121.285526,23.722986],[121.285525,23.723076],[121.285624,23.722987],[121.286212,23.722994],[121.286406,23.723176],[121.286896,23.723182],[121.286895,23.723272],[121.287289,23.723186],[121.287384,23.723368],[121.287581,23.72337],[121.287582,23.72328],[121.287777,23.723372],[121.288074,23.723105],[121.288078,23.722834],[121.288274,23.722836],[121.288275,23.722746],[121.288666,23.72284],[121.288766,23.722751],[121.288663,23.723111],[121.288467,23.723109],[121.288267,23.723378],[121.28817,23.723286],[121.287875,23.723373],[121.287869,23.723825],[121.28777,23.723914],[121.287965,23.724006],[121.28796,23.724368],[121.288154,23.72455],[121.288449,23.724463],[121.288643,23.724646],[121.288542,23.724825],[121.288736,23.725008],[121.288932,23.72501],[121.289028,23.725192],[121.289323,23.725105],[121.289317,23.725556],[121.289414,23.725648],[121.28961,23.72565],[121.289612,23.72556],[121.290395,23.725659],[121.290393,23.725839],[121.290785,23.725844],[121.290783,23.726024],[121.291175,23.726028],[121.291271,23.72621],[121.291565,23.726213],[121.291562,23.726394],[121.293525,23.726325],[121.293527,23.726145],[121.29392,23.726149],[121.293922,23.725969],[121.29451,23.725975],[121.294513,23.725794],[121.294905,23.725799],[121.294903,23.725979],[121.295491,23.725986],[121.295395,23.725804],[121.295594,23.725626],[121.29579,23.725628],[121.295882,23.72608],[121.296076,23.726263],[121.296566,23.726269],[121.296765,23.72609],[121.296676,23.725367],[121.296383,23.725273],[121.296583,23.725005],[121.296873,23.725279],[121.297271,23.724832],[121.297466,23.724924],[121.297568,23.724654],[121.297963,23.724478],[121.297867,23.724296],[121.298064,23.724208],[121.298067,23.724028],[121.298454,23.724393],[121.29835,23.724843],[121.298545,23.724936],[121.298744,23.724757],[121.298655,23.724034],[121.298364,23.72376],[121.29807,23.723757],[121.297876,23.723574],[121.29788,23.723303],[121.297978,23.723304],[121.297983,23.722943],[121.298281,23.722585],[121.298772,23.722591],[121.299159,23.722956],[121.29926,23.722777],[121.299162,23.722775],[121.299069,23.722323],[121.298876,23.72214],[121.29868,23.722138],[121.298584,23.721956],[121.298485,23.722046],[121.298388,23.721954],[121.298192,23.721952],[121.29819,23.722042],[121.297799,23.721948],[121.297601,23.722126],[121.297698,23.722218],[121.297588,23.723119],[121.297191,23.723476],[121.297385,23.723659],[121.297475,23.724292],[121.297177,23.72456],[121.296786,23.724465],[121.296685,23.724645],[121.29639,23.724732],[121.296392,23.724551],[121.296688,23.724464],[121.296987,23.724106],[121.296992,23.723655],[121.296703,23.72329],[121.296712,23.722568],[121.29681,23.722569],[121.296916,23.722028],[121.297412,23.721582],[121.297317,23.72131],[121.297899,23.721859],[121.298195,23.721681],[121.298197,23.721501],[121.298294,23.721592],[121.298492,23.721504],[121.298395,23.721413],[121.298497,23.721052],[121.298596,23.721054],[121.298402,23.720871],[121.298504,23.720511],[121.298698,23.720694],[121.298995,23.720516],[121.298998,23.720245],[121.2989,23.720244],[121.299003,23.719884],[121.298809,23.719701],[121.298613,23.719699],[121.298618,23.719338],[121.298914,23.719161],[121.298917,23.71898],[121.299015,23.718981],[121.299117,23.718621],[121.299315,23.718533],[121.299318,23.718262],[121.299516,23.718174],[121.299518,23.717994],[121.299811,23.718087],[121.300009,23.717909],[121.300012,23.717728],[121.30011,23.717729],[121.299997,23.718902],[121.300191,23.718994],[121.300189,23.719175],[121.299992,23.719263],[121.299988,23.719534],[121.299791,23.719622],[121.299883,23.720074],[121.299486,23.720431],[121.299581,23.720703],[121.299483,23.720702],[121.299479,23.720973],[121.299281,23.721151],[121.299277,23.721422],[121.29908,23.72151],[121.299083,23.72124],[121.298889,23.721147],[121.298685,23.721687],[121.299073,23.722052],[121.299269,23.722054],[121.299264,23.722415],[121.299458,23.722598],[121.299455,23.722869],[121.299944,23.722965],[121.300037,23.723327],[121.300429,23.723331],[121.300532,23.722971],[121.30063,23.722972],[121.300628,23.723153],[121.300726,23.723154],[121.300626,23.723333],[121.300724,23.723334],[121.300817,23.723697],[121.301013,23.723699],[121.301109,23.72388],[121.301403,23.723884],[121.301404,23.723793],[121.301599,23.723886],[121.301698,23.723797],[121.301709,23.722984],[121.301611,23.722983],[121.301614,23.722712],[121.301516,23.722711],[121.30162,23.722261],[121.301718,23.722262],[121.301626,23.721809],[121.301331,23.721896],[121.301227,23.722347],[121.301032,23.722254],[121.300635,23.722611],[121.300633,23.722792],[121.300436,23.72279],[121.300435,23.72288],[121.30024,23.722787],[121.300342,23.722518],[121.30054,23.722339],[121.300737,23.722341],[121.300838,23.722072],[121.300936,23.722073],[121.300839,23.721981],[121.300942,23.721621],[121.300844,23.72162],[121.300753,23.721077],[121.301149,23.720811],[121.301055,23.720449],[121.300765,23.720174],[121.300769,23.719813],[121.300477,23.719629],[121.300484,23.719088],[121.300386,23.719087],[121.300397,23.718274],[121.300695,23.718006],[121.300697,23.717826],[121.300503,23.717643],[121.3009,23.717286],[121.300904,23.717015],[121.3011,23.717018],[121.3012,23.716838],[121.300711,23.716742],[121.300609,23.717012],[121.300116,23.717278],[121.300112,23.717549],[121.299917,23.717456],[121.300119,23.717007],[121.300217,23.717008],[121.300225,23.716376],[121.300523,23.716108],[121.300527,23.715837],[121.300822,23.71575],[121.300818,23.716021],[121.300917,23.716022],[121.300813,23.716473],[121.30091,23.716564],[121.301107,23.716476],[121.30111,23.716205],[121.301309,23.716027],[121.301213,23.715845],[121.301017,23.715843],[121.301019,23.715662],[121.301218,23.715484],[121.300925,23.71539],[121.300928,23.715119],[121.301026,23.715121],[121.301029,23.71494],[121.301324,23.714853],[121.301228,23.714671],[121.301524,23.714584],[121.301527,23.714313],[121.301825,23.714046],[121.301631,23.713863],[121.301635,23.713592],[121.301833,23.713414],[121.30174,23.713052],[121.301935,23.713144],[121.301929,23.713595],[121.302222,23.713689],[121.302221,23.713779],[121.30232,23.71369],[121.302515,23.713782],[121.302315,23.714051],[121.302801,23.714418],[121.302797,23.714689],[121.303188,23.714783],[121.303284,23.714965],[121.303871,23.715061],[121.303763,23.715873],[121.304056,23.715966],[121.304053,23.716147],[121.304442,23.716422],[121.304531,23.717146],[121.30502,23.717241],[121.305218,23.717063],[121.304831,23.716697],[121.304743,23.715884],[121.30445,23.71579],[121.304356,23.715518],[121.304158,23.715606],[121.304161,23.715426],[121.304359,23.715247],[121.304164,23.715155],[121.304072,23.714702],[121.30378,23.714519],[121.303882,23.714249],[121.303589,23.714155],[121.303488,23.714335],[121.303194,23.714332],[121.303193,23.714422],[121.302998,23.71433],[121.30291,23.713516],[121.30262,23.713242],[121.302226,23.713328],[121.302132,23.713056],[121.302034,23.713055],[121.301942,23.712602],[121.302334,23.712607],[121.302434,23.712427],[121.302043,23.712332],[121.302045,23.712152],[121.301852,23.711969],[121.301558,23.711966],[121.301455,23.712326],[121.301064,23.712231],[121.300865,23.71241],[121.30096,23.712682],[121.300563,23.713039],[121.300854,23.713313],[121.30085,23.713584],[121.300948,23.713585],[121.300847,23.713854],[121.30065,23.713852],[121.300555,23.713671],[121.300357,23.713759],[121.300152,23.714479],[121.299955,23.714567],[121.299847,23.715288],[121.299153,23.715913],[121.299048,23.716453],[121.298853,23.716361],[121.298654,23.716539],[121.298652,23.71672],[121.298453,23.716898],[121.298548,23.71717],[121.298352,23.717168],[121.298153,23.717346],[121.298151,23.717527],[121.297955,23.717525],[121.297657,23.717792],[121.297553,23.718243],[121.297255,23.71851],[121.297061,23.718418],[121.29696,23.718598],[121.296863,23.718506],[121.29647,23.718592],[121.296368,23.718862],[121.29627,23.718861],[121.296379,23.718049],[121.296281,23.718048],[121.296289,23.717416],[121.296094,23.717324],[121.295696,23.717771],[121.295787,23.718314],[121.295885,23.718315],[121.295879,23.718766],[121.295583,23.718944],[121.295679,23.719035],[121.295578,23.719305],[121.295382,23.719303],[121.295189,23.719029],[121.294992,23.719118],[121.294989,23.719298],[121.29528,23.719572],[121.295277,23.719843],[121.29508,23.719841],[121.294887,23.719658],[121.294688,23.719837],[121.294785,23.719928],[121.294684,23.720198],[121.294585,23.720197],[121.294589,23.719926],[121.294491,23.719925],[121.294396,23.719653],[121.293904,23.719828],[121.293901,23.720009],[121.294193,23.720192],[121.294285,23.720645],[121.294679,23.720559],[121.29478,23.720289],[121.295076,23.720202],[121.295176,23.720023],[121.295371,23.720115],[121.295266,23.720656],[121.294968,23.720923],[121.294964,23.721284],[121.294568,23.721551],[121.294275,23.721457],[121.294076,23.721636],[121.29417,23.721998],[121.294072,23.721997],[121.294069,23.722178],[121.293873,23.722175],[121.29388,23.721634],[121.293979,23.721545],[121.293786,23.721362],[121.29359,23.72136],[121.293494,23.721178],[121.293298,23.721176],[121.293206,23.720723],[121.293011,23.720631],[121.293112,23.720361],[121.292822,23.720087],[121.292922,23.719907],[121.292728,23.719725],[121.292637,23.719182],[121.292344,23.719088],[121.292543,23.71891],[121.292553,23.718097],[121.293149,23.717562],[121.293152,23.717291],[121.293348,23.717294],[121.29345,23.717024],[121.293746,23.716846],[121.293749,23.716666],[121.293651,23.716665],[121.293753,23.716305],[121.293952,23.716126],[121.294541,23.716042],[121.294741,23.715774],[121.295231,23.715779],[121.295224,23.716321],[121.295321,23.716412],[121.295519,23.716324],[121.295514,23.716685],[121.295315,23.716864],[121.295312,23.717135],[121.295507,23.717227],[121.295806,23.716869],[121.295812,23.716418],[121.29601,23.716239],[121.295915,23.715967],[121.296113,23.715879],[121.296217,23.715429],[121.296314,23.71552],[121.296609,23.715433],[121.296714,23.714893],[121.29691,23.714895],[121.297005,23.715167],[121.296907,23.715166],[121.296804,23.715526],[121.296607,23.715614],[121.296601,23.716065],[121.296501,23.716154],[121.296696,23.716247],[121.296798,23.715977],[121.296995,23.715889],[121.2969,23.715707],[121.296998,23.715708],[121.297001,23.715437],[121.297198,23.715349],[121.297104,23.715077],[121.297301,23.714989],[121.297307,23.714538],[121.297794,23.714814],[121.297791,23.714995],[121.297986,23.715087],[121.297984,23.715268],[121.298178,23.71545],[121.298375,23.715362],[121.298763,23.715728],[121.298864,23.715458],[121.299062,23.71537],[121.299066,23.715009],[121.298872,23.714826],[121.298676,23.714824],[121.298581,23.714642],[121.298385,23.71464],[121.298388,23.714369],[121.298682,23.714372],[121.298783,23.714193],[121.298589,23.71401],[121.298393,23.714008],[121.298193,23.714277],[121.297898,23.714364],[121.2979,23.714183],[121.298195,23.714096],[121.298296,23.713917],[121.298199,23.713825],[121.298002,23.713913],[121.297913,23.71319],[121.297815,23.713189],[121.297915,23.713009],[121.297623,23.712826],[121.297523,23.713005],[121.297717,23.713188],[121.297619,23.713187],[121.297511,23.713908],[121.297413,23.713907],[121.297311,23.714267],[121.296818,23.714442],[121.296519,23.7148],[121.296225,23.714797],[121.296124,23.714976],[121.296318,23.715159],[121.295921,23.715516],[121.295725,23.715514],[121.295527,23.715692],[121.29543,23.715601],[121.295534,23.71515],[121.295243,23.714876],[121.294949,23.714873],[121.294847,23.715143],[121.294455,23.715139],[121.294851,23.714872],[121.294754,23.714781],[121.294854,23.714601],[121.295346,23.714516],[121.295447,23.714246],[121.295645,23.714158],[121.295647,23.713978],[121.295942,23.713891],[121.29624,23.713623],[121.296244,23.713352],[121.296342,23.713353],[121.296345,23.713082],[121.296443,23.713084],[121.29645,23.712542],[121.29616,23.712268],[121.295861,23.712626],[121.295857,23.712897],[121.295661,23.712894],[121.295561,23.713074],[121.295269,23.71289],[121.295069,23.713159],[121.294775,23.713155],[121.294776,23.713065],[121.294579,23.713153],[121.294476,23.713513],[121.294769,23.713607],[121.294571,23.713785],[121.294375,23.713783],[121.294475,23.713604],[121.294182,23.71351],[121.294082,23.71369],[121.29359,23.713775],[121.293391,23.714043],[121.292802,23.714037],[121.292708,23.713765],[121.291924,23.713666],[121.291824,23.713845],[121.292215,23.71394],[121.292212,23.714211],[121.292406,23.714303],[121.292204,23.714753],[121.29201,23.71466],[121.292013,23.714389],[121.291915,23.714388],[121.292015,23.714209],[121.291919,23.714117],[121.291329,23.714201],[121.291331,23.71402],[121.29153,23.713842],[121.291336,23.713659],[121.29114,23.713657],[121.290934,23.714377],[121.291227,23.714471],[121.291226,23.714561],[121.291127,23.71465],[121.290637,23.714645],[121.290338,23.715003],[121.290241,23.714911],[121.290142,23.715001]],[[121.298701,23.720513],[121.298507,23.72033],[121.298308,23.720509],[121.298113,23.720416],[121.298411,23.720149],[121.298413,23.719968],[121.298704,23.720242],[121.298701,23.720513]],[[121.300925,23.71539],[121.300825,23.71548],[121.300827,23.715389],[121.300925,23.71539]],[[121.301228,23.714671],[121.301131,23.71458],[121.301229,23.714581],[121.301228,23.714671]],[[121.301642,23.71305],[121.301645,23.71278],[121.301743,23.712781],[121.30174,23.713052],[121.301642,23.71305]],[[121.304161,23.715426],[121.304064,23.715334],[121.304162,23.715336],[121.304161,23.715426]],[[121.293011,23.720631],[121.292911,23.72072],[121.292913,23.72063],[121.293011,23.720631]],[[121.294375,23.713783],[121.294275,23.713872],[121.294277,23.713782],[121.294375,23.713783]],[[121.294275,23.713872],[121.294176,23.713962],[121.294177,23.713871],[121.294275,23.713872]],[[121.294176,23.713962],[121.294077,23.714051],[121.294078,23.71396],[121.294176,23.713962]],[[121.294077,23.714051],[121.293978,23.71414],[121.293979,23.71405],[121.294077,23.714051]],[[121.290338,23.715003],[121.290435,23.715094],[121.290337,23.715093],[121.290338,23.715003]],[[121.292056,23.726129],[121.292152,23.72631],[121.291858,23.726307],[121.291859,23.726217],[121.292056,23.726129]],[[121.292645,23.726135],[121.292642,23.726316],[121.292545,23.726224],[121.29225,23.726311],[121.29235,23.726132],[121.292645,23.726135]],[[121.292647,23.725954],[121.29255,23.725863],[121.292648,23.725864],[121.292647,23.725954]],[[121.291769,23.725584],[121.291771,23.725403],[121.29187,23.725404],[121.291867,23.725585],[121.291769,23.725584]],[[121.292461,23.72514],[121.292263,23.725318],[121.292269,23.724867],[121.292367,23.724868],[121.292363,23.725139],[121.292461,23.72514]],[[121.290892,23.725122],[121.290989,23.725214],[121.290891,23.725213],[121.290892,23.725122]],[[121.29099,23.725123],[121.29109,23.725034],[121.291089,23.725125],[121.29099,23.725123]],[[121.292855,23.725054],[121.292758,23.724962],[121.292856,23.724963],[121.292855,23.725054]],[[121.295116,23.724627],[121.295016,23.724807],[121.294918,23.724806],[121.29492,23.724625],[121.295116,23.724627]],[[121.296207,23.723736],[121.296209,23.723556],[121.296601,23.72356],[121.296696,23.723832],[121.296005,23.724186],[121.296009,23.723824],[121.296207,23.723736]],[[121.292776,23.723608],[121.292772,23.723879],[121.292576,23.723877],[121.292581,23.723516],[121.292776,23.723608]],[[121.295531,23.722916],[121.295536,23.722555],[121.295831,23.722468],[121.296526,23.721843],[121.296521,23.722205],[121.296423,23.722204],[121.296019,23.723102],[121.295526,23.723277],[121.295429,23.723186],[121.295433,23.722915],[121.295531,23.722916]],[[121.294549,23.722996],[121.294452,23.722904],[121.29455,23.722905],[121.294549,23.722996]],[[121.295236,23.723003],[121.295139,23.722912],[121.295237,23.722913],[121.295236,23.723003]],[[121.294649,23.722816],[121.294553,23.722725],[121.294651,23.722726],[121.294649,23.722816]],[[121.288378,23.722386],[121.288278,23.722565],[121.28818,23.722564],[121.288182,23.722383],[121.288378,23.722386]],[[121.292401,23.722249],[121.292299,23.722519],[121.292201,23.722518],[121.292206,23.722157],[121.292401,23.722249]],[[121.295053,23.721918],[121.295056,23.721737],[121.295154,23.721738],[121.295152,23.721919],[121.295053,23.721918]],[[121.292412,23.721437],[121.292413,23.721347],[121.29261,23.721259],[121.292507,23.721619],[121.292214,23.721525],[121.292215,23.721435],[121.292412,23.721437]],[[121.291236,23.721334],[121.291142,23.721062],[121.291436,23.721065],[121.291528,23.721517],[121.291236,23.721334]],[[121.29781,23.721135],[121.29762,23.720682],[121.297915,23.720595],[121.297812,23.720955],[121.298007,23.721047],[121.298004,23.721318],[121.297709,23.721315],[121.297712,23.721134],[121.29781,23.721135]],[[121.295948,23.721024],[121.29595,23.720844],[121.296048,23.720845],[121.296046,23.721026],[121.295948,23.721024]],[[121.291836,23.720437],[121.291933,23.720529],[121.29213,23.720441],[121.292029,23.72071],[121.291834,23.720618],[121.291836,23.720437]],[[121.297226,23.720768],[121.29723,23.720497],[121.297328,23.720498],[121.297324,23.720769],[121.297226,23.720768]],[[121.28899,23.720586],[121.288991,23.720496],[121.289187,23.720498],[121.289186,23.720589],[121.28899,23.720586]],[[121.290856,23.720426],[121.29096,23.719976],[121.291356,23.719619],[121.291551,23.719712],[121.291853,23.719173],[121.292046,23.719356],[121.292243,23.719358],[121.292239,23.719629],[121.291745,23.719894],[121.291642,23.720255],[121.291249,23.72034],[121.291245,23.720611],[121.291049,23.720609],[121.290856,23.720426]],[[121.292621,23.720446],[121.292324,23.720623],[121.292227,23.720532],[121.29233,23.720172],[121.292623,23.720265],[121.292621,23.720446]],[[121.292232,23.720171],[121.292235,23.7199],[121.292334,23.719901],[121.29233,23.720172],[121.292232,23.720171]],[[121.296642,23.7204],[121.296546,23.720309],[121.296644,23.72031],[121.296642,23.7204]],[[121.297432,23.720047],[121.297329,23.720408],[121.297231,23.720406],[121.297238,23.719865],[121.297432,23.720047]],[[121.292723,23.720086],[121.292627,23.719995],[121.292725,23.719996],[121.292723,23.720086]],[[121.296846,23.71986],[121.296843,23.720041],[121.296745,23.72004],[121.296748,23.719859],[121.296846,23.71986]],[[121.296848,23.71968],[121.296946,23.719681],[121.296944,23.719862],[121.296846,23.71986],[121.296848,23.71968]],[[121.28753,23.719758],[121.287531,23.719667],[121.287727,23.719669],[121.287726,23.71976],[121.28753,23.719758]],[[121.284883,23.719638],[121.284786,23.719547],[121.284884,23.719548],[121.284883,23.719638]],[[121.285683,23.718473],[121.28578,23.718564],[121.286075,23.718477],[121.286365,23.718842],[121.286166,23.71902],[121.285775,23.718925],[121.285577,23.719104],[121.285573,23.719375],[121.285278,23.719462],[121.284988,23.719097],[121.285086,23.719098],[121.285683,23.718473]],[[121.285485,23.718651],[121.285388,23.71856],[121.285486,23.718561],[121.285485,23.718651]],[[121.287141,23.719482],[121.287143,23.719302],[121.287241,23.719303],[121.287239,23.719483],[121.287141,23.719482]],[[121.289396,23.719507],[121.2893,23.719416],[121.289398,23.719417],[121.289396,23.719507]],[[121.29597,23.719309],[121.296364,23.719223],[121.296361,23.719404],[121.296065,23.719581],[121.29597,23.719309]],[[121.290088,23.719154],[121.290385,23.718886],[121.290779,23.7188],[121.290776,23.718981],[121.290383,23.719067],[121.290085,23.719334],[121.290088,23.719154]],[[121.297735,23.719328],[121.297832,23.71942],[121.297734,23.719419],[121.297735,23.719328]],[[121.297836,23.719149],[121.298032,23.719151],[121.298031,23.719241],[121.297833,23.71933],[121.297836,23.719149]],[[121.298127,23.719333],[121.298224,23.719424],[121.298126,23.719423],[121.298127,23.719333]],[[121.298324,23.719335],[121.298129,23.719242],[121.298131,23.719062],[121.298425,23.719065],[121.298423,23.719246],[121.298324,23.719335]],[[121.284203,23.719179],[121.284204,23.719089],[121.2844,23.719091],[121.284399,23.719181],[121.284203,23.719179]],[[121.286556,23.719205],[121.286459,23.719114],[121.286557,23.719115],[121.286556,23.719205]],[[121.283321,23.719079],[121.283324,23.718898],[121.28352,23.7189],[121.283519,23.718991],[121.283321,23.719079]],[[121.28352,23.7189],[121.283619,23.718811],[121.283618,23.718902],[121.28352,23.7189]],[[121.29725,23.718962],[121.297246,23.719233],[121.29705,23.719231],[121.297052,23.71905],[121.29725,23.718962]],[[121.284107,23.718997],[121.28401,23.718906],[121.284108,23.718907],[121.284107,23.718997]],[[121.287445,23.718763],[121.287741,23.718586],[121.287934,23.718859],[121.287735,23.719037],[121.287539,23.719035],[121.287442,23.718944],[121.287445,23.718763]],[[121.297445,23.719054],[121.297447,23.718874],[121.297545,23.718875],[121.297543,23.719055],[121.297445,23.719054]],[[121.284602,23.718642],[121.284601,23.718732],[121.284307,23.718729],[121.284309,23.718548],[121.284602,23.718642]],[[121.28666,23.718755],[121.286661,23.718664],[121.286857,23.718667],[121.286856,23.718757],[121.28666,23.718755]],[[121.297839,23.718878],[121.297742,23.718787],[121.29784,23.718788],[121.297839,23.718878]],[[121.28519,23.718648],[121.28529,23.718559],[121.285288,23.718649],[121.28519,23.718648]],[[121.285192,23.718558],[121.285095,23.718466],[121.284998,23.718375],[121.285194,23.718377],[121.285192,23.718558]],[[121.291574,23.717996],[121.291375,23.718175],[121.29127,23.718715],[121.290976,23.718712],[121.291275,23.718354],[121.291082,23.718081],[121.291278,23.718083],[121.291379,23.717904],[121.291674,23.717817],[121.29177,23.717998],[121.291574,23.717996]],[[121.291674,23.717817],[121.291773,23.717728],[121.291772,23.717818],[121.291674,23.717817]],[[121.29755,23.718514],[121.297547,23.718694],[121.29735,23.718782],[121.297352,23.718602],[121.29755,23.718514]],[[121.298628,23.718526],[121.298626,23.718706],[121.298331,23.718793],[121.298333,23.718613],[121.298628,23.718526]],[[121.283524,23.718539],[121.283428,23.718448],[121.283526,23.718449],[121.283524,23.718539]],[[121.286859,23.718576],[121.286762,23.718485],[121.28686,23.718486],[121.286859,23.718576]],[[121.291862,23.718451],[121.29186,23.718632],[121.291664,23.718629],[121.291667,23.718359],[121.291862,23.718451]],[[121.284016,23.718454],[121.283919,23.718363],[121.284017,23.718364],[121.284016,23.718454]],[[121.285684,23.718383],[121.285587,23.718291],[121.285685,23.718292],[121.285684,23.718383]],[[121.286567,23.718392],[121.28647,23.718301],[121.286568,23.718302],[121.286567,23.718392]],[[121.283725,23.71818],[121.283822,23.718272],[121.283724,23.718271],[121.283725,23.71818]],[[121.283827,23.717911],[121.283633,23.717728],[121.283829,23.71773],[121.284023,23.717913],[121.283921,23.718182],[121.283823,23.718181],[121.283827,23.717911]],[[121.285097,23.718286],[121.285099,23.718105],[121.285197,23.718106],[121.285195,23.718287],[121.285097,23.718286]],[[121.285392,23.718199],[121.285295,23.718107],[121.285394,23.718109],[121.285392,23.718199]],[[121.284707,23.718101],[121.28461,23.71801],[121.284708,23.718011],[121.284707,23.718101]],[[121.285396,23.717928],[121.285398,23.717747],[121.285496,23.717748],[121.285494,23.717929],[121.285396,23.717928]],[[121.284811,23.717651],[121.284812,23.71756],[121.285008,23.717562],[121.285007,23.717653],[121.284811,23.717651]],[[121.290892,23.717628],[121.29119,23.71736],[121.291192,23.717179],[121.291489,23.717002],[121.291492,23.716731],[121.291788,23.716644],[121.291882,23.716916],[121.291584,23.717184],[121.291582,23.717364],[121.291287,23.717451],[121.291087,23.71772],[121.290892,23.717628]],[[121.298245,23.717799],[121.298149,23.717708],[121.298247,23.717709],[121.298245,23.717799]],[[121.28442,23.717556],[121.284323,23.717465],[121.284421,23.717466],[121.28442,23.717556]],[[121.289715,23.717615],[121.289618,23.717523],[121.289716,23.717524],[121.289715,23.717615]],[[121.290913,23.716002],[121.290714,23.716271],[121.29032,23.716357],[121.289725,23.716892],[121.289134,23.717066],[121.289236,23.716797],[121.289926,23.716533],[121.290323,23.716177],[121.290913,23.716002]],[[121.290913,23.716002],[121.291012,23.715913],[121.291011,23.716004],[121.290913,23.716002]],[[121.292274,23.71692],[121.292376,23.716651],[121.292474,23.716652],[121.29247,23.716923],[121.292274,23.71692]],[[121.292474,23.716652],[121.292573,23.716563],[121.292572,23.716653],[121.292474,23.716652]],[[121.292573,23.716563],[121.292672,23.716473],[121.292671,23.716564],[121.292573,23.716563]],[[121.285417,23.716303],[121.285512,23.716575],[121.285218,23.716571],[121.28522,23.716391],[121.285417,23.716303]],[[121.291003,23.716636],[121.291005,23.716455],[121.291103,23.716456],[121.291101,23.716637],[121.291003,23.716636]],[[121.285911,23.716037],[121.286203,23.716221],[121.286302,23.716132],[121.286209,23.71577],[121.286308,23.715681],[121.286601,23.715774],[121.286599,23.715955],[121.286401,23.716043],[121.286498,23.716134],[121.286398,23.716314],[121.285808,23.716397],[121.285911,23.716037]],[[121.285418,23.716213],[121.285321,23.716121],[121.28542,23.716122],[121.285418,23.716213]],[[121.290028,23.716173],[121.289931,23.716082],[121.29003,23.716083],[121.290028,23.716173]],[[121.292286,23.716018],[121.292285,23.716108],[121.291991,23.716105],[121.291993,23.715924],[121.292091,23.715925],[121.291995,23.715743],[121.291798,23.715832],[121.291895,23.715923],[121.291793,23.716193],[121.291502,23.716009],[121.291603,23.715739],[121.292097,23.715474],[121.292099,23.715293],[121.292293,23.715476],[121.292684,23.71557],[121.29258,23.716021],[121.292286,23.716018]],[[121.292684,23.71557],[121.292783,23.715481],[121.292782,23.715572],[121.292684,23.71557]],[[121.29297,23.716206],[121.292873,23.716114],[121.292971,23.716115],[121.29297,23.716206]],[[121.291307,23.715916],[121.29121,23.715825],[121.291308,23.715826],[121.291307,23.715916]],[[121.289643,23.715627],[121.289546,23.715536],[121.289644,23.715537],[121.289643,23.715627]],[[121.290135,23.715542],[121.290038,23.715451],[121.290136,23.715452],[121.290135,23.715542]],[[121.290826,23.715189],[121.290822,23.71546],[121.290529,23.715366],[121.290532,23.715186],[121.290826,23.715189]],[[121.289259,23.714991],[121.289158,23.715261],[121.288961,23.715258],[121.289063,23.714989],[121.289259,23.714991]],[[121.294355,23.715318],[121.294258,23.715227],[121.294356,23.715228],[121.294355,23.715318]],[[121.287982,23.715157],[121.287885,23.715066],[121.287983,23.715067],[121.287982,23.715157]],[[121.293967,23.714953],[121.29387,23.714861],[121.293968,23.714862],[121.293967,23.714953]],[[121.294361,23.714867],[121.294264,23.714775],[121.294362,23.714776],[121.294361,23.714867]],[[121.292695,23.714758],[121.292696,23.714668],[121.292892,23.71467],[121.292891,23.71476],[121.292695,23.714758]],[[121.29348,23.714676],[121.293384,23.714585],[121.293482,23.714586],[121.29348,23.714676]],[[121.294461,23.714687],[121.294462,23.714597],[121.294658,23.714599],[121.294657,23.714689],[121.294461,23.714687]],[[121.293876,23.71441],[121.293779,23.714318],[121.293877,23.714319],[121.293876,23.71441]],[[121.303682,23.714518],[121.303585,23.714426],[121.303683,23.714427],[121.303682,23.714518]],[[121.300743,23.714305],[121.300646,23.714213],[121.300744,23.714214],[121.300743,23.714305]],[[121.294965,23.713609],[121.294868,23.713518],[121.294967,23.713519],[121.294965,23.713609]],[[121.295164,23.713431],[121.295261,23.713522],[121.295163,23.713521],[121.295164,23.713431]],[[121.295263,23.713341],[121.295459,23.713344],[121.295458,23.713434],[121.295262,23.713432],[121.295263,23.713341]],[[121.295459,23.713344],[121.295558,23.713254],[121.295557,23.713345],[121.295459,23.713344]],[[121.301846,23.712421],[121.301749,23.712329],[121.301847,23.71233],[121.301846,23.712421]]],[[[121.299166,23.707334],[121.29887,23.707421],[121.298865,23.707873],[121.299155,23.708147],[121.299254,23.708058],[121.299351,23.708149],[121.299843,23.708064],[121.29984,23.708245],[121.300034,23.708428],[121.300328,23.708431],[121.300428,23.708342],[121.300333,23.70807],[121.30053,23.707981],[121.300534,23.707711],[121.300732,23.707532],[121.301123,23.707627],[121.301421,23.707359],[121.301715,23.707362],[121.302015,23.706914],[121.301821,23.706731],[121.301722,23.706821],[121.301527,23.706728],[121.301031,23.707174],[121.301033,23.706994],[121.300742,23.70681],[121.300641,23.706989],[121.30025,23.706895],[121.300146,23.707345],[121.299856,23.707071],[121.299462,23.707157],[121.299362,23.707337],[121.299167,23.707244],[121.299166,23.707334]],[[121.29946,23.707338],[121.299458,23.707518],[121.29936,23.707517],[121.299362,23.707337],[121.29946,23.707338]],[[121.300136,23.708158],[121.300235,23.708069],[121.300234,23.708159],[121.300136,23.708158]],[[121.300137,23.708067],[121.30004,23.707976],[121.300138,23.707977],[121.300137,23.708067]],[[121.299356,23.707788],[121.299259,23.707697],[121.299357,23.707698],[121.299356,23.707788]],[[121.300042,23.707796],[121.300045,23.707615],[121.300339,23.707618],[121.300337,23.707799],[121.300042,23.707796]]],[[[121.306672,23.718433],[121.306574,23.718432],[121.306678,23.717982],[121.306483,23.717889],[121.306585,23.717529],[121.306097,23.717343],[121.305997,23.717523],[121.30629,23.717616],[121.306288,23.717797],[121.306386,23.717798],[121.306385,23.717888],[121.30609,23.717885],[121.306092,23.717795],[121.305894,23.717883],[121.306081,23.718607],[121.30657,23.718703],[121.306672,23.718433]]],[[[121.302123,23.721273],[121.301933,23.720819],[121.302031,23.72082],[121.302034,23.72064],[121.302232,23.720461],[121.302236,23.720191],[121.302434,23.720012],[121.302439,23.719651],[121.302245,23.719468],[121.30175,23.719824],[121.301644,23.720455],[121.301546,23.720454],[121.301537,23.721086],[121.302022,23.721543],[121.302219,23.721455],[121.302222,23.721274],[121.302123,23.721273]]],[[[121.302698,23.722363],[121.302798,23.722183],[121.302506,23.722],[121.302407,23.722089],[121.302601,23.722271],[121.302501,23.722451],[121.302696,23.722543],[121.302795,23.722454],[121.302698,23.722363]]],[[[121.304944,23.72311],[121.304945,23.72302],[121.304652,23.722926],[121.304651,23.723016],[121.304259,23.723012],[121.304158,23.723192],[121.304451,23.723285],[121.304547,23.723467],[121.304746,23.723288],[121.305137,23.723383],[121.305237,23.723203],[121.304944,23.72311]]],[[[121.306018,23.723483],[121.305828,23.723029],[121.30553,23.723297],[121.305433,23.723206],[121.305236,23.723294],[121.305427,23.723657],[121.306018,23.723483]]],[[[121.303815,23.72698],[121.30382,23.726619],[121.304117,23.726352],[121.303934,23.725356],[121.304131,23.725268],[121.304128,23.725539],[121.304612,23.725996],[121.304712,23.725907],[121.304619,23.725454],[121.304914,23.725457],[121.305014,23.725278],[121.304623,23.725183],[121.304624,23.725093],[121.304427,23.725181],[121.304237,23.724728],[121.304039,23.724816],[121.303459,23.724177],[121.303165,23.724174],[121.303168,23.723903],[121.303565,23.723546],[121.303859,23.723549],[121.304058,23.723371],[121.304061,23.7231],[121.303868,23.722917],[121.303572,23.723005],[121.303378,23.722822],[121.303577,23.722643],[121.303871,23.722647],[121.303872,23.722556],[121.304265,23.722561],[121.304458,23.722743],[121.304657,23.722565],[121.30495,23.722658],[121.305149,23.72239],[121.305053,23.722298],[121.304463,23.722382],[121.304464,23.722292],[121.304072,23.722288],[121.304073,23.722197],[121.303385,23.72228],[121.303095,23.722006],[121.302899,23.722004],[121.302798,23.722183],[121.302993,23.722276],[121.302991,23.722456],[121.302893,23.722455],[121.302985,23.722908],[121.302497,23.722722],[121.302299,23.7229],[121.302296,23.723081],[121.3021,23.723079],[121.301999,23.723348],[121.3019,23.723347],[121.301895,23.723799],[121.301993,23.7238],[121.301892,23.723979],[121.301989,23.724071],[121.30248,23.724076],[121.302471,23.724708],[121.302373,23.724707],[121.302272,23.724977],[121.301881,23.724882],[121.301777,23.725333],[121.301578,23.725511],[121.301285,23.725417],[121.301082,23.725957],[121.301471,23.726232],[121.301674,23.725693],[121.301967,23.725786],[121.302069,23.725516],[121.302165,23.725608],[121.302461,23.725521],[121.302464,23.72525],[121.302861,23.724893],[121.302866,23.724532],[121.303062,23.724534],[121.303061,23.724624],[121.303356,23.724537],[121.303354,23.724718],[121.303647,23.724811],[121.303643,23.725082],[121.303545,23.725081],[121.303642,23.725172],[121.303636,23.725624],[121.303141,23.72598],[121.303038,23.72643],[121.303231,23.726613],[121.303225,23.727064],[121.303419,23.727247],[121.303615,23.727249],[121.303717,23.726979],[121.303815,23.72698]],[[121.302684,23.723446],[121.302783,23.723357],[121.302782,23.723447],[121.302684,23.723446]]],[[[121.305902,23.724836],[121.305901,23.724926],[121.305509,23.724922],[121.305311,23.7251],[121.305795,23.725557],[121.306382,23.725654],[121.306486,23.725204],[121.306583,23.725295],[121.306879,23.725208],[121.306785,23.724846],[121.306491,23.724843],[121.30639,23.725022],[121.306197,23.724839],[121.305902,23.724836]],[[121.306292,23.725021],[121.306193,23.72511],[121.306194,23.72502],[121.306292,23.725021]]],[[[121.305863,23.727906],[121.305572,23.727632],[121.305479,23.727269],[121.305091,23.726904],[121.304895,23.726902],[121.304896,23.726812],[121.304601,23.726899],[121.304891,23.727173],[121.304889,23.727353],[121.305084,23.727446],[121.305082,23.727626],[121.305277,23.727719],[121.305371,23.727991],[121.305764,23.727995],[121.305863,23.727906]]],[[[121.30341,23.727969],[121.303217,23.727696],[121.303118,23.727785],[121.302727,23.727691],[121.302729,23.72751],[121.302927,23.727422],[121.302929,23.727242],[121.302735,23.727059],[121.302538,23.727147],[121.302535,23.727328],[121.302144,23.727233],[121.302049,23.727051],[121.301851,23.727139],[121.301946,23.727411],[121.302044,23.727412],[121.302042,23.727593],[121.301746,23.72768],[121.301841,23.727952],[121.302331,23.727957],[121.30233,23.728048],[121.302722,23.728052],[121.302721,23.728142],[121.303113,23.728147],[121.303115,23.728056],[121.30341,23.727969]]]]}},{"type":"Feature","properties":{"kind":"bare_dam","month":"2024-12","area_ha":14.61},"geometry":{"type":"MultiPolygon","coordinates":[[[[121.300567,23.690012],[121.300761,23.690195],[121.301252,23.69011],[121.300865,23.689745],[121.30008,23.689736],[121.300274,23.689919],[121.300175,23.690008],[121.300269,23.69028],[121.300465,23.690282],[121.300567,23.690012]]],[[[121.297819,23.690163],[121.297916,23.690254],[121.297917,23.690164],[121.297819,23.690163]]],[[[121.29772,23.690252],[121.297817,23.690343],[121.297818,23.690253],[121.29772,23.690252]]],[[[121.29762,23.690431],[121.297719,23.690342],[121.297621,23.690341],[121.29762,23.690431]]],[[[121.298202,23.690889],[121.298499,23.690712],[121.298694,23.690804],[121.298794,23.690625],[121.298212,23.690167],[121.298411,23.689898],[121.298117,23.689895],[121.297917,23.690164],[121.298208,23.690438],[121.29801,23.690616],[121.297814,23.690614],[121.297615,23.690793],[121.297613,23.690973],[121.298101,23.691159],[121.298202,23.690889]]],[[[121.300336,23.692719],[121.300143,23.692446],[121.299946,23.692534],[121.300139,23.692807],[121.300336,23.692719]]],[[[121.298845,23.694237],[121.299039,23.69442],[121.299236,23.694332],[121.299234,23.694513],[121.299526,23.694696],[121.299724,23.694518],[121.299726,23.694337],[121.299823,23.694429],[121.299923,23.69434],[121.300314,23.694434],[121.300415,23.694164],[121.300812,23.693808],[121.300519,23.693714],[121.300423,23.693532],[121.300126,23.6938],[121.299931,23.693708],[121.300032,23.693438],[121.300129,23.693529],[121.300326,23.693441],[121.300232,23.693169],[121.300329,23.69326],[121.300526,23.693172],[121.300431,23.6929],[121.299942,23.692805],[121.299841,23.693075],[121.299645,23.693072],[121.299548,23.692981],[121.299648,23.692801],[121.299455,23.692619],[121.299751,23.692441],[121.299753,23.692261],[121.29956,23.692078],[121.299364,23.692076],[121.299264,23.692165],[121.29936,23.692347],[121.299164,23.692345],[121.299072,23.691892],[121.29878,23.691708],[121.298681,23.691798],[121.298776,23.691979],[121.29858,23.691977],[121.298579,23.692067],[121.298286,23.691974],[121.298087,23.692243],[121.29838,23.692336],[121.298578,23.692158],[121.298473,23.692698],[121.298571,23.692699],[121.298664,23.693062],[121.29886,23.693064],[121.298859,23.693154],[121.299058,23.692976],[121.299351,23.693069],[121.299443,23.693522],[121.299151,23.693338],[121.299051,23.693517],[121.298856,23.693425],[121.298657,23.693603],[121.298655,23.693784],[121.298947,23.693968],[121.298848,23.694057],[121.298845,23.694237]],[[121.298948,23.693877],[121.299146,23.693699],[121.299342,23.693701],[121.299535,23.693974],[121.299337,23.694153],[121.299141,23.69415],[121.298948,23.693877]]],[[[121.298125,23.696848],[121.298423,23.696581],[121.298132,23.696307],[121.297641,23.696391],[121.297736,23.696573],[121.298032,23.696486],[121.298125,23.696848]]],[[[121.298982,23.698844],[121.29918,23.698666],[121.298985,23.698573],[121.298885,23.698753],[121.298982,23.698844]]],[[[121.298891,23.698301],[121.298693,23.69839],[121.2985,23.698207],[121.2986,23.698027],[121.298405,23.697935],[121.298207,23.698113],[121.298202,23.698474],[121.298005,23.698563],[121.2979,23.699103],[121.297601,23.699461],[121.297694,23.699823],[121.297987,23.699917],[121.297985,23.700097],[121.297887,23.700096],[121.29798,23.700459],[121.299157,23.700472],[121.299159,23.700291],[121.298965,23.700108],[121.298768,23.700196],[121.298479,23.699832],[121.298183,23.699919],[121.298187,23.699648],[121.298676,23.699744],[121.298675,23.699834],[121.298872,23.699746],[121.29868,23.699383],[121.298385,23.69947],[121.298388,23.699289],[121.298289,23.699288],[121.298292,23.699108],[121.298886,23.698663],[121.298888,23.698482],[121.298986,23.698483],[121.298891,23.698301]]],[[[121.298968,23.699928],[121.298773,23.699835],[121.298672,23.700015],[121.298867,23.700107],[121.298968,23.699928]]],[[[121.303484,23.691941],[121.303193,23.691667],[121.302997,23.691664],[121.303197,23.691396],[121.302906,23.691122],[121.302122,23.691113],[121.302123,23.691023],[121.301829,23.691019],[121.30183,23.690929],[121.301047,23.69083],[121.300562,23.690373],[121.300364,23.690552],[121.299872,23.690637],[121.299682,23.690183],[121.299879,23.690095],[121.299784,23.689913],[121.299982,23.689735],[121.2991,23.689725],[121.299292,23.689998],[121.298801,23.690083],[121.298799,23.690264],[121.299189,23.690449],[121.299087,23.690718],[121.29899,23.690627],[121.298793,23.690715],[121.29889,23.690807],[121.298791,23.690896],[121.298884,23.691258],[121.299078,23.691441],[121.299569,23.691356],[121.299665,23.691537],[121.299764,23.691448],[121.299861,23.69154],[121.300645,23.691548],[121.300646,23.691458],[121.301334,23.691375],[121.301526,23.691648],[121.30182,23.691651],[121.301819,23.691742],[121.302311,23.691657],[121.302699,23.691932],[121.302995,23.691845],[121.303187,23.692118],[121.303383,23.69212],[121.303484,23.691941]],[[121.299767,23.691177],[121.299864,23.691269],[121.299766,23.691268],[121.299767,23.691177]],[[121.299865,23.691178],[121.29977,23.690997],[121.300066,23.69082],[121.300161,23.691091],[121.300062,23.691181],[121.299865,23.691178]],[[121.300552,23.691186],[121.300554,23.691005],[121.300652,23.691007],[121.30065,23.691187],[121.300552,23.691186]]],[[[121.301302,23.693813],[121.301107,23.693721],[121.301007,23.6939],[121.301202,23.693992],[121.301302,23.693813]]],[[[121.301104,23.693991],[121.300905,23.69417],[121.3011,23.694262],[121.301201,23.694083],[121.301104,23.693991]]],[[[121.301489,23.694537],[121.301684,23.69463],[121.301785,23.69436],[121.301495,23.694086],[121.301299,23.694084],[121.301198,23.694263],[121.301491,23.694357],[121.301489,23.694537]]],[[[121.304033,23.694926],[121.304135,23.694657],[121.303842,23.694563],[121.30374,23.694833],[121.303543,23.694921],[121.303541,23.695102],[121.303736,23.695194],[121.303737,23.695104],[121.304033,23.694926]]],[[[121.304417,23.695563],[121.304814,23.695206],[121.305206,23.69521],[121.305802,23.694675],[121.305804,23.694494],[121.305413,23.6944],[121.305311,23.69467],[121.304919,23.694665],[121.304522,23.695022],[121.30452,23.695203],[121.304323,23.695291],[121.304417,23.695563]]],[[[121.304029,23.695288],[121.303835,23.695105],[121.303735,23.695284],[121.30393,23.695377],[121.304029,23.695288]]],[[[121.302243,23.696893],[121.302636,23.696807],[121.302738,23.696538],[121.30323,23.696362],[121.303234,23.696092],[121.303332,23.696093],[121.303237,23.695821],[121.303039,23.695999],[121.302646,23.696085],[121.302545,23.696265],[121.302152,23.696351],[121.302246,23.696623],[121.301948,23.696981],[121.302143,23.697073],[121.302243,23.696893]]],[[[121.300864,23.69733],[121.300666,23.697508],[121.300861,23.697601],[121.300961,23.697421],[121.300864,23.69733]]],[[[121.300759,23.69787],[121.300566,23.697688],[121.300368,23.697776],[121.30047,23.697506],[121.300178,23.697322],[121.300078,23.697502],[121.300273,23.697594],[121.30027,23.697775],[121.300073,23.697863],[121.299971,23.698133],[121.300068,23.698224],[121.300951,23.698234],[121.301051,23.698054],[121.301247,23.698056],[121.301446,23.697878],[121.301648,23.697429],[121.301551,23.697337],[121.301059,23.697422],[121.301058,23.697513],[121.300762,23.69769],[121.300759,23.69787]]]]}},{"type":"Feature","properties":{"kind":"water","month":"2024-12","area_ha":5.46},"geometry":{"type":"MultiPolygon","coordinates":[[[[121.304561,23.692043],[121.304661,23.691863],[121.304466,23.691771],[121.304465,23.691861],[121.304171,23.691858],[121.30417,23.691948],[121.303484,23.691941],[121.303481,23.692121],[121.304168,23.692129],[121.304169,23.692038],[121.304561,23.692043]]],[[[121.304031,23.695107],[121.304033,23.694926],[121.303935,23.694925],[121.303933,23.695106],[121.304031,23.695107]]],[[[121.303928,23.695467],[121.303735,23.695284],[121.303827,23.695737],[121.304122,23.69565],[121.304124,23.695469],[121.303928,23.695467]]],[[[121.302436,23.697166],[121.302634,23.696988],[121.302636,23.696807],[121.302342,23.696804],[121.302144,23.696983],[121.302141,23.697163],[121.302436,23.697166]]],[[[121.290567,23.697397],[121.290084,23.69685],[121.289888,23.696848],[121.289886,23.697028],[121.290177,23.697212],[121.290175,23.697393],[121.290371,23.697395],[121.290369,23.697575],[121.290565,23.697578],[121.290567,23.697397]]],[[[121.300567,23.697597],[121.300569,23.697417],[121.300373,23.697415],[121.300468,23.697687],[121.300759,23.69787],[121.300764,23.697509],[121.300567,23.697597]]],[[[121.30037,23.697686],[121.300466,23.697777],[121.300468,23.697687],[121.30037,23.697686]]],[[[121.291342,23.698128],[121.291345,23.697947],[121.29105,23.697944],[121.290956,23.697672],[121.290563,23.697758],[121.290755,23.698031],[121.291342,23.698128]]],[[[121.29918,23.698666],[121.299383,23.698126],[121.300071,23.698044],[121.300073,23.697863],[121.300271,23.697685],[121.300273,23.697594],[121.300077,23.697592],[121.300178,23.697322],[121.299587,23.697496],[121.299585,23.697677],[121.299389,23.697675],[121.299484,23.697947],[121.299191,23.697853],[121.299187,23.698124],[121.29899,23.698212],[121.298986,23.698483],[121.298888,23.698482],[121.298886,23.698663],[121.298985,23.698573],[121.29918,23.698666]]],[[[121.292025,23.698406],[121.292026,23.698316],[121.29183,23.698314],[121.291829,23.698404],[121.292025,23.698406]]],[[[121.292123,23.698407],[121.292025,23.698406],[121.292023,23.698587],[121.292121,23.698588],[121.292123,23.698407]]],[[[121.292514,23.698502],[121.29222,23.698499],[121.292118,23.698769],[121.292412,23.698772],[121.292514,23.698502]]],[[[121.298886,23.698663],[121.29849,23.698929],[121.298582,23.699382],[121.298779,23.699384],[121.298781,23.699203],[121.298879,23.699204],[121.298886,23.698663]]],[[[121.311394,23.68679],[121.311494,23.6867],[121.311396,23.686699],[121.311394,23.68679]]],[[[121.312567,23.687073],[121.312569,23.686983],[121.312372,23.686981],[121.312371,23.687071],[121.312567,23.687073]]],[[[121.312653,23.688068],[121.312464,23.687524],[121.312662,23.687345],[121.312564,23.687344],[121.312566,23.687164],[121.312369,23.687252],[121.312371,23.687071],[121.312175,23.687069],[121.31218,23.686708],[121.311492,23.686791],[121.311491,23.686881],[121.311687,23.686883],[121.311684,23.687154],[121.311489,23.687062],[121.311383,23.687693],[121.311978,23.687157],[121.312173,23.68725],[121.312171,23.68743],[121.312461,23.687704],[121.312458,23.687975],[121.312653,23.688068]]],[[[121.310981,23.688411],[121.31118,23.688232],[121.311183,23.687961],[121.310985,23.68814],[121.310789,23.688138],[121.310884,23.688319],[121.31059,23.688316],[121.310489,23.688586],[121.310687,23.688407],[121.310981,23.688411]]],[[[121.308699,23.690553],[121.308701,23.690372],[121.308603,23.690371],[121.3086,23.690552],[121.308699,23.690553]]],[[[121.308193,23.691721],[121.308885,23.691277],[121.308893,23.690645],[121.308797,23.690554],[121.308699,23.690553],[121.308599,23.690642],[121.308788,23.691186],[121.308396,23.691182],[121.308394,23.691362],[121.308198,23.69136],[121.307801,23.691717],[121.307799,23.691898],[121.308093,23.691901],[121.308193,23.691721]]],[[[121.3076,23.692076],[121.307703,23.691716],[121.307408,23.691803],[121.307407,23.691893],[121.307016,23.691799],[121.306915,23.691978],[121.306622,23.691885],[121.306423,23.692153],[121.30701,23.69225],[121.307011,23.69216],[121.3076,23.692076]]],[[[121.30622,23.692693],[121.306126,23.692331],[121.30593,23.692329],[121.305932,23.692148],[121.305638,23.692145],[121.305637,23.692235],[121.305342,23.692322],[121.305339,23.692503],[121.305143,23.692501],[121.305238,23.692773],[121.305434,23.692775],[121.305732,23.692507],[121.305825,23.692869],[121.306021,23.692871],[121.306023,23.692691],[121.30622,23.692693]]],[[[121.30452,23.695203],[121.304722,23.694753],[121.305311,23.69467],[121.305413,23.6944],[121.30551,23.694491],[121.305707,23.694403],[121.305714,23.693861],[121.305317,23.694218],[121.304929,23.693943],[121.304335,23.694388],[121.304332,23.694569],[121.304134,23.694747],[121.304328,23.69493],[121.304324,23.695201],[121.30452,23.695203]]],[[[121.304036,23.694746],[121.304033,23.694926],[121.304131,23.694928],[121.304134,23.694747],[121.304036,23.694746]]],[[[121.30413,23.695018],[121.30423,23.694929],[121.304131,23.694928],[121.30413,23.695018]]],[[[121.304323,23.695291],[121.304129,23.695108],[121.304031,23.695107],[121.304028,23.695378],[121.304321,23.695471],[121.304323,23.695291]]]]}}]}