{"type":"FeatureCollection","features":[{"type":"Feature","properties":{"kind":"bare_slide","month":"2024-11","area_ha":86.59},"geometry":{"type":"MultiPolygon","coordinates":[[[[121.299409,23.703725],[121.299408,23.703815],[121.299605,23.703727],[121.299411,23.703545],[121.299415,23.703274],[121.299317,23.703273],[121.299319,23.703092],[121.299614,23.703005],[121.29952,23.702733],[121.299129,23.702638],[121.299025,23.703089],[121.298927,23.703088],[121.298929,23.702907],[121.298541,23.702542],[121.298643,23.702272],[121.298448,23.702179],[121.298551,23.701819],[121.298356,23.701727],[121.298361,23.701366],[121.298167,23.701183],[121.297675,23.701268],[121.297771,23.70145],[121.29787,23.70136],[121.298065,23.701453],[121.297957,23.702264],[121.298247,23.702538],[121.298243,23.7029],[121.298436,23.703082],[121.298529,23.703535],[121.298819,23.703809],[121.299015,23.703811],[121.299116,23.703632],[121.299409,23.703725]],[[121.299116,23.703632],[121.299019,23.70354],[121.299117,23.703541],[121.299116,23.703632]],[[121.299019,23.70354],[121.298825,23.703357],[121.299022,23.703269],[121.299019,23.70354]]],[[[121.297424,23.705509],[121.297324,23.705689],[121.297518,23.705871],[121.297714,23.705874],[121.2981,23.706329],[121.298296,23.706332],[121.298392,23.706513],[121.298589,23.706425],[121.298593,23.706154],[121.298791,23.705976],[121.298693,23.705975],[121.298697,23.705704],[121.298404,23.70561],[121.298503,23.705521],[121.298407,23.705339],[121.298308,23.705429],[121.297917,23.705334],[121.297717,23.705603],[121.29762,23.705511],[121.297424,23.705509]],[[121.298402,23.705701],[121.298205,23.705789],[121.298109,23.705607],[121.298307,23.705519],[121.298402,23.705701]],[[121.297717,23.705603],[121.297814,23.705694],[121.297716,23.705693],[121.297717,23.705603]],[[121.298302,23.70588],[121.2983,23.706061],[121.298104,23.706059],[121.298105,23.705968],[121.298302,23.70588]]],[[[121.296491,23.709382],[121.296296,23.709289],[121.296197,23.709379],[121.296293,23.70956],[121.296097,23.709558],[121.295996,23.709738],[121.296093,23.709829],[121.296487,23.709743],[121.296486,23.709833],[121.296877,23.709928],[121.29697,23.71029],[121.296677,23.710197],[121.296575,23.710466],[121.296477,23.710465],[121.296573,23.710647],[121.296868,23.71056],[121.29687,23.71047],[121.297163,23.710563],[121.297266,23.710113],[121.297559,23.710206],[121.29766,23.710027],[121.297465,23.709934],[121.29737,23.709662],[121.297075,23.709749],[121.29698,23.709478],[121.296684,23.709655],[121.296685,23.709565],[121.296489,23.709562],[121.296491,23.709382]],[[121.296782,23.709656],[121.296879,23.709747],[121.296781,23.709746],[121.296782,23.709656]]],[[[121.295546,23.714248],[121.295647,23.713978],[121.29604,23.713892],[121.296338,23.713624],[121.296342,23.713353],[121.29644,23.713354],[121.296451,23.712452],[121.296258,23.712269],[121.295961,23.712446],[121.295958,23.712717],[121.29586,23.712716],[121.295758,23.712986],[121.295169,23.71307],[121.29497,23.713248],[121.294677,23.713154],[121.294575,23.713424],[121.294477,23.713423],[121.294475,23.713604],[121.294767,23.713787],[121.294763,23.714058],[121.294958,23.714151],[121.295052,23.714513],[121.295248,23.714515],[121.295546,23.714248]],[[121.295348,23.714336],[121.295251,23.714244],[121.295349,23.714245],[121.295348,23.714336]]],[[[121.294742,23.715683],[121.29523,23.715869],[121.295318,23.716683],[121.295123,23.716591],[121.295021,23.71686],[121.295314,23.716954],[121.295409,23.717226],[121.295704,23.717139],[121.295708,23.716868],[121.295906,23.71669],[121.29581,23.716508],[121.296107,23.716331],[121.296109,23.71615],[121.296011,23.716149],[121.296115,23.715699],[121.296214,23.715609],[121.296605,23.715704],[121.296506,23.715793],[121.2965,23.716245],[121.295905,23.71678],[121.295903,23.71696],[121.296096,23.717143],[121.295998,23.717142],[121.295995,23.717413],[121.295598,23.71777],[121.295595,23.71795],[121.295694,23.717951],[121.295591,23.718312],[121.295978,23.718677],[121.296272,23.71868],[121.296368,23.718862],[121.296859,23.718867],[121.296955,23.718959],[121.297154,23.71878],[121.297257,23.71842],[121.297553,23.718243],[121.297656,23.717883],[121.298251,23.717348],[121.298447,23.71735],[121.298745,23.717082],[121.298649,23.7169],[121.298452,23.716989],[121.298358,23.716717],[121.298653,23.71663],[121.298651,23.71681],[121.298846,23.716903],[121.298947,23.716633],[121.299244,23.716455],[121.299248,23.716094],[121.299346,23.716095],[121.299449,23.715735],[121.299646,23.715647],[121.299749,23.715287],[121.299946,23.715199],[121.300052,23.714658],[121.299759,23.714565],[121.299659,23.714654],[121.299754,23.714926],[121.29956,23.714743],[121.299266,23.71474],[121.299167,23.714829],[121.299261,23.715101],[121.298872,23.714826],[121.298772,23.715005],[121.298967,23.715098],[121.298964,23.715369],[121.298766,23.715457],[121.298764,23.715637],[121.298568,23.715635],[121.298476,23.715183],[121.298279,23.715181],[121.298281,23.71509],[121.297887,23.715176],[121.297597,23.714902],[121.297399,23.71499],[121.297397,23.715171],[121.297104,23.715077],[121.297002,23.715347],[121.296807,23.715255],[121.296707,23.715434],[121.29661,23.715343],[121.296315,23.71543],[121.296414,23.715341],[121.296318,23.715159],[121.296517,23.714981],[121.296614,23.715072],[121.296811,23.714984],[121.296813,23.714803],[121.296715,23.714802],[121.296816,23.714623],[121.296621,23.71453],[121.296519,23.7148],[121.296126,23.714886],[121.296123,23.715067],[121.296221,23.715068],[121.296117,23.715518],[121.295824,23.715425],[121.295527,23.715692],[121.295529,23.715512],[121.294945,23.715144],[121.294846,23.715233],[121.294942,23.715415],[121.294745,23.715503],[121.294742,23.715683]],[[121.294942,23.715415],[121.295039,23.715506],[121.294941,23.715505],[121.294942,23.715415]],[[121.296773,23.717873],[121.29638,23.717959],[121.296196,23.717054],[121.296791,23.716519],[121.296696,23.716247],[121.297091,23.716071],[121.297096,23.715709],[121.297194,23.715711],[121.297285,23.716253],[121.297383,23.716254],[121.297284,23.716344],[121.29727,23.717427],[121.297072,23.717515],[121.297166,23.717877],[121.297068,23.717876],[121.297065,23.718057],[121.296869,23.718055],[121.296773,23.717873]],[[121.298056,23.717255],[121.298059,23.717075],[121.298157,23.717076],[121.298154,23.717256],[121.298056,23.717255]],[[121.297582,23.715986],[121.297486,23.715894],[121.297584,23.715895],[121.297582,23.715986]],[[121.296901,23.715617],[121.296804,23.715526],[121.296902,23.715527],[121.296901,23.715617]]],[[[121.298524,23.718976],[121.298329,23.718883],[121.298229,23.719063],[121.298424,23.719155],[121.298524,23.718976]]],[[[121.287192,23.723095],[121.287383,23.723458],[121.287679,23.723371],[121.287872,23.723554],[121.287771,23.723824],[121.287869,23.723825],[121.287959,23.724458],[121.288448,23.724554],[121.288541,23.724916],[121.288735,23.725099],[121.289322,23.725195],[121.289414,23.725648],[121.28961,23.72565],[121.289612,23.72556],[121.290395,23.725659],[121.290393,23.725839],[121.290785,23.725844],[121.290783,23.726024],[121.291175,23.726028],[121.291172,23.726209],[121.291565,23.726213],[121.291562,23.726394],[121.292059,23.725948],[121.292064,23.725497],[121.292164,23.725407],[121.291776,23.725042],[121.29158,23.72504],[121.29148,23.725219],[121.291185,23.725216],[121.291187,23.725126],[121.29099,23.725123],[121.290993,23.724943],[121.291289,23.724766],[121.291194,23.724584],[121.290798,23.72485],[121.290605,23.724577],[121.290408,23.724666],[121.290214,23.724483],[121.290611,23.724126],[121.290515,23.723944],[121.290319,23.723942],[121.290127,23.723669],[121.289929,23.723757],[121.289154,23.723026],[121.289157,23.722846],[121.288866,23.722572],[121.288376,23.722566],[121.28828,23.722385],[121.28779,23.722379],[121.287694,23.722197],[121.2874,23.722194],[121.28711,23.72183],[121.286816,23.721827],[121.285072,23.720182],[121.285076,23.719911],[121.284687,23.719636],[121.284691,23.719365],[121.284302,23.71909],[121.284305,23.718819],[121.28411,23.718726],[121.284113,23.718546],[121.283919,23.718363],[121.283723,23.718361],[121.283425,23.718628],[121.283528,23.718268],[121.283825,23.718091],[121.283728,23.718],[121.283734,23.717548],[121.283442,23.717364],[121.283243,23.717543],[121.283335,23.717995],[121.283037,23.718353],[121.283034,23.718534],[121.283325,23.718808],[121.283031,23.718805],[121.28293,23.718984],[121.282734,23.718982],[121.282536,23.71916],[121.282631,23.719342],[121.282925,23.719345],[121.282923,23.719526],[121.282725,23.719704],[121.282528,23.719702],[121.282428,23.719882],[121.281839,23.719965],[121.28164,23.720144],[121.281731,23.720687],[121.281926,23.720779],[121.281924,23.72096],[121.282512,23.720966],[121.282513,23.720876],[121.282807,23.720879],[121.283304,23.720433],[121.283306,23.720253],[121.283502,23.720255],[121.283702,23.719986],[121.284585,23.719906],[121.284485,23.720085],[121.284092,23.720171],[121.28399,23.720441],[121.283892,23.72044],[121.283988,23.720621],[121.284477,23.720717],[121.284179,23.720985],[121.284274,23.721257],[121.28388,23.721342],[121.283484,23.721609],[121.283578,23.721971],[121.283872,23.721974],[121.283972,23.721795],[121.284167,23.721887],[121.284068,23.721977],[121.28406,23.722609],[121.284255,23.722701],[121.284252,23.722882],[121.284349,23.722973],[121.286211,23.723084],[121.28621,23.723174],[121.286797,23.723271],[121.286796,23.723361],[121.286992,23.723364],[121.287094,23.723094],[121.287192,23.723095]],[[121.29099,23.725123],[121.290891,23.725213],[121.290892,23.725122],[121.29099,23.725123]],[[121.29089,23.725303],[121.290596,23.7253],[121.290501,23.725028],[121.290794,23.725121],[121.29089,23.725303]],[[121.287194,23.722914],[121.287292,23.722915],[121.28729,23.723096],[121.287192,23.723095],[121.287194,23.722914]],[[121.291571,23.725762],[121.291471,23.725851],[121.291473,23.725761],[121.291571,23.725762]],[[121.291181,23.725577],[121.291083,23.725576],[121.291085,23.725395],[121.291183,23.725396],[121.291181,23.725577]],[[121.29187,23.725404],[121.29177,23.725493],[121.291771,23.725403],[121.29187,23.725404]],[[121.291675,23.725312],[121.291575,23.725401],[121.291577,23.725311],[121.291675,23.725312]],[[121.287979,23.722923],[121.288269,23.723197],[121.288267,23.723378],[121.287875,23.723373],[121.287979,23.722923]],[[121.28322,23.719349],[121.28312,23.719438],[121.283122,23.719347],[121.28322,23.719349]],[[121.283422,23.718899],[121.283617,23.718992],[121.283614,23.719172],[121.28332,23.719169],[121.283422,23.718899]],[[121.284105,23.719178],[121.284007,23.719177],[121.284009,23.718996],[121.284107,23.718997],[121.284105,23.719178]],[[121.283911,23.718995],[121.283812,23.719084],[121.283813,23.718994],[121.283911,23.718995]]],[[[121.297958,23.709759],[121.298052,23.710031],[121.298538,23.710398],[121.298535,23.710578],[121.298338,23.710666],[121.298433,23.710938],[121.29873,23.710671],[121.299124,23.710585],[121.299128,23.710224],[121.299326,23.710135],[121.299333,23.709594],[121.299138,23.709501],[121.299141,23.70923],[121.298946,23.709138],[121.298953,23.708596],[121.299648,23.707972],[121.299842,23.708155],[121.299839,23.708335],[121.300132,23.708429],[121.300131,23.708519],[121.300428,23.708342],[121.300333,23.70807],[121.300627,23.708073],[121.300626,23.708163],[121.300919,23.708257],[121.300718,23.708616],[121.30013,23.708609],[121.30003,23.708789],[121.300128,23.70879],[121.300124,23.709061],[121.300996,23.709883],[121.301192,23.709885],[121.30149,23.709617],[121.301498,23.708985],[121.301206,23.708802],[121.301209,23.708621],[121.301506,23.708353],[121.301408,23.708352],[121.301316,23.7079],[121.301217,23.707989],[121.301021,23.707987],[121.300925,23.707805],[121.30063,23.707892],[121.300632,23.707712],[121.301223,23.707538],[121.301421,23.707359],[121.301423,23.707179],[121.301716,23.707272],[121.301915,23.707094],[121.301917,23.706913],[121.301723,23.70673],[121.301526,23.706819],[121.30143,23.706637],[121.301233,23.706725],[121.301137,23.706543],[121.300941,23.706541],[121.300743,23.70672],[121.30074,23.7069],[121.300448,23.706807],[121.300249,23.706985],[121.300247,23.707166],[121.300345,23.707167],[121.300243,23.707437],[121.300438,23.707529],[121.300337,23.707799],[121.300239,23.707798],[121.300145,23.707435],[121.299852,23.707342],[121.299756,23.70716],[121.299364,23.707156],[121.299363,23.707246],[121.29907,23.707153],[121.298872,23.707331],[121.298678,23.707148],[121.298683,23.706787],[121.298,23.706509],[121.297801,23.706687],[121.297799,23.706868],[121.297897,23.706869],[121.297795,23.707139],[121.297892,23.70723],[121.297793,23.707319],[121.297598,23.707227],[121.297597,23.707317],[121.297204,23.707403],[121.297102,23.707673],[121.296905,23.707761],[121.297,23.707943],[121.297197,23.707945],[121.297198,23.707855],[121.297687,23.70795],[121.297786,23.707861],[121.297781,23.708222],[121.297289,23.708397],[121.297482,23.70858],[121.29748,23.708761],[121.297091,23.708485],[121.296697,23.708662],[121.296793,23.708843],[121.29738,23.70894],[121.29728,23.709029],[121.297374,23.709392],[121.297863,23.709487],[121.29796,23.709579],[121.297859,23.709758],[121.297958,23.709759]],[[121.301233,23.706725],[121.301134,23.706814],[121.301135,23.706724],[121.301233,23.706725]],[[121.297961,23.709488],[121.298157,23.70949],[121.298156,23.709581],[121.29796,23.709579],[121.297961,23.709488]],[[121.298156,23.709581],[121.298253,23.709672],[121.298155,23.709671],[121.298156,23.709581]],[[121.298834,23.71022],[121.298737,23.710129],[121.298835,23.71013],[121.298834,23.71022]],[[121.298552,23.709314],[121.298745,23.709497],[121.298549,23.709495],[121.298552,23.709314]],[[121.298758,23.708504],[121.298756,23.708684],[121.298561,23.708592],[121.298461,23.708771],[121.298167,23.708768],[121.298172,23.708317],[121.298368,23.708319],[121.298367,23.708409],[121.298565,23.708321],[121.298758,23.708504]],[[121.298663,23.708322],[121.298469,23.708139],[121.298272,23.708228],[121.298177,23.707956],[121.298079,23.707955],[121.298185,23.707324],[121.298381,23.707326],[121.298769,23.707691],[121.298767,23.707872],[121.29906,23.707965],[121.299056,23.708236],[121.298664,23.708232],[121.298663,23.708322]],[[121.301108,23.708801],[121.301011,23.708709],[121.301109,23.70871],[121.301108,23.708801]],[[121.297777,23.708583],[121.29768,23.708492],[121.297778,23.708493],[121.297777,23.708583]],[[121.299654,23.70752],[121.299944,23.707794],[121.299551,23.70788],[121.299654,23.70752]],[[121.299654,23.70752],[121.299557,23.707429],[121.299655,23.70743],[121.299654,23.70752]],[[121.299064,23.707604],[121.298967,23.707513],[121.299065,23.707514],[121.299064,23.707604]],[[121.298092,23.706961],[121.298094,23.706781],[121.298192,23.706782],[121.29819,23.706962],[121.298092,23.706961]]],[[[121.299118,23.711036],[121.299216,23.711037],[121.299218,23.710857],[121.299023,23.710764],[121.298724,23.711122],[121.299017,23.711216],[121.299118,23.711036]]],[[[121.300245,23.714841],[121.300339,23.715203],[121.300043,23.71529],[121.30004,23.715561],[121.299841,23.71574],[121.299936,23.716012],[121.300427,23.715927],[121.300326,23.716196],[121.300228,23.716195],[121.300223,23.716557],[121.300125,23.716555],[121.30022,23.716827],[121.300022,23.716916],[121.299918,23.717366],[121.299622,23.717543],[121.299618,23.717814],[121.299124,23.71808],[121.299121,23.71835],[121.298824,23.718528],[121.29882,23.718889],[121.298523,23.719066],[121.29852,23.719337],[121.298422,23.719336],[121.298418,23.719607],[121.29832,23.719606],[121.298317,23.719877],[121.298415,23.719878],[121.298509,23.72015],[121.298705,23.720152],[121.298905,23.719883],[121.299101,23.719885],[121.2991,23.719976],[121.299297,23.719887],[121.299294,23.720158],[121.299196,23.720157],[121.299291,23.720339],[121.299586,23.720342],[121.299681,23.720524],[121.300172,23.720529],[121.300267,23.720711],[121.300758,23.720716],[121.300853,23.720898],[121.301149,23.720811],[121.30096,23.720267],[121.300765,23.720174],[121.300769,23.719813],[121.300574,23.719721],[121.300578,23.71945],[121.300774,23.719452],[121.301072,23.719185],[121.301074,23.719004],[121.300976,23.719003],[121.301079,23.718643],[121.301275,23.718645],[121.301474,23.718376],[121.301668,23.718559],[121.301866,23.718471],[121.30187,23.71811],[121.302167,23.717932],[121.30217,23.717661],[121.302467,23.717484],[121.302469,23.717304],[121.302861,23.717308],[121.30306,23.717129],[121.303062,23.716949],[121.302868,23.716766],[121.302379,23.71667],[121.30238,23.71658],[121.302777,23.716223],[121.302782,23.715862],[121.302489,23.715769],[121.302593,23.715318],[121.302886,23.715412],[121.303086,23.715143],[121.303182,23.715235],[121.303576,23.715149],[121.303578,23.714968],[121.303286,23.714784],[121.303289,23.714604],[121.303583,23.714607],[121.303679,23.714788],[121.303972,23.714882],[121.303969,23.715063],[121.304163,23.715245],[121.304359,23.715247],[121.304256,23.715607],[121.304354,23.715609],[121.304448,23.715971],[121.304253,23.715878],[121.304255,23.715698],[121.303966,23.715333],[121.303768,23.715422],[121.303763,23.715873],[121.304345,23.716331],[121.304628,23.717237],[121.304922,23.71724],[121.304921,23.71733],[121.305314,23.717244],[121.305508,23.717427],[121.305998,23.717433],[121.306097,23.717343],[121.306388,23.717617],[121.306683,23.71753],[121.306779,23.717712],[121.307077,23.717444],[121.307273,23.717447],[121.307272,23.717537],[121.307665,23.717451],[121.307569,23.717269],[121.307275,23.717266],[121.307276,23.717176],[121.306785,23.717261],[121.306494,23.716987],[121.306297,23.717075],[121.306201,23.716893],[121.305808,23.716979],[121.305615,23.716706],[121.305516,23.716795],[121.30532,23.716793],[121.305321,23.716703],[121.30483,23.716788],[121.30475,23.715342],[121.304652,23.715341],[121.304559,23.714979],[121.304756,23.714891],[121.304664,23.714438],[121.30486,23.71444],[121.30496,23.714261],[121.304863,23.714169],[121.304568,23.714256],[121.304472,23.714075],[121.304276,23.714073],[121.304073,23.714612],[121.303976,23.714521],[121.303779,23.714609],[121.303491,23.714154],[121.303195,23.714241],[121.303199,23.713971],[121.30281,23.713695],[121.302822,23.712792],[121.303515,23.712258],[121.303517,23.712078],[121.303324,23.711895],[121.30303,23.711892],[121.302642,23.711526],[121.302549,23.711164],[121.302352,23.711162],[121.302054,23.71152],[121.301661,23.711516],[121.301372,23.711151],[121.300784,23.711145],[121.300684,23.711234],[121.300678,23.711685],[121.300187,23.71177],[121.300084,23.71213],[121.299888,23.712128],[121.299887,23.712218],[121.299789,23.712217],[121.299792,23.711947],[121.299694,23.711945],[121.29941,23.71122],[121.299117,23.711126],[121.299115,23.711217],[121.298917,23.711395],[121.298721,23.711393],[121.298521,23.711662],[121.298131,23.711477],[121.298032,23.711566],[121.298128,23.711748],[121.297831,23.711925],[121.297828,23.712196],[121.297434,23.712282],[121.29753,23.712463],[121.297727,23.712375],[121.297822,23.712647],[121.29792,23.712648],[121.297809,23.71364],[121.298195,23.714096],[121.298589,23.71401],[121.298588,23.7141],[121.298784,23.714103],[121.298685,23.714192],[121.29878,23.714373],[121.299076,23.714286],[121.299365,23.714651],[121.299562,23.714563],[121.299467,23.714381],[121.299859,23.714385],[121.299959,23.714206],[121.300154,23.714298],[121.300353,23.71412],[121.300249,23.71457],[121.300443,23.714753],[121.300245,23.714841]],[[121.303289,23.714604],[121.303192,23.714512],[121.30329,23.714513],[121.303289,23.714604]],[[121.306297,23.717075],[121.306198,23.717164],[121.306199,23.717074],[121.306297,23.717075]],[[121.30483,23.716788],[121.30473,23.716877],[121.304732,23.716787],[121.30483,23.716788]],[[121.298521,23.711662],[121.298618,23.711753],[121.29852,23.711752],[121.298521,23.711662]],[[121.298618,23.711753],[121.298812,23.711936],[121.299008,23.711938],[121.299202,23.712121],[121.298906,23.712208],[121.298811,23.712026],[121.298615,23.712024],[121.298618,23.711753]],[[121.300356,23.713849],[121.300551,23.713941],[121.300451,23.714121],[121.300353,23.71412],[121.300356,23.713849]],[[121.300445,23.714572],[121.300641,23.714575],[121.30064,23.714665],[121.300444,23.714663],[121.300445,23.714572]],[[121.299396,23.719798],[121.299398,23.719708],[121.299594,23.71971],[121.299593,23.7198],[121.299396,23.719798]],[[121.300184,23.719536],[121.300187,23.719355],[121.300285,23.719356],[121.300381,23.719538],[121.300184,23.719536]],[[121.300383,23.719358],[121.300188,23.719265],[121.300193,23.718904],[121.300095,23.718903],[121.300196,23.718633],[121.300294,23.718634],[121.300383,23.719358]],[[121.300613,23.716741],[121.30081,23.716653],[121.300814,23.716382],[121.30111,23.716205],[121.3011,23.717018],[121.300804,23.717105],[121.300802,23.717285],[121.300604,23.717464],[121.300597,23.718005],[121.300399,23.718094],[121.300396,23.718364],[121.300197,23.718543],[121.3001,23.718451],[121.300105,23.71809],[121.300203,23.718091],[121.300111,23.717639],[121.300308,23.717551],[121.300213,23.717369],[121.300509,23.717192],[121.300413,23.71701],[121.300611,23.716922],[121.300613,23.716741]],[[121.300413,23.71701],[121.300316,23.716919],[121.300415,23.71692],[121.300413,23.71701]],[[121.301193,23.71738],[121.301197,23.717109],[121.301295,23.71711],[121.301388,23.717472],[121.301486,23.717473],[121.301483,23.717744],[121.301676,23.717927],[121.301382,23.717924],[121.301291,23.717381],[121.301193,23.71738]],[[121.305218,23.717063],[121.30522,23.716973],[121.305416,23.716975],[121.305414,23.717065],[121.305218,23.717063]],[[121.301496,23.716751],[121.301597,23.716481],[121.301695,23.716482],[121.30169,23.716844],[121.301496,23.716751]],[[121.304541,23.716333],[121.304544,23.716152],[121.304642,23.716154],[121.304639,23.716334],[121.304541,23.716333]],[[121.300918,23.715932],[121.301116,23.715754],[121.301111,23.716115],[121.300918,23.715932]],[[121.300934,23.714668],[121.300935,23.714578],[121.301131,23.71458],[121.30113,23.71467],[121.300934,23.714668]],[[121.301135,23.714309],[121.301232,23.7144],[121.301134,23.714399],[121.301135,23.714309]],[[121.301234,23.71422],[121.301431,23.714132],[121.301342,23.713499],[121.301738,23.713142],[121.301935,23.713144],[121.301932,23.713325],[121.302126,23.713507],[121.302614,23.713693],[121.302609,23.714054],[121.302511,23.714053],[121.301931,23.713415],[121.301735,23.713413],[121.301636,23.713502],[121.301728,23.713954],[121.30163,23.713953],[121.301527,23.714313],[121.30133,23.714401],[121.301234,23.71422]],[[121.299079,23.714016],[121.299176,23.714107],[121.299078,23.714106],[121.299079,23.714016]],[[121.299177,23.714017],[121.299276,23.713927],[121.299275,23.714018],[121.299177,23.714017]],[[121.299471,23.71402],[121.299374,23.713929],[121.299473,23.71393],[121.299471,23.71402]],[[121.298787,23.713832],[121.29869,23.71374],[121.298788,23.713741],[121.298787,23.713832]],[[121.298305,23.713194],[121.298403,23.713195],[121.298401,23.713376],[121.298303,23.713375],[121.298305,23.713194]],[[121.298207,23.713193],[121.29821,23.713013],[121.298406,23.713015],[121.298404,23.713105],[121.298207,23.713193]],[[121.298598,23.713288],[121.298501,23.713197],[121.298599,23.713198],[121.298598,23.713288]],[[121.298117,23.71256],[121.29802,23.712469],[121.298118,23.71247],[121.298117,23.71256]],[[121.301361,23.711964],[121.301459,23.711965],[121.301456,23.712236],[121.301358,23.712235],[121.301361,23.711964]],[[121.301361,23.711964],[121.301265,23.711872],[121.301363,23.711873],[121.301361,23.711964]],[[121.300478,23.712044],[121.300381,23.711953],[121.300479,23.711954],[121.300478,23.712044]]],[[[121.307664,23.717541],[121.308054,23.717726],[121.308156,23.717456],[121.307764,23.717362],[121.307664,23.717541]]],[[[121.306374,23.718701],[121.306669,23.718614],[121.306577,23.718161],[121.306774,23.718073],[121.306777,23.717893],[121.306484,23.717799],[121.306485,23.717709],[121.306289,23.717707],[121.306288,23.717797],[121.305897,23.717702],[121.305795,23.717972],[121.305893,23.717973],[121.30589,23.718244],[121.306083,23.718427],[121.306079,23.718788],[121.306274,23.71888],[121.306374,23.718701]]],[[[121.301936,23.720639],[121.302232,23.720461],[121.302236,23.720191],[121.302434,23.720012],[121.302439,23.719651],[121.302245,23.719468],[121.30175,23.719824],[121.301646,23.720274],[121.301548,23.720273],[121.301544,23.720544],[121.301641,23.720636],[121.301937,23.720549],[121.301936,23.720639]]]]}},{"type":"Feature","properties":{"kind":"bare_dam","month":"2024-11","area_ha":9.85},"geometry":{"type":"MultiPolygon","coordinates":[[[[121.301838,23.690297],[121.301837,23.690387],[121.302033,23.69039],[121.302034,23.690299],[121.302425,23.690394],[121.302525,23.690214],[121.302429,23.690123],[121.302035,23.690209],[121.30194,23.690027],[121.301351,23.690021],[121.301153,23.690199],[121.301249,23.690381],[121.301348,23.690292],[121.301838,23.690297]]],[[[121.299273,23.691533],[121.299469,23.691535],[121.299569,23.691356],[121.299178,23.691261],[121.298984,23.691079],[121.298988,23.690808],[121.298793,23.690715],[121.298798,23.690354],[121.299092,23.690357],[121.299389,23.69009],[121.299492,23.68973],[121.298708,23.689721],[121.298607,23.6899],[121.298117,23.689895],[121.297522,23.69043],[121.297515,23.690972],[121.297902,23.691338],[121.297803,23.691427],[121.297895,23.691879],[121.298188,23.691973],[121.298186,23.692153],[121.297987,23.692332],[121.298084,23.692423],[121.29828,23.692425],[121.298381,23.692246],[121.298478,23.692337],[121.299066,23.692344],[121.299166,23.692164],[121.298971,23.692072],[121.298974,23.691891],[121.299072,23.691892],[121.298976,23.691711],[121.299271,23.691623],[121.299273,23.691533]],[[121.29878,23.691708],[121.298684,23.691527],[121.298391,23.691433],[121.298291,23.691613],[121.298583,23.691796],[121.29858,23.691977],[121.298287,23.691884],[121.298195,23.691431],[121.298097,23.69143],[121.2983,23.69089],[121.298496,23.690893],[121.298494,23.691073],[121.298786,23.691257],[121.298782,23.691528],[121.298977,23.69162],[121.298976,23.691711],[121.29878,23.691708]],[[121.298404,23.69044],[121.298307,23.690349],[121.298405,23.69035],[121.298404,23.69044]],[[121.298605,23.690081],[121.298505,23.690261],[121.298308,23.690258],[121.298311,23.690078],[121.298605,23.690081]]],[[[121.3027,23.691842],[121.303194,23.691576],[121.303295,23.691397],[121.302712,23.690939],[121.302417,23.691026],[121.302218,23.691204],[121.302311,23.691657],[121.302702,23.691751],[121.3027,23.691842]],[[121.302704,23.691571],[121.302607,23.691479],[121.302705,23.691481],[121.302704,23.691571]]],[[[121.300511,23.694346],[121.300414,23.694255],[121.30061,23.694257],[121.30071,23.694077],[121.30042,23.693803],[121.29993,23.693798],[121.299543,23.693342],[121.299248,23.693429],[121.299344,23.693611],[121.29954,23.693613],[121.300121,23.694161],[121.300119,23.694342],[121.300021,23.694341],[121.300116,23.694522],[121.30041,23.694526],[121.300511,23.694346]]],[[[121.301689,23.694269],[121.30159,23.694268],[121.301594,23.693997],[121.301301,23.693903],[121.301302,23.693813],[121.300808,23.694078],[121.301001,23.694351],[121.301295,23.694355],[121.301489,23.694537],[121.301686,23.694449],[121.301689,23.694269]]],[[[121.298933,23.695051],[121.298836,23.69496],[121.299131,23.694873],[121.299138,23.694331],[121.298943,23.694239],[121.298942,23.694329],[121.298648,23.694326],[121.298548,23.694505],[121.298352,23.694503],[121.298553,23.694054],[121.298262,23.69387],[121.29816,23.69414],[121.297865,23.694227],[121.297958,23.694589],[121.29776,23.694767],[121.297953,23.69495],[121.29815,23.694952],[121.298251,23.694682],[121.298349,23.694684],[121.298348,23.694774],[121.298544,23.694776],[121.298542,23.694957],[121.298444,23.694955],[121.298539,23.695137],[121.298832,23.695231],[121.298933,23.695051]]],[[[121.303824,23.695918],[121.303631,23.695735],[121.303237,23.695821],[121.303333,23.696002],[121.30353,23.695914],[121.303626,23.696096],[121.303824,23.695918]]],[[[121.302536,23.696987],[121.303129,23.696632],[121.303132,23.696361],[121.30323,23.696362],[121.303233,23.696182],[121.303038,23.696089],[121.303139,23.69582],[121.303237,23.695821],[121.303142,23.695639],[121.302845,23.695816],[121.302843,23.695997],[121.302548,23.696084],[121.302644,23.696175],[121.302544,23.696355],[121.302739,23.696447],[121.302737,23.696628],[121.302441,23.696715],[121.302248,23.696532],[121.302146,23.696802],[121.301949,23.69689],[121.302043,23.697162],[121.302436,23.697166],[121.302536,23.696987]]],[[[121.311887,23.686614],[121.311694,23.686341],[121.311498,23.686339],[121.3113,23.686518],[121.311295,23.686879],[121.311393,23.68688],[121.311287,23.687511],[121.311189,23.68751],[121.311284,23.687782],[121.31168,23.687425],[121.311684,23.687154],[121.311979,23.687067],[121.311983,23.686796],[121.311788,23.686704],[121.311887,23.686614]],[[121.311788,23.686704],[121.311689,23.686793],[121.31169,23.686703],[121.311788,23.686704]]],[[[121.308715,23.689289],[121.309011,23.689111],[121.309114,23.688751],[121.308626,23.688565],[121.308428,23.688744],[121.308422,23.689195],[121.308715,23.689289]]],[[[121.305938,23.691697],[121.306039,23.691517],[121.305845,23.691334],[121.305353,23.691419],[121.305643,23.691784],[121.305938,23.691697]]],[[[121.304163,23.69249],[121.304065,23.692489],[121.304263,23.69231],[121.304168,23.692129],[121.303872,23.692216],[121.303873,23.692125],[121.303482,23.692031],[121.303193,23.691667],[121.302996,23.691755],[121.303576,23.692393],[121.30387,23.692396],[121.303868,23.692577],[121.30367,23.692665],[121.303766,23.692847],[121.30406,23.69285],[121.304163,23.69249]]],[[[121.304843,23.692949],[121.305335,23.692864],[121.305141,23.692681],[121.305244,23.692321],[121.305441,23.692233],[121.305345,23.692051],[121.305149,23.692049],[121.304852,23.692317],[121.304849,23.692497],[121.304947,23.692498],[121.304846,23.692768],[121.304458,23.692403],[121.304261,23.692491],[121.304354,23.692853],[121.304645,23.693127],[121.304843,23.692949]]],[[[121.305504,23.694943],[121.305703,23.694764],[121.305508,23.694672],[121.305407,23.694851],[121.305504,23.694943]]],[[[121.30531,23.69476],[121.304916,23.694936],[121.304716,23.695205],[121.304911,23.695297],[121.304912,23.695207],[121.305306,23.695121],[121.305407,23.694851],[121.30531,23.69476]]]]}},{"type":"Feature","properties":{"kind":"water","month":"2024-11","area_ha":7.2},"geometry":{"type":"MultiPolygon","coordinates":[[[[121.300273,23.690009],[121.300763,23.690014],[121.300764,23.689924],[121.299882,23.689914],[121.299883,23.689824],[121.299492,23.68973],[121.29929,23.690179],[121.300272,23.690099],[121.300273,23.690009]],[[121.299585,23.690092],[121.299488,23.69],[121.299587,23.690002],[121.299585,23.690092]]],[[[121.301923,23.691291],[121.301531,23.691287],[121.301533,23.691107],[121.301435,23.691105],[121.301334,23.691375],[121.302019,23.691473],[121.301923,23.691291]]],[[[121.283971,23.691906],[121.283679,23.691722],[121.283682,23.691542],[121.283387,23.691538],[121.283385,23.691719],[121.283773,23.692084],[121.283971,23.691906]]],[[[121.290086,23.696669],[121.289597,23.696574],[121.289594,23.696844],[121.289981,23.69721],[121.290277,23.697123],[121.290086,23.696669]]],[[[121.290277,23.697123],[121.290374,23.697214],[121.290375,23.697124],[121.290277,23.697123]]],[[[121.290374,23.697214],[121.29047,23.697306],[121.290472,23.697215],[121.290374,23.697214]]],[[[121.29115,23.697855],[121.291054,23.697673],[121.290663,23.697579],[121.290567,23.697397],[121.29037,23.697485],[121.290754,23.698121],[121.29144,23.698129],[121.291443,23.697948],[121.29115,23.697855]]],[[[121.292512,23.698683],[121.292612,23.698503],[121.29222,23.698499],[121.292021,23.698677],[121.292019,23.698858],[121.292512,23.698683]]],[[[121.29418,23.698611],[121.293788,23.698606],[121.293789,23.698516],[121.292905,23.698597],[121.292906,23.698506],[121.29271,23.698504],[121.292708,23.698685],[121.293296,23.698691],[121.293295,23.698782],[121.29408,23.6987],[121.294176,23.698882],[121.29447,23.698885],[121.294473,23.698704],[121.294179,23.698701],[121.29418,23.698611]]],[[[121.295546,23.699077],[121.295649,23.698717],[121.295352,23.698985],[121.294764,23.698888],[121.294761,23.699159],[121.295055,23.699162],[121.295054,23.699253],[121.295348,23.699256],[121.295546,23.699077]]],[[[121.298764,23.700467],[121.299057,23.700561],[121.299061,23.70029],[121.298772,23.699926],[121.298672,23.700015],[121.298769,23.700106],[121.298663,23.700737],[121.298859,23.700739],[121.298764,23.700467]]],[[[121.298563,23.700917],[121.298272,23.700642],[121.298275,23.700372],[121.298079,23.700369],[121.298076,23.70064],[121.298271,23.700733],[121.298265,23.701184],[121.298657,23.701188],[121.298563,23.700917]]],[[[121.312558,23.687796],[121.312466,23.687343],[121.311982,23.686886],[121.311979,23.687067],[121.311684,23.687154],[121.31168,23.687425],[121.312174,23.687159],[121.312266,23.687612],[121.312461,23.687704],[121.312556,23.687976],[121.312752,23.687978],[121.312558,23.687796]]],[[[121.302018,23.691563],[121.302117,23.691474],[121.302019,23.691473],[121.302018,23.691563]]],[[[121.305739,23.691965],[121.305539,23.692234],[121.305244,23.692321],[121.305141,23.692681],[121.305335,23.692864],[121.305533,23.692685],[121.305827,23.692689],[121.305825,23.692869],[121.305629,23.692867],[121.305628,23.692957],[121.305822,23.69314],[121.306018,23.693142],[121.306119,23.692872],[121.306316,23.692784],[121.306123,23.692602],[121.306322,23.692333],[121.306713,23.692427],[121.307109,23.692161],[121.307501,23.692165],[121.307502,23.692075],[121.308093,23.691901],[121.308491,23.691454],[121.308884,23.691368],[121.308886,23.691187],[121.308788,23.691186],[121.308888,23.691097],[121.308892,23.690736],[121.308794,23.690735],[121.308896,23.690465],[121.308701,23.690372],[121.308703,23.690192],[121.308507,23.69019],[121.308505,23.69037],[121.308699,23.690553],[121.308497,23.691002],[121.308693,23.691004],[121.308692,23.691095],[121.308199,23.69127],[121.308197,23.69145],[121.307901,23.691537],[121.307801,23.691717],[121.307605,23.691715],[121.307603,23.691895],[121.307506,23.691804],[121.30731,23.691802],[121.307308,23.691892],[121.306917,23.691798],[121.306916,23.691888],[121.306131,23.69197],[121.306128,23.69215],[121.305935,23.691967],[121.305739,23.691965]],[[121.305928,23.692509],[121.305831,23.692418],[121.305929,23.692419],[121.305928,23.692509]]],[[[121.304659,23.692044],[121.304661,23.691863],[121.303778,23.691944],[121.30378,23.691763],[121.303391,23.691488],[121.302998,23.691574],[121.303289,23.691848],[121.303485,23.69185],[121.303482,23.692031],[121.303679,23.692033],[121.303872,23.692216],[121.304659,23.692044]]],[[[121.305641,23.691964],[121.30574,23.691875],[121.305642,23.691874],[121.305641,23.691964]]],[[[121.30495,23.692318],[121.305148,23.692139],[121.30525,23.69187],[121.304955,23.691866],[121.304754,23.692316],[121.30495,23.692318]]],[[[121.304654,23.692405],[121.304754,23.692316],[121.304656,23.692315],[121.304654,23.692405]]],[[[121.30443,23.69457],[121.304433,23.694389],[121.304335,23.694388],[121.304332,23.694569],[121.30443,23.69457]]],[[[121.304429,23.69466],[121.304528,23.694571],[121.30443,23.69457],[121.304429,23.69466]]],[[[121.304036,23.694746],[121.303939,23.694655],[121.303938,23.694745],[121.304036,23.694746]]],[[[121.30373,23.695646],[121.303632,23.695644],[121.30363,23.695825],[121.304121,23.69574],[121.304123,23.69556],[121.304421,23.695292],[121.304617,23.695294],[121.304916,23.694936],[121.305112,23.694938],[121.305213,23.694669],[121.305407,23.694851],[121.305509,23.694581],[121.305705,23.694584],[121.305713,23.693952],[121.305812,23.693862],[121.305616,23.69386],[121.305516,23.69404],[121.305322,23.693857],[121.304929,23.693943],[121.304828,23.694123],[121.305023,23.694215],[121.304924,23.694304],[121.305019,23.694576],[121.30482,23.694755],[121.304527,23.694661],[121.304426,23.694931],[121.30423,23.694929],[121.304231,23.694838],[121.304133,23.694837],[121.304134,23.694747],[121.304036,23.694746],[121.304033,23.694926],[121.303738,23.695014],[121.30373,23.695646]],[[121.305509,23.694581],[121.305412,23.69449],[121.30551,23.694491],[121.305509,23.694581]]]]}}]}