{"type":"FeatureCollection","features":[{"type":"Feature","properties":{"kind":"bare_slide","month":"2024-09","area_ha":35.89},"geometry":{"type":"MultiPolygon","coordinates":[[[[121.294086,23.705834],[121.294284,23.705655],[121.294288,23.705384],[121.294191,23.705293],[121.293701,23.705288],[121.293601,23.705377],[121.293597,23.705738],[121.293695,23.705739],[121.293594,23.705919],[121.293789,23.706011],[121.29389,23.705832],[121.294086,23.705834]]],[[[121.293688,23.706281],[121.293785,23.706372],[121.294177,23.706376],[121.294277,23.706197],[121.294083,23.706014],[121.293984,23.706103],[121.293789,23.706011],[121.29369,23.7061],[121.293688,23.706281]]],[[[121.296611,23.715253],[121.296709,23.715254],[121.296715,23.714802],[121.296911,23.714804],[121.296909,23.714985],[121.297104,23.715077],[121.297205,23.714808],[121.297304,23.714809],[121.297307,23.714538],[121.297795,23.714724],[121.297791,23.714995],[121.298084,23.715088],[121.29818,23.71527],[121.298377,23.715182],[121.29857,23.715455],[121.298965,23.715278],[121.298968,23.715008],[121.298675,23.714914],[121.298288,23.714549],[121.298295,23.714007],[121.298198,23.713916],[121.298,23.714004],[121.297909,23.713461],[121.297715,23.713368],[121.297516,23.713547],[121.29741,23.714178],[121.297112,23.714445],[121.296818,23.714442],[121.296519,23.7148],[121.296126,23.714886],[121.296319,23.715069],[121.296218,23.715339],[121.296412,23.715521],[121.296609,23.715433],[121.296611,23.715253]]],[[[121.290914,23.715912],[121.290715,23.716181],[121.290321,23.716267],[121.29051,23.716811],[121.290708,23.716723],[121.290711,23.716452],[121.29091,23.716273],[121.291106,23.716275],[121.291105,23.716366],[121.2914,23.716279],[121.291404,23.716008],[121.291502,23.716009],[121.291604,23.715649],[121.291803,23.71547],[121.291999,23.715473],[121.292101,23.715203],[121.292297,23.715205],[121.292391,23.715477],[121.29259,23.715299],[121.292983,23.715213],[121.292978,23.715574],[121.29288,23.715573],[121.292975,23.715845],[121.293371,23.715578],[121.293373,23.715397],[121.293962,23.715314],[121.29386,23.715674],[121.293662,23.715762],[121.293758,23.715944],[121.293857,23.715854],[121.29415,23.715948],[121.294351,23.715589],[121.294843,23.715504],[121.294938,23.715686],[121.295231,23.715779],[121.295227,23.71614],[121.295324,23.716232],[121.295619,23.716145],[121.295617,23.716325],[121.295812,23.716418],[121.295911,23.716328],[121.295819,23.715876],[121.296114,23.715789],[121.296217,23.715429],[121.296022,23.715336],[121.295822,23.715605],[121.295527,23.715692],[121.295529,23.715512],[121.295335,23.715329],[121.295139,23.715327],[121.295142,23.715146],[121.294754,23.714781],[121.294756,23.7146],[121.29515,23.714514],[121.295646,23.714068],[121.295648,23.713888],[121.295844,23.71389],[121.296142,23.713622],[121.296146,23.713351],[121.296343,23.713263],[121.296355,23.71236],[121.29616,23.712268],[121.295961,23.712446],[121.295958,23.712717],[121.29586,23.712716],[121.295758,23.712986],[121.294676,23.713245],[121.294377,23.713603],[121.294083,23.713599],[121.293982,23.713779],[121.293591,23.713684],[121.293391,23.714043],[121.292802,23.714037],[121.292707,23.713855],[121.292216,23.71385],[121.292116,23.714029],[121.292406,23.714303],[121.292304,23.714663],[121.29201,23.71466],[121.292013,23.714389],[121.291915,23.714388],[121.291822,23.714026],[121.291623,23.714204],[121.29133,23.714111],[121.291334,23.71384],[121.291432,23.713841],[121.291337,23.713569],[121.29114,23.713657],[121.291035,23.714198],[121.290543,23.714283],[121.290442,23.714552],[121.289953,23.714457],[121.289754,23.714635],[121.289558,23.714633],[121.289559,23.714543],[121.28897,23.714626],[121.288873,23.714535],[121.288976,23.714175],[121.288684,23.713991],[121.288687,23.71372],[121.289081,23.713634],[121.288984,23.713543],[121.289083,23.713454],[121.289085,23.713273],[121.288987,23.713272],[121.289089,23.713002],[121.2887,23.712727],[121.288601,23.712816],[121.288694,23.713179],[121.288397,23.713446],[121.288101,23.713533],[121.288098,23.713804],[121.2878,23.714072],[121.287309,23.714157],[121.287306,23.714337],[121.287501,23.71443],[121.287498,23.7147],[121.287889,23.714795],[121.287984,23.714977],[121.288279,23.71498],[121.288374,23.715162],[121.288668,23.715165],[121.288764,23.715347],[121.289058,23.71535],[121.289154,23.715531],[121.289644,23.715537],[121.289739,23.715809],[121.290032,23.715902],[121.290031,23.715993],[121.290914,23.715912]],[[121.290914,23.715912],[121.291014,23.715823],[121.291012,23.715913],[121.290914,23.715912]],[[121.289936,23.715721],[121.289939,23.71554],[121.290135,23.715542],[121.290132,23.715723],[121.289936,23.715721]],[[121.29033,23.715635],[121.290233,23.715543],[121.290331,23.715545],[121.29033,23.715635]],[[121.290138,23.715271],[121.290136,23.715452],[121.290038,23.715451],[121.289942,23.715269],[121.290138,23.715271]],[[121.290334,23.715274],[121.290534,23.715005],[121.291121,23.715102],[121.291022,23.715191],[121.291116,23.715463],[121.290334,23.715274]],[[121.289843,23.715359],[121.289746,23.715267],[121.289844,23.715268],[121.289843,23.715359]],[[121.293083,23.715033],[121.292987,23.714942],[121.293085,23.714943],[121.293083,23.715033]],[[121.294652,23.71505],[121.294556,23.714959],[121.294654,23.71496],[121.294652,23.71505]],[[121.293871,23.714771],[121.293874,23.71459],[121.293972,23.714591],[121.29397,23.714772],[121.293871,23.714771]],[[121.288677,23.714533],[121.288679,23.714352],[121.288777,23.714353],[121.288775,23.714534],[121.288677,23.714533]],[[121.294767,23.713787],[121.29467,23.713696],[121.294768,23.713697],[121.294767,23.713787]]],[[[121.29581,23.716508],[121.295615,23.716416],[121.295515,23.716595],[121.29571,23.716687],[121.29581,23.716508]]],[[[121.295413,23.716865],[121.295608,23.716957],[121.295709,23.716778],[121.295514,23.716685],[121.295413,23.716865]]],[[[121.292557,23.717827],[121.292753,23.717829],[121.293051,23.717561],[121.293053,23.717381],[121.293448,23.717204],[121.293354,23.716842],[121.293159,23.71675],[121.292861,23.717017],[121.292859,23.717198],[121.292662,23.717286],[121.292565,23.717195],[121.292664,23.717105],[121.292572,23.716653],[121.293262,23.71639],[121.293263,23.716299],[121.293459,23.716301],[121.293658,23.716123],[121.293562,23.715941],[121.293364,23.71612],[121.292873,23.716114],[121.292776,23.716023],[121.292677,23.716112],[121.292773,23.716294],[121.292577,23.716292],[121.29218,23.716649],[121.292176,23.716919],[121.291879,23.717187],[121.291876,23.717368],[121.292168,23.717551],[121.292166,23.717732],[121.292263,23.717823],[121.292558,23.717736],[121.292557,23.717827]]],[[[121.297621,23.720591],[121.297819,23.720413],[121.297723,23.720231],[121.29733,23.720317],[121.297332,23.720137],[121.297234,23.720136],[121.297344,23.719234],[121.297149,23.719141],[121.297153,23.718871],[121.296958,23.718778],[121.296857,23.718958],[121.296563,23.718954],[121.296364,23.719223],[121.29646,23.719314],[121.296756,23.719227],[121.29675,23.719679],[121.296456,23.719676],[121.296256,23.719944],[121.296353,23.720036],[121.296648,23.719949],[121.297132,23.720496],[121.297427,23.720409],[121.297621,23.720591]]],[[[121.299091,23.705528],[121.298994,23.705436],[121.299192,23.705348],[121.299095,23.705257],[121.299199,23.704806],[121.299396,23.704718],[121.2995,23.704268],[121.299598,23.704269],[121.299602,23.703908],[121.299701,23.703909],[121.299606,23.703637],[121.299411,23.703545],[121.299413,23.703364],[121.299218,23.703271],[121.299225,23.70273],[121.299032,23.702547],[121.299042,23.701734],[121.29914,23.701736],[121.299243,23.701375],[121.298753,23.70137],[121.298657,23.701188],[121.298069,23.701182],[121.298058,23.701995],[121.298156,23.701996],[121.298341,23.702901],[121.298439,23.702902],[121.298435,23.703173],[121.298533,23.703174],[121.298627,23.703536],[121.299113,23.703812],[121.299104,23.704534],[121.299006,23.704533],[121.299001,23.704894],[121.298903,23.704893],[121.298799,23.705344],[121.297819,23.705333],[121.297422,23.70569],[121.297715,23.705783],[121.297907,23.706056],[121.298007,23.705967],[121.298104,23.706059],[121.298594,23.706064],[121.29859,23.706335],[121.298785,23.706427],[121.298888,23.706067],[121.299085,23.705979],[121.299091,23.705528]],[[121.298888,23.706067],[121.298791,23.705976],[121.298889,23.705977],[121.298888,23.706067]]],[[[121.30043,23.708161],[121.300332,23.70816],[121.300433,23.70789],[121.30024,23.707707],[121.299946,23.707704],[121.299852,23.707342],[121.299658,23.707159],[121.29946,23.707338],[121.299363,23.707246],[121.298775,23.70724],[121.29868,23.706968],[121.298582,23.706967],[121.298681,23.706878],[121.298587,23.706606],[121.298095,23.706691],[121.298093,23.706871],[121.298483,23.707056],[121.298479,23.707327],[121.298967,23.707513],[121.298866,23.707783],[121.299156,23.708057],[121.299547,23.708151],[121.299648,23.707972],[121.299844,23.707974],[121.300035,23.708337],[121.30033,23.70834],[121.30043,23.708161]]],[[[121.297833,23.711835],[121.298327,23.711479],[121.298335,23.710937],[121.298533,23.710759],[121.298436,23.710667],[121.298539,23.710307],[121.298053,23.709941],[121.298056,23.70976],[121.297862,23.709578],[121.297471,23.709483],[121.297578,23.708762],[121.298171,23.708407],[121.298175,23.708136],[121.297981,23.707953],[121.297784,23.708042],[121.297881,23.708133],[121.297779,23.708403],[121.297386,23.708489],[121.297383,23.708669],[121.297186,23.708757],[121.297182,23.709028],[121.296691,23.709113],[121.296786,23.709385],[121.297173,23.709751],[121.29737,23.709662],[121.297656,23.710298],[121.297948,23.710481],[121.297844,23.710932],[121.297746,23.710931],[121.297738,23.711563],[121.296756,23.711642],[121.296656,23.711822],[121.29685,23.712004],[121.297243,23.711918],[121.297242,23.712009],[121.297634,23.712013],[121.297633,23.712103],[121.29783,23.712015],[121.297833,23.711835]]],[[[121.301179,23.710878],[121.300694,23.710512],[121.300696,23.710331],[121.300501,23.710239],[121.300506,23.709877],[121.300215,23.709603],[121.299921,23.7096],[121.299825,23.709419],[121.299531,23.709415],[121.299242,23.709051],[121.299044,23.709139],[121.299139,23.709411],[121.299626,23.709687],[121.299622,23.709958],[121.29972,23.709959],[121.29962,23.710139],[121.299717,23.71023],[121.300011,23.710233],[121.3003,23.710598],[121.300498,23.710509],[121.300882,23.711146],[121.301078,23.711148],[121.301179,23.710878]]],[[[121.301229,23.714581],[121.301727,23.714045],[121.301733,23.713593],[121.301832,23.713504],[121.302126,23.713507],[121.302319,23.71378],[121.302515,23.713782],[121.302516,23.713692],[121.30281,23.713695],[121.30301,23.713427],[121.302816,23.713244],[121.302522,23.713241],[121.302421,23.71342],[121.302128,23.713327],[121.302134,23.712875],[121.301939,23.712783],[121.301847,23.71233],[121.301554,23.712237],[121.301458,23.712055],[121.301262,23.712053],[121.301064,23.712231],[121.301057,23.712773],[121.300859,23.712861],[121.300854,23.713313],[121.300952,23.713314],[121.301045,23.713676],[121.30124,23.713768],[121.301234,23.71422],[121.301036,23.714398],[121.301229,23.714581]]],[[[121.299235,23.717087],[121.299533,23.71682],[121.299639,23.716189],[121.299938,23.715831],[121.299942,23.71556],[121.300138,23.715562],[121.300535,23.715205],[121.300439,23.715024],[121.299948,23.715109],[121.299944,23.71538],[121.299747,23.715468],[121.299644,23.715828],[121.29935,23.715825],[121.299151,23.716003],[121.299146,23.716454],[121.298949,23.716452],[121.298751,23.716631],[121.298749,23.716811],[121.298944,23.716904],[121.298844,23.716993],[121.29894,23.717175],[121.299235,23.717087]]],[[[121.299037,23.717266],[121.298842,23.717173],[121.298742,23.717353],[121.298937,23.717445],[121.299037,23.717266]]],[[[121.29874,23.717443],[121.298542,23.717622],[121.298439,23.717982],[121.297547,23.718694],[121.297641,23.719056],[121.298231,23.718882],[121.298137,23.71861],[121.298433,23.718433],[121.298437,23.718162],[121.298833,23.717896],[121.298935,23.717536],[121.29874,23.717443]]]]}},{"type":"Feature","properties":{"kind":"bare_dam","month":"2024-09","area_ha":25.06},"geometry":{"type":"MultiPolygon","coordinates":[[[[121.299779,23.690275],[121.299878,23.690185],[121.299881,23.690005],[121.299686,23.689912],[121.299786,23.689733],[121.298708,23.689721],[121.298607,23.6899],[121.298117,23.689895],[121.297522,23.69043],[121.297615,23.690793],[121.298004,23.691068],[121.297802,23.691517],[121.2979,23.691518],[121.297896,23.691789],[121.298189,23.691882],[121.298087,23.692243],[121.298282,23.692335],[121.298382,23.692155],[121.298578,23.692158],[121.298479,23.692247],[121.298569,23.69288],[121.298862,23.692973],[121.298859,23.693154],[121.299053,23.693337],[121.299052,23.693427],[121.298757,23.693514],[121.298754,23.693695],[121.298556,23.693873],[121.298846,23.694147],[121.299139,23.694241],[121.299233,23.694603],[121.299332,23.694514],[121.299429,23.694605],[121.299822,23.694519],[121.300015,23.694792],[121.300211,23.694794],[121.30031,23.694705],[121.300216,23.694433],[121.300412,23.694435],[121.300514,23.694075],[121.300612,23.694076],[121.300611,23.694167],[121.301491,23.694357],[121.301489,23.694537],[121.301683,23.69472],[121.301782,23.694631],[121.302075,23.694724],[121.302175,23.694545],[121.301689,23.694269],[121.301691,23.694088],[121.301496,23.693996],[121.301498,23.693815],[121.301305,23.693632],[121.301108,23.69363],[121.301013,23.693449],[121.30052,23.693624],[121.300326,23.693441],[121.300624,23.693173],[121.300433,23.69281],[121.300237,23.692808],[121.300136,23.692987],[121.299942,23.692805],[121.299648,23.692801],[121.299164,23.692345],[121.299263,23.692255],[121.29917,23.691893],[121.298589,23.691345],[121.298392,23.691343],[121.298292,23.691522],[121.29868,23.691888],[121.298385,23.691885],[121.298291,23.691613],[121.298193,23.691612],[121.298102,23.691069],[121.2982,23.69107],[121.298303,23.69071],[121.298792,23.690806],[121.298889,23.690897],[121.298787,23.691167],[121.299078,23.691441],[121.299471,23.691355],[121.299567,23.691536],[121.299861,23.69154],[121.299961,23.69136],[121.300255,23.691363],[121.300256,23.691273],[121.300549,23.691367],[121.300849,23.690918],[121.301143,23.690922],[121.301337,23.691104],[121.301238,23.691194],[121.301334,23.691375],[121.30153,23.691377],[121.301927,23.691021],[121.301831,23.690839],[121.301537,23.690836],[121.301441,23.690654],[121.301245,23.690652],[121.301244,23.690742],[121.300951,23.690649],[121.300661,23.690284],[121.300663,23.690194],[121.301447,23.690203],[121.301546,23.690113],[121.30145,23.689932],[121.30096,23.689926],[121.300865,23.689745],[121.30008,23.689736],[121.300176,23.689918],[121.299978,23.690096],[121.300268,23.69037],[121.299972,23.690548],[121.299877,23.690276],[121.299779,23.690275]],[[121.299874,23.690546],[121.300263,23.690731],[121.300456,23.691004],[121.300357,23.691094],[121.299867,23.691088],[121.299868,23.690998],[121.299575,23.690904],[121.299874,23.690546]],[[121.299444,23.693431],[121.299347,23.69334],[121.299445,23.693341],[121.299444,23.693431]],[[121.298893,23.690536],[121.299191,23.690268],[121.299383,23.690541],[121.29899,23.690627],[121.298893,23.690536]]],[[[121.298433,23.695768],[121.298335,23.695767],[121.298434,23.695678],[121.29834,23.695406],[121.298537,23.695318],[121.298634,23.695409],[121.298628,23.69586],[121.298823,23.695953],[121.299021,23.695774],[121.299028,23.695233],[121.298834,23.69514],[121.298839,23.694689],[121.298646,23.694506],[121.29825,23.694773],[121.298157,23.69441],[121.298454,23.694143],[121.298457,23.693962],[121.298262,23.69387],[121.297964,23.694137],[121.297959,23.694499],[121.297862,23.694407],[121.297567,23.694494],[121.297461,23.695125],[121.297754,23.695219],[121.297952,23.69504],[121.298242,23.695405],[121.298138,23.695855],[121.298333,23.695948],[121.298433,23.695768]]],[[[121.29971,23.695601],[121.299612,23.6956],[121.299715,23.69524],[121.299325,23.695055],[121.299222,23.695415],[121.299319,23.695507],[121.299516,23.695419],[121.299514,23.695599],[121.299317,23.695687],[121.299508,23.696051],[121.299705,23.695963],[121.29971,23.695601]]],[[[121.298423,23.696581],[121.298712,23.696945],[121.298217,23.697301],[121.298508,23.697575],[121.298409,23.697664],[121.298504,23.697846],[121.298702,23.697758],[121.298607,23.697486],[121.298801,23.697668],[121.299489,23.697495],[121.299296,23.697313],[121.299398,23.696953],[121.299203,23.69686],[121.299208,23.696499],[121.298916,23.696315],[121.298919,23.696135],[121.298724,23.696042],[121.298622,23.696312],[121.298425,23.6964],[121.298427,23.696219],[121.298134,23.696126],[121.297747,23.69576],[121.297847,23.695581],[121.297652,23.695489],[121.297553,23.695578],[121.297649,23.695759],[121.297452,23.695848],[121.297547,23.696029],[121.297745,23.695941],[121.297742,23.696122],[121.29784,23.696123],[121.297641,23.696391],[121.297932,23.696575],[121.298027,23.696847],[121.298224,23.696759],[121.298227,23.696578],[121.298423,23.696581]],[[121.298227,23.696578],[121.29813,23.696487],[121.298228,23.696488],[121.298227,23.696578]]],[[[121.299981,23.69741],[121.300277,23.697233],[121.300184,23.696871],[121.299795,23.696596],[121.299696,23.696685],[121.299688,23.697317],[121.299981,23.69741]]],[[[121.301051,23.698054],[121.301247,23.698056],[121.301446,23.697878],[121.301448,23.697697],[121.301645,23.697609],[121.30155,23.697428],[121.301252,23.697695],[121.301057,23.697603],[121.300957,23.697782],[121.30086,23.697691],[121.300664,23.697689],[121.300563,23.697868],[121.300367,23.697866],[121.300368,23.697776],[121.300073,23.697863],[121.299976,23.697772],[121.299876,23.697951],[121.299582,23.697948],[121.299481,23.698127],[121.299578,23.698219],[121.300068,23.698224],[121.30007,23.698134],[121.30105,23.698145],[121.301051,23.698054]]],[[[121.299481,23.698127],[121.299286,23.698035],[121.299087,23.698304],[121.29938,23.698397],[121.299481,23.698127]]],[[[121.298198,23.698745],[121.298398,23.698477],[121.298692,23.69848],[121.29899,23.698212],[121.298895,23.69794],[121.298699,23.697938],[121.298698,23.698028],[121.298307,23.697934],[121.298208,23.698023],[121.298203,23.698384],[121.298006,23.698472],[121.298004,23.698653],[121.298198,23.698745]]],[[[121.296435,23.698636],[121.296143,23.698452],[121.29575,23.698538],[121.295844,23.69881],[121.296236,23.698814],[121.296235,23.698904],[121.296432,23.698816],[121.296435,23.698636]]],[[[121.299082,23.698665],[121.29918,23.698666],[121.299086,23.698394],[121.298888,23.698482],[121.298886,23.698663],[121.298396,23.698657],[121.298294,23.698927],[121.298,23.698924],[121.297802,23.699102],[121.297799,23.699283],[121.297602,23.699371],[121.2975,23.699641],[121.29789,23.699826],[121.29798,23.700459],[121.299255,23.700473],[121.298965,23.700108],[121.298873,23.699656],[121.298775,23.699655],[121.29888,23.699114],[121.299077,23.699026],[121.299082,23.698665]],[[121.29888,23.699114],[121.298783,23.699023],[121.298881,23.699024],[121.29888,23.699114]]],[[[121.312761,23.687256],[121.312469,23.687072],[121.312279,23.686619],[121.31218,23.686708],[121.311984,23.686706],[121.311985,23.686616],[121.31169,23.686703],[121.311596,23.68634],[121.311203,23.686426],[121.311296,23.686789],[121.311394,23.68679],[121.311391,23.687061],[121.311684,23.687154],[121.31178,23.687336],[121.311977,23.687248],[121.31188,23.687156],[121.311983,23.686796],[121.312179,23.686798],[121.312176,23.686979],[121.31237,23.687162],[121.312267,23.687522],[121.312366,23.687523],[121.312556,23.687976],[121.312753,23.687888],[121.312761,23.687256]]],[[[121.302131,23.690391],[121.302523,23.690395],[121.302623,23.690215],[121.302527,23.690124],[121.302035,23.690209],[121.30194,23.690027],[121.301546,23.690113],[121.301642,23.690295],[121.301936,23.690298],[121.301935,23.690389],[121.302132,23.6903],[121.302131,23.690391]]],[[[121.308985,23.691188],[121.308889,23.691006],[121.30879,23.691096],[121.308497,23.691002],[121.307901,23.691537],[121.307998,23.691629],[121.308197,23.69145],[121.30849,23.691544],[121.30859,23.691364],[121.308786,23.691367],[121.308985,23.691188]],[[121.30859,23.691364],[121.308493,23.691273],[121.308591,23.691274],[121.30859,23.691364]]],[[[121.304666,23.691502],[121.304472,23.691319],[121.304372,23.691499],[121.304567,23.691591],[121.304666,23.691502]]],[[[121.307505,23.691894],[121.307798,23.691988],[121.307899,23.691718],[121.30741,23.691622],[121.307409,23.691713],[121.307016,23.691799],[121.307208,23.692072],[121.307503,23.691985],[121.307505,23.691894]]],[[[121.30485,23.692407],[121.305344,23.692142],[121.30525,23.69187],[121.305642,23.691874],[121.305638,23.692145],[121.305832,23.692328],[121.306028,23.69233],[121.306327,23.691972],[121.306133,23.691789],[121.305839,23.691786],[121.305747,23.691333],[121.305353,23.691419],[121.305252,23.691689],[121.304756,23.692135],[121.30456,23.692133],[121.304758,23.691955],[121.304665,23.691592],[121.304367,23.69186],[121.304073,23.691857],[121.303686,23.691491],[121.303197,23.691396],[121.303198,23.691305],[121.303002,23.691303],[121.303,23.691393],[121.302609,23.691299],[121.302411,23.691477],[121.302507,23.691659],[121.303094,23.691756],[121.303578,23.692213],[121.304166,23.692219],[121.304165,23.692309],[121.304557,23.692314],[121.304556,23.692404],[121.30485,23.692407]]],[[[121.303145,23.695368],[121.303442,23.695191],[121.303346,23.695009],[121.303052,23.695006],[121.303053,23.694916],[121.30276,23.694822],[121.302761,23.694732],[121.303152,23.694827],[121.303251,23.694737],[121.303156,23.694556],[121.30286,23.694643],[121.302765,23.694461],[121.302569,23.694459],[121.30237,23.694637],[121.302368,23.694818],[121.302658,23.695092],[121.302953,23.695095],[121.303145,23.695368]]],[[[121.303627,23.696006],[121.304024,23.695649],[121.30383,23.695466],[121.304126,23.695379],[121.304227,23.695109],[121.304424,23.695021],[121.304329,23.694839],[121.304133,23.694837],[121.304233,23.694658],[121.304624,23.694752],[121.304619,23.695114],[121.304422,23.695202],[121.304616,23.695384],[121.304716,23.695205],[121.305208,23.69512],[121.305705,23.694584],[121.305608,23.694492],[121.304626,23.694572],[121.304729,23.694212],[121.304534,23.694119],[121.304136,23.694566],[121.303841,23.694653],[121.303836,23.695015],[121.303639,23.695103],[121.303731,23.695555],[121.303433,23.695823],[121.303627,23.696006]]],[[[121.301576,23.695351],[121.30177,23.695534],[121.302066,23.695447],[121.301777,23.694992],[121.301678,23.695081],[121.301189,23.694986],[121.300891,23.695253],[121.300889,23.695434],[121.301083,23.695617],[121.30128,23.695528],[121.301282,23.695348],[121.301576,23.695351]]]]}},{"type":"Feature","properties":{"kind":"water","month":"2024-09","area_ha":2.67},"geometry":{"type":"MultiPolygon","coordinates":[[[[121.283387,23.691538],[121.283487,23.691449],[121.283389,23.691448],[121.283387,23.691538]]],[[[121.283777,23.691723],[121.283682,23.691542],[121.283485,23.69154],[121.283483,23.69172],[121.283777,23.691723]]],[[[121.283776,23.691814],[121.283875,23.691724],[121.283777,23.691723],[121.283776,23.691814]]],[[[121.283971,23.691906],[121.283874,23.691815],[121.283873,23.691905],[121.283971,23.691906]]],[[[121.284167,23.691908],[121.283971,23.691906],[121.28397,23.691996],[121.284165,23.692089],[121.284167,23.691908]]],[[[121.298625,23.696131],[121.298723,23.696132],[121.298634,23.695409],[121.298439,23.695317],[121.298337,23.695586],[121.298436,23.695587],[121.298529,23.69595],[121.298137,23.695945],[121.298134,23.696126],[121.298428,23.696129],[121.298425,23.6964],[121.298622,23.696312],[121.298625,23.696131]]],[[[121.298605,23.697666],[121.298703,23.697667],[121.298705,23.697487],[121.298607,23.697486],[121.298605,23.697666]]],[[[121.299384,23.698036],[121.299481,23.698127],[121.299582,23.697948],[121.299876,23.697951],[121.299878,23.69777],[121.300563,23.697868],[121.300666,23.697508],[121.300472,23.697326],[121.300373,23.697415],[121.299982,23.69732],[121.299684,23.697588],[121.2989,23.697579],[121.298899,23.697669],[121.298703,23.697667],[121.2987,23.697848],[121.298406,23.697845],[121.298404,23.698025],[121.298698,23.698028],[121.298699,23.697938],[121.299093,23.697852],[121.298989,23.698303],[121.299087,23.698304],[121.299089,23.698123],[121.299384,23.698036]],[[121.299289,23.697854],[121.299192,23.697763],[121.29929,23.697764],[121.299289,23.697854]],[[121.300469,23.697596],[121.300372,23.697505],[121.30047,23.697506],[121.300469,23.697596]]],[[[121.299086,23.698394],[121.299185,23.698305],[121.299087,23.698304],[121.299086,23.698394]]],[[[121.298886,23.698663],[121.298988,23.698393],[121.298793,23.6983],[121.298692,23.69848],[121.298398,23.698477],[121.2981,23.698744],[121.298098,23.698925],[121.298294,23.698927],[121.298396,23.698657],[121.298886,23.698663]]],[[[121.312274,23.68698],[121.312176,23.686979],[121.312179,23.686798],[121.311983,23.686796],[121.31188,23.687156],[121.312174,23.687159],[121.312172,23.68734],[121.312367,23.687432],[121.312274,23.68698]]],[[[121.307505,23.691894],[121.307601,23.691986],[121.307603,23.691895],[121.307505,23.691894]]],[[[121.306816,23.692067],[121.306915,23.691978],[121.307111,23.69198],[121.307112,23.69189],[121.306818,23.691887],[121.306816,23.692067]]],[[[121.307502,23.692075],[121.307503,23.691985],[121.307307,23.691982],[121.307306,23.692073],[121.307502,23.692075]]],[[[121.306914,23.692068],[121.306913,23.692159],[121.307305,23.692163],[121.307209,23.691981],[121.306914,23.692068]]],[[[121.304521,23.695112],[121.304619,23.695114],[121.304624,23.694752],[121.304331,23.694659],[121.304423,23.695111],[121.304227,23.695109],[121.304126,23.695379],[121.30442,23.695382],[121.304521,23.695112]]],[[[121.304024,23.695649],[121.304126,23.695379],[121.30393,23.695377],[121.303926,23.695648],[121.304024,23.695649]]],[[[121.303136,23.696091],[121.302937,23.696269],[121.303132,23.696361],[121.303136,23.696091]]],[[[121.302536,23.696987],[121.302538,23.696806],[121.302832,23.69681],[121.302835,23.696629],[121.303031,23.696631],[121.303034,23.69636],[121.302637,23.696717],[121.302244,23.696803],[121.302239,23.697164],[121.302536,23.696987]]],[[[121.301155,23.697604],[121.301252,23.697695],[121.301452,23.697427],[121.300962,23.697331],[121.300664,23.697689],[121.300957,23.697782],[121.301155,23.697604]]]]}}]}