{"type":"FeatureCollection","features":[{"type":"Feature","properties":{"kind":"bare_slide","month":"2024-07","area_ha":128.77},"geometry":{"type":"MultiPolygon","coordinates":[[[[121.300332,23.70816],[121.30053,23.707981],[121.300237,23.707888],[121.300239,23.707798],[121.299944,23.707794],[121.300046,23.707525],[121.299656,23.70734],[121.299756,23.70716],[121.30015,23.707074],[121.300054,23.706893],[121.299661,23.706979],[121.299462,23.707157],[121.299559,23.707248],[121.299459,23.707428],[121.299362,23.707337],[121.29887,23.707421],[121.29858,23.707147],[121.298785,23.706427],[121.298983,23.706339],[121.298986,23.706068],[121.299084,23.706069],[121.299088,23.705798],[121.298894,23.705616],[121.299189,23.705529],[121.299192,23.705348],[121.299093,23.705347],[121.299197,23.704897],[121.299395,23.704809],[121.299397,23.704628],[121.299595,23.70445],[121.299701,23.703909],[121.299313,23.703543],[121.299315,23.703363],[121.299217,23.703362],[121.299321,23.702911],[121.299031,23.702637],[121.299033,23.702457],[121.299131,23.702458],[121.299041,23.701825],[121.299139,23.701826],[121.299243,23.701375],[121.298753,23.70137],[121.298657,23.701188],[121.298069,23.701182],[121.298058,23.701995],[121.298156,23.701996],[121.298055,23.702265],[121.298153,23.702266],[121.298149,23.702537],[121.298247,23.702538],[121.298243,23.7029],[121.298341,23.702901],[121.298337,23.703172],[121.298435,23.703173],[121.298529,23.703535],[121.299111,23.703993],[121.299103,23.704625],[121.299005,23.704624],[121.299,23.704985],[121.298902,23.704984],[121.298995,23.705346],[121.298797,23.705524],[121.2987,23.705433],[121.297916,23.705424],[121.297815,23.705604],[121.297521,23.705601],[121.29742,23.70587],[121.297713,23.705964],[121.297905,23.706237],[121.298004,23.706148],[121.298299,23.706151],[121.298297,23.706241],[121.298495,23.706153],[121.298486,23.706785],[121.298095,23.706691],[121.297991,23.707141],[121.298088,23.707232],[121.298384,23.707145],[121.298477,23.707507],[121.298868,23.707602],[121.298866,23.707783],[121.298768,23.707782],[121.298863,23.707963],[121.29906,23.707965],[121.299058,23.708056],[121.299256,23.707967],[121.299448,23.70824],[121.299842,23.708155],[121.300131,23.708519],[121.300328,23.708431],[121.300332,23.70816]],[[121.299258,23.707787],[121.299161,23.707696],[121.299259,23.707697],[121.299258,23.707787]],[[121.299019,23.70354],[121.298922,23.703449],[121.29902,23.70345],[121.299019,23.70354]],[[121.298638,23.702633],[121.298541,23.702542],[121.29864,23.702543],[121.298638,23.702633]]],[[[121.294183,23.705925],[121.294282,23.705836],[121.29419,23.705383],[121.29409,23.705473],[121.293896,23.70538],[121.2935,23.705647],[121.29369,23.7061],[121.294183,23.705925]]],[[[121.293587,23.70646],[121.293684,23.706552],[121.29388,23.706554],[121.293881,23.706464],[121.294272,23.706558],[121.294373,23.706379],[121.294179,23.706196],[121.293788,23.706101],[121.293587,23.70646]]],[[[121.298534,23.710669],[121.298632,23.71067],[121.298438,23.710487],[121.298539,23.710307],[121.298246,23.710214],[121.297861,23.709668],[121.29747,23.709573],[121.297577,23.708852],[121.29797,23.708766],[121.298072,23.708496],[121.29817,23.708497],[121.298174,23.708226],[121.297979,23.708134],[121.298086,23.707413],[121.297891,23.70732],[121.297791,23.7075],[121.297398,23.707496],[121.297298,23.707675],[121.297003,23.707762],[121.297098,23.707944],[121.297786,23.707861],[121.297883,23.707952],[121.297778,23.708493],[121.297384,23.708579],[121.297082,23.709208],[121.296985,23.709116],[121.29669,23.709203],[121.296783,23.709566],[121.297074,23.70984],[121.297369,23.709753],[121.297366,23.710024],[121.297657,23.710207],[121.297654,23.710478],[121.297945,23.710752],[121.297746,23.710931],[121.297737,23.711653],[121.296755,23.711733],[121.296653,23.712002],[121.29675,23.712094],[121.297339,23.7121],[121.297338,23.71219],[121.297729,23.712285],[121.297828,23.712196],[121.297732,23.712014],[121.298326,23.711569],[121.298332,23.711118],[121.298235,23.711026],[121.298531,23.710939],[121.298534,23.710669]],[[121.298235,23.711026],[121.298138,23.710935],[121.298236,23.710936],[121.298235,23.711026]],[[121.29804,23.710934],[121.298043,23.710753],[121.298141,23.710754],[121.298138,23.710935],[121.29804,23.710934]]],[[[121.301466,23.711423],[121.301175,23.711239],[121.301081,23.710877],[121.300596,23.710511],[121.300505,23.709968],[121.300214,23.709694],[121.299822,23.709689],[121.299726,23.709508],[121.299335,23.709413],[121.299337,23.709233],[121.299142,23.70914],[121.299041,23.70941],[121.299623,23.709868],[121.299617,23.710319],[121.29932,23.710587],[121.299515,23.710679],[121.299714,23.710411],[121.300008,23.710414],[121.300201,23.710687],[121.300495,23.71069],[121.300689,23.710873],[121.300686,23.711144],[121.301172,23.71142],[121.301166,23.711871],[121.301263,23.711963],[121.301461,23.711875],[121.301466,23.711423]]],[[[121.296708,23.715344],[121.296714,23.714893],[121.297103,23.715168],[121.297202,23.715079],[121.297106,23.714897],[121.297304,23.714809],[121.297306,23.714628],[121.2975,23.714811],[121.297794,23.714814],[121.29779,23.715085],[121.298083,23.715179],[121.298179,23.71536],[121.298375,23.715362],[121.298471,23.715544],[121.298667,23.715546],[121.298965,23.715278],[121.298967,23.715098],[121.298674,23.715004],[121.298286,23.714639],[121.298386,23.71455],[121.298292,23.714188],[121.297999,23.714094],[121.297906,23.713732],[121.297614,23.713548],[121.297515,23.713637],[121.297509,23.714089],[121.297211,23.714356],[121.297209,23.714537],[121.296915,23.714534],[121.296518,23.71489],[121.296124,23.714976],[121.296122,23.715157],[121.29622,23.715158],[121.296119,23.715428],[121.296312,23.715611],[121.296509,23.715613],[121.29661,23.715343],[121.296708,23.715344]]],[[[121.28376,23.715562],[121.283958,23.715384],[121.28406,23.715114],[121.284256,23.715116],[121.284255,23.715206],[121.284452,23.715118],[121.284454,23.714938],[121.284066,23.714662],[121.28417,23.714212],[121.284466,23.714035],[121.28447,23.713764],[121.284568,23.713765],[121.284472,23.713583],[121.284274,23.713762],[121.28388,23.713848],[121.282987,23.71465],[121.282981,23.715102],[121.283465,23.715559],[121.28376,23.715562]]],[[[121.287988,23.714706],[121.287794,23.714523],[121.287694,23.714703],[121.287889,23.714795],[121.287988,23.714706]]],[[[121.29823,23.718973],[121.298136,23.718701],[121.298333,23.718613],[121.298336,23.718342],[121.298831,23.717986],[121.298835,23.717715],[121.299033,23.717537],[121.298939,23.717265],[121.299433,23.716999],[121.299638,23.716279],[121.299937,23.715921],[121.299941,23.71565],[121.300434,23.715385],[121.30034,23.715113],[121.300046,23.71511],[121.299743,23.715739],[121.299545,23.715917],[121.299151,23.716003],[121.299144,23.716545],[121.298948,23.716543],[121.29875,23.716721],[121.29884,23.717354],[121.298742,23.717353],[121.298639,23.717713],[121.298442,23.717801],[121.298339,23.718161],[121.297546,23.718785],[121.29764,23.719147],[121.297934,23.71915],[121.297935,23.71906],[121.29823,23.718973]]],[[[121.290714,23.723766],[121.291006,23.72395],[121.291002,23.724221],[121.290804,23.724399],[121.290998,23.724582],[121.290502,23.724937],[121.290595,23.72539],[121.290201,23.725476],[121.290394,23.725749],[121.291471,23.725851],[121.291573,23.725581],[121.291282,23.725307],[121.291577,23.725311],[121.291677,23.725131],[121.29207,23.725045],[121.292073,23.724865],[121.291975,23.724863],[121.292079,23.724413],[121.292275,23.724415],[121.292272,23.724596],[121.292467,23.724688],[121.29256,23.725141],[121.292658,23.725142],[121.292459,23.72532],[121.292457,23.725501],[121.292259,23.725589],[121.292355,23.725771],[121.292159,23.725768],[121.291861,23.726036],[121.291859,23.726217],[121.291663,23.726214],[121.291562,23.726394],[121.292935,23.726409],[121.292937,23.726319],[121.293525,23.726325],[121.293527,23.726145],[121.29392,23.726149],[121.293922,23.725969],[121.29451,23.725975],[121.294517,23.725433],[121.294419,23.725432],[121.29452,23.725253],[121.294423,23.725161],[121.294521,23.725162],[121.294528,23.724621],[121.294626,23.724622],[121.294728,23.724352],[121.295018,23.724626],[121.294919,23.724715],[121.295009,23.725348],[121.2954,23.725443],[121.295301,23.725532],[121.295396,23.725714],[121.295887,23.725719],[121.295979,23.726172],[121.296467,23.726358],[121.296468,23.726267],[121.296764,23.72618],[121.296676,23.725367],[121.296579,23.725275],[121.296284,23.725362],[121.296283,23.725453],[121.296186,23.725361],[121.29589,23.725448],[121.295891,23.725358],[121.296189,23.725091],[121.296483,23.725094],[121.296879,23.724827],[121.296976,23.724919],[121.29727,23.724922],[121.297271,23.724832],[121.297466,23.724924],[121.297568,23.724654],[121.297865,23.724477],[121.297768,23.724386],[121.297867,23.724296],[121.297773,23.723934],[121.298068,23.723937],[121.298065,23.724118],[121.298259,23.724301],[121.298456,23.724213],[121.298459,23.724032],[121.298168,23.723758],[121.297875,23.723664],[121.297883,23.723032],[121.297981,23.723033],[121.297889,23.722581],[121.298378,23.722677],[121.298577,23.722498],[121.298579,23.722318],[121.298288,23.722043],[121.29809,23.722222],[121.297896,23.722039],[121.297699,23.722127],[121.297586,23.7233],[121.297289,23.723477],[121.29738,23.72402],[121.297575,23.724113],[121.297573,23.724293],[121.296978,23.724738],[121.296688,23.724464],[121.296886,23.724286],[121.29689,23.724015],[121.296988,23.724016],[121.296798,23.723562],[121.2966,23.72365],[121.296594,23.724102],[121.296398,23.7241],[121.296101,23.724367],[121.295511,23.724451],[121.295512,23.724361],[121.295218,23.724357],[121.29522,23.724177],[121.294928,23.723993],[121.294931,23.723812],[121.295029,23.723814],[121.294935,23.723451],[121.294839,23.72336],[121.294641,23.723448],[121.294644,23.723268],[121.29484,23.72327],[121.295137,23.723002],[121.295145,23.72246],[121.295442,23.722193],[121.295638,23.722195],[121.296136,23.721659],[121.296628,23.721483],[121.296619,23.722206],[121.296716,23.722297],[121.296913,23.722209],[121.296918,23.721848],[121.297214,23.72167],[121.297422,23.72077],[121.297324,23.720769],[121.29733,23.720317],[121.297135,23.720225],[121.297245,23.719323],[121.297147,23.719322],[121.297053,23.71896],[121.296364,23.719223],[121.296459,23.719405],[121.296753,23.719408],[121.296749,23.719769],[121.296455,23.719766],[121.296157,23.720033],[121.296253,23.720215],[121.29645,23.720127],[121.296539,23.72085],[121.296046,23.721026],[121.295944,23.721295],[121.295547,23.721652],[121.295056,23.721737],[121.295055,23.721827],[121.294664,23.721733],[121.294465,23.721911],[121.294853,23.722277],[121.294849,23.722547],[121.294651,23.722726],[121.294553,23.722725],[121.294558,23.722273],[121.294268,23.721999],[121.29407,23.722087],[121.294164,23.72245],[121.293868,23.722537],[121.293782,23.721633],[121.293006,23.720992],[121.293012,23.720541],[121.292817,23.720448],[121.29292,23.720088],[121.292822,23.720087],[121.292728,23.719725],[121.292533,23.719632],[121.292537,23.719361],[121.292342,23.719269],[121.29224,23.719539],[121.292338,23.71954],[121.292335,23.719811],[121.292625,23.720085],[121.292719,23.720447],[121.292421,23.720715],[121.292225,23.720712],[121.292228,23.720442],[121.292035,23.720259],[121.291739,23.720346],[121.29173,23.721068],[121.292022,23.721252],[121.292021,23.721342],[121.291725,23.721429],[121.291722,23.7217],[121.291624,23.721699],[121.291816,23.721972],[121.291618,23.722151],[121.291423,23.722058],[121.291224,23.722236],[121.291221,23.722507],[121.290824,23.722864],[121.290628,23.722862],[121.290428,23.723131],[121.290135,23.723037],[121.289935,23.723306],[121.289641,23.723303],[121.289643,23.723122],[121.289841,23.723034],[121.289745,23.722852],[121.290042,23.722675],[121.290045,23.722404],[121.290242,23.722316],[121.290245,23.722135],[121.290734,23.722231],[121.291329,23.721696],[121.291333,23.721425],[121.291041,23.721241],[121.290947,23.720969],[121.29075,23.720967],[121.29095,23.720698],[121.29056,23.720513],[121.29067,23.719612],[121.291065,23.719435],[121.291067,23.719255],[121.291165,23.719256],[121.291071,23.718984],[121.291366,23.718897],[121.291466,23.718718],[121.291563,23.718809],[121.291859,23.718722],[121.291952,23.719084],[121.292244,23.719268],[121.292343,23.719179],[121.292247,23.718997],[121.292543,23.71891],[121.29235,23.718637],[121.291958,23.718633],[121.291571,23.718177],[121.291768,23.718179],[121.291869,23.717909],[121.292066,23.717821],[121.292065,23.717911],[121.292261,23.717914],[121.292258,23.718184],[121.292453,23.718277],[121.292554,23.718007],[121.293049,23.717651],[121.293151,23.717382],[121.293446,23.717295],[121.293449,23.717114],[121.293746,23.716846],[121.293551,23.716754],[121.293451,23.716933],[121.293158,23.71684],[121.293058,23.717019],[121.292861,23.717017],[121.292863,23.716927],[121.292567,23.717014],[121.292571,23.716743],[121.292964,23.716657],[121.293163,23.716479],[121.293068,23.716207],[121.292774,23.716204],[121.292179,23.716739],[121.291974,23.717369],[121.291483,23.717454],[121.290987,23.7179],[121.29089,23.717808],[121.290496,23.717894],[121.290402,23.717622],[121.290105,23.717799],[121.289915,23.717346],[121.290211,23.717169],[121.290215,23.716898],[121.290508,23.716991],[121.290707,23.716813],[121.29061,23.716721],[121.290808,23.716543],[121.290714,23.716271],[121.2912,23.716547],[121.291399,23.716369],[121.291404,23.716008],[121.291601,23.71592],[121.291704,23.71556],[121.291998,23.715563],[121.292098,23.715383],[121.292292,23.715566],[121.292488,23.715568],[121.292489,23.715478],[121.292982,23.715303],[121.292978,23.715574],[121.29288,23.715573],[121.292974,23.715935],[121.29317,23.715937],[121.29347,23.715489],[121.293863,23.715403],[121.293759,23.715853],[121.293661,23.715852],[121.293757,23.716034],[121.294149,23.716038],[121.29435,23.715679],[121.294447,23.715771],[121.29484,23.715685],[121.294936,23.715866],[121.29523,23.715869],[121.295224,23.716321],[121.295321,23.716412],[121.29552,23.716234],[121.295715,23.716326],[121.295816,23.716057],[121.296113,23.715879],[121.296116,23.715608],[121.295921,23.715516],[121.295526,23.715782],[121.295528,23.715602],[121.295334,23.715419],[121.295138,23.715417],[121.29514,23.715236],[121.294945,23.715144],[121.294755,23.71469],[121.295445,23.714427],[121.295644,23.714249],[121.295646,23.714068],[121.29614,23.713803],[121.296246,23.713172],[121.296344,23.713173],[121.296353,23.71245],[121.296257,23.712359],[121.29596,23.712536],[121.295957,23.712807],[121.295858,23.712806],[121.295757,23.713076],[121.295167,23.71316],[121.294969,23.713338],[121.294676,23.713245],[121.294475,23.713604],[121.294279,23.713602],[121.293883,23.713868],[121.293589,23.713865],[121.293291,23.714132],[121.292801,23.714127],[121.292608,23.713854],[121.292215,23.71394],[121.292112,23.7143],[121.292405,23.714394],[121.292403,23.714574],[121.292105,23.714842],[121.292007,23.714841],[121.292012,23.714479],[121.291914,23.714478],[121.291819,23.714206],[121.291623,23.714204],[121.291622,23.714295],[121.291329,23.714201],[121.291331,23.71402],[121.291529,23.713932],[121.291433,23.713751],[121.29104,23.713837],[121.291034,23.714288],[121.290934,23.714377],[121.290541,23.714463],[121.290441,23.714643],[121.28995,23.714637],[121.289752,23.714816],[121.28936,23.714811],[121.289361,23.714721],[121.288575,23.714803],[121.288574,23.714893],[121.28828,23.71489],[121.288281,23.714799],[121.287986,23.714886],[121.287889,23.714795],[121.287787,23.715065],[121.286905,23.715055],[121.286903,23.715145],[121.286707,23.715143],[121.28661,23.715052],[121.286711,23.714872],[121.286419,23.714689],[121.286319,23.714868],[121.286514,23.71496],[121.286511,23.715141],[121.286314,23.715229],[121.286312,23.71541],[121.285425,23.715671],[121.285028,23.716028],[121.284734,23.716024],[121.284633,23.716294],[121.284437,23.716292],[121.284335,23.716562],[121.284237,23.716561],[121.28433,23.716923],[121.284036,23.71692],[121.283638,23.717367],[121.283343,23.717454],[121.283233,23.718355],[121.283331,23.718357],[121.283424,23.718719],[121.283326,23.718718],[121.282922,23.719616],[121.282624,23.719884],[121.281836,23.720146],[121.281731,23.720687],[121.28212,23.720962],[121.282515,23.720695],[121.28281,23.720699],[121.283008,23.72052],[121.283011,23.72034],[121.283207,23.720342],[121.283604,23.719985],[121.283606,23.719804],[121.283802,23.719807],[121.283898,23.719988],[121.284585,23.719906],[121.284687,23.719636],[121.284881,23.719818],[121.285077,23.719821],[121.285176,23.719731],[121.285084,23.719279],[121.28528,23.719281],[121.285278,23.719462],[121.285376,23.719463],[121.285277,23.719552],[121.285274,23.719733],[121.285372,23.719734],[121.285264,23.720545],[121.28536,23.720637],[121.285064,23.720814],[121.28506,23.721085],[121.284964,23.720993],[121.284766,23.721081],[121.284361,23.72207],[121.284064,23.722248],[121.284159,23.722519],[121.284356,23.722431],[121.284452,23.722613],[121.284648,23.722615],[121.284649,23.722525],[121.285141,23.72244],[121.285234,23.722802],[121.28543,23.722804],[121.285624,23.722987],[121.286212,23.722994],[121.286308,23.723175],[121.286504,23.723178],[121.2869,23.722911],[121.287003,23.722551],[121.287394,23.722646],[121.287494,23.722466],[121.287788,23.722469],[121.287892,23.722019],[121.288774,23.722119],[121.288973,23.72185],[121.289365,23.721945],[121.289461,23.722036],[121.289362,23.722126],[121.289456,23.722488],[121.289059,23.722845],[121.288862,23.722842],[121.288761,23.723112],[121.288565,23.72311],[121.28787,23.723734],[121.287866,23.724005],[121.287965,23.724006],[121.287961,23.724277],[121.288059,23.724278],[121.288154,23.72455],[121.288451,23.724283],[121.288845,23.724197],[121.288946,23.723927],[121.289044,23.723928],[121.289041,23.724199],[121.288742,23.724557],[121.288839,23.724648],[121.288738,23.724828],[121.288835,23.724919],[121.289131,23.724832],[121.289031,23.724921],[121.289127,23.725103],[121.289423,23.725016],[121.289321,23.725286],[121.289223,23.725285],[121.289317,23.725556],[121.289514,23.725559],[121.289712,23.72538],[121.289918,23.72466],[121.290414,23.724214],[121.290709,23.724127],[121.290714,23.723766]],[[121.29645,23.720127],[121.296549,23.720038],[121.296548,23.720128],[121.29645,23.720127]],[[121.291466,23.718718],[121.291369,23.718626],[121.291467,23.718627],[121.291466,23.718718]],[[121.293449,23.717114],[121.293352,23.717023],[121.29345,23.717024],[121.293449,23.717114]],[[121.290611,23.716631],[121.290514,23.71654],[121.290612,23.716541],[121.290611,23.716631]],[[121.290514,23.71654],[121.290121,23.716626],[121.290025,23.716444],[121.290222,23.716356],[121.290224,23.716175],[121.29052,23.716088],[121.290516,23.716359],[121.290418,23.716358],[121.290514,23.71654]],[[121.290024,23.716534],[121.289825,23.716713],[121.289823,23.716893],[121.289527,23.71698],[121.289525,23.717161],[121.289132,23.717247],[121.289234,23.716887],[121.289628,23.716801],[121.289828,23.716532],[121.290024,23.716534]],[[121.289234,23.716887],[121.289138,23.716795],[121.289236,23.716797],[121.289234,23.716887]],[[121.290616,23.723765],[121.290618,23.723584],[121.290716,23.723585],[121.290714,23.723766],[121.290616,23.723765]],[[121.293333,23.725962],[121.293237,23.725871],[121.293335,23.725872],[121.293333,23.725962]],[[121.294221,23.725611],[121.294124,23.725519],[121.294222,23.72552],[121.294221,23.725611]],[[121.293839,23.724794],[121.293837,23.724974],[121.294032,23.725067],[121.294029,23.725247],[121.293833,23.725245],[121.293836,23.725065],[121.293738,23.725064],[121.293741,23.724793],[121.293839,23.724794]],[[121.294324,23.725251],[121.294227,23.725159],[121.294325,23.72516],[121.294324,23.725251]],[[121.295897,23.724907],[121.295899,23.724816],[121.296095,23.724819],[121.296093,23.724909],[121.295897,23.724907]],[[121.293251,23.724787],[121.293253,23.724607],[121.293351,23.724608],[121.293349,23.724788],[121.293251,23.724787]],[[121.295408,23.724811],[121.295411,23.72463],[121.295509,23.724632],[121.295506,23.724812],[121.295408,23.724811]],[[121.295115,23.724718],[121.295117,23.724537],[121.295216,23.724538],[121.295213,23.724719],[121.295115,23.724718]],[[121.293058,23.724514],[121.293157,23.724425],[121.293156,23.724515],[121.293058,23.724514]],[[121.293059,23.724424],[121.292962,23.724333],[121.292765,23.724421],[121.292572,23.724148],[121.292375,23.724236],[121.29238,23.723875],[121.292283,23.723783],[121.292086,23.723871],[121.292088,23.723691],[121.292287,23.723512],[121.292188,23.723511],[121.292094,23.723239],[121.291801,23.723146],[121.291904,23.722786],[121.291807,23.722694],[121.291609,23.722783],[121.291712,23.722422],[121.291907,23.722515],[121.292109,23.722066],[121.292402,23.722159],[121.292399,23.72243],[121.292301,23.722429],[121.292297,23.7227],[121.292199,23.722699],[121.292393,23.722881],[121.29229,23.723242],[121.292388,23.723243],[121.292483,23.723515],[121.292679,23.723517],[121.292771,23.723969],[121.293063,23.724153],[121.293059,23.724424]],[[121.291495,23.724045],[121.291402,23.723683],[121.291208,23.7235],[121.291312,23.72305],[121.291117,23.722958],[121.291119,23.722777],[121.291606,23.723053],[121.291696,23.723686],[121.291794,23.723688],[121.291692,23.723957],[121.291594,23.723956],[121.291689,23.724228],[121.29149,23.724407],[121.291294,23.724404],[121.291296,23.724224],[121.291495,23.724045]],[[121.294535,23.724079],[121.294339,23.724077],[121.294236,23.724437],[121.294138,23.724436],[121.294043,23.724164],[121.29434,23.723987],[121.294344,23.723716],[121.294442,23.723717],[121.294535,23.724079]],[[121.294344,23.723716],[121.294149,23.723623],[121.294153,23.723262],[121.294347,23.723445],[121.294344,23.723716]],[[121.293454,23.724248],[121.293357,23.724156],[121.293455,23.724157],[121.293454,23.724248]],[[121.290221,23.723941],[121.290121,23.724121],[121.290023,23.724119],[121.290025,23.723939],[121.290221,23.723941]],[[121.288458,23.723741],[121.288461,23.72356],[121.288657,23.723563],[121.288655,23.723743],[121.288458,23.723741]],[[121.292877,23.723338],[121.292976,23.723249],[121.292975,23.723339],[121.292877,23.723338]],[[121.292878,23.723248],[121.292683,23.723156],[121.292687,23.722885],[121.292882,23.722977],[121.292878,23.723248]],[[121.292589,23.722884],[121.292591,23.722703],[121.292689,23.722704],[121.292687,23.722885],[121.292589,23.722884]],[[121.293859,23.723259],[121.293762,23.723167],[121.29386,23.723169],[121.293859,23.723259]],[[121.294056,23.723171],[121.293959,23.723079],[121.294058,23.72308],[121.294056,23.723171]],[[121.294063,23.722629],[121.294061,23.72281],[121.293864,23.722898],[121.293866,23.722717],[121.294063,23.722629]],[[121.293378,23.722531],[121.293376,23.722712],[121.29318,23.72271],[121.293181,23.722619],[121.293378,23.722531]],[[121.284654,23.722164],[121.284652,23.722344],[121.284455,23.722342],[121.284457,23.722252],[121.284654,23.722164]],[[121.287207,23.721921],[121.287202,23.722282],[121.287006,23.72228],[121.287009,23.7221],[121.287207,23.721921]],[[121.293282,23.72235],[121.293186,23.722258],[121.293284,23.722259],[121.293282,23.72235]],[[121.298088,23.722402],[121.297991,23.722311],[121.298089,23.722312],[121.298088,23.722402]],[[121.285831,23.722177],[121.285833,23.721996],[121.285931,23.721997],[121.285929,23.722178],[121.285831,23.722177]],[[121.289854,23.722041],[121.289853,23.722131],[121.289558,23.722128],[121.289661,23.721768],[121.290153,23.721683],[121.290149,23.721954],[121.289854,23.722041]],[[121.290251,23.721684],[121.28996,23.72141],[121.290257,23.721233],[121.290449,23.721506],[121.290251,23.721684]],[[121.292992,23.722075],[121.292993,23.721985],[121.293189,23.721987],[121.293188,23.722078],[121.292992,23.722075]],[[121.285248,23.721719],[121.285448,23.72145],[121.285742,23.721453],[121.285639,23.721813],[121.285246,23.721899],[121.285248,23.721719]],[[121.292603,23.7218],[121.292601,23.721981],[121.292503,23.72198],[121.292407,23.721798],[121.292603,23.7218]],[[121.295248,23.72201],[121.29525,23.72192],[121.295446,23.721922],[121.295445,23.722012],[121.295248,23.72201]],[[121.286914,23.721828],[121.286817,23.721736],[121.286915,23.721737],[121.286914,23.721828]],[[121.28878,23.721668],[121.288781,23.721577],[121.288977,23.72158],[121.288976,23.72167],[121.28878,23.721668]],[[121.288097,23.721389],[121.288,23.721298],[121.288098,23.721299],[121.288097,23.721389]],[[121.292511,23.721348],[121.292608,23.721439],[121.29251,23.721438],[121.292511,23.721348]],[[121.292609,23.721349],[121.292708,23.72126],[121.292707,23.72135],[121.292609,23.721349]],[[121.285649,23.721091],[121.285848,23.720823],[121.28614,23.721006],[121.285941,23.721275],[121.285649,23.721091]],[[121.288398,23.720851],[121.288396,23.721031],[121.2881,23.721118],[121.288099,23.721209],[121.287809,23.720935],[121.288107,23.720577],[121.288398,23.720851]],[[121.288304,23.720579],[121.287916,23.720213],[121.288311,23.720037],[121.288118,23.719764],[121.288415,23.719587],[121.288608,23.719769],[121.28841,23.719948],[121.288506,23.72013],[121.288899,23.720044],[121.289188,23.720408],[121.289484,23.720321],[121.289676,23.720594],[121.289478,23.720772],[121.289381,23.720681],[121.28889,23.720766],[121.288698,23.720403],[121.288502,23.7204],[121.288304,23.720579]],[[121.287416,23.72093],[121.287417,23.72084],[121.287614,23.720842],[121.287612,23.720932],[121.287416,23.72093]],[[121.287523,23.720299],[121.287617,23.720571],[121.287225,23.720567],[121.287227,23.720386],[121.287523,23.720299]],[[121.286641,23.720199],[121.286737,23.720381],[121.286442,23.720468],[121.286444,23.720287],[121.286641,23.720199]],[[121.286446,23.720107],[121.286449,23.719926],[121.286547,23.719927],[121.286544,23.720108],[121.286446,23.720107]],[[121.29018,23.719606],[121.290182,23.719426],[121.29028,23.719427],[121.290271,23.720149],[121.290173,23.720148],[121.290177,23.719787],[121.290079,23.719786],[121.290082,23.719605],[121.29018,23.719606]],[[121.287728,23.719579],[121.287725,23.71985],[121.28743,23.719847],[121.287433,23.719666],[121.287728,23.719579]],[[121.283315,23.71953],[121.283515,23.719262],[121.283711,23.719264],[121.283708,23.719535],[121.283412,23.719622],[121.283315,23.71953]],[[121.287161,23.717947],[121.286864,23.718125],[121.286959,23.718397],[121.286861,23.718396],[121.286758,23.718756],[121.286856,23.718757],[121.286853,23.719028],[121.287337,23.719485],[121.287239,23.719483],[121.287237,23.719664],[121.287041,23.719662],[121.287042,23.719572],[121.286844,23.71966],[121.286554,23.719386],[121.286657,23.719025],[121.286365,23.718842],[121.286464,23.718752],[121.286367,23.718661],[121.286476,23.71785],[121.286282,23.717667],[121.28638,23.717668],[121.286382,23.717487],[121.286577,23.71758],[121.286678,23.7174],[121.287065,23.717766],[121.287558,23.717591],[121.287453,23.718131],[121.28716,23.718038],[121.287161,23.717947]],[[121.286382,23.717487],[121.286286,23.717396],[121.286384,23.717397],[121.286382,23.717487]],[[121.287551,23.718132],[121.28755,23.718223],[121.287746,23.718225],[121.287945,23.717956],[121.288142,23.717958],[121.288335,23.718141],[121.288333,23.718322],[121.288528,23.718414],[121.288524,23.718685],[121.288913,23.71896],[121.289109,23.718962],[121.289407,23.718695],[121.289509,23.718425],[121.289607,23.718426],[121.289701,23.718698],[121.290386,23.718796],[121.290385,23.718886],[121.290286,23.718975],[121.289993,23.718882],[121.289795,23.71906],[121.28989,23.719242],[121.289596,23.719239],[121.289595,23.719329],[121.289301,23.719326],[121.289303,23.719145],[121.28901,23.719052],[121.288613,23.719408],[121.288517,23.719227],[121.288321,23.719225],[121.288127,23.719042],[121.28823,23.718682],[121.28794,23.718408],[121.287443,23.718854],[121.287149,23.71885],[121.287348,23.718672],[121.287254,23.71831],[121.287551,23.718132]],[[121.2891,23.719685],[121.289003,23.719593],[121.289101,23.719594],[121.2891,23.719685]],[[121.284497,23.719182],[121.284396,23.719362],[121.284102,23.719358],[121.284105,23.719178],[121.284497,23.719182]],[[121.285671,23.719376],[121.285574,23.719284],[121.285672,23.719285],[121.285671,23.719376]],[[121.283712,23.719173],[121.283615,23.719082],[121.283714,23.719083],[121.283712,23.719173]],[[121.28548,23.719012],[121.285679,23.718744],[121.285874,23.718836],[121.285772,23.719196],[121.28548,23.719012]],[[121.287439,23.719215],[121.287342,23.719123],[121.28744,23.719124],[121.287439,23.719215]],[[121.290874,23.718982],[121.290872,23.719162],[121.29048,23.719158],[121.290481,23.719068],[121.290874,23.718982]],[[121.284401,23.719],[121.284113,23.718546],[121.284309,23.718548],[121.284503,23.718731],[121.284797,23.718734],[121.284989,23.719007],[121.284401,23.719]],[[121.287638,23.718946],[121.287735,23.719037],[121.287637,23.719036],[121.287638,23.718946]],[[121.287736,23.718947],[121.287836,23.718858],[121.287834,23.718948],[121.287736,23.718947]],[[121.290581,23.718888],[121.290484,23.718797],[121.290583,23.718798],[121.290581,23.718888]],[[121.285189,23.718738],[121.2848,23.718463],[121.284901,23.718284],[121.284998,23.718375],[121.285195,23.718287],[121.285389,23.71847],[121.285189,23.718738]],[[121.290684,23.718528],[121.290688,23.718257],[121.290786,23.718258],[121.290782,23.718529],[121.290684,23.718528]],[[121.291372,23.718446],[121.291275,23.718354],[121.291373,23.718355],[121.291372,23.718446]],[[121.286177,23.718207],[121.28608,23.718116],[121.286178,23.718117],[121.286177,23.718207]],[[121.290202,23.717891],[121.290396,23.718074],[121.290393,23.718254],[121.290002,23.71816],[121.290006,23.717889],[121.290202,23.717891]],[[121.283925,23.717912],[121.283923,23.718092],[121.283825,23.718091],[121.283729,23.717909],[121.283925,23.717912]],[[121.289523,23.717342],[121.28972,23.717253],[121.289816,23.717435],[121.289618,23.717523],[121.289714,23.717705],[121.289416,23.717972],[121.289523,23.717342]],[[121.288634,23.717783],[121.288638,23.717512],[121.288736,23.717513],[121.288732,23.717784],[121.288634,23.717783]],[[121.285892,23.717482],[121.285893,23.717392],[121.286089,23.717394],[121.286088,23.717484],[121.285892,23.717482]],[[121.287658,23.717411],[121.287368,23.717137],[121.287764,23.716871],[121.287956,23.717144],[121.287858,23.717143],[121.287658,23.717411]],[[121.287758,23.717322],[121.287855,23.717413],[121.287756,23.717412],[121.287758,23.717322]],[[121.289227,23.717429],[121.28913,23.717337],[121.289229,23.717338],[121.289227,23.717429]],[[121.286091,23.717304],[121.285896,23.717211],[121.285898,23.717031],[121.286191,23.717124],[121.286091,23.717304]],[[121.286386,23.717217],[121.286385,23.717307],[121.286189,23.717305],[121.28619,23.717214],[121.286386,23.717217]],[[121.287372,23.716776],[121.286777,23.717311],[121.286485,23.717127],[121.286391,23.716855],[121.286095,23.716942],[121.285902,23.71676],[121.286002,23.71658],[121.285709,23.716487],[121.28571,23.716396],[121.285808,23.716397],[121.285811,23.716217],[121.286204,23.716131],[121.286107,23.71604],[121.286211,23.715589],[121.286899,23.715507],[121.286798,23.715686],[121.286503,23.715773],[121.286597,23.716045],[121.28689,23.716139],[121.286888,23.716319],[121.286693,23.716227],[121.286592,23.716496],[121.286786,23.716589],[121.286887,23.716409],[121.287082,23.716502],[121.28728,23.716323],[121.287474,23.716506],[121.287372,23.716776]],[[121.2859,23.71685],[121.285409,23.716935],[121.28541,23.716845],[121.285117,23.716751],[121.285121,23.71648],[121.285514,23.716394],[121.285512,23.716575],[121.2859,23.71685]],[[121.287474,23.716506],[121.287573,23.716417],[121.287572,23.716507],[121.287474,23.716506]],[[121.292466,23.717284],[121.292664,23.717105],[121.292858,23.717288],[121.292661,23.717376],[121.292662,23.717286],[121.292466,23.717284]],[[121.289534,23.716439],[121.289537,23.716258],[121.289635,23.716259],[121.289633,23.71644],[121.289534,23.716439]],[[121.285319,23.716302],[121.285321,23.716121],[121.28542,23.716122],[121.285417,23.716303],[121.285319,23.716302]],[[121.288066,23.716242],[121.287969,23.71615],[121.288067,23.716152],[121.288066,23.716242]],[[121.288752,23.716249],[121.288655,23.716158],[121.288754,23.716159],[121.288752,23.716249]],[[121.28856,23.715976],[121.288459,23.716156],[121.288361,23.716155],[121.288364,23.715974],[121.28856,23.715976]],[[121.28954,23.715987],[121.289539,23.716078],[121.289245,23.716074],[121.289347,23.715805],[121.289739,23.715809],[121.290136,23.715452],[121.290133,23.715633],[121.289837,23.71581],[121.28993,23.716172],[121.289734,23.71617],[121.28954,23.715987]],[[121.285617,23.716034],[121.285618,23.715944],[121.285814,23.715946],[121.285813,23.716036],[121.285617,23.716034]],[[121.288166,23.716062],[121.288069,23.715971],[121.288168,23.715972],[121.288166,23.716062]],[[121.288466,23.715614],[121.288468,23.715524],[121.288664,23.715526],[121.288663,23.715616],[121.288466,23.715614]],[[121.291114,23.715643],[121.290333,23.715364],[121.290434,23.715184],[121.29112,23.715192],[121.291021,23.715281],[121.291114,23.715643]],[[121.289058,23.71535],[121.289056,23.71553],[121.28886,23.715528],[121.288861,23.715438],[121.289058,23.71535]],[[121.289449,23.715444],[121.289353,23.715353],[121.289451,23.715354],[121.289449,23.715444]],[[121.28847,23.715343],[121.288373,23.715252],[121.288471,23.715253],[121.28847,23.715343]],[[121.288177,23.71525],[121.28808,23.715158],[121.288178,23.715159],[121.288177,23.71525]],[[121.28955,23.715265],[121.289453,23.715174],[121.289551,23.715175],[121.28955,23.715265]]],[[[121.298495,23.721233],[121.298301,23.72105],[121.298403,23.720781],[121.298208,23.720688],[121.297909,23.721046],[121.298103,23.721229],[121.298001,23.721499],[121.297805,23.721496],[121.297806,23.721406],[121.297609,23.721494],[121.297799,23.721948],[121.297995,23.72195],[121.298194,23.721772],[121.298098,23.72159],[121.298294,23.721592],[121.298293,23.721682],[121.29849,23.721594],[121.298297,23.721411],[121.298495,23.721233]],[[121.298298,23.721321],[121.298201,23.72123],[121.298299,23.721231],[121.298298,23.721321]]],[[[121.300047,23.722605],[121.299954,23.722152],[121.300052,23.722153],[121.300156,23.721703],[121.300354,23.721615],[121.300358,23.721254],[121.300065,23.72116],[121.299973,23.720708],[121.299778,23.720615],[121.299476,23.721244],[121.299378,23.721243],[121.29927,23.721964],[121.299465,23.722056],[121.299459,23.722508],[121.299749,23.722872],[121.300047,23.722605]],[[121.299868,23.721248],[121.299966,23.721249],[121.299964,23.72143],[121.299866,23.721429],[121.299868,23.721248]]],[[[121.2953,23.725623],[121.295106,23.72544],[121.294908,23.725528],[121.295101,23.725801],[121.2953,23.725623]]],[[[121.301525,23.714494],[121.301527,23.714313],[121.301724,23.714225],[121.30173,23.713774],[121.301829,23.713685],[121.302124,23.713688],[121.302316,23.713961],[121.302512,23.713963],[121.302514,23.713873],[121.302905,23.713967],[121.303007,23.713607],[121.302909,23.713606],[121.302815,23.713334],[121.302519,23.713421],[121.302518,23.713512],[121.302126,23.713507],[121.302134,23.712875],[121.301939,23.712783],[121.301846,23.712421],[121.301359,23.712144],[121.300962,23.712501],[121.301057,23.712773],[121.300859,23.712861],[121.300851,23.713493],[121.301239,23.713859],[121.301233,23.71431],[121.301036,23.714398],[121.301033,23.714579],[121.301326,23.714672],[121.301525,23.714494]]],[[[121.304162,23.715336],[121.304164,23.715155],[121.303969,23.715063],[121.303972,23.714882],[121.303778,23.714699],[121.303484,23.714696],[121.303388,23.714514],[121.303094,23.714511],[121.302804,23.714147],[121.302607,23.714235],[121.302898,23.714509],[121.302991,23.714871],[121.303188,23.714783],[121.303284,23.714965],[121.30387,23.715152],[121.303863,23.715693],[121.304057,23.715876],[121.304254,23.715788],[121.30426,23.715337],[121.304162,23.715336]]],[[[121.306281,23.718339],[121.306477,23.718341],[121.306774,23.718073],[121.306484,23.717799],[121.306583,23.71771],[121.306486,23.717619],[121.306491,23.717257],[121.306589,23.717258],[121.306494,23.716987],[121.306397,23.716895],[121.306201,23.716893],[121.3062,23.716983],[121.305907,23.71689],[121.305808,23.716979],[121.305712,23.716797],[121.305025,23.71688],[121.304831,23.716697],[121.304743,23.715884],[121.304451,23.7157],[121.304253,23.715878],[121.304251,23.716059],[121.30454,23.716423],[121.304631,23.716966],[121.305022,23.717061],[121.30502,23.717241],[121.305508,23.717427],[121.305507,23.717517],[121.3059,23.717431],[121.306093,23.717705],[121.306387,23.717708],[121.306385,23.717888],[121.305893,23.717973],[121.305985,23.718426],[121.30618,23.718518],[121.306281,23.718339]],[[121.305217,23.717153],[121.305218,23.717063],[121.305414,23.717065],[121.305413,23.717155],[121.305217,23.717153]]],[[[121.306974,23.717804],[121.307273,23.717447],[121.307469,23.717449],[121.307565,23.71763],[121.308054,23.717726],[121.308156,23.717456],[121.30708,23.717174],[121.306683,23.71753],[121.306681,23.717711],[121.306974,23.717804]]],[[[121.302122,23.721363],[121.302028,23.721091],[121.30193,23.72109],[121.301933,23.720819],[121.302031,23.72082],[121.302034,23.72064],[121.302232,23.720461],[121.302236,23.720191],[121.302434,23.720012],[121.302244,23.719559],[121.301748,23.720005],[121.301641,23.720636],[121.301543,23.720634],[121.301537,23.721086],[121.301636,23.721087],[121.301729,23.721449],[121.302119,23.721634],[121.302218,23.721545],[121.30222,23.721364],[121.302122,23.721363]]],[[[121.302603,23.722091],[121.302508,23.721909],[121.30231,23.721997],[121.302405,23.722269],[121.302503,23.72227],[121.302499,23.722541],[121.302694,23.722634],[121.302896,23.722184],[121.302603,23.722091]]],[[[121.304619,23.725454],[121.304618,23.725544],[121.304718,23.725455],[121.304912,23.725548],[121.305013,23.725368],[121.304916,23.725277],[121.304523,23.725363],[121.304526,23.725092],[121.304428,23.725091],[121.304333,23.724819],[121.304038,23.724906],[121.303458,23.724267],[121.303262,23.724265],[121.303266,23.723904],[121.303564,23.723637],[121.304057,23.723461],[121.30406,23.72319],[121.303962,23.723189],[121.303868,23.722917],[121.303671,23.722915],[121.303674,23.722735],[121.30387,23.722737],[121.303871,23.722647],[121.30436,23.722742],[121.304559,23.722564],[121.304849,23.722838],[121.304851,23.722748],[121.305146,23.722661],[121.305248,23.722391],[121.305054,23.722208],[121.30476,23.722205],[121.304758,23.722295],[121.303287,23.722279],[121.303289,23.722189],[121.302994,23.722185],[121.302895,23.722275],[121.302992,23.722366],[121.30299,23.722547],[121.302892,23.722546],[121.302984,23.722998],[121.302788,23.722996],[121.302692,23.722814],[121.302397,23.722901],[121.302393,23.723172],[121.302197,23.72317],[121.301899,23.723438],[121.301993,23.7238],[121.302091,23.723801],[121.30199,23.72398],[121.30248,23.724076],[121.302476,23.724347],[121.302767,23.724621],[121.302866,23.724532],[121.303062,23.724534],[121.303061,23.724624],[121.303454,23.724538],[121.303549,23.72481],[121.303744,23.724903],[121.303742,23.725083],[121.30423,23.725269],[121.304323,23.725631],[121.304619,23.725454]]],[[[121.30658,23.725566],[121.306485,23.725294],[121.306877,23.725298],[121.306977,23.725209],[121.306881,23.725027],[121.305901,23.724926],[121.305604,23.725194],[121.305601,23.725375],[121.305892,23.725649],[121.306381,23.725744],[121.30658,23.725566]]],[[[121.301472,23.726142],[121.301575,23.725782],[121.301869,23.725785],[121.302067,23.725607],[121.30207,23.725426],[121.302167,23.725517],[121.302462,23.72543],[121.302464,23.72525],[121.30286,23.724983],[121.302766,23.724711],[121.30247,23.724798],[121.30237,23.724978],[121.301879,23.724973],[121.30178,23.725062],[121.301875,23.725334],[121.301676,23.725512],[121.301283,23.725598],[121.301178,23.726139],[121.301372,23.726321],[121.301569,23.726233],[121.301472,23.726142]]],[[[121.305667,23.727904],[121.305478,23.72736],[121.30509,23.726994],[121.304699,23.7269],[121.304701,23.726719],[121.304312,23.726444],[121.304212,23.726624],[121.304504,23.726807],[121.304502,23.726988],[121.305182,23.727447],[121.305177,23.727808],[121.305371,23.727991],[121.305567,23.727993],[121.305667,23.727904]]],[[[121.302925,23.727512],[121.302928,23.727332],[121.302733,23.727239],[121.302631,23.727509],[121.302728,23.727601],[121.302925,23.727512]]],[[[121.302241,23.727324],[121.302049,23.727051],[121.301753,23.727138],[121.302043,23.727503],[121.301745,23.72777],[121.301841,23.727952],[121.302135,23.727955],[121.302329,23.728138],[121.303211,23.728148],[121.303311,23.728058],[121.303118,23.727785],[121.302726,23.727781],[121.302728,23.727601],[121.30263,23.727599],[121.302437,23.727326],[121.302241,23.727324]]]]}},{"type":"Feature","properties":{"kind":"bare_dam","month":"2024-07","area_ha":30.17},"geometry":{"type":"MultiPolygon","coordinates":[[[[121.303793,23.69077],[121.303695,23.690769],[121.303893,23.690591],[121.303798,23.690409],[121.303599,23.690587],[121.303403,23.690585],[121.303404,23.690495],[121.303207,23.690583],[121.303595,23.690949],[121.303793,23.69077]]],[[[121.301627,23.691469],[121.301529,23.691468],[121.301531,23.691287],[121.301829,23.691019],[121.301536,23.690926],[121.301441,23.690654],[121.30095,23.690739],[121.300858,23.690286],[121.301739,23.690386],[121.301738,23.690477],[121.302032,23.69048],[121.302033,23.69039],[121.302424,23.690484],[121.302524,23.690305],[121.302427,23.690213],[121.302034,23.690299],[121.302035,23.690209],[121.301741,23.690206],[121.301742,23.690116],[121.301252,23.69011],[121.301058,23.689927],[121.300862,23.689925],[121.300663,23.690194],[121.300467,23.690192],[121.300273,23.690009],[121.300074,23.690187],[121.300169,23.690459],[121.300071,23.690458],[121.299969,23.690728],[121.300262,23.690822],[121.300358,23.691003],[121.300555,23.690915],[121.300749,23.691098],[121.300549,23.691367],[121.300842,23.69146],[121.300942,23.691371],[121.300846,23.691189],[121.30114,23.691192],[121.30104,23.691372],[121.301333,23.691466],[121.301428,23.691647],[121.301627,23.691469]]],[[[121.300253,23.691544],[121.300451,23.691366],[121.300356,23.691184],[121.299962,23.69127],[121.299963,23.69118],[121.299572,23.691085],[121.29938,23.690812],[121.29889,23.690807],[121.298794,23.690625],[121.298499,23.690712],[121.298496,23.690893],[121.298788,23.691076],[121.298785,23.691347],[121.298978,23.69153],[121.299958,23.691631],[121.299959,23.691541],[121.300253,23.691544]]],[[[121.303578,23.692213],[121.303876,23.691945],[121.303878,23.691764],[121.303684,23.691582],[121.30339,23.691578],[121.303391,23.691488],[121.303097,23.691485],[121.303098,23.691395],[121.302901,23.691483],[121.303095,23.691665],[121.302993,23.691935],[121.303284,23.692209],[121.303578,23.692213]]],[[[121.297922,23.697388],[121.298023,23.697118],[121.29822,23.69712],[121.298217,23.697301],[121.298315,23.697302],[121.298214,23.697572],[121.298409,23.697664],[121.298406,23.697845],[121.298208,23.698023],[121.298302,23.698295],[121.298696,23.698209],[121.2987,23.697848],[121.298505,23.697755],[121.298607,23.697486],[121.298898,23.69776],[121.299094,23.697762],[121.299095,23.697672],[121.299486,23.697766],[121.299585,23.697677],[121.299587,23.697496],[121.299393,23.697404],[121.299498,23.696863],[121.299205,23.69677],[121.299014,23.696316],[121.298723,23.696132],[121.298521,23.696582],[121.298423,23.696581],[121.298425,23.6964],[121.298133,23.696216],[121.298136,23.696036],[121.298431,23.695949],[121.298434,23.695678],[121.298336,23.695677],[121.298437,23.695497],[121.29873,23.695591],[121.298628,23.69586],[121.298822,23.696043],[121.299019,23.695955],[121.299023,23.695684],[121.299221,23.695506],[121.299318,23.695597],[121.299216,23.695867],[121.299411,23.695959],[121.299409,23.69614],[121.299506,23.696231],[121.299703,23.696143],[121.299813,23.695241],[121.299619,23.695059],[121.29952,23.695148],[121.299325,23.695055],[121.299327,23.694875],[121.299523,23.694877],[121.299624,23.694698],[121.29982,23.6947],[121.300207,23.695065],[121.300406,23.694887],[121.300213,23.694614],[121.300507,23.694617],[121.300701,23.6948],[121.300598,23.69516],[121.30089,23.695344],[121.300887,23.695614],[121.301177,23.695888],[121.301375,23.6958],[121.30128,23.695528],[121.301965,23.695626],[121.302158,23.695899],[121.302355,23.695811],[121.302066,23.695447],[121.301869,23.695445],[121.301775,23.695173],[121.301579,23.69517],[121.301578,23.695261],[121.301285,23.695167],[121.300994,23.694893],[121.300996,23.694713],[121.300803,23.69453],[121.300607,23.694528],[121.300512,23.694256],[121.301001,23.694351],[121.301,23.694442],[121.301392,23.694446],[121.30168,23.694901],[121.30178,23.694811],[121.302269,23.694907],[121.302656,23.695273],[121.30295,23.695276],[121.303046,23.695457],[121.303439,23.695371],[121.303345,23.6951],[121.302856,23.695004],[121.302857,23.694914],[121.303152,23.694827],[121.303056,23.694645],[121.302173,23.694725],[121.301981,23.694362],[121.301687,23.694359],[121.301497,23.693905],[121.301303,23.693723],[121.301107,23.693721],[121.300332,23.69299],[121.300335,23.692809],[121.300433,23.69281],[121.300337,23.692628],[121.300141,23.692626],[121.299842,23.692984],[121.299549,23.692891],[121.299163,23.692435],[121.299262,23.692346],[121.299169,23.691984],[121.298587,23.691435],[121.298293,23.691432],[121.298292,23.691522],[121.298097,23.69143],[121.298201,23.69098],[121.298398,23.690891],[121.298108,23.690617],[121.298207,23.690528],[121.298111,23.690347],[121.29831,23.690168],[121.298603,23.690262],[121.298601,23.690352],[121.298798,23.690354],[121.298799,23.690264],[121.299288,23.690359],[121.299675,23.690725],[121.299872,23.690637],[121.299876,23.690366],[121.299778,23.690365],[121.299878,23.690185],[121.299781,23.690094],[121.299682,23.690183],[121.299486,23.690181],[121.299487,23.690091],[121.299192,23.690178],[121.298998,23.689995],[121.2991,23.689725],[121.298708,23.689721],[121.298607,23.6899],[121.298215,23.689896],[121.297522,23.69043],[121.297613,23.690973],[121.298001,23.691248],[121.297999,23.691429],[121.297802,23.691517],[121.297894,23.69197],[121.298187,23.692063],[121.298185,23.692244],[121.298087,23.692243],[121.298182,23.692424],[121.298479,23.692247],[121.298472,23.692789],[121.298859,23.693154],[121.298857,23.693335],[121.299052,23.693427],[121.299051,23.693517],[121.298755,23.693604],[121.298553,23.694054],[121.29904,23.69433],[121.299131,23.694873],[121.299229,23.694874],[121.299127,23.695234],[121.298834,23.69514],[121.298935,23.694871],[121.298644,23.694596],[121.298249,23.694863],[121.298253,23.694502],[121.298452,23.694323],[121.298359,23.693961],[121.297466,23.694764],[121.29746,23.695216],[121.297558,23.695217],[121.297554,23.695487],[121.297652,23.695489],[121.29765,23.695669],[121.297453,23.695757],[121.297448,23.696118],[121.297546,23.696119],[121.297438,23.696931],[121.297922,23.697388]],[[121.299319,23.695507],[121.299516,23.695419],[121.299612,23.6956],[121.299415,23.695689],[121.299319,23.695507]],[[121.30004,23.692806],[121.300137,23.692897],[121.300039,23.692896],[121.30004,23.692806]],[[121.300137,23.692897],[121.300234,23.692989],[121.300136,23.692987],[121.300137,23.692897]],[[121.297861,23.694498],[121.297958,23.694589],[121.29786,23.694588],[121.297861,23.694498]],[[121.297729,23.697115],[121.297829,23.697026],[121.297827,23.697116],[121.297729,23.697115]],[[121.298615,23.696854],[121.298514,23.697123],[121.298416,23.697122],[121.298321,23.69685],[121.298615,23.696854]],[[121.298225,23.696669],[121.298129,23.696577],[121.298227,23.696578],[121.298225,23.696669]],[[121.297642,23.696301],[121.297644,23.696121],[121.297742,23.696122],[121.29774,23.696302],[121.297642,23.696301]],[[121.300619,23.693535],[121.300523,23.693443],[121.300621,23.693444],[121.300619,23.693535]],[[121.298579,23.692067],[121.298678,23.691978],[121.298677,23.692068],[121.298579,23.692067]],[[121.29858,23.691977],[121.298484,23.691886],[121.298582,23.691887],[121.29858,23.691977]],[[121.298485,23.691795],[121.298286,23.691974],[121.29829,23.691703],[121.298485,23.691795]],[[121.29829,23.691703],[121.298193,23.691612],[121.298291,23.691613],[121.29829,23.691703]]],[[[121.300177,23.697413],[121.300276,23.697323],[121.300183,23.696961],[121.299602,23.696413],[121.299502,23.696502],[121.299592,23.697135],[121.29969,23.697136],[121.299589,23.697406],[121.299882,23.6975],[121.299883,23.697409],[121.300177,23.697413]]],[[[121.30095,23.698324],[121.301445,23.697968],[121.301351,23.697606],[121.300764,23.697509],[121.300763,23.6976],[121.300271,23.697685],[121.300172,23.697774],[121.300268,23.697955],[121.299877,23.697861],[121.299876,23.697951],[121.299384,23.698036],[121.299674,23.6984],[121.30095,23.698324]]],[[[121.295743,23.699079],[121.295941,23.698901],[121.296137,23.698903],[121.29662,23.69945],[121.296818,23.699362],[121.296527,23.699088],[121.296337,23.698635],[121.295946,23.69854],[121.29555,23.698806],[121.295743,23.699079]]],[[[121.295154,23.699073],[121.294961,23.69889],[121.294665,23.698977],[121.294858,23.69925],[121.295152,23.699254],[121.295151,23.699344],[121.295643,23.699169],[121.295549,23.698897],[121.295353,23.698895],[121.295154,23.699073]]],[[[121.299062,23.7002],[121.298964,23.700199],[121.298968,23.699928],[121.298774,23.699745],[121.298777,23.699474],[121.299076,23.699116],[121.299181,23.698576],[121.299478,23.698398],[121.299382,23.698217],[121.299283,23.698306],[121.299088,23.698213],[121.298988,23.698393],[121.298594,23.698479],[121.298296,23.698746],[121.298004,23.698653],[121.297904,23.698742],[121.297898,23.699194],[121.2978,23.699192],[121.297698,23.699553],[121.2975,23.699641],[121.297888,23.700006],[121.297789,23.700095],[121.297882,23.700458],[121.299157,23.700472],[121.299062,23.7002]]],[[[121.312074,23.687339],[121.312271,23.687251],[121.312168,23.687611],[121.312653,23.688068],[121.312752,23.687978],[121.31276,23.687346],[121.312468,23.687163],[121.312376,23.68671],[121.312181,23.686618],[121.31218,23.686708],[121.311687,23.686883],[121.311789,23.686613],[121.311595,23.686431],[121.311399,23.686429],[121.311401,23.686248],[121.311206,23.686156],[121.311106,23.686335],[121.311204,23.686336],[121.3112,23.686697],[121.311298,23.686698],[121.311294,23.686969],[121.311392,23.68697],[121.311389,23.687241],[121.311291,23.68724],[121.311385,23.687512],[121.311287,23.687511],[121.311184,23.687871],[121.311379,23.687963],[121.311776,23.687607],[121.311778,23.687426],[121.311876,23.687427],[121.311977,23.687248],[121.312074,23.687339]],[[121.311878,23.687337],[121.311781,23.687245],[121.311879,23.687246],[121.311878,23.687337]],[[121.311483,23.687513],[121.311486,23.687332],[121.311584,23.687334],[121.311581,23.687514],[121.311483,23.687513]],[[121.312076,23.687158],[121.311979,23.687067],[121.312077,23.687068],[121.312076,23.687158]]],[[[121.3088,23.690283],[121.30861,23.689829],[121.308415,23.689737],[121.308316,23.689826],[121.308408,23.690279],[121.308701,23.690372],[121.3088,23.690283]]],[[[121.308388,23.691814],[121.308687,23.691456],[121.308982,23.691369],[121.308986,23.691098],[121.308693,23.691004],[121.308694,23.690914],[121.30889,23.690916],[121.30909,23.690647],[121.308799,23.690373],[121.308502,23.690551],[121.308498,23.690912],[121.308596,23.690913],[121.308494,23.691183],[121.308001,23.691448],[121.307998,23.691629],[121.308192,23.691812],[121.308388,23.691814]]],[[[121.304666,23.691502],[121.304182,23.691045],[121.303984,23.691133],[121.304372,23.691499],[121.304466,23.691771],[121.304664,23.691683],[121.304666,23.691502]]],[[[121.305929,23.692419],[121.306326,23.692062],[121.305838,23.691876],[121.305939,23.691606],[121.305841,23.691605],[121.305747,23.691333],[121.305253,23.691599],[121.305251,23.691779],[121.305639,23.692054],[121.305539,23.692234],[121.305637,23.692235],[121.305733,23.692417],[121.305929,23.692419]]],[[[121.310835,23.692202],[121.310641,23.692019],[121.310347,23.692016],[121.310348,23.691925],[121.310054,23.691922],[121.310055,23.691832],[121.30976,23.691919],[121.309952,23.692192],[121.310344,23.692196],[121.310343,23.692287],[121.310637,23.69229],[121.310636,23.69238],[121.310835,23.692202]]],[[[121.305538,23.692324],[121.305442,23.692143],[121.305148,23.692139],[121.30495,23.692318],[121.304757,23.692045],[121.304265,23.69222],[121.304359,23.692492],[121.304849,23.692497],[121.30485,23.692407],[121.305143,23.692501],[121.305145,23.69241],[121.305538,23.692324]]],[[[121.305337,23.692683],[121.305143,23.692501],[121.305043,23.69268],[121.305238,23.692773],[121.305337,23.692683]]],[[[121.304515,23.695564],[121.304813,23.695296],[121.305205,23.695301],[121.305307,23.695031],[121.305503,23.695033],[121.305701,23.694854],[121.305704,23.694674],[121.305606,23.694673],[121.305804,23.694494],[121.30571,23.694222],[121.305218,23.694307],[121.30522,23.694127],[121.305027,23.693944],[121.304828,23.694123],[121.304435,23.694208],[121.304333,23.694478],[121.304235,23.694477],[121.304623,23.694843],[121.304423,23.695111],[121.304131,23.694928],[121.304231,23.694838],[121.304135,23.694657],[121.303742,23.694743],[121.303838,23.694834],[121.303736,23.695194],[121.304026,23.695468],[121.304323,23.695291],[121.304515,23.695564]],[[121.305218,23.694307],[121.305119,23.694397],[121.30512,23.694306],[121.305218,23.694307]],[[121.304622,23.694933],[121.304719,23.695024],[121.304621,23.695023],[121.304622,23.694933]],[[121.30472,23.694934],[121.304819,23.694845],[121.304818,23.694935],[121.30472,23.694934]],[[121.304323,23.695291],[121.304422,23.695202],[121.304421,23.695292],[121.304323,23.695291]],[[121.304625,23.694662],[121.304724,23.694573],[121.304723,23.694663],[121.304625,23.694662]]]]}},{"type":"Feature","properties":{"kind":"water","month":"2024-07","area_ha":1.61},"geometry":{"type":"MultiPolygon","coordinates":[[[[121.298332,23.696038],[121.298136,23.696036],[121.298133,23.696216],[121.298521,23.696582],[121.298523,23.696401],[121.298721,23.696223],[121.298726,23.695862],[121.298628,23.69586],[121.29873,23.695591],[121.298534,23.695589],[121.298535,23.695498],[121.298337,23.695586],[121.298434,23.695678],[121.298332,23.696038]],[[121.298529,23.69595],[121.298527,23.69613],[121.298428,23.696129],[121.298431,23.695949],[121.298529,23.69595]]],[[[121.300268,23.697955],[121.300173,23.697683],[121.300468,23.697687],[121.300469,23.697596],[121.300763,23.6976],[121.300764,23.697509],[121.301448,23.697697],[121.301449,23.697607],[121.301743,23.69761],[121.30214,23.697254],[121.301846,23.69725],[121.301646,23.697519],[121.299883,23.697409],[121.29988,23.69759],[121.299684,23.697588],[121.299486,23.697766],[121.299389,23.697675],[121.2988,23.697759],[121.298802,23.697578],[121.298607,23.697486],[121.298696,23.698209],[121.298892,23.698211],[121.298889,23.698392],[121.298988,23.698393],[121.29899,23.698212],[121.299186,23.698214],[121.299484,23.697947],[121.299876,23.697951],[121.299877,23.697861],[121.300268,23.697955]],[[121.299975,23.697862],[121.300074,23.697773],[121.300073,23.697863],[121.299975,23.697862]],[[121.299682,23.697768],[121.299779,23.69786],[121.299681,23.697859],[121.299682,23.697768]],[[121.300274,23.697504],[121.300371,23.697595],[121.300273,23.697594],[121.300274,23.697504]]],[[[121.299283,23.698306],[121.299186,23.698214],[121.299185,23.698305],[121.299283,23.698306]]],[[[121.298198,23.698745],[121.298494,23.698658],[121.298496,23.698478],[121.29879,23.698481],[121.298793,23.6983],[121.298402,23.698206],[121.298398,23.698477],[121.298201,23.698565],[121.298198,23.698745]]]]}}]}