{"type":"FeatureCollection","features":[{"type":"Feature","properties":{"kind":"bare_slide","month":"2024-01","area_ha":142.31},"geometry":{"type":"MultiPolygon","coordinates":[[[[121.298774,23.70733],[121.298676,23.707329],[121.298582,23.706967],[121.29868,23.706968],[121.298785,23.706427],[121.298983,23.706339],[121.298986,23.706068],[121.299084,23.706069],[121.298992,23.705617],[121.299189,23.705529],[121.299092,23.705437],[121.299197,23.704897],[121.299395,23.704809],[121.299397,23.704628],[121.299696,23.70427],[121.299699,23.703999],[121.299409,23.703725],[121.299411,23.703545],[121.299216,23.703452],[121.29932,23.703002],[121.299029,23.702728],[121.299032,23.702547],[121.29913,23.702548],[121.299041,23.701825],[121.299139,23.701826],[121.299243,23.701375],[121.298753,23.70137],[121.298657,23.701188],[121.298069,23.701182],[121.298058,23.701995],[121.298156,23.701996],[121.29815,23.702447],[121.298248,23.702448],[121.298245,23.702719],[121.298343,23.70272],[121.298338,23.703081],[121.298532,23.703264],[121.298529,23.703535],[121.298819,23.703809],[121.299015,23.703811],[121.299013,23.703992],[121.299111,23.703993],[121.299103,23.704625],[121.299005,23.704624],[121.298798,23.705434],[121.298014,23.705425],[121.298013,23.705516],[121.297619,23.705602],[121.29742,23.70587],[121.297713,23.705964],[121.297808,23.706146],[121.298495,23.706153],[121.298486,23.706785],[121.298189,23.707053],[121.298481,23.707237],[121.298575,23.707508],[121.298774,23.70733]],[[121.299019,23.70354],[121.298922,23.703449],[121.29902,23.70345],[121.299019,23.70354]]],[[[121.30043,23.708161],[121.300335,23.707889],[121.299846,23.707793],[121.299948,23.707524],[121.299754,23.707341],[121.299263,23.707426],[121.299261,23.707516],[121.299165,23.707425],[121.298869,23.707512],[121.298966,23.707603],[121.298865,23.707873],[121.299349,23.70833],[121.299547,23.708151],[121.299842,23.708155],[121.300034,23.708428],[121.30023,23.70843],[121.300332,23.70816],[121.30043,23.708161]],[[121.299162,23.707605],[121.29926,23.707606],[121.299258,23.707787],[121.29916,23.707786],[121.299162,23.707605]]],[[[121.297972,23.708676],[121.297876,23.708494],[121.298073,23.708406],[121.298078,23.708045],[121.29798,23.708044],[121.298083,23.707684],[121.297889,23.707501],[121.297398,23.707496],[121.297002,23.707852],[121.297098,23.707944],[121.297786,23.707861],[121.297883,23.707952],[121.297779,23.708403],[121.297482,23.70858],[121.29748,23.708761],[121.297675,23.708853],[121.297676,23.708763],[121.297972,23.708676]]],[[[121.297663,23.709756],[121.297276,23.70939],[121.297278,23.70921],[121.297575,23.709033],[121.297284,23.708758],[121.297082,23.709208],[121.296789,23.709114],[121.296689,23.709294],[121.296787,23.709295],[121.296783,23.709566],[121.297074,23.70984],[121.297369,23.709753],[121.297366,23.710024],[121.297561,23.710116],[121.297654,23.710478],[121.297849,23.710571],[121.297738,23.711563],[121.297345,23.711649],[121.297146,23.711827],[121.297338,23.71219],[121.297729,23.712285],[121.297831,23.711925],[121.298227,23.711658],[121.298133,23.711386],[121.29833,23.711298],[121.298332,23.711118],[121.298137,23.711025],[121.29814,23.710845],[121.298433,23.710938],[121.298536,23.710488],[121.298438,23.710487],[121.298344,23.710215],[121.298047,23.710392],[121.29815,23.710032],[121.297859,23.709758],[121.297663,23.709756]],[[121.297955,23.70994],[121.297856,23.710029],[121.297857,23.709939],[121.297955,23.70994]]],[[[121.28396,23.715203],[121.28406,23.715114],[121.284256,23.715116],[121.284255,23.715206],[121.284452,23.715118],[121.284258,23.714935],[121.284261,23.714755],[121.284066,23.714662],[121.28417,23.714212],[121.284466,23.714035],[121.28447,23.713764],[121.284568,23.713765],[121.284472,23.713583],[121.284274,23.713762],[121.28388,23.713848],[121.282987,23.71465],[121.282981,23.715102],[121.283465,23.715559],[121.283858,23.715563],[121.28396,23.715203]]],[[[121.296816,23.714623],[121.296518,23.71489],[121.296124,23.714976],[121.296318,23.715159],[121.296316,23.71534],[121.296218,23.715339],[121.296312,23.715611],[121.296608,23.715523],[121.296713,23.714983],[121.296909,23.714985],[121.296907,23.715166],[121.297005,23.715167],[121.297002,23.715347],[121.296605,23.715704],[121.296698,23.716157],[121.296994,23.715979],[121.2969,23.715707],[121.297197,23.71544],[121.2971,23.715348],[121.297103,23.715168],[121.297201,23.715169],[121.297106,23.714897],[121.297302,23.714899],[121.297403,23.71472],[121.298081,23.715359],[121.298572,23.715274],[121.298766,23.715457],[121.298965,23.715278],[121.298967,23.715098],[121.298674,23.715004],[121.298286,23.714639],[121.298192,23.714367],[121.297898,23.714364],[121.298097,23.714095],[121.297902,23.714003],[121.297907,23.713641],[121.297713,23.713459],[121.297516,23.713547],[121.29751,23.713998],[121.297412,23.713997],[121.297308,23.714448],[121.296816,23.714623]],[[121.297308,23.714448],[121.297405,23.714539],[121.297307,23.714538],[121.297308,23.714448]]],[[[121.288963,23.715168],[121.288769,23.714985],[121.288375,23.715071],[121.288471,23.715253],[121.288765,23.715256],[121.288764,23.715347],[121.288963,23.715168]]],[[[121.284546,23.71539],[121.284353,23.715207],[121.284252,23.715387],[121.284447,23.715479],[121.284546,23.71539]]],[[[121.295706,23.716958],[121.295809,23.716598],[121.295614,23.716506],[121.295313,23.717044],[121.295508,23.717137],[121.295706,23.716958]]],[[[121.29823,23.718973],[121.298135,23.718791],[121.298432,23.718523],[121.298436,23.718253],[121.298831,23.717986],[121.299037,23.717266],[121.299532,23.71691],[121.299638,23.716279],[121.299936,23.716012],[121.299939,23.715741],[121.300434,23.715385],[121.300242,23.715112],[121.300046,23.71511],[121.299944,23.71538],[121.299747,23.715468],[121.299743,23.715739],[121.29915,23.716093],[121.299143,23.716635],[121.29875,23.716721],[121.29884,23.717354],[121.298742,23.717353],[121.298639,23.717713],[121.298442,23.717801],[121.298339,23.718161],[121.297546,23.718785],[121.297544,23.718965],[121.297738,23.719148],[121.29823,23.718973]]],[[[121.290305,23.717531],[121.290206,23.71762],[121.289913,23.717526],[121.289915,23.717346],[121.290211,23.717169],[121.290215,23.716898],[121.29041,23.71699],[121.290907,23.716454],[121.291298,23.716548],[121.291504,23.715828],[121.291701,23.71574],[121.291704,23.71556],[121.291998,23.715563],[121.292099,23.715293],[121.292197,23.715294],[121.292292,23.715566],[121.292488,23.715568],[121.292687,23.71539],[121.292981,23.715393],[121.292978,23.715574],[121.292781,23.715662],[121.292974,23.715935],[121.29317,23.715937],[121.293271,23.715667],[121.29347,23.715489],[121.293764,23.715492],[121.293765,23.715402],[121.293863,23.715403],[121.29386,23.715674],[121.293762,23.715673],[121.293855,23.716035],[121.294247,23.716039],[121.294346,23.71595],[121.294251,23.715768],[121.294545,23.715772],[121.294743,23.715593],[121.294936,23.715866],[121.29523,23.715869],[121.295224,23.716321],[121.295321,23.716412],[121.295618,23.716235],[121.295615,23.716416],[121.29581,23.716508],[121.29591,23.716419],[121.295816,23.716057],[121.296112,23.715969],[121.296116,23.715608],[121.295921,23.715516],[121.295624,23.715784],[121.295428,23.715781],[121.29504,23.715416],[121.294947,23.715054],[121.294656,23.71478],[121.294854,23.714601],[121.295149,23.714604],[121.295249,23.714425],[121.295445,23.714427],[121.295644,23.714249],[121.295646,23.714068],[121.295941,23.713981],[121.296239,23.713713],[121.296244,23.713352],[121.296342,23.713353],[121.296253,23.71263],[121.296352,23.712541],[121.296059,23.712447],[121.295757,23.713076],[121.295265,23.713161],[121.295067,23.713339],[121.294675,23.713335],[121.294475,23.713604],[121.294279,23.713602],[121.293883,23.713868],[121.293589,23.713865],[121.293291,23.714132],[121.293194,23.714041],[121.292801,23.714127],[121.292707,23.713855],[121.292314,23.713851],[121.292116,23.714029],[121.292113,23.71421],[121.292405,23.714394],[121.292203,23.714843],[121.292007,23.714841],[121.292012,23.714479],[121.291914,23.714478],[121.291819,23.714206],[121.29123,23.71429],[121.291232,23.71411],[121.291429,23.714022],[121.291335,23.71375],[121.29104,23.713837],[121.291136,23.713928],[121.291032,23.714378],[121.289949,23.714728],[121.29024,23.715002],[121.289258,23.715081],[121.28896,23.715349],[121.288958,23.715529],[121.288762,23.715527],[121.288761,23.715617],[121.288565,23.715615],[121.288664,23.715526],[121.288568,23.715344],[121.288273,23.715431],[121.288079,23.715249],[121.28808,23.715158],[121.288375,23.715071],[121.28828,23.71489],[121.288181,23.714979],[121.287986,23.714886],[121.287786,23.715155],[121.287003,23.715056],[121.287001,23.715146],[121.286706,23.715233],[121.286609,23.715142],[121.286711,23.714872],[121.286516,23.71478],[121.286417,23.714869],[121.286511,23.715141],[121.286314,23.715229],[121.286312,23.71541],[121.285425,23.715671],[121.285226,23.715939],[121.284734,23.716024],[121.284633,23.716294],[121.284437,23.716292],[121.284335,23.716562],[121.284138,23.71665],[121.284232,23.716922],[121.28374,23.717097],[121.283638,23.717367],[121.283442,23.717364],[121.283243,23.717543],[121.283334,23.718086],[121.283137,23.718174],[121.283135,23.718354],[121.28333,23.718447],[121.283424,23.718719],[121.283128,23.718896],[121.283223,23.719078],[121.283026,23.719166],[121.282923,23.719526],[121.282427,23.719972],[121.282035,23.719968],[121.282033,23.720058],[121.281738,23.720145],[121.281731,23.720687],[121.282022,23.720961],[121.282316,23.720964],[121.282416,23.720784],[121.282908,23.7207],[121.283503,23.720164],[121.283606,23.719804],[121.2838,23.719987],[121.28429,23.719993],[121.284291,23.719902],[121.284782,23.719908],[121.284881,23.719818],[121.284878,23.719999],[121.284288,23.720173],[121.28399,23.720441],[121.284086,23.720622],[121.284379,23.720716],[121.28438,23.720626],[121.284772,23.72063],[121.284871,23.720541],[121.284776,23.720359],[121.284972,23.720361],[121.285171,23.720093],[121.285366,23.720185],[121.285168,23.720363],[121.285262,23.720635],[121.284769,23.720901],[121.284766,23.721081],[121.284668,23.72108],[121.284764,23.721262],[121.284567,23.72135],[121.284563,23.721621],[121.284465,23.72162],[121.284362,23.72198],[121.284066,23.722157],[121.284062,23.722428],[121.284256,23.722611],[121.285041,23.722529],[121.285136,23.722801],[121.285332,23.722803],[121.285721,23.723079],[121.286114,23.722993],[121.286405,23.723267],[121.286601,23.723269],[121.286899,23.723001],[121.287101,23.722552],[121.287199,23.722553],[121.287097,23.722823],[121.287194,23.722914],[121.287392,23.722826],[121.287297,23.722554],[121.287494,23.722466],[121.287696,23.722017],[121.287793,23.722108],[121.287892,23.722019],[121.288579,23.722027],[121.288676,23.722118],[121.288775,23.722029],[121.288678,23.721937],[121.288781,23.721577],[121.288977,23.72158],[121.288975,23.72176],[121.289168,23.721943],[121.289365,23.721945],[121.289263,23.722215],[121.289458,23.722307],[121.289456,23.722488],[121.289158,23.722755],[121.288962,23.722753],[121.288662,23.723201],[121.288465,23.723199],[121.288266,23.723468],[121.287872,23.723554],[121.28777,23.723914],[121.287868,23.723915],[121.287959,23.724458],[121.28835,23.724552],[121.288649,23.724195],[121.288845,23.724197],[121.288738,23.724828],[121.288835,23.724919],[121.289131,23.724832],[121.289225,23.725104],[121.289325,23.725015],[121.289814,23.72511],[121.290017,23.724571],[121.290908,23.723949],[121.290904,23.72422],[121.290806,23.724218],[121.290898,23.724671],[121.290505,23.724757],[121.290502,23.724937],[121.290696,23.72512],[121.290598,23.725119],[121.290595,23.72539],[121.290498,23.725299],[121.2903,23.725387],[121.290298,23.725567],[121.290589,23.725841],[121.290688,23.725752],[121.291471,23.725851],[121.291574,23.725491],[121.29177,23.725493],[121.291969,23.725315],[121.291972,23.725044],[121.29207,23.725045],[121.291977,23.724683],[121.292075,23.724684],[121.292079,23.724413],[121.292275,23.724415],[121.292272,23.724596],[121.292467,23.724688],[121.292656,23.725232],[121.292459,23.72532],[121.292457,23.725501],[121.292261,23.725499],[121.292262,23.725408],[121.292064,23.725497],[121.292159,23.725768],[121.291862,23.725946],[121.291859,23.726217],[121.291564,23.726304],[121.291562,23.726394],[121.292935,23.726409],[121.292937,23.726319],[121.293525,23.726325],[121.293527,23.726145],[121.29392,23.726149],[121.293922,23.725969],[121.29451,23.725975],[121.294514,23.725704],[121.294612,23.725705],[121.294519,23.725343],[121.294618,23.725254],[121.294911,23.725347],[121.294906,23.725708],[121.2951,23.725891],[121.295298,23.725713],[121.295395,23.725804],[121.295789,23.725718],[121.295882,23.72608],[121.296076,23.726263],[121.296272,23.726265],[121.296271,23.726356],[121.296762,23.726271],[121.296863,23.726091],[121.296765,23.72609],[121.296676,23.725367],[121.297172,23.724921],[121.297466,23.724924],[121.297863,23.724567],[121.297869,23.724116],[121.297772,23.724024],[121.29797,23.723936],[121.298258,23.724391],[121.298556,23.724123],[121.29846,23.723942],[121.298264,23.723939],[121.298168,23.723758],[121.297875,23.723664],[121.297984,23.722853],[121.298182,23.722674],[121.298576,23.722588],[121.298579,23.722318],[121.298288,23.722043],[121.298189,23.722133],[121.297896,23.722039],[121.297997,23.72186],[121.298489,23.721684],[121.298597,23.720963],[121.298402,23.720871],[121.298404,23.72069],[121.298209,23.720598],[121.298011,23.720776],[121.298008,23.720957],[121.297811,23.721045],[121.298005,23.721228],[121.298002,23.721408],[121.297708,23.721405],[121.297709,23.721315],[121.297512,23.721403],[121.297798,23.722038],[121.2977,23.722037],[121.297694,23.722488],[121.297596,23.722487],[121.29759,23.722939],[121.297492,23.722938],[121.297586,23.7233],[121.297189,23.723657],[121.297384,23.723749],[121.29738,23.72402],[121.297574,23.724203],[121.297177,23.72456],[121.29708,23.724468],[121.296785,23.724555],[121.296788,23.724284],[121.296985,23.724196],[121.296992,23.723655],[121.296699,23.723561],[121.296701,23.723471],[121.296503,23.723559],[121.2966,23.72365],[121.296496,23.724101],[121.2963,23.724098],[121.296102,23.724277],[121.295807,23.724274],[121.295909,23.724004],[121.295616,23.72391],[121.295514,23.72418],[121.295219,23.724267],[121.295037,23.723182],[121.295234,23.723093],[121.295145,23.72246],[121.295442,23.722193],[121.295836,23.722107],[121.296034,23.721928],[121.296036,23.721748],[121.296233,23.72175],[121.296432,23.721481],[121.296626,23.721664],[121.296619,23.722206],[121.29652,23.722295],[121.296715,23.722387],[121.296913,23.722209],[121.297016,23.721849],[121.297213,23.721761],[121.29732,23.72113],[121.297418,23.721131],[121.297327,23.720588],[121.29752,23.720771],[121.297817,23.720594],[121.297721,23.720412],[121.297328,23.720498],[121.29733,23.720317],[121.297136,23.720135],[121.297245,23.719323],[121.297147,23.719322],[121.29715,23.719051],[121.296955,23.718959],[121.297056,23.718779],[121.296861,23.718687],[121.296762,23.718776],[121.296856,23.719048],[121.296364,23.719223],[121.296459,23.719405],[121.296753,23.719408],[121.296749,23.719769],[121.296455,23.719766],[121.296058,23.720123],[121.296153,23.720304],[121.296352,23.720126],[121.296548,23.720128],[121.296349,23.720306],[121.296446,23.720398],[121.296346,23.720577],[121.29654,23.72076],[121.296242,23.721028],[121.295948,23.721024],[121.295845,23.721384],[121.29535,23.72174],[121.295056,23.721737],[121.294667,23.721462],[121.293783,23.721542],[121.293688,23.721361],[121.293297,23.721266],[121.293202,23.720994],[121.293007,23.720902],[121.293013,23.72045],[121.292818,23.720358],[121.292917,23.720269],[121.292825,23.719816],[121.29263,23.719724],[121.292634,23.719453],[121.292342,23.719269],[121.292238,23.719719],[121.292433,23.719812],[121.292526,23.720174],[121.292721,23.720266],[121.29262,23.720536],[121.292226,23.720622],[121.292036,23.720169],[121.291739,23.720346],[121.29173,23.721068],[121.291533,23.721156],[121.291626,23.721519],[121.291328,23.721786],[121.291222,23.722417],[121.290428,23.723131],[121.290037,23.723036],[121.289935,23.723306],[121.289641,23.723303],[121.289645,23.723032],[121.289743,23.723033],[121.289745,23.722852],[121.29004,23.722765],[121.290045,23.722404],[121.290342,23.722227],[121.290344,23.722046],[121.290639,23.721959],[121.290641,23.721869],[121.290932,23.722053],[121.291329,23.721696],[121.291236,23.721334],[121.291042,23.721151],[121.291048,23.720699],[121.290854,23.720517],[121.290657,23.720605],[121.29056,23.720513],[121.290662,23.720244],[121.290467,23.720151],[121.290469,23.719971],[121.290666,23.719883],[121.29067,23.719612],[121.291063,23.719526],[121.291067,23.719255],[121.291165,23.719256],[121.291071,23.718984],[121.291269,23.718806],[121.291464,23.718898],[121.291465,23.718808],[121.291859,23.718722],[121.291854,23.719083],[121.292048,23.719266],[121.292244,23.719268],[121.292343,23.719179],[121.292247,23.718997],[121.292543,23.71891],[121.292449,23.718548],[121.291958,23.718633],[121.29157,23.718267],[121.291476,23.717995],[121.291769,23.718089],[121.291967,23.71791],[121.29197,23.71773],[121.292167,23.717642],[121.292169,23.717461],[121.292267,23.717462],[121.292357,23.718095],[121.292552,23.718188],[121.29275,23.718009],[121.292753,23.717829],[121.293048,23.717742],[121.293151,23.717382],[121.293347,23.717384],[121.293449,23.717114],[121.293746,23.716846],[121.293453,23.716753],[121.293455,23.716663],[121.293059,23.716929],[121.292766,23.716836],[121.292567,23.717014],[121.292663,23.717196],[121.292466,23.717284],[121.29257,23.716833],[121.292277,23.71674],[121.292175,23.71701],[121.291978,23.717098],[121.291974,23.717369],[121.291285,23.717542],[121.291086,23.71781],[121.290596,23.717805],[121.290305,23.717531]],[[121.295807,23.724274],[121.295708,23.724363],[121.295609,23.724452],[121.295611,23.724271],[121.295807,23.724274]],[[121.290739,23.72187],[121.290838,23.721781],[121.290837,23.721871],[121.290739,23.72187]],[[121.291269,23.718806],[121.291172,23.718714],[121.29127,23.718715],[121.291269,23.718806]],[[121.291273,23.718535],[121.291371,23.718536],[121.291368,23.718716],[121.29127,23.718715],[121.291273,23.718535]],[[121.293449,23.717114],[121.293352,23.717023],[121.29345,23.717024],[121.293449,23.717114]],[[121.292663,23.717196],[121.29276,23.717287],[121.292662,23.717286],[121.292663,23.717196]],[[121.290596,23.717805],[121.290496,23.717894],[121.290497,23.717804],[121.290596,23.717805]],[[121.292756,23.725143],[121.292952,23.725145],[121.292951,23.725235],[121.292754,23.725233],[121.292756,23.725143]],[[121.296485,23.725003],[121.296678,23.725186],[121.296187,23.725271],[121.296188,23.725181],[121.296384,23.725183],[121.296485,23.725003]],[[121.294622,23.724893],[121.294819,23.724895],[121.294817,23.724985],[121.294621,23.724983],[121.294622,23.724893]],[[121.291402,23.723683],[121.291304,23.723682],[121.291312,23.72305],[121.291508,23.723052],[121.291602,23.723324],[121.2917,23.723325],[121.291693,23.723867],[121.291595,23.723866],[121.291689,23.724228],[121.29149,23.724407],[121.291392,23.724406],[121.291397,23.724044],[121.291495,23.724045],[121.291402,23.723683]],[[121.290025,23.723939],[121.290221,23.723941],[121.29022,23.724031],[121.289824,23.724298],[121.289827,23.724117],[121.290025,23.723939]],[[121.292679,23.723517],[121.292771,23.723969],[121.293063,23.724153],[121.292962,23.724333],[121.292766,23.72433],[121.292379,23.723965],[121.292287,23.723512],[121.292383,23.723604],[121.292679,23.723517]],[[121.292188,23.723511],[121.291801,23.723146],[121.292003,23.722697],[121.292199,23.722699],[121.292197,23.722879],[121.292295,23.72288],[121.292289,23.723332],[121.292386,23.723423],[121.292188,23.723511]],[[121.288946,23.723927],[121.289044,23.723928],[121.289042,23.724109],[121.288944,23.724108],[121.288946,23.723927]],[[121.289046,23.723838],[121.289145,23.723749],[121.289144,23.723839],[121.289046,23.723838]],[[121.29199,23.72369],[121.292089,23.723601],[121.292088,23.723691],[121.29199,23.72369]],[[121.292109,23.722066],[121.292304,23.722158],[121.2922,23.722608],[121.292005,23.722516],[121.292109,23.722066]],[[121.294655,23.722365],[121.294753,23.722366],[121.294751,23.722546],[121.294653,23.722545],[121.294655,23.722365]],[[121.287204,23.722192],[121.287008,23.72219],[121.287009,23.7221],[121.287206,23.722011],[121.287204,23.722192]],[[121.290053,23.721772],[121.29015,23.721863],[121.290148,23.722044],[121.289558,23.722128],[121.289661,23.721768],[121.290053,23.721772]],[[121.293877,23.721905],[121.293975,23.721906],[121.293971,23.722177],[121.293873,23.722175],[121.293877,23.721905]],[[121.285642,23.721633],[121.285544,23.721632],[121.285541,23.721812],[121.285345,23.72181],[121.285448,23.72145],[121.285644,23.721452],[121.285642,23.721633]],[[121.28957,23.721225],[121.289275,23.721312],[121.289081,23.721129],[121.289083,23.720949],[121.288985,23.720948],[121.289088,23.720587],[121.289284,23.72059],[121.289574,23.720954],[121.28977,23.720956],[121.28957,23.721225]],[[121.28977,23.720956],[121.289869,23.720867],[121.289868,23.720957],[121.28977,23.720956]],[[121.284962,23.721084],[121.285062,23.720994],[121.28506,23.721085],[121.284962,23.721084]],[[121.287512,23.721112],[121.287611,23.721023],[121.28761,23.721113],[121.287512,23.721112]],[[121.286729,23.721013],[121.286828,23.720924],[121.286827,23.721014],[121.286729,23.721013]],[[121.288007,23.720756],[121.288203,23.720758],[121.288201,23.720939],[121.288005,23.720937],[121.288007,23.720756]],[[121.286736,23.720471],[121.28654,23.720469],[121.28644,23.720558],[121.286542,23.720288],[121.286738,23.720291],[121.286736,23.720471]],[[121.288208,23.720397],[121.288012,23.720395],[121.288014,23.720214],[121.288308,23.720218],[121.288208,23.720397]],[[121.288602,23.720221],[121.289094,23.720136],[121.28919,23.720318],[121.288404,23.720399],[121.288406,23.720219],[121.288506,23.72013],[121.288602,23.720221]],[[121.289679,23.720413],[121.289779,23.720234],[121.289975,23.720236],[121.289875,23.720416],[121.289679,23.720413]],[[121.289975,23.720236],[121.290075,23.720147],[121.290073,23.720237],[121.289975,23.720236]],[[121.290077,23.719966],[121.290175,23.719967],[121.290179,23.719697],[121.290277,23.719698],[121.290173,23.720148],[121.290075,23.720147],[121.290077,23.719966]],[[121.285661,23.720188],[121.285958,23.719921],[121.286054,23.720102],[121.285757,23.72028],[121.285661,23.720188]],[[121.285372,23.719734],[121.285272,23.719913],[121.285076,23.719911],[121.285176,23.719731],[121.285372,23.719734]],[[121.283515,23.719262],[121.283709,23.719444],[121.283413,23.719531],[121.283416,23.719351],[121.283515,23.719262]],[[121.285083,23.719369],[121.285279,23.719371],[121.285277,23.719552],[121.28508,23.71955],[121.285083,23.719369]],[[121.284303,23.718999],[121.284108,23.718907],[121.284112,23.718636],[121.284504,23.71864],[121.284795,23.718915],[121.284792,23.719095],[121.284498,23.719092],[121.284398,23.719271],[121.284102,23.719358],[121.284105,23.719178],[121.284303,23.718999]],[[121.285672,23.719285],[121.285383,23.718921],[121.285581,23.718743],[121.285778,23.718745],[121.286067,23.719109],[121.285869,23.719288],[121.285672,23.719285]],[[121.283712,23.719173],[121.283516,23.719171],[121.283517,23.719081],[121.283714,23.719083],[121.283712,23.719173]],[[121.283715,23.718993],[121.283911,23.718995],[121.28391,23.719085],[121.283714,23.719083],[121.283715,23.718993]],[[121.290872,23.719162],[121.290774,23.719161],[121.290678,23.71898],[121.290874,23.718982],[121.290872,23.719162]],[[121.289603,23.718697],[121.290386,23.718796],[121.290385,23.718886],[121.290286,23.718975],[121.29009,23.718973],[121.290091,23.718883],[121.2896,23.718968],[121.289503,23.718876],[121.289603,23.718697]],[[121.291277,23.718174],[121.291375,23.718175],[121.291372,23.718446],[121.291274,23.718444],[121.291277,23.718174]],[[121.290201,23.717981],[121.290298,23.718073],[121.290295,23.718253],[121.290002,23.71816],[121.290005,23.717979],[121.290201,23.717981]],[[121.2853,23.717746],[121.285496,23.717748],[121.285495,23.717839],[121.285299,23.717837],[121.2853,23.717746]],[[121.284526,23.716925],[121.284823,23.716748],[121.285015,23.717021],[121.284719,23.717198],[121.284526,23.716925]],[[121.289135,23.716976],[121.289036,23.717065],[121.289037,23.716975],[121.289135,23.716976]],[[121.289138,23.716795],[121.289236,23.716797],[121.289233,23.716977],[121.289135,23.716976],[121.289138,23.716795]],[[121.2867,23.715685],[121.286597,23.716045],[121.28689,23.716139],[121.286889,23.716229],[121.286594,23.716316],[121.286392,23.716765],[121.286098,23.716762],[121.286198,23.716582],[121.286003,23.71649],[121.285904,23.716579],[121.286,23.716761],[121.285803,23.716759],[121.285703,23.716938],[121.285606,23.716847],[121.285507,23.716936],[121.285116,23.716841],[121.285119,23.71657],[121.285318,23.716392],[121.285611,23.716486],[121.286107,23.71604],[121.286211,23.715589],[121.286899,23.715507],[121.2867,23.715685]],[[121.286899,23.715507],[121.286998,23.715417],[121.286997,23.715508],[121.286899,23.715507]],[[121.285321,23.716121],[121.28542,23.716122],[121.285417,23.716303],[121.285319,23.716302],[121.285321,23.716121]],[[121.290323,23.716177],[121.290715,23.716181],[121.290714,23.716271],[121.289929,23.716262],[121.289931,23.716082],[121.290324,23.716086],[121.290323,23.716177]],[[121.290715,23.716181],[121.290814,23.716092],[121.290813,23.716182],[121.290715,23.716181]],[[121.290814,23.716092],[121.290913,23.716002],[121.290912,23.716093],[121.290814,23.716092]],[[121.290913,23.716002],[121.291012,23.715913],[121.291011,23.716004],[121.290913,23.716002]],[[121.285813,23.716036],[121.285617,23.716034],[121.285618,23.715944],[121.285814,23.715946],[121.285813,23.716036]],[[121.285814,23.715946],[121.285913,23.715857],[121.285912,23.715947],[121.285814,23.715946]],[[121.287385,23.715783],[121.287485,23.715694],[121.287483,23.715784],[121.287385,23.715783]],[[121.288366,23.715794],[121.288465,23.715704],[121.288464,23.715795],[121.288366,23.715794]],[[121.290523,23.715818],[121.290623,23.715728],[121.290621,23.715819],[121.290523,23.715818]],[[121.290232,23.715634],[121.290428,23.715636],[121.290426,23.715726],[121.29023,23.715724],[121.290232,23.715634]],[[121.290429,23.715546],[121.290234,23.715453],[121.290236,23.715273],[121.291022,23.715191],[121.291114,23.715643],[121.290625,23.715548],[121.290626,23.715457],[121.29043,23.715455],[121.290429,23.715546]],[[121.292695,23.714758],[121.292891,23.71476],[121.29289,23.71485],[121.292694,23.714848],[121.292695,23.714758]],[[121.29319,23.714402],[121.293289,23.714313],[121.293288,23.714403],[121.29319,23.714402]]],[[[121.298994,23.720606],[121.298996,23.720426],[121.299291,23.720339],[121.29949,23.72016],[121.299492,23.71998],[121.299689,23.719892],[121.299594,23.71971],[121.299398,23.719708],[121.2991,23.719976],[121.299098,23.720156],[121.298999,23.720155],[121.298905,23.719883],[121.298608,23.72006],[121.298606,23.720241],[121.298801,23.720333],[121.298603,23.720512],[121.298599,23.720783],[121.298794,23.720875],[121.298896,23.720605],[121.298994,23.720606]]],[[[121.300428,23.723422],[121.300529,23.723242],[121.300238,23.722968],[121.300242,23.722697],[121.300143,23.722696],[121.300244,23.722516],[121.299951,23.722423],[121.299954,23.722152],[121.300052,23.722153],[121.300155,23.721793],[121.300352,23.721705],[121.300356,23.721434],[121.300454,23.721435],[121.30036,23.721163],[121.300459,23.721074],[121.300264,23.720982],[121.300065,23.72116],[121.299973,23.720708],[121.299778,23.720615],[121.299677,23.720885],[121.299379,23.721152],[121.299374,23.721514],[121.299276,23.721513],[121.299172,23.721963],[121.299464,23.722147],[121.299458,23.722598],[121.299846,23.722964],[121.300043,23.722875],[121.299939,23.723326],[121.300428,23.723422]],[[121.299947,23.722694],[121.300047,23.722605],[121.300045,23.722695],[121.299947,23.722694]]],[[[121.301463,23.711694],[121.301365,23.711693],[121.301466,23.711423],[121.301078,23.711148],[121.301081,23.710877],[121.300596,23.710511],[121.300408,23.709876],[121.300214,23.709694],[121.299529,23.709596],[121.299238,23.709322],[121.299138,23.709501],[121.299623,23.709868],[121.299619,23.710229],[121.299322,23.710406],[121.29932,23.710587],[121.299613,23.71068],[121.299714,23.710411],[121.300107,23.710415],[121.300104,23.710595],[121.300495,23.71069],[121.300689,23.710873],[121.300686,23.711144],[121.300979,23.711237],[121.301269,23.711511],[121.301267,23.711692],[121.301169,23.711691],[121.301263,23.711963],[121.301461,23.711875],[121.301463,23.711694]]],[[[121.301525,23.714494],[121.301527,23.714313],[121.301724,23.714225],[121.30173,23.713774],[121.301829,23.713685],[121.302124,23.713688],[121.302316,23.713961],[121.302512,23.713963],[121.30281,23.713695],[121.302812,23.713515],[121.302519,23.713421],[121.302419,23.713601],[121.302223,23.713599],[121.302126,23.713507],[121.302133,23.712966],[121.301938,23.712873],[121.301846,23.712421],[121.301553,23.712327],[121.301457,23.712145],[121.301261,23.712143],[121.300963,23.712411],[121.300851,23.713493],[121.300949,23.713494],[121.301043,23.713857],[121.301238,23.713949],[121.301233,23.71431],[121.301036,23.714398],[121.301033,23.714579],[121.301326,23.714672],[121.301525,23.714494]]],[[[121.305023,23.71697],[121.30483,23.716788],[121.304743,23.715884],[121.304256,23.715607],[121.304357,23.715428],[121.304162,23.715336],[121.303972,23.714882],[121.303778,23.714699],[121.303386,23.714695],[121.30329,23.714513],[121.302899,23.714419],[121.302798,23.714598],[121.302896,23.714599],[121.302991,23.714871],[121.303285,23.714874],[121.303381,23.715056],[121.303675,23.715059],[121.303869,23.715242],[121.303863,23.715693],[121.304444,23.716242],[121.304533,23.716965],[121.304727,23.717148],[121.305023,23.71697]]],[[[121.300396,23.718364],[121.300594,23.718186],[121.300605,23.717373],[121.3011,23.717018],[121.301008,23.716565],[121.30081,23.716653],[121.300808,23.716834],[121.300611,23.716922],[121.300607,23.717193],[121.300211,23.717459],[121.300208,23.71773],[121.30011,23.717729],[121.300207,23.717821],[121.300204,23.718001],[121.300106,23.718],[121.300098,23.718632],[121.300195,23.718723],[121.300392,23.718635],[121.300396,23.718364]]],[[[121.300665,23.720264],[121.30067,23.719902],[121.300572,23.719901],[121.300383,23.719358],[121.300188,23.719265],[121.300086,23.719535],[121.299889,23.719623],[121.299985,23.719805],[121.300279,23.719808],[121.300174,23.720349],[121.300368,23.720531],[121.300662,23.720535],[121.300761,23.720445],[121.300763,23.720265],[121.300665,23.720264]]],[[[121.302314,23.721727],[121.30222,23.721364],[121.302025,23.721272],[121.302034,23.72064],[121.302232,23.720461],[121.302438,23.719741],[121.302146,23.719558],[121.301749,23.719914],[121.301643,23.720545],[121.301544,23.720544],[121.301537,23.721086],[121.302116,23.721815],[121.302314,23.721727]]],[[[121.302795,23.722454],[121.302698,23.722363],[121.302896,23.722184],[121.302799,23.722093],[121.302602,23.722181],[121.302408,23.721998],[121.302308,23.722178],[121.3026,23.722362],[121.302499,23.722541],[121.302694,23.722634],[121.302795,23.722454]]],[[[121.300723,23.723425],[121.301206,23.723972],[121.301402,23.723974],[121.3016,23.723796],[121.301707,23.723165],[121.301513,23.722982],[121.301519,23.72253],[121.301617,23.722532],[121.301525,23.722079],[121.301327,23.722167],[121.301223,23.722618],[121.301124,23.722707],[121.300929,23.722614],[121.300631,23.722882],[121.301019,23.723247],[121.301018,23.723338],[121.300723,23.723425]],[[121.301018,23.723338],[121.301115,23.723429],[121.301017,23.723428],[121.301018,23.723338]],[[121.301212,23.72352],[121.301311,23.723431],[121.30131,23.723521],[121.301212,23.72352]]],[[[121.306017,23.723573],[121.306117,23.723394],[121.305922,23.723301],[121.305828,23.723029],[121.30563,23.723117],[121.305628,23.723298],[121.304943,23.7232],[121.304847,23.723019],[121.304256,23.723193],[121.304546,23.723557],[121.305332,23.723475],[121.305426,23.723747],[121.30572,23.72375],[121.305821,23.723571],[121.306017,23.723573]]],[[[121.304262,23.722741],[121.304559,23.722564],[121.304849,23.722838],[121.305147,23.72257],[121.305149,23.72239],[121.305053,23.722298],[121.303189,23.722278],[121.303191,23.722188],[121.302994,23.722185],[121.302895,23.722275],[121.302992,23.722366],[121.302893,23.722455],[121.302984,23.722998],[121.302496,23.722812],[121.302394,23.723082],[121.3019,23.723347],[121.301896,23.723709],[121.301994,23.72371],[121.301892,23.723979],[121.301989,23.724071],[121.30248,23.724076],[121.302572,23.724529],[121.302474,23.724528],[121.30247,23.724798],[121.302372,23.724797],[121.302271,23.725067],[121.301977,23.724974],[121.301979,23.724883],[121.301682,23.725061],[121.301876,23.725243],[121.301676,23.725512],[121.301382,23.725509],[121.301383,23.725419],[121.301186,23.725507],[121.301283,23.725598],[121.301184,23.725687],[121.301177,23.726229],[121.30137,23.726412],[121.301568,23.726324],[121.301575,23.725782],[121.301966,23.725876],[121.302069,23.725516],[121.302263,23.725609],[121.302462,23.72543],[121.302464,23.72525],[121.30286,23.724983],[121.302964,23.724533],[121.303355,23.724628],[121.303743,23.724993],[121.303837,23.725265],[121.304228,23.72536],[121.304225,23.72563],[121.304323,23.725631],[121.304417,23.725903],[121.304615,23.725815],[121.30452,23.725543],[121.305107,23.72564],[121.305306,23.725462],[121.30521,23.72528],[121.304525,23.725182],[121.304332,23.724909],[121.303941,23.724815],[121.303458,23.724267],[121.303262,23.724265],[121.303266,23.723904],[121.303562,23.723817],[121.303761,23.723548],[121.303958,23.723551],[121.304156,23.723372],[121.304158,23.723192],[121.303868,23.722917],[121.30367,23.723006],[121.303674,23.722735],[121.30387,23.722737],[121.303871,23.722647],[121.304263,23.722651],[121.304262,23.722741]],[[121.303355,23.724628],[121.303454,23.724538],[121.303453,23.724629],[121.303355,23.724628]],[[121.30367,23.723006],[121.303571,23.723095],[121.303572,23.723005],[121.30367,23.723006]],[[121.303669,23.723096],[121.303766,23.723187],[121.303668,23.723186],[121.303669,23.723096]],[[121.303473,23.723094],[121.303277,23.723092],[121.303279,23.722911],[121.303377,23.722912],[121.303473,23.723094]]],[[[121.306975,23.725299],[121.306882,23.724937],[121.306588,23.724934],[121.306587,23.725024],[121.305901,23.724926],[121.3059,23.725017],[121.305606,23.725013],[121.305407,23.725192],[121.305698,23.725466],[121.305793,23.725738],[121.305892,23.725649],[121.306479,23.725745],[121.306581,23.725476],[121.306777,23.725478],[121.306975,23.725299]],[[121.306581,23.725476],[121.306484,23.725384],[121.306582,23.725385],[121.306581,23.725476]],[[121.306093,23.72529],[121.306192,23.7252],[121.306191,23.725291],[121.306093,23.72529]]],[[[121.30586,23.728086],[121.305961,23.727907],[121.305571,23.727722],[121.305382,23.727178],[121.305089,23.727085],[121.304993,23.726903],[121.304797,23.726901],[121.304312,23.726444],[121.304212,23.726624],[121.304504,23.726807],[121.304597,23.72717],[121.304988,23.727264],[121.304986,23.727445],[121.305181,23.727537],[121.305177,23.727808],[121.305468,23.728082],[121.305664,23.728084],[121.305666,23.727994],[121.30586,23.728086]]],[[[121.303313,23.727878],[121.303216,23.727786],[121.302726,23.727781],[121.302727,23.727691],[121.30243,23.727868],[121.302238,23.727595],[121.302531,23.727689],[121.302631,23.727509],[121.302242,23.727234],[121.301947,23.727321],[121.302042,23.727593],[121.301745,23.72777],[121.301841,23.727952],[121.302135,23.727955],[121.302134,23.728045],[121.302428,23.728049],[121.302427,23.728139],[121.303211,23.728148],[121.303311,23.728058],[121.303313,23.727878]]]]}},{"type":"Feature","properties":{"kind":"bare_dam","month":"2024-01","area_ha":13.07},"geometry":{"type":"MultiPolygon","coordinates":[[[[121.30006,23.691271],[121.300059,23.691361],[121.300354,23.691274],[121.30045,23.691456],[121.300549,23.691367],[121.301431,23.691467],[121.301429,23.691557],[121.30192,23.691562],[121.301918,23.691653],[121.302311,23.691657],[121.302309,23.691747],[121.302801,23.691662],[121.302705,23.691481],[121.302216,23.691385],[121.302024,23.691112],[121.30163,23.691198],[121.301631,23.691108],[121.301044,23.691011],[121.301045,23.690921],[121.300749,23.691098],[121.300652,23.691007],[121.300755,23.690646],[121.300462,23.690553],[121.300463,23.690463],[121.300267,23.690461],[121.300069,23.690639],[121.300065,23.69091],[121.299967,23.690909],[121.299777,23.690455],[121.299578,23.690634],[121.299382,23.690631],[121.299485,23.690271],[121.299583,23.690272],[121.299487,23.690091],[121.299291,23.690089],[121.299092,23.690357],[121.298798,23.690354],[121.298996,23.690176],[121.298802,23.689993],[121.299002,23.689724],[121.298708,23.689721],[121.298607,23.6899],[121.298215,23.689896],[121.298115,23.690076],[121.297919,23.690074],[121.297522,23.69043],[121.297613,23.690973],[121.297807,23.691156],[121.298003,23.691158],[121.2983,23.69089],[121.298791,23.690896],[121.298887,23.690987],[121.298786,23.691257],[121.299076,23.691531],[121.299371,23.691534],[121.299372,23.691444],[121.299665,23.691537],[121.299767,23.691177],[121.30006,23.691271]],[[121.299578,23.690634],[121.299675,23.690725],[121.299577,23.690724],[121.299578,23.690634]],[[121.299767,23.691177],[121.299671,23.691086],[121.299769,23.691087],[121.299767,23.691177]],[[121.299184,23.69081],[121.299085,23.690899],[121.299086,23.690809],[121.299184,23.69081]],[[121.300458,23.690824],[121.300359,23.690913],[121.30036,23.690823],[121.300458,23.690824]]],[[[121.301101,23.694172],[121.301104,23.693991],[121.301301,23.693903],[121.301205,23.693722],[121.300814,23.693627],[121.300616,23.693805],[121.300423,23.693532],[121.300227,23.69353],[121.300231,23.693259],[121.300328,23.693351],[121.300525,23.693263],[121.300235,23.692898],[121.300335,23.692809],[121.300239,23.692627],[121.299843,23.692894],[121.300037,23.693077],[121.300035,23.693257],[121.299546,23.693162],[121.299453,23.692709],[121.299751,23.692441],[121.299458,23.692348],[121.29916,23.692616],[121.298967,23.692433],[121.299166,23.692164],[121.298877,23.6918],[121.29868,23.691888],[121.298677,23.692068],[121.298481,23.692066],[121.298482,23.691976],[121.298189,23.691882],[121.297999,23.691429],[121.297802,23.691517],[121.297894,23.69197],[121.298187,23.692063],[121.298282,23.692335],[121.298479,23.692247],[121.298473,23.692698],[121.298957,23.693155],[121.298955,23.693336],[121.299052,23.693427],[121.299543,23.693342],[121.299442,23.693612],[121.299048,23.693698],[121.299338,23.694062],[121.299633,23.693975],[121.299539,23.693703],[121.299932,23.693617],[121.299931,23.693708],[121.300225,23.693711],[121.300417,23.693984],[121.300712,23.693987],[121.300806,23.694259],[121.301101,23.694172]]],[[[121.298805,23.697307],[121.299103,23.69704],[121.299105,23.696859],[121.299009,23.696768],[121.298615,23.696854],[121.298521,23.696582],[121.298421,23.696671],[121.298129,23.696577],[121.298025,23.697028],[121.298412,23.697393],[121.298805,23.697307]],[[121.298712,23.696945],[121.298613,23.697034],[121.298614,23.696944],[121.298712,23.696945]]],[[[121.300459,23.698319],[121.301147,23.698236],[121.301445,23.697968],[121.301448,23.697697],[121.30135,23.697696],[121.30145,23.697517],[121.301157,23.697423],[121.301056,23.697693],[121.300958,23.697692],[121.30096,23.697511],[121.300667,23.697418],[121.300567,23.697597],[121.300761,23.69778],[121.300466,23.697777],[121.300366,23.697956],[121.299778,23.69795],[121.299679,23.698039],[121.299773,23.698311],[121.300361,23.698318],[121.300363,23.698227],[121.300459,23.698319]]],[[[121.299157,23.700472],[121.298963,23.700289],[121.298966,23.700018],[121.298773,23.699835],[121.298777,23.699474],[121.298975,23.699386],[121.299081,23.698755],[121.299278,23.698667],[121.29928,23.698486],[121.298791,23.698391],[121.298593,23.698569],[121.29849,23.698929],[121.298392,23.698928],[121.298487,23.6992],[121.298193,23.699197],[121.297991,23.699646],[121.297695,23.699733],[121.297693,23.699914],[121.297986,23.700007],[121.297882,23.700458],[121.299157,23.700472]]],[[[121.297697,23.699643],[121.297994,23.699375],[121.297799,23.699283],[121.2976,23.699551],[121.297697,23.699643]]],[[[121.303093,23.691846],[121.303292,23.691577],[121.302999,23.691484],[121.3028,23.691752],[121.303093,23.691846]]],[[[121.307503,23.691985],[121.307796,23.692078],[121.308194,23.691631],[121.307999,23.691539],[121.307998,23.691629],[121.307507,23.691714],[121.307506,23.691804],[121.307016,23.691799],[121.306816,23.692067],[121.307011,23.69216],[121.307012,23.69207],[121.307502,23.692075],[121.307503,23.691985]]],[[[121.303774,23.692215],[121.303773,23.692305],[121.303969,23.692307],[121.30407,23.692128],[121.303876,23.691945],[121.30368,23.691943],[121.303682,23.691762],[121.30339,23.691578],[121.303291,23.691668],[121.303387,23.691849],[121.303188,23.692028],[121.303479,23.692302],[121.303774,23.692215]]],[[[121.304517,23.695474],[121.304812,23.695387],[121.304912,23.695207],[121.305205,23.695301],[121.305307,23.695031],[121.305701,23.694854],[121.305511,23.694401],[121.305313,23.694579],[121.304919,23.694665],[121.304721,23.694844],[121.304719,23.695024],[121.304123,23.69556],[121.304416,23.695653],[121.304517,23.695474]]],[[[121.301843,23.697521],[121.302238,23.697255],[121.302241,23.697074],[121.302534,23.697168],[121.302732,23.696989],[121.30264,23.696537],[121.302935,23.69645],[121.302937,23.696269],[121.303035,23.69627],[121.30294,23.696088],[121.302644,23.696175],[121.302347,23.696443],[121.302344,23.696624],[121.302147,23.696712],[121.302145,23.696892],[121.301749,23.697159],[121.301843,23.697521]]]]}},{"type":"Feature","properties":{"kind":"water","month":"2024-01","area_ha":2.01},"geometry":{"type":"MultiPolygon","coordinates":[[[[121.299683,23.690093],[121.300174,23.690098],[121.300176,23.689918],[121.299491,23.68982],[121.299487,23.690091],[121.299587,23.690002],[121.299683,23.690093]]],[[[121.304821,23.694664],[121.304918,23.694756],[121.304919,23.694665],[121.304821,23.694664]]],[[[121.304722,23.694753],[121.304819,23.694845],[121.30482,23.694755],[121.304722,23.694753]]],[[[121.304521,23.695112],[121.304719,23.695024],[121.304721,23.694844],[121.304524,23.694932],[121.304521,23.695112]]],[[[121.302733,23.696899],[121.30313,23.696542],[121.303235,23.696001],[121.303039,23.695999],[121.302935,23.69645],[121.30264,23.696537],[121.302733,23.696899]]],[[[121.298293,23.699017],[121.298193,23.699197],[121.298487,23.6992],[121.298489,23.699019],[121.298293,23.699017]]],[[[121.298095,23.699196],[121.298191,23.699287],[121.298193,23.699197],[121.298095,23.699196]]],[[[121.298091,23.699467],[121.298093,23.699286],[121.297995,23.699285],[121.297993,23.699465],[121.298091,23.699467]]],[[[121.297895,23.699464],[121.297893,23.699645],[121.297991,23.699646],[121.297993,23.699465],[121.297895,23.699464]]],[[[121.31178,23.687336],[121.312172,23.68734],[121.312366,23.687523],[121.312371,23.687071],[121.312175,23.687069],[121.31208,23.686887],[121.311785,23.686884],[121.311683,23.687244],[121.311487,23.687242],[121.311484,23.687423],[121.311386,23.687422],[121.311383,23.687693],[121.311579,23.687695],[121.311582,23.687424],[121.311778,23.687426],[121.31178,23.687336]]],[[[121.308597,23.690823],[121.308694,23.690914],[121.30869,23.691185],[121.308885,23.691277],[121.308891,23.690826],[121.308597,23.690823]]],[[[121.306621,23.691975],[121.306718,23.692066],[121.306719,23.691976],[121.306621,23.691975]]],[[[121.307304,23.692253],[121.307404,23.692074],[121.307012,23.69207],[121.30691,23.692339],[121.307304,23.692253]]],[[[121.306217,23.692874],[121.306615,23.692426],[121.306811,23.692429],[121.306716,23.692247],[121.306914,23.692068],[121.306718,23.692066],[121.306717,23.692157],[121.306522,23.692064],[121.306521,23.692154],[121.306325,23.692152],[121.306224,23.692332],[121.305929,23.692419],[121.305925,23.69269],[121.306023,23.692691],[121.305922,23.692961],[121.306217,23.692874]],[[121.306322,23.692333],[121.30632,23.692513],[121.306222,23.692512],[121.306224,23.692332],[121.306322,23.692333]]],[[[121.305825,23.692869],[121.305924,23.69278],[121.305826,23.692779],[121.305825,23.692869]]],[[[121.30561,23.694312],[121.305708,23.694313],[121.305716,23.693681],[121.305816,23.693592],[121.30562,23.693589],[121.305617,23.69377],[121.30532,23.694038],[121.304926,23.694124],[121.304925,23.694214],[121.305317,23.694218],[121.305418,23.694039],[121.305614,23.694041],[121.305415,23.694219],[121.305413,23.6944],[121.305608,23.694492],[121.30561,23.694312]]],[[[121.30502,23.694486],[121.304923,23.694394],[121.304922,23.694485],[121.30502,23.694486]]],[[[121.305117,23.694577],[121.305313,23.694579],[121.305413,23.6944],[121.305119,23.694397],[121.305118,23.694487],[121.30502,23.694486],[121.304919,23.694665],[121.305115,23.694667],[121.305117,23.694577]]]]}}]}