{"type":"FeatureCollection","features":[{"type":"Feature","properties":{"kind":"bare_slide","month":"2024-08","area_ha":133.51},"geometry":{"type":"MultiPolygon","coordinates":[[[[121.298438,23.702992],[121.29853,23.703445],[121.298724,23.703627],[121.29892,23.703629],[121.299014,23.703901],[121.299112,23.703902],[121.299103,23.704625],[121.299005,23.704624],[121.299001,23.704894],[121.298903,23.704893],[121.298997,23.705256],[121.298897,23.705345],[121.297917,23.705334],[121.297816,23.705514],[121.297522,23.70551],[121.297422,23.70569],[121.297809,23.706055],[121.298496,23.706063],[121.29859,23.706335],[121.298785,23.706427],[121.298984,23.706249],[121.298987,23.705978],[121.299085,23.705979],[121.29909,23.705618],[121.298992,23.705617],[121.29919,23.705438],[121.299096,23.705166],[121.299194,23.705168],[121.299197,23.704897],[121.299295,23.704898],[121.299699,23.703999],[121.299504,23.703907],[121.299606,23.703637],[121.299218,23.703271],[121.299322,23.702821],[121.299127,23.702729],[121.29913,23.702548],[121.298839,23.702274],[121.298843,23.702003],[121.299139,23.701826],[121.299243,23.701375],[121.298753,23.70137],[121.298657,23.701188],[121.298069,23.701182],[121.298059,23.701904],[121.298156,23.701996],[121.298354,23.701907],[121.298152,23.702357],[121.29825,23.702358],[121.298246,23.702629],[121.298441,23.702721],[121.298342,23.70281],[121.29834,23.702991],[121.298438,23.702992]],[[121.298351,23.702088],[121.298448,23.702179],[121.29835,23.702178],[121.298351,23.702088]],[[121.298442,23.702631],[121.29854,23.702632],[121.298545,23.702271],[121.298643,23.702272],[121.29874,23.702363],[121.298641,23.702452],[121.298734,23.702815],[121.298538,23.702813],[121.298442,23.702631]],[[121.298734,23.702815],[121.298831,23.702906],[121.298733,23.702905],[121.298734,23.702815]],[[121.299309,23.703814],[121.299213,23.703723],[121.299311,23.703724],[121.299309,23.703814]],[[121.29902,23.70345],[121.298923,23.703359],[121.299021,23.70336],[121.29902,23.70345]],[[121.298927,23.703088],[121.29883,23.702996],[121.298928,23.702997],[121.298927,23.703088]]],[[[121.293788,23.706101],[121.294284,23.705655],[121.294287,23.705475],[121.293897,23.70529],[121.293896,23.70538],[121.2936,23.705467],[121.293596,23.705828],[121.293694,23.705829],[121.293593,23.706009],[121.293788,23.706101]]],[[[121.293588,23.70637],[121.293685,23.706461],[121.293881,23.706464],[121.293883,23.706373],[121.294274,23.706468],[121.294374,23.706288],[121.29418,23.706106],[121.293788,23.706101],[121.293588,23.70637]]],[[[121.300429,23.708251],[121.300332,23.70816],[121.300433,23.70789],[121.30024,23.707707],[121.299946,23.707704],[121.299949,23.707433],[121.299657,23.707249],[121.299856,23.707071],[121.29976,23.706889],[121.299463,23.707067],[121.299558,23.707339],[121.299362,23.707337],[121.299363,23.707246],[121.298872,23.707331],[121.298581,23.707057],[121.298583,23.706876],[121.298681,23.706878],[121.298587,23.706606],[121.298094,23.706781],[121.297993,23.707051],[121.29809,23.707142],[121.298385,23.707055],[121.298575,23.707508],[121.298967,23.707513],[121.298866,23.707783],[121.299156,23.708057],[121.299453,23.707879],[121.299549,23.708061],[121.299843,23.708064],[121.300132,23.708429],[121.300429,23.708251]]],[[[121.297833,23.711835],[121.298327,23.711479],[121.298335,23.710937],[121.298532,23.710849],[121.298635,23.710489],[121.29844,23.710397],[121.29854,23.710217],[121.298247,23.710124],[121.297862,23.709578],[121.297471,23.709483],[121.297478,23.708941],[121.297777,23.708583],[121.297874,23.708675],[121.298071,23.708587],[121.297976,23.708315],[121.298174,23.708226],[121.29798,23.708044],[121.298086,23.707413],[121.297891,23.70732],[121.29789,23.707411],[121.297498,23.707406],[121.297102,23.707673],[121.297198,23.707855],[121.297297,23.707765],[121.297394,23.707857],[121.297493,23.707767],[121.297884,23.707862],[121.297779,23.708403],[121.297386,23.708489],[121.297182,23.709028],[121.296691,23.709113],[121.296784,23.709475],[121.297077,23.709569],[121.297173,23.709751],[121.29737,23.709662],[121.297367,23.709933],[121.297659,23.710117],[121.297752,23.710479],[121.297947,23.710572],[121.297844,23.710932],[121.297746,23.710931],[121.297738,23.711563],[121.296756,23.711642],[121.296655,23.711912],[121.296752,23.712003],[121.297243,23.711918],[121.297339,23.7121],[121.29773,23.712195],[121.297833,23.711835]]],[[[121.296709,23.715254],[121.296714,23.714893],[121.29691,23.714895],[121.297104,23.715077],[121.297205,23.714808],[121.297304,23.714809],[121.297307,23.714538],[121.297795,23.714724],[121.297791,23.714995],[121.298084,23.715088],[121.29818,23.71527],[121.298377,23.715182],[121.298569,23.715545],[121.298965,23.715278],[121.298968,23.715008],[121.298675,23.714914],[121.298288,23.714549],[121.298387,23.714459],[121.298294,23.714097],[121.298,23.714004],[121.297908,23.713551],[121.297615,23.713458],[121.29741,23.714178],[121.297112,23.714445],[121.296916,23.714443],[121.296816,23.714623],[121.296619,23.714621],[121.296519,23.7148],[121.296126,23.714886],[121.296319,23.715069],[121.296218,23.715339],[121.296412,23.715521],[121.296709,23.715254]]],[[[121.283959,23.715293],[121.283963,23.715022],[121.284454,23.714938],[121.284068,23.714482],[121.284171,23.714122],[121.284568,23.713765],[121.284474,23.713403],[121.284277,23.713491],[121.284275,23.713671],[121.284079,23.713669],[121.283285,23.714383],[121.283379,23.714655],[121.283083,23.714832],[121.28308,23.715013],[121.283275,23.715105],[121.283273,23.715286],[121.283467,23.715468],[121.283761,23.715472],[121.283959,23.715293]]],[[[121.28799,23.714525],[121.287795,23.714433],[121.287695,23.714612],[121.28789,23.714705],[121.28799,23.714525]]],[[[121.298231,23.718882],[121.298137,23.71861],[121.298433,23.718433],[121.298437,23.718162],[121.298933,23.717716],[121.298937,23.717445],[121.299035,23.717446],[121.29894,23.717175],[121.299235,23.717087],[121.299533,23.71682],[121.299639,23.716189],[121.299937,23.715921],[121.299942,23.71556],[121.300138,23.715562],[121.300535,23.715205],[121.300439,23.715024],[121.300047,23.715019],[121.299944,23.71538],[121.299646,23.715647],[121.299644,23.715828],[121.29935,23.715825],[121.299151,23.716003],[121.299244,23.716455],[121.298949,23.716452],[121.298848,23.716722],[121.29875,23.716721],[121.298841,23.717264],[121.298743,23.717263],[121.29854,23.717802],[121.297547,23.718694],[121.297641,23.719056],[121.298033,23.719061],[121.298231,23.718882]]],[[[121.284701,23.718552],[121.284509,23.718279],[121.284311,23.718367],[121.284504,23.71864],[121.284701,23.718552]]],[[[121.285179,23.719551],[121.285373,23.719643],[121.285371,23.719824],[121.285273,23.719823],[121.285366,23.720185],[121.285168,23.720363],[121.285164,23.720634],[121.284769,23.720901],[121.284563,23.721621],[121.284465,23.72162],[121.284362,23.72198],[121.284066,23.722157],[121.284063,23.722338],[121.284356,23.722431],[121.284355,23.722522],[121.285142,23.72235],[121.285138,23.722621],[121.285431,23.722714],[121.28543,23.722804],[121.285628,23.722716],[121.285723,23.722898],[121.286214,23.722903],[121.286407,23.723086],[121.286507,23.722997],[121.2868,23.723091],[121.287102,23.722462],[121.287395,23.722555],[121.287495,23.722376],[121.287889,23.72229],[121.287993,23.72184],[121.28809,23.721931],[121.28858,23.721936],[121.288579,23.722027],[121.289365,23.721945],[121.289362,23.722126],[121.289557,23.722218],[121.289456,23.722488],[121.289259,23.722486],[121.288762,23.723022],[121.288566,23.72302],[121.288267,23.723378],[121.287972,23.723465],[121.287969,23.723645],[121.287871,23.723644],[121.287963,23.724097],[121.288061,23.724098],[121.288156,23.72437],[121.288352,23.724372],[121.288552,23.724103],[121.288846,23.724106],[121.288839,23.724648],[121.28874,23.724737],[121.289131,23.724832],[121.289325,23.725015],[121.289417,23.725467],[121.289908,23.725382],[121.290107,23.725204],[121.290109,23.725023],[121.290011,23.725022],[121.290114,23.724662],[121.29031,23.724664],[121.290599,23.725029],[121.290995,23.724762],[121.291189,23.724945],[121.291187,23.725126],[121.290988,23.725304],[121.290794,23.725121],[121.290302,23.725296],[121.290299,23.725477],[121.290493,23.72566],[121.290983,23.725665],[121.290982,23.725755],[121.291473,23.725761],[121.291574,23.725491],[121.29187,23.725404],[121.291872,23.725224],[121.292168,23.725046],[121.292079,23.724413],[121.292276,23.724325],[121.292274,23.724506],[121.292565,23.724689],[121.292658,23.725142],[121.29246,23.72523],[121.292458,23.725411],[121.292361,23.725319],[121.292164,23.725407],[121.292258,23.725679],[121.291962,23.725857],[121.29186,23.726126],[121.291566,23.726123],[121.291562,23.726394],[121.291759,23.726396],[121.29176,23.726306],[121.291857,23.726397],[121.292935,23.726409],[121.292937,23.726319],[121.293525,23.726325],[121.293527,23.726145],[121.29392,23.726149],[121.293922,23.725969],[121.29451,23.725975],[121.294513,23.725794],[121.294611,23.725796],[121.294615,23.725434],[121.294517,23.725433],[121.294625,23.724712],[121.294528,23.724621],[121.294627,23.724532],[121.294432,23.724439],[121.294435,23.724259],[121.294628,23.724441],[121.294924,23.724354],[121.294824,23.724443],[121.294822,23.724624],[121.295016,23.724807],[121.294908,23.725528],[121.295102,23.725711],[121.295791,23.725538],[121.296077,23.726173],[121.296665,23.726179],[121.296765,23.72609],[121.296677,23.725277],[121.29658,23.725185],[121.296481,23.725274],[121.295991,23.725269],[121.295992,23.725179],[121.296682,23.724915],[121.296683,23.724825],[121.296879,23.724827],[121.29688,23.724737],[121.297076,23.724739],[121.297075,23.724829],[121.297567,23.724745],[121.29767,23.724384],[121.297867,23.724296],[121.297775,23.723844],[121.297972,23.723756],[121.297974,23.723575],[121.297876,23.723574],[121.297987,23.722582],[121.29789,23.722491],[121.298379,23.722586],[121.298578,23.722408],[121.29858,23.722227],[121.298387,23.722045],[121.298092,23.722041],[121.298091,23.722132],[121.297798,23.722038],[121.297699,23.722127],[121.297791,23.72258],[121.297593,23.722758],[121.297587,23.72321],[121.29729,23.723387],[121.297288,23.723568],[121.297483,23.72366],[121.297381,23.72393],[121.297576,23.724022],[121.297574,23.724203],[121.297078,23.724649],[121.296785,23.724555],[121.296789,23.724194],[121.296988,23.724016],[121.296992,23.723655],[121.296799,23.723472],[121.296601,23.72356],[121.296695,23.723922],[121.296496,23.724101],[121.2963,23.724098],[121.296102,23.724277],[121.295807,23.724274],[121.295806,23.724364],[121.295219,23.724267],[121.295223,23.723996],[121.295028,23.723904],[121.295036,23.723272],[121.295134,23.723273],[121.295038,23.723091],[121.295236,23.723003],[121.295238,23.722823],[121.29514,23.722821],[121.295239,23.722732],[121.295241,23.722552],[121.295143,23.722551],[121.295245,23.722281],[121.295738,23.722106],[121.296035,23.721838],[121.296038,23.721658],[121.296234,23.72166],[121.296334,23.72148],[121.296628,23.721483],[121.29662,23.722115],[121.296815,23.722208],[121.296918,23.721848],[121.297214,23.72167],[121.297218,23.7214],[121.297316,23.721401],[121.297321,23.72104],[121.297419,23.721041],[121.297328,23.720498],[121.297522,23.720681],[121.297818,23.720503],[121.297722,23.720322],[121.297329,23.720408],[121.297331,23.720227],[121.297136,23.720135],[121.297343,23.719324],[121.297148,23.719232],[121.297055,23.718869],[121.296365,23.719133],[121.29646,23.719314],[121.296755,23.719318],[121.29675,23.719679],[121.296456,23.719676],[121.296257,23.719854],[121.296353,23.720036],[121.29655,23.719947],[121.296548,23.720128],[121.29645,23.720127],[121.29654,23.72076],[121.295949,23.720934],[121.295648,23.721473],[121.294566,23.721732],[121.294562,23.722002],[121.294854,23.722186],[121.294752,23.722456],[121.294654,23.722455],[121.294658,23.722184],[121.294367,23.72191],[121.294072,23.721997],[121.294165,23.722359],[121.294066,23.722448],[121.293871,23.722356],[121.293785,23.721452],[121.293492,23.721359],[121.293298,23.721176],[121.2933,23.720995],[121.293008,23.720811],[121.293014,23.72036],[121.292917,23.720269],[121.292721,23.720266],[121.29262,23.720536],[121.292324,23.720623],[121.292231,23.720261],[121.291939,23.720077],[121.29174,23.720256],[121.291731,23.720978],[121.291435,23.721155],[121.29153,23.721337],[121.291728,23.721249],[121.291823,23.72143],[121.291529,23.721427],[121.291528,23.721517],[121.291333,23.721425],[121.291335,23.721244],[121.291043,23.721061],[121.291049,23.720609],[121.290854,23.720517],[121.290768,23.719613],[121.290865,23.719704],[121.291062,23.719616],[121.291171,23.718805],[121.291465,23.718808],[121.291466,23.718718],[121.29186,23.718632],[121.291953,23.718994],[121.292341,23.719359],[121.292432,23.719902],[121.292722,23.720176],[121.29292,23.720088],[121.292731,23.719544],[121.292536,23.719452],[121.292538,23.719271],[121.292344,23.719088],[121.292348,23.718818],[121.292546,23.718639],[121.291862,23.718451],[121.291769,23.718089],[121.291867,23.71809],[121.29197,23.71773],[121.292263,23.717823],[121.29226,23.718004],[121.292455,23.718096],[121.293051,23.717561],[121.293053,23.717381],[121.293448,23.717204],[121.293257,23.716751],[121.292861,23.717017],[121.292759,23.717377],[121.292467,23.717193],[121.292572,23.716653],[121.292965,23.716567],[121.293165,23.716298],[121.29336,23.716391],[121.293459,23.716301],[121.293364,23.71612],[121.293068,23.716207],[121.293069,23.716117],[121.292776,23.716023],[121.292677,23.716112],[121.292773,23.716294],[121.29218,23.716649],[121.292176,23.716919],[121.292078,23.716918],[121.291876,23.717368],[121.291484,23.717363],[121.291284,23.717632],[121.290497,23.717804],[121.290395,23.718164],[121.290004,23.718069],[121.290108,23.717619],[121.290009,23.717618],[121.289916,23.717256],[121.290213,23.717078],[121.290216,23.716807],[121.290509,23.716901],[121.29091,23.716273],[121.291103,23.716456],[121.2913,23.716458],[121.291604,23.715649],[121.291803,23.71547],[121.291999,23.715473],[121.292101,23.715203],[121.292297,23.715205],[121.292391,23.715477],[121.292983,23.715213],[121.292978,23.715574],[121.29288,23.715573],[121.292975,23.715845],[121.293171,23.715847],[121.293471,23.715399],[121.293962,23.715314],[121.29386,23.715674],[121.293662,23.715762],[121.293758,23.715944],[121.29415,23.715948],[121.294351,23.715589],[121.294843,23.715504],[121.295035,23.715777],[121.295231,23.715779],[121.295324,23.716232],[121.295815,23.716147],[121.295819,23.715876],[121.296114,23.715789],[121.296217,23.715429],[121.296022,23.715336],[121.295822,23.715605],[121.295527,23.715692],[121.295529,23.715512],[121.295335,23.715329],[121.295139,23.715327],[121.295142,23.715146],[121.294754,23.714781],[121.294756,23.7146],[121.295446,23.714337],[121.295645,23.714158],[121.295647,23.713978],[121.296141,23.713712],[121.296247,23.713081],[121.296345,23.713082],[121.296355,23.71236],[121.296258,23.712269],[121.295961,23.712446],[121.295957,23.712807],[121.295758,23.712986],[121.295267,23.713071],[121.295068,23.713249],[121.294676,23.713245],[121.294377,23.713603],[121.294083,23.713599],[121.293982,23.713779],[121.29359,23.713775],[121.293391,23.714043],[121.292802,23.714037],[121.292707,23.713855],[121.292607,23.713944],[121.292314,23.713851],[121.292212,23.714211],[121.292406,23.714303],[121.292404,23.714484],[121.292106,23.714751],[121.292008,23.71475],[121.292013,23.714389],[121.291915,23.714388],[121.29182,23.714116],[121.291624,23.714114],[121.291623,23.714204],[121.29133,23.714111],[121.291333,23.71393],[121.29153,23.713842],[121.291434,23.71366],[121.291139,23.713747],[121.291034,23.714288],[121.290739,23.714285],[121.290343,23.714642],[121.290146,23.714639],[121.290148,23.714549],[121.289951,23.714547],[121.289851,23.714727],[121.289361,23.714721],[121.289264,23.71463],[121.289163,23.714809],[121.288869,23.714806],[121.28887,23.714716],[121.287987,23.714796],[121.28789,23.714705],[121.287788,23.714975],[121.286906,23.714965],[121.286905,23.715055],[121.286708,23.715053],[121.28681,23.714783],[121.286518,23.714599],[121.286418,23.714779],[121.286612,23.714962],[121.286315,23.715139],[121.286313,23.715319],[121.286017,23.715406],[121.286113,23.715588],[121.285915,23.715767],[121.28572,23.715674],[121.28552,23.715943],[121.285326,23.71576],[121.28513,23.715758],[121.284536,23.716203],[121.284922,23.716659],[121.285119,23.71657],[121.285122,23.71639],[121.285515,23.716304],[121.285513,23.716484],[121.285708,23.716577],[121.285704,23.716848],[121.28541,23.716845],[121.285314,23.716663],[121.285118,23.716661],[121.284721,23.717017],[121.284817,23.717199],[121.28462,23.717287],[121.284617,23.717468],[121.284421,23.717466],[121.284328,23.717103],[121.284626,23.716836],[121.284334,23.716652],[121.284233,23.716831],[121.284037,23.716829],[121.283243,23.717543],[121.283241,23.717723],[121.283339,23.717725],[121.283234,23.718265],[121.283524,23.718539],[121.283327,23.718627],[121.282923,23.719526],[121.282628,23.719613],[121.282428,23.719882],[121.281837,23.720056],[121.281733,23.720506],[121.282024,23.72078],[121.282416,23.720784],[121.282517,23.720605],[121.282811,23.720608],[121.283208,23.720251],[121.283501,23.720345],[121.283601,23.720165],[121.283895,23.720169],[121.283995,23.72008],[121.283899,23.719898],[121.284685,23.719816],[121.284686,23.719726],[121.284979,23.71982],[121.285179,23.719551]],[[121.295991,23.725269],[121.295891,23.725358],[121.295893,23.725268],[121.295991,23.725269]],[[121.29091,23.716273],[121.290813,23.716182],[121.290911,23.716183],[121.29091,23.716273]],[[121.295206,23.72526],[121.295402,23.725262],[121.2954,23.725443],[121.295204,23.725441],[121.295206,23.72526]],[[121.291779,23.724861],[121.291878,23.724772],[121.291877,23.724862],[121.291779,23.724861]],[[121.295997,23.724818],[121.296096,23.724728],[121.296095,23.724819],[121.295997,23.724818]],[[121.293253,23.724607],[121.293449,23.724609],[121.293448,23.724699],[121.293252,23.724697],[121.293253,23.724607]],[[121.29384,23.724703],[121.29394,23.724614],[121.293938,23.724705],[121.29384,23.724703]],[[121.294331,23.724709],[121.29443,23.72462],[121.294429,23.72471],[121.294331,23.724709]],[[121.294039,23.724525],[121.294138,23.724436],[121.294137,23.724526],[121.294039,23.724525]],[[121.290612,23.724036],[121.29081,23.723948],[121.290805,23.724309],[121.290511,23.724305],[121.290612,23.724036]],[[121.29081,23.723948],[121.290909,23.723858],[121.290908,23.723949],[121.29081,23.723948]],[[121.291597,23.723776],[121.291498,23.723775],[121.291503,23.723413],[121.2917,23.723325],[121.291698,23.723506],[121.291796,23.723507],[121.29169,23.724138],[121.291393,23.724315],[121.291597,23.723776]],[[121.292081,23.724233],[121.29218,23.724143],[121.292179,23.724234],[121.292081,23.724233]],[[121.292674,23.723878],[121.292382,23.723694],[121.292386,23.723423],[121.292777,23.723518],[121.292772,23.723879],[121.292967,23.723971],[121.292964,23.724242],[121.292769,23.72415],[121.292674,23.723878]],[[121.293456,23.724067],[121.293555,23.723978],[121.293554,23.724068],[121.293456,23.724067]],[[121.294241,23.724076],[121.29434,23.723987],[121.294339,23.724077],[121.294241,23.724076]],[[121.29395,23.723802],[121.294247,23.723624],[121.294243,23.723895],[121.29395,23.723802]],[[121.288458,23.723741],[121.288558,23.723652],[121.288556,23.723742],[121.288458,23.723741]],[[121.292088,23.723691],[121.292187,23.723602],[121.292186,23.723692],[121.292088,23.723691]],[[121.288857,23.723294],[121.288955,23.723295],[121.288952,23.723476],[121.288854,23.723474],[121.288857,23.723294]],[[121.294351,23.723174],[121.294546,23.723266],[121.294445,23.723446],[121.29425,23.723353],[121.294351,23.723174]],[[121.292291,23.723151],[121.292388,23.723243],[121.29229,23.723242],[121.292291,23.723151]],[[121.292095,23.723149],[121.292096,23.723059],[121.2919,23.723057],[121.292004,23.722606],[121.292102,23.722607],[121.29201,23.722155],[121.292108,23.722156],[121.29211,23.721975],[121.292405,23.721979],[121.292399,23.72243],[121.292301,23.722429],[121.292392,23.722972],[121.292294,23.722971],[121.292291,23.723151],[121.292095,23.723149]],[[121.291605,23.723144],[121.291507,23.723143],[121.291411,23.722961],[121.291607,23.722963],[121.291605,23.723144]],[[121.294844,23.722909],[121.294745,23.722998],[121.294746,23.722907],[121.294844,23.722909]],[[121.294847,23.722728],[121.295043,23.72273],[121.295042,23.72282],[121.294844,23.722909],[121.294847,23.722728]],[[121.290137,23.722857],[121.289941,23.722854],[121.290043,23.722585],[121.290238,23.722677],[121.290137,23.722857]],[[121.290144,23.722315],[121.290242,23.722316],[121.290344,23.722046],[121.290833,23.722142],[121.290934,23.721962],[121.291229,23.721875],[121.291331,23.721606],[121.291524,23.721788],[121.291624,23.721699],[121.291819,23.721792],[121.291718,23.721971],[121.291425,23.721878],[121.291324,23.722147],[121.291225,23.722146],[121.291222,23.722417],[121.290924,23.722685],[121.290728,23.722682],[121.290628,23.722862],[121.290433,23.72277],[121.290338,23.722498],[121.290141,23.722586],[121.290144,23.722315]],[[121.286711,23.722367],[121.28681,23.722278],[121.286809,23.722368],[121.286711,23.722367]],[[121.284557,23.722072],[121.284655,23.722073],[121.284653,23.722254],[121.284555,23.722253],[121.284557,23.722072]],[[121.297991,23.722311],[121.29809,23.722222],[121.298089,23.722312],[121.297991,23.722311]],[[121.287109,23.72192],[121.287207,23.721921],[121.287205,23.722102],[121.287107,23.722101],[121.287109,23.72192]],[[121.285641,23.721723],[121.285345,23.72181],[121.285449,23.72136],[121.285645,23.721362],[121.285641,23.721723]],[[121.292506,23.721709],[121.292702,23.721711],[121.292701,23.721801],[121.292505,23.721799],[121.292506,23.721709]],[[121.287412,23.721291],[121.287609,23.721203],[121.287803,23.721386],[121.2878,23.721567],[121.287407,23.721652],[121.28731,23.721561],[121.287412,23.721291]],[[121.287998,23.721478],[121.288097,23.721389],[121.288096,23.721479],[121.287998,23.721478]],[[121.289571,23.721135],[121.289868,23.720957],[121.29006,23.72123],[121.289764,23.721408],[121.289571,23.721135]],[[121.292022,23.721252],[121.291924,23.721251],[121.291828,23.721069],[121.292024,23.721071],[121.292022,23.721252]],[[121.288102,23.721028],[121.288002,23.721117],[121.288003,23.721027],[121.288102,23.721028]],[[121.2882,23.721029],[121.287909,23.720755],[121.288205,23.720578],[121.288398,23.720851],[121.2882,23.721029]],[[121.283712,23.719173],[121.283611,23.719443],[121.283415,23.719441],[121.283516,23.719171],[121.283712,23.719173]],[[121.285083,23.719369],[121.285281,23.719191],[121.285376,23.719463],[121.285083,23.719369]],[[121.287338,23.719394],[121.28724,23.719393],[121.287141,23.719482],[121.287243,23.719213],[121.287341,23.719214],[121.287338,23.719394]],[[121.284401,23.719],[121.284497,23.719182],[121.284301,23.71918],[121.284102,23.719358],[121.284106,23.719088],[121.284205,23.718998],[121.284401,23.719]],[[121.288615,23.719228],[121.288228,23.718862],[121.288329,23.718593],[121.287842,23.718407],[121.28774,23.718676],[121.287642,23.718675],[121.287834,23.718948],[121.287441,23.719034],[121.287443,23.718854],[121.287152,23.71867],[121.287161,23.717947],[121.287259,23.717949],[121.287065,23.717766],[121.287166,23.717586],[121.287263,23.717678],[121.287558,23.717591],[121.28765,23.718043],[121.287846,23.718045],[121.288144,23.717778],[121.289012,23.718871],[121.289507,23.718515],[121.28951,23.718335],[121.289706,23.718337],[121.2898,23.718609],[121.290388,23.718706],[121.290287,23.718885],[121.289994,23.718792],[121.289795,23.71906],[121.289207,23.718963],[121.289107,23.719143],[121.288912,23.71905],[121.288812,23.71923],[121.288615,23.719228]],[[121.286776,23.717401],[121.28697,23.717584],[121.286967,23.717765],[121.286869,23.717764],[121.286965,23.717945],[121.286768,23.718033],[121.286862,23.718305],[121.286664,23.718484],[121.286468,23.718482],[121.286469,23.718391],[121.286273,23.718389],[121.286271,23.718479],[121.286174,23.718388],[121.285978,23.718386],[121.285977,23.718476],[121.285586,23.718382],[121.285386,23.71865],[121.285092,23.718647],[121.284893,23.718916],[121.284598,23.718912],[121.2846,23.718822],[121.284209,23.718727],[121.284114,23.718456],[121.284311,23.718367],[121.284314,23.718187],[121.28412,23.718004],[121.283825,23.718091],[121.28373,23.717819],[121.283632,23.717818],[121.283634,23.717638],[121.283732,23.717639],[121.283828,23.71782],[121.284121,23.717914],[121.284223,23.717644],[121.284419,23.717646],[121.284611,23.717919],[121.284907,23.717832],[121.284806,23.718012],[121.285001,23.718104],[121.285201,23.717835],[121.28491,23.717561],[121.285109,23.717383],[121.285305,23.717385],[121.285304,23.717475],[121.285501,23.717387],[121.285983,23.718025],[121.28618,23.717937],[121.286276,23.718118],[121.286472,23.71812],[121.286573,23.717941],[121.286281,23.717757],[121.286384,23.717397],[121.28648,23.717488],[121.286776,23.717401]],[[121.283735,23.717458],[121.283833,23.717459],[121.28383,23.71764],[121.283732,23.717639],[121.283735,23.717458]],[[121.286384,23.717397],[121.286287,23.717306],[121.286385,23.717307],[121.286384,23.717397]],[[121.283624,23.71845],[121.28382,23.718452],[121.283819,23.718543],[121.283623,23.71854],[121.283624,23.71845]],[[121.288632,23.717964],[121.28873,23.717965],[121.288728,23.718145],[121.28863,23.718144],[121.288632,23.717964]],[[121.289524,23.717251],[121.289623,23.717162],[121.289818,23.717255],[121.289713,23.717795],[121.289517,23.717793],[121.28952,23.717522],[121.289618,23.717523],[121.289524,23.717251]],[[121.288833,23.717605],[121.288735,23.717604],[121.288635,23.717693],[121.288737,23.717423],[121.288835,23.717424],[121.288833,23.717605]],[[121.284127,23.717462],[121.284226,23.717373],[121.284225,23.717463],[121.284127,23.717462]],[[121.285893,23.717392],[121.285993,23.717302],[121.285991,23.717393],[121.285893,23.717392]],[[121.284129,23.717282],[121.284229,23.717193],[121.284227,23.717283],[121.284129,23.717282]],[[121.286093,23.717123],[121.286192,23.717034],[121.286191,23.717124],[121.286093,23.717123]],[[121.285898,23.717031],[121.285997,23.716941],[121.285996,23.717032],[121.285898,23.717031]],[[121.289134,23.717066],[121.289038,23.716885],[121.289237,23.716706],[121.289628,23.716801],[121.289527,23.71698],[121.289134,23.717066]],[[121.289823,23.716893],[121.28982,23.717074],[121.289722,23.717073],[121.289627,23.716891],[121.289823,23.716893]],[[121.288451,23.716788],[121.288647,23.71679],[121.288646,23.71688],[121.288449,23.716968],[121.288451,23.716788]],[[121.288647,23.71679],[121.288746,23.716701],[121.288745,23.716791],[121.288647,23.71679]],[[121.286003,23.71649],[121.28571,23.716396],[121.285711,23.716306],[121.285809,23.716307],[121.285911,23.716037],[121.286008,23.716129],[121.286205,23.716041],[121.286109,23.715859],[121.286208,23.71586],[121.28631,23.7155],[121.28641,23.715411],[121.2869,23.715416],[121.286602,23.715684],[121.286694,23.716136],[121.286398,23.716314],[121.286493,23.716495],[121.286295,23.716674],[121.286197,23.716673],[121.286102,23.716401],[121.286003,23.71649]],[[121.289729,23.716531],[121.289828,23.716532],[121.289923,23.716714],[121.289727,23.716712],[121.289729,23.716531]],[[121.289828,23.716532],[121.289929,23.716262],[121.290223,23.716266],[121.289926,23.716533],[121.289828,23.716532]],[[121.290417,23.716448],[121.290318,23.716538],[121.290319,23.716447],[121.290417,23.716448]],[[121.290515,23.71645],[121.29032,23.716357],[121.290422,23.716087],[121.290618,23.716089],[121.290515,23.71645]],[[121.285323,23.716031],[121.285421,23.716032],[121.285418,23.716213],[121.28532,23.716211],[121.285323,23.716031]],[[121.288655,23.716158],[121.288755,23.716069],[121.288754,23.716159],[121.288655,23.716158]],[[121.289931,23.716082],[121.290031,23.715993],[121.29003,23.716083],[121.289931,23.716082]],[[121.288464,23.715795],[121.288562,23.715796],[121.28856,23.715976],[121.288462,23.715975],[121.288464,23.715795]],[[121.289345,23.715895],[121.289445,23.715806],[121.289444,23.715896],[121.289345,23.715895]],[[121.295523,23.715963],[121.295622,23.715874],[121.295621,23.715964],[121.295523,23.715963]],[[121.287387,23.715693],[121.287486,23.715603],[121.287485,23.715694],[121.287387,23.715693]],[[121.290626,23.715457],[121.290334,23.715274],[121.290435,23.715094],[121.291121,23.715102],[121.291022,23.715191],[121.291115,23.715553],[121.290626,23.715457]],[[121.288374,23.715162],[121.288472,23.715163],[121.28847,23.715343],[121.288372,23.715342],[121.288374,23.715162]],[[121.292985,23.715032],[121.293085,23.714943],[121.293083,23.715033],[121.292985,23.715032]],[[121.294069,23.714683],[121.29387,23.714861],[121.293873,23.714681],[121.294069,23.714683]]],[[[121.284782,23.719908],[121.284289,23.720083],[121.283693,23.720618],[121.28379,23.720709],[121.28438,23.720626],[121.28458,23.720357],[121.284776,23.720359],[121.285173,23.720002],[121.285077,23.719821],[121.284878,23.719999],[121.284782,23.719908]]],[[[121.298195,23.721681],[121.298197,23.721501],[121.298294,23.721592],[121.298492,23.721504],[121.298494,23.721323],[121.298396,23.721322],[121.2985,23.720872],[121.298402,23.720871],[121.298307,23.720599],[121.29791,23.720956],[121.298104,23.721138],[121.298002,23.721408],[121.297806,23.721406],[121.297807,23.721316],[121.29761,23.721404],[121.297899,23.721859],[121.298195,23.721681]],[[121.298201,23.72123],[121.2983,23.721141],[121.298299,23.721231],[121.298201,23.72123]]],[[[121.300048,23.722514],[121.299956,23.722062],[121.300054,23.722063],[121.300057,23.721792],[121.300356,23.721434],[121.30036,23.721163],[121.300066,23.72107],[121.299973,23.720708],[121.299778,23.720615],[121.299479,23.720973],[121.299271,23.721874],[121.299466,23.721966],[121.299462,23.722327],[121.29956,23.722328],[121.299653,23.722691],[121.299849,23.722693],[121.300048,23.722514]],[[121.299869,23.721158],[121.299967,23.721159],[121.299965,23.72134],[121.299867,23.721338],[121.299869,23.721158]]],[[[121.29826,23.72421],[121.298558,23.723943],[121.298265,23.723849],[121.298169,23.723668],[121.297972,23.723756],[121.29826,23.72421]]],[[[121.301468,23.711333],[121.301176,23.711149],[121.301179,23.710878],[121.300501,23.710239],[121.300506,23.709877],[121.300215,23.709603],[121.299823,23.709599],[121.299727,23.709417],[121.299336,23.709323],[121.299338,23.709142],[121.299144,23.70905],[121.299042,23.70932],[121.299624,23.709778],[121.299619,23.710229],[121.299422,23.710227],[121.299321,23.710497],[121.299614,23.71059],[121.299715,23.71032],[121.300108,23.710325],[121.3003,23.710598],[121.300594,23.710601],[121.300687,23.711053],[121.301173,23.71133],[121.301168,23.711781],[121.301265,23.711872],[121.301462,23.711784],[121.301468,23.711333]]],[[[121.301526,23.714404],[121.301528,23.714223],[121.301726,23.714135],[121.301731,23.713684],[121.301831,23.713594],[121.302223,23.713599],[121.302514,23.713873],[121.302515,23.713782],[121.302907,23.713787],[121.303009,23.713517],[121.30291,23.713516],[121.302816,23.713244],[121.302521,23.713331],[121.302519,23.713421],[121.302127,23.713417],[121.302135,23.712785],[121.30136,23.712054],[121.301063,23.712322],[121.301057,23.712773],[121.300859,23.712861],[121.300854,23.713313],[121.300952,23.713314],[121.301045,23.713676],[121.30124,23.713768],[121.301234,23.71422],[121.301037,23.714308],[121.301034,23.714489],[121.301326,23.714672],[121.301428,23.714403],[121.301526,23.714404]]],[[[121.304929,23.716698],[121.304744,23.715793],[121.304256,23.715607],[121.304261,23.715246],[121.30397,23.714972],[121.303973,23.714792],[121.303779,23.714609],[121.303485,23.714606],[121.303389,23.714424],[121.303095,23.714421],[121.302707,23.714055],[121.302607,23.714235],[121.302899,23.714419],[121.302993,23.714691],[121.303189,23.714693],[121.30348,23.714967],[121.303774,23.71497],[121.303968,23.715153],[121.303865,23.715513],[121.304447,23.716061],[121.304443,23.716332],[121.304541,23.716333],[121.304538,23.716604],[121.304636,23.716605],[121.304729,23.716967],[121.305025,23.71688],[121.305027,23.7167],[121.304929,23.716698]]],[[[121.306975,23.717714],[121.307274,23.717356],[121.30747,23.717358],[121.307761,23.717632],[121.308153,23.717637],[121.308254,23.717457],[121.307961,23.717364],[121.307962,23.717273],[121.307666,23.717361],[121.307571,23.717179],[121.307082,23.717083],[121.306685,23.71744],[121.306682,23.717621],[121.306975,23.717714]]],[[[121.306083,23.718427],[121.306381,23.718159],[121.306576,23.718252],[121.306774,23.718073],[121.306777,23.717893],[121.306485,23.717709],[121.306584,23.71762],[121.306492,23.717167],[121.30669,23.716989],[121.306497,23.716806],[121.306202,23.716803],[121.306201,23.716893],[121.305908,23.716799],[121.305809,23.716889],[121.305713,23.716707],[121.305614,23.716796],[121.305223,23.716702],[121.305023,23.71697],[121.30512,23.717062],[121.305416,23.716975],[121.305217,23.717153],[121.305313,23.717335],[121.305999,23.717342],[121.306094,23.717614],[121.306388,23.717617],[121.306386,23.717798],[121.305894,23.717883],[121.306083,23.718427]]],[[[121.302123,23.721273],[121.301934,23.720729],[121.302032,23.72073],[121.302035,23.72055],[121.302233,23.720371],[121.302237,23.7201],[121.302435,23.719922],[121.302244,23.719559],[121.301749,23.719914],[121.301643,23.720545],[121.301544,23.720544],[121.301539,23.720996],[121.30183,23.721179],[121.301828,23.72136],[121.302022,23.721543],[121.302219,23.721455],[121.302222,23.721274],[121.302123,23.721273]]],[[[121.30504,23.723292],[121.305137,23.723383],[121.305237,23.723203],[121.304944,23.72311],[121.304945,23.72302],[121.304454,23.723104],[121.304451,23.723285],[121.304645,23.723468],[121.30504,23.723292]]],[[[121.303555,23.724359],[121.303459,23.724177],[121.303263,23.724175],[121.303268,23.723814],[121.304059,23.723281],[121.303966,23.722919],[121.303675,23.722644],[121.303871,23.722647],[121.303872,23.722556],[121.304361,23.722652],[121.304462,23.722472],[121.304852,23.722657],[121.305248,23.722391],[121.305055,23.722118],[121.304761,23.722115],[121.30476,23.722205],[121.303289,23.722189],[121.30329,23.722098],[121.303094,23.722096],[121.302991,23.722456],[121.302893,23.722455],[121.303084,23.722819],[121.302789,23.722906],[121.302693,23.722724],[121.302497,23.722722],[121.302394,23.723082],[121.302198,23.72308],[121.302,23.723258],[121.302091,23.723801],[121.302285,23.723984],[121.302481,23.723986],[121.302477,23.724257],[121.302768,23.724531],[121.303555,23.724359]]],[[[121.305722,23.72366],[121.306022,23.723212],[121.305828,23.723029],[121.30563,23.723117],[121.305628,23.723298],[121.305432,23.723296],[121.305433,23.723206],[121.305236,23.723294],[121.305525,23.723658],[121.305722,23.72366]]],[[[121.304621,23.725364],[121.304619,23.725454],[121.304719,23.725365],[121.304914,23.725457],[121.305014,23.725278],[121.304917,23.725186],[121.304524,23.725272],[121.304527,23.725002],[121.304429,23.725001],[121.304335,23.724729],[121.304039,23.724816],[121.30375,23.724451],[121.303552,23.724539],[121.303743,23.724993],[121.304231,23.725179],[121.304324,23.725541],[121.304621,23.725364]]],[[[121.306581,23.725476],[121.306485,23.725294],[121.306879,23.725208],[121.306978,23.725119],[121.306882,23.724937],[121.306294,23.724931],[121.306295,23.72484],[121.305804,23.724835],[121.305705,23.724924],[121.305602,23.725284],[121.305893,23.725558],[121.30609,23.72547],[121.306089,23.725561],[121.306382,23.725654],[121.306581,23.725476]]],[[[121.301576,23.725692],[121.301675,23.725602],[121.30187,23.725695],[121.302069,23.725516],[121.302071,23.725336],[121.302364,23.725429],[121.302465,23.72516],[121.302861,23.724893],[121.302864,23.724712],[121.302669,23.72462],[121.302371,23.724888],[121.301881,23.724882],[121.301781,23.724971],[121.301876,23.725243],[121.301677,23.725422],[121.301383,23.725419],[121.30128,23.725779],[121.301182,23.725778],[121.301179,23.726048],[121.301373,23.726231],[121.30157,23.726143],[121.301576,23.725692]]],[[[121.305572,23.727632],[121.305576,23.727361],[121.305286,23.726996],[121.30509,23.726994],[121.304701,23.726719],[121.304504,23.726807],[121.304598,23.727079],[121.304796,23.726991],[121.305183,23.727357],[121.30518,23.727627],[121.305278,23.727628],[121.305372,23.7279],[121.305668,23.727813],[121.30567,23.727633],[121.305572,23.727632]]],[[[121.303312,23.727968],[121.303119,23.727695],[121.302728,23.727601],[121.303026,23.727333],[121.302833,23.72706],[121.302636,23.727148],[121.302634,23.727329],[121.302146,23.727143],[121.30205,23.726961],[121.301852,23.727049],[121.301947,23.727321],[121.302045,23.727322],[121.302043,23.727503],[121.301747,23.72759],[121.301842,23.727862],[121.302234,23.727866],[121.302428,23.728049],[121.303213,23.728057],[121.303312,23.727968]]]]}},{"type":"Feature","properties":{"kind":"bare_dam","month":"2024-08","area_ha":25.83},"geometry":{"type":"MultiPolygon","coordinates":[[[[121.301838,23.690297],[121.301837,23.690387],[121.302033,23.69039],[121.302034,23.690299],[121.302425,23.690394],[121.302525,23.690214],[121.302429,23.690123],[121.302035,23.690209],[121.302036,23.690119],[121.301742,23.690116],[121.301743,23.690025],[121.301448,23.690112],[121.301544,23.690294],[121.301838,23.690297]]],[[[121.301058,23.689927],[121.301059,23.689837],[121.300668,23.689743],[121.300468,23.690102],[121.300175,23.690008],[121.300076,23.690097],[121.30017,23.690369],[121.300072,23.690368],[121.299969,23.690728],[121.300163,23.690911],[121.30036,23.690823],[121.300456,23.691004],[121.300653,23.690916],[121.300749,23.691098],[121.301044,23.691011],[121.301237,23.691284],[121.301435,23.691105],[121.301925,23.691111],[121.302022,23.691202],[121.302122,23.691113],[121.302026,23.690931],[121.301537,23.690836],[121.301441,23.690654],[121.301342,23.690743],[121.300951,23.690649],[121.30066,23.690375],[121.300859,23.690196],[121.301349,23.690201],[121.301448,23.690112],[121.301352,23.689931],[121.301058,23.689927]]],[[[121.299843,23.692894],[121.29955,23.6928],[121.299357,23.692618],[121.299359,23.692437],[121.299164,23.692345],[121.299263,23.692255],[121.29917,23.691893],[121.298589,23.691345],[121.298392,23.691343],[121.298292,23.691522],[121.298681,23.691798],[121.298678,23.691978],[121.298385,23.691885],[121.298192,23.691702],[121.298198,23.69125],[121.2981,23.691249],[121.298301,23.6908],[121.298792,23.690806],[121.298889,23.690897],[121.298786,23.691257],[121.299079,23.69135],[121.299078,23.691441],[121.299568,23.691446],[121.299567,23.691536],[121.299959,23.691541],[121.300059,23.691361],[121.300254,23.691454],[121.300453,23.691275],[121.30026,23.691002],[121.299769,23.691087],[121.299478,23.690813],[121.299578,23.690634],[121.299874,23.690546],[121.299877,23.690276],[121.299779,23.690275],[121.299879,23.690095],[121.299783,23.690004],[121.299291,23.690089],[121.299097,23.689906],[121.299198,23.689726],[121.298708,23.689721],[121.298607,23.6899],[121.298117,23.689895],[121.297522,23.69043],[121.297519,23.690611],[121.297618,23.690612],[121.297614,23.690883],[121.298003,23.691158],[121.297802,23.691517],[121.2979,23.691518],[121.297993,23.69188],[121.298188,23.691973],[121.298087,23.692243],[121.298282,23.692335],[121.298382,23.692155],[121.298578,23.692158],[121.298473,23.692698],[121.298668,23.692791],[121.298666,23.692971],[121.299053,23.693337],[121.299051,23.693517],[121.298855,23.693515],[121.298656,23.693694],[121.298652,23.694055],[121.299138,23.694331],[121.299232,23.694693],[121.299331,23.694604],[121.299428,23.694695],[121.299919,23.69461],[121.300014,23.694882],[121.300309,23.694795],[121.300216,23.694433],[121.300412,23.694435],[121.300507,23.694617],[121.300705,23.694529],[121.300511,23.694346],[121.300513,23.694165],[121.301393,23.694356],[121.301683,23.69472],[121.302174,23.694635],[121.301885,23.694271],[121.301689,23.694269],[121.301691,23.694088],[121.301496,23.693996],[121.301401,23.693724],[121.301205,23.693722],[121.301105,23.693901],[121.30091,23.693809],[121.300912,23.693628],[121.30101,23.693629],[121.300916,23.693357],[121.300523,23.693443],[121.300625,23.693083],[121.300333,23.692899],[121.300435,23.69263],[121.300142,23.692536],[121.300046,23.692354],[121.299849,23.692443],[121.300043,23.692625],[121.299843,23.692894]],[[121.300042,23.692716],[121.300139,23.692807],[121.30004,23.692806],[121.300042,23.692716]],[[121.300139,23.692807],[121.300235,23.692898],[121.300137,23.692897],[121.300139,23.692807]],[[121.299444,23.693431],[121.299347,23.69334],[121.299445,23.693341],[121.299444,23.693431]],[[121.300329,23.69326],[121.300232,23.693169],[121.30033,23.69317],[121.300329,23.69326]],[[121.298599,23.690532],[121.298996,23.690176],[121.299383,23.690541],[121.299284,23.69063],[121.299088,23.690628],[121.299089,23.690538],[121.298794,23.690625],[121.298795,23.690535],[121.298599,23.690532]]],[[[121.303443,23.695101],[121.303346,23.695009],[121.302759,23.694913],[121.302859,23.694733],[121.302956,23.694824],[121.303153,23.694736],[121.303058,23.694555],[121.302958,23.694644],[121.302567,23.694549],[121.302566,23.69464],[121.302271,23.694727],[121.302367,23.694908],[121.302563,23.69491],[121.302755,23.695183],[121.302951,23.695186],[121.303145,23.695368],[121.30344,23.695281],[121.303443,23.695101]]],[[[121.301376,23.69571],[121.301281,23.695438],[121.301673,23.695442],[121.301672,23.695533],[121.301966,23.695536],[121.301965,23.695626],[121.302164,23.695448],[121.301776,23.695082],[121.301481,23.695169],[121.301482,23.695079],[121.301091,23.694985],[121.300892,23.695163],[121.300888,23.695524],[121.301178,23.695798],[121.301376,23.69571]]],[[[121.29939,23.697585],[121.299491,23.697405],[121.299297,23.697222],[121.299395,23.697223],[121.299498,23.696863],[121.299401,23.696772],[121.299203,23.69686],[121.299208,23.696499],[121.298916,23.696315],[121.298919,23.696135],[121.298724,23.696042],[121.298522,23.696491],[121.298134,23.696126],[121.298138,23.695855],[121.298235,23.695946],[121.298432,23.695858],[121.298434,23.695678],[121.298336,23.695677],[121.298439,23.695317],[121.29873,23.695591],[121.29863,23.69568],[121.298725,23.695952],[121.29902,23.695865],[121.299027,23.695323],[121.299125,23.695324],[121.29903,23.695142],[121.298834,23.69514],[121.298839,23.694689],[121.298743,23.694598],[121.298448,23.694594],[121.29825,23.694773],[121.298255,23.694412],[121.298453,23.694233],[121.298457,23.693962],[121.298262,23.69387],[121.297865,23.694227],[121.297959,23.694499],[121.297764,23.694406],[121.297466,23.694764],[121.297461,23.695125],[121.297656,23.695218],[121.29765,23.695669],[121.297552,23.695668],[121.29745,23.695938],[121.297547,23.696029],[121.297745,23.695941],[121.297741,23.696212],[121.297839,23.696213],[121.297737,23.696483],[121.298028,23.696757],[121.297928,23.696936],[121.298318,23.697121],[121.298216,23.697391],[121.29841,23.697574],[121.298608,23.697395],[121.298706,23.697396],[121.298801,23.697668],[121.2989,23.697579],[121.29939,23.697585]],[[121.298323,23.69667],[121.29842,23.696761],[121.298716,23.696674],[121.298713,23.696855],[121.298515,23.697033],[121.29832,23.696941],[121.298323,23.69667]],[[121.298227,23.696578],[121.29813,23.696487],[121.298228,23.696488],[121.298227,23.696578]]],[[[121.302439,23.696896],[121.302737,23.696628],[121.302641,23.696446],[121.302837,23.696448],[121.303035,23.69627],[121.302942,23.695908],[121.302647,23.695995],[121.302545,23.696265],[121.302148,23.696622],[121.302243,23.696893],[121.302439,23.696896]]],[[[121.299981,23.69741],[121.300179,23.697232],[121.300184,23.696871],[121.299698,23.696504],[121.299599,23.696594],[121.299696,23.696685],[121.299689,23.697227],[121.29959,23.697316],[121.299981,23.69741]]],[[[121.300951,23.698234],[121.301446,23.697878],[121.301351,23.697606],[121.301252,23.697695],[121.301056,23.697693],[121.301057,23.697603],[121.300664,23.697689],[121.300567,23.697597],[121.300269,23.697865],[121.300073,23.697863],[121.300074,23.697773],[121.299681,23.697859],[121.299774,23.698221],[121.300363,23.698227],[121.300364,23.698137],[121.300951,23.698234]]],[[[121.296724,23.699],[121.296432,23.698816],[121.296532,23.698727],[121.296436,23.698545],[121.295947,23.69845],[121.295748,23.698628],[121.295941,23.698901],[121.29643,23.698997],[121.296525,23.699269],[121.296722,23.699181],[121.296724,23.699]]],[[[121.297889,23.699916],[121.29798,23.700459],[121.298372,23.700463],[121.298375,23.700282],[121.298473,23.700283],[121.29847,23.700464],[121.299255,23.700473],[121.299061,23.70029],[121.298969,23.699837],[121.298871,23.699836],[121.298776,23.699564],[121.29848,23.699742],[121.298475,23.700103],[121.29818,23.70019],[121.298182,23.700009],[121.298379,23.699921],[121.298484,23.699381],[121.298777,23.699474],[121.298976,23.699296],[121.298884,23.698843],[121.299179,23.698756],[121.299086,23.698394],[121.299482,23.698037],[121.299387,23.697855],[121.299188,23.698034],[121.298895,23.69794],[121.298697,23.698119],[121.298305,23.698114],[121.298203,23.698384],[121.298006,23.698472],[121.298004,23.698653],[121.297905,23.698652],[121.297997,23.699195],[121.2978,23.699192],[121.297699,23.699462],[121.297502,23.69955],[121.2975,23.699641],[121.297889,23.699916]],[[121.297695,23.699733],[121.297795,23.699644],[121.297793,23.699734],[121.297695,23.699733]],[[121.298781,23.699203],[121.298684,23.699112],[121.298782,23.699113],[121.298781,23.699203]],[[121.298195,23.699016],[121.298196,23.698926],[121.298392,23.698928],[121.298391,23.699018],[121.298195,23.699016]]],[[[121.312761,23.687256],[121.312469,23.687072],[121.312279,23.686619],[121.311689,23.686793],[121.311693,23.686432],[121.3114,23.686338],[121.311306,23.686066],[121.311108,23.686154],[121.311488,23.687152],[121.311587,23.687063],[121.311782,23.687155],[121.311982,23.686886],[121.312178,23.686889],[121.312175,23.687069],[121.31237,23.687162],[121.312266,23.687612],[121.312461,23.687704],[121.312556,23.687976],[121.312753,23.687888],[121.312761,23.687256]]],[[[121.310586,23.688677],[121.310983,23.68832],[121.310592,23.688226],[121.310293,23.688584],[121.310586,23.688677]]],[[[121.304166,23.692219],[121.303973,23.692036],[121.304073,23.691857],[121.303782,23.691583],[121.303586,23.691581],[121.303198,23.691305],[121.303002,23.691303],[121.303,23.691393],[121.302707,23.6913],[121.302608,23.691389],[121.302898,23.691754],[121.303094,23.691756],[121.303091,23.691936],[121.303285,23.692119],[121.303579,23.692122],[121.303578,23.692213],[121.303872,23.692216],[121.303871,23.692306],[121.304067,23.692308],[121.304166,23.692219]]],[[[121.307502,23.692075],[121.307503,23.691985],[121.3076,23.692076],[121.307798,23.691988],[121.307704,23.691626],[121.306917,23.691798],[121.30711,23.692071],[121.307306,23.692073],[121.307307,23.691982],[121.307502,23.692075]]],[[[121.305831,23.692418],[121.306327,23.691972],[121.305839,23.691786],[121.305747,23.691333],[121.305353,23.691419],[121.305153,23.691778],[121.305544,23.691873],[121.305637,23.692235],[121.305831,23.692418]]],[[[121.310056,23.691742],[121.30986,23.691739],[121.30976,23.691919],[121.310053,23.692012],[121.310051,23.692103],[121.310345,23.692106],[121.310446,23.691926],[121.310055,23.691832],[121.310056,23.691742]]],[[[121.310637,23.69229],[121.310833,23.692292],[121.310934,23.692112],[121.310544,23.691928],[121.310444,23.692107],[121.310637,23.69229]]],[[[121.303447,23.694739],[121.303253,23.694647],[121.303152,23.694827],[121.303347,23.694919],[121.303447,23.694739]]],[[[121.304721,23.694844],[121.30442,23.695382],[121.304615,23.695475],[121.304814,23.695206],[121.30501,23.695208],[121.305012,23.695118],[121.305206,23.69521],[121.305308,23.69494],[121.305504,23.694943],[121.305802,23.694675],[121.305706,23.694493],[121.305607,23.694583],[121.305215,23.694578],[121.305216,23.694488],[121.304724,23.694573],[121.304727,23.694392],[121.305124,23.694035],[121.305028,23.693854],[121.304829,23.694032],[121.304633,23.69403],[121.304237,23.694387],[121.304135,23.694657],[121.303939,23.694655],[121.30394,23.694564],[121.303743,23.694652],[121.303934,23.695016],[121.303639,23.695103],[121.303635,23.695374],[121.303733,23.695375],[121.303632,23.695644],[121.303827,23.695737],[121.303926,23.695648],[121.30383,23.695466],[121.304224,23.69538],[121.304227,23.695109],[121.304424,23.695021],[121.30433,23.694749],[121.304524,23.694932],[121.304721,23.694844]],[[121.304721,23.694844],[121.30482,23.694755],[121.304819,23.694845],[121.304721,23.694844]]],[[[121.303532,23.695824],[121.303725,23.696007],[121.303826,23.695827],[121.303631,23.695735],[121.303532,23.695824]]]]}},{"type":"Feature","properties":{"kind":"water","month":"2024-08","area_ha":3.0},"geometry":{"type":"MultiPolygon","coordinates":[[[[121.283387,23.691538],[121.283487,23.691449],[121.283389,23.691448],[121.283387,23.691538]]],[[[121.283777,23.691723],[121.283682,23.691542],[121.283485,23.69154],[121.283483,23.69172],[121.283777,23.691723]]],[[[121.283776,23.691814],[121.283875,23.691724],[121.283777,23.691723],[121.283776,23.691814]]],[[[121.284165,23.692089],[121.284167,23.691908],[121.283874,23.691815],[121.283872,23.691995],[121.284165,23.692089]]],[[[121.298728,23.695681],[121.298535,23.695498],[121.298537,23.695318],[121.298439,23.695317],[121.298437,23.695497],[121.298339,23.695496],[121.298432,23.695858],[121.298728,23.695681]]],[[[121.298528,23.69604],[121.298138,23.695855],[121.298134,23.696126],[121.298231,23.696217],[121.298428,23.696129],[121.298424,23.69649],[121.298522,23.696491],[121.298625,23.696131],[121.298723,23.696132],[121.298726,23.695862],[121.29853,23.695859],[121.298528,23.69604]]],[[[121.301944,23.697251],[121.30214,23.697254],[121.302141,23.697163],[121.301945,23.697161],[121.301944,23.697251]]],[[[121.30155,23.697428],[121.301255,23.697424],[121.301257,23.697334],[121.30057,23.697327],[121.300471,23.697416],[121.300472,23.697326],[121.300081,23.697231],[121.299981,23.69741],[121.299785,23.697408],[121.299586,23.697587],[121.2989,23.697579],[121.298899,23.697669],[121.298608,23.697395],[121.298602,23.697847],[121.298406,23.697845],[121.298305,23.698114],[121.298697,23.698119],[121.298895,23.69794],[121.299188,23.698034],[121.299191,23.697853],[121.299583,23.697858],[121.299584,23.697767],[121.299681,23.697859],[121.29978,23.697769],[121.300269,23.697865],[121.300173,23.697683],[121.300466,23.697777],[121.300567,23.697597],[121.300664,23.697689],[121.301645,23.697609],[121.301646,23.697519],[121.301942,23.697432],[121.301944,23.697251],[121.301748,23.697249],[121.30155,23.697428]]],[[[121.29858,23.699562],[121.298678,23.699563],[121.29868,23.699383],[121.298484,23.699381],[121.298482,23.699561],[121.298384,23.69956],[121.298377,23.700102],[121.298475,23.700103],[121.29858,23.699562]]],[[[121.311683,23.687244],[121.312173,23.68725],[121.312367,23.687432],[121.31237,23.687162],[121.312175,23.687069],[121.312178,23.686889],[121.311982,23.686886],[121.31188,23.687156],[121.311587,23.687063],[121.311389,23.687241],[121.311384,23.687602],[121.31158,23.687604],[121.311683,23.687244]]],[[[121.308893,23.690645],[121.308596,23.690913],[121.30869,23.691185],[121.308886,23.691187],[121.308893,23.690645]]],[[[121.308689,23.691275],[121.308493,23.691273],[121.308393,23.691453],[121.308589,23.691455],[121.308689,23.691275]]],[[[121.308192,23.691812],[121.308393,23.691453],[121.308097,23.69154],[121.308094,23.69181],[121.308192,23.691812]]],[[[121.304722,23.694753],[121.304819,23.694845],[121.30482,23.694755],[121.304722,23.694753]]],[[[121.30452,23.695203],[121.304618,23.695204],[121.304721,23.694844],[121.304423,23.695111],[121.304227,23.695109],[121.304223,23.69547],[121.304419,23.695473],[121.30452,23.695203]]],[[[121.303035,23.69627],[121.302837,23.696448],[121.302641,23.696446],[121.302734,23.696809],[121.30303,23.696721],[121.303035,23.69627]]],[[[121.302046,23.696982],[121.302141,23.697163],[121.302436,23.697166],[121.302537,23.696897],[121.302733,23.696899],[121.302734,23.696809],[121.30244,23.696805],[121.302439,23.696896],[121.302046,23.696982]]]]}}]}