{"type":"FeatureCollection","features":[{"type":"Feature","properties":{"kind":"bare_slide","month":"2025-03","area_ha":221.9},"geometry":{"type":"MultiPolygon","coordinates":[[[[121.298686,23.706516],[121.299083,23.70616],[121.299089,23.705708],[121.298991,23.705707],[121.298896,23.705435],[121.297916,23.705424],[121.297815,23.705604],[121.297422,23.70569],[121.29742,23.70587],[121.297713,23.705964],[121.297905,23.706237],[121.298004,23.706148],[121.298593,23.706154],[121.298686,23.706516]]],[[[121.294369,23.706649],[121.294664,23.706653],[121.294764,23.706473],[121.29457,23.706291],[121.294276,23.706287],[121.294277,23.706197],[121.293886,23.706102],[121.294283,23.705746],[121.294285,23.705565],[121.294189,23.705474],[121.293698,23.705468],[121.293599,23.705557],[121.293688,23.706281],[121.293489,23.706459],[121.293683,23.706642],[121.293977,23.706645],[121.293978,23.706555],[121.294371,23.706559],[121.294369,23.706649]]],[[[121.296874,23.710108],[121.296673,23.710467],[121.296868,23.71056],[121.297069,23.710201],[121.296874,23.710108]]],[[[121.297171,23.709931],[121.297367,23.709933],[121.297461,23.710205],[121.297656,23.710298],[121.297654,23.710478],[121.297849,23.710571],[121.297737,23.711653],[121.296755,23.711733],[121.296652,23.712093],[121.296749,23.712184],[121.296848,23.712095],[121.297437,23.712101],[121.297825,23.712376],[121.297925,23.712287],[121.297931,23.711836],[121.298326,23.711569],[121.298332,23.711118],[121.298631,23.71076],[121.298539,23.710307],[121.298345,23.710125],[121.298149,23.710122],[121.298054,23.709851],[121.297764,23.709576],[121.29747,23.709573],[121.297569,23.709484],[121.297475,23.709122],[121.297573,23.709123],[121.297676,23.708763],[121.297974,23.708495],[121.297878,23.708314],[121.29768,23.708492],[121.297484,23.70849],[121.297284,23.708758],[121.296893,23.708664],[121.296794,23.708753],[121.296888,23.709025],[121.296791,23.708934],[121.296594,23.709022],[121.296689,23.709294],[121.296295,23.70938],[121.295996,23.709738],[121.296092,23.709919],[121.296191,23.70983],[121.296682,23.709835],[121.296972,23.71011],[121.297171,23.709931]],[[121.298052,23.710031],[121.297953,23.71012],[121.297954,23.71003],[121.298052,23.710031]],[[121.29747,23.709573],[121.29737,23.709662],[121.297372,23.709572],[121.29747,23.709573]],[[121.297368,23.709843],[121.297271,23.709752],[121.297369,23.709753],[121.297368,23.709843]]],[[[121.289475,23.713458],[121.289186,23.713094],[121.288989,23.713182],[121.289278,23.713546],[121.289475,23.713458]]],[[[121.289277,23.713637],[121.289468,23.714],[121.28976,23.714184],[121.28986,23.714004],[121.289666,23.713912],[121.289668,23.713731],[121.289474,23.713548],[121.289277,23.713637]]],[[[121.284743,23.715392],[121.284548,23.7153],[121.284454,23.714938],[121.284066,23.714662],[121.28417,23.714212],[121.284565,23.713946],[121.28457,23.713584],[121.284375,23.713492],[121.284175,23.713761],[121.283979,23.713758],[121.282987,23.71465],[121.282883,23.715101],[121.283077,23.715284],[121.283273,23.715286],[121.28327,23.715466],[121.283464,23.715649],[121.283956,23.715564],[121.28406,23.715114],[121.284256,23.715116],[121.28425,23.715567],[121.284543,23.715661],[121.284542,23.715751],[121.284739,23.715663],[121.284743,23.715392]]],[[[121.295845,23.721384],[121.295051,23.722098],[121.295042,23.72282],[121.295334,23.723004],[121.295329,23.723365],[121.295813,23.723822],[121.29542,23.723908],[121.295327,23.723546],[121.295031,23.723633],[121.294931,23.723812],[121.295223,23.723996],[121.295219,23.724267],[121.295413,23.72445],[121.295707,23.724453],[121.295706,23.724543],[121.295805,23.724454],[121.296098,23.724548],[121.296398,23.7241],[121.296594,23.724102],[121.296787,23.724375],[121.296689,23.724374],[121.296685,23.724645],[121.29619,23.725],[121.296187,23.725271],[121.295893,23.725268],[121.295792,23.725447],[121.295107,23.72535],[121.29511,23.725079],[121.29482,23.724805],[121.294624,23.724802],[121.294326,23.72507],[121.294324,23.725251],[121.294422,23.725252],[121.294318,23.725702],[121.294415,23.725793],[121.294216,23.725972],[121.29451,23.725975],[121.294612,23.725705],[121.294905,23.725799],[121.294903,23.725979],[121.295393,23.725985],[121.295395,23.725804],[121.295789,23.725718],[121.295786,23.725899],[121.295884,23.7259],[121.295784,23.726079],[121.296075,23.726353],[121.296565,23.726359],[121.296566,23.726269],[121.296862,23.726182],[121.296676,23.725367],[121.296872,23.725369],[121.297171,23.725011],[121.297367,23.725013],[121.297266,23.725283],[121.297461,23.725375],[121.29756,23.725286],[121.297562,23.725106],[121.297464,23.725105],[121.297566,23.724835],[121.297859,23.724928],[121.297759,23.725018],[121.297847,23.725831],[121.298041,23.726014],[121.298237,23.726016],[121.298336,23.725927],[121.298245,23.725384],[121.29864,23.725208],[121.298546,23.724846],[121.298643,23.724937],[121.298841,23.724849],[121.298845,23.724488],[121.298747,23.724487],[121.298851,23.724036],[121.298559,23.723852],[121.298563,23.723582],[121.298756,23.723764],[121.299053,23.723587],[121.299241,23.724221],[121.299636,23.724045],[121.29964,23.723684],[121.299738,23.723685],[121.299546,23.723412],[121.29935,23.72341],[121.299351,23.723319],[121.298957,23.723405],[121.298862,23.723224],[121.298567,23.72322],[121.298269,23.723578],[121.298072,23.723576],[121.298075,23.723396],[121.298271,23.723398],[121.298469,23.723219],[121.298374,23.723038],[121.298081,23.722944],[121.298083,23.722764],[121.298869,23.722682],[121.299157,23.723137],[121.299354,23.723049],[121.299357,23.722868],[121.299843,23.723144],[121.299841,23.723325],[121.299743,23.723324],[121.299937,23.723506],[121.299835,23.723776],[121.300126,23.72405],[121.300323,23.723962],[121.300316,23.724504],[121.300413,23.724595],[121.30061,23.724507],[121.300613,23.724327],[121.300908,23.724239],[121.300816,23.723787],[121.301012,23.723789],[121.301108,23.723971],[121.301598,23.723976],[121.301693,23.724248],[121.301792,23.724159],[121.301988,23.724161],[121.301987,23.724251],[121.302478,23.724166],[121.30237,23.724978],[121.301783,23.724881],[121.301682,23.725061],[121.30129,23.725056],[121.301091,23.725235],[121.301088,23.725506],[121.301186,23.725507],[121.301077,23.726318],[121.301271,23.726501],[121.301568,23.726324],[121.301574,23.725872],[121.301673,23.725783],[121.301963,23.726057],[121.302165,23.725608],[121.302359,23.72579],[121.302557,23.725702],[121.302463,23.72534],[121.30286,23.724983],[121.302963,23.724623],[121.303354,23.724718],[121.303645,23.724992],[121.303346,23.72535],[121.303441,23.725531],[121.303639,23.725443],[121.303636,23.725624],[121.303141,23.72598],[121.303036,23.72652],[121.30323,23.726703],[121.303224,23.727154],[121.303418,23.727337],[121.303712,23.72734],[121.303812,23.727251],[121.303717,23.726979],[121.303915,23.726801],[121.303919,23.72653],[121.304215,23.726353],[121.304022,23.72617],[121.303934,23.725356],[121.30413,23.725358],[121.304127,23.725629],[121.304419,23.725813],[121.304416,23.725994],[121.304514,23.725995],[121.304412,23.726355],[121.304607,23.726447],[121.304708,23.726177],[121.304806,23.726179],[121.304618,23.725544],[121.305109,23.72555],[121.30521,23.72528],[121.305016,23.725097],[121.304623,23.725183],[121.304237,23.724728],[121.304039,23.724816],[121.30375,23.724451],[121.303554,23.724449],[121.303557,23.724178],[121.303264,23.724085],[121.303266,23.723904],[121.303564,23.723637],[121.303759,23.723729],[121.304157,23.723282],[121.30445,23.723375],[121.304546,23.723557],[121.304645,23.723468],[121.305332,23.723475],[121.305329,23.723656],[121.30562,23.72393],[121.305816,23.723932],[121.305919,23.723572],[121.306117,23.723394],[121.305922,23.723301],[121.305926,23.72303],[121.305633,23.722937],[121.305634,23.722847],[121.305437,23.722935],[121.30553,23.723297],[121.305236,23.723294],[121.304847,23.723019],[121.304849,23.722838],[121.305341,23.722753],[121.305244,23.722662],[121.305347,23.722302],[121.304858,23.722206],[121.304957,23.722117],[121.304863,23.721755],[121.304569,23.721751],[121.30457,23.721661],[121.304177,23.721747],[121.304467,23.722111],[121.304366,23.722291],[121.304269,23.722199],[121.303583,23.722192],[121.303484,23.722281],[121.303193,23.722007],[121.302506,23.722],[121.302509,23.721819],[121.302314,23.721727],[121.302318,23.721365],[121.302028,23.721091],[121.302032,23.72073],[121.302131,23.720731],[121.302334,23.720192],[121.302531,23.720104],[121.302343,23.719469],[121.302147,23.719467],[121.301849,23.719735],[121.301847,23.719915],[121.30165,23.720004],[121.30154,23.720905],[121.301442,23.720904],[121.301535,23.721266],[121.300942,23.721621],[121.300949,23.721079],[121.301246,23.720902],[121.301248,23.720722],[121.30086,23.720356],[121.300769,23.719813],[121.300382,23.719448],[121.300484,23.719088],[121.300386,23.719087],[121.300294,23.718634],[121.300392,23.718635],[121.300396,23.718364],[121.300695,23.718006],[121.300699,23.717645],[121.300601,23.717644],[121.300704,23.717284],[121.301198,23.717019],[121.301109,23.716295],[121.301407,23.716028],[121.301409,23.715847],[121.301214,23.715755],[121.301122,23.715302],[121.30122,23.715303],[121.301225,23.714942],[121.301323,23.714943],[121.301526,23.714404],[121.301723,23.714316],[121.301829,23.713685],[121.302124,23.713688],[121.302317,23.713871],[121.302411,23.714233],[121.302898,23.714509],[121.302895,23.71469],[121.302797,23.714689],[121.302892,23.71496],[121.303187,23.714873],[121.303283,23.715055],[121.303675,23.715059],[121.303768,23.715422],[121.30367,23.71542],[121.303468,23.71587],[121.304054,23.716057],[121.304052,23.716237],[121.304441,23.716513],[121.304439,23.716693],[121.304537,23.716694],[121.30443,23.717325],[121.304527,23.717416],[121.304723,23.717419],[121.304725,23.717328],[121.305116,23.717423],[121.305215,23.717334],[121.305311,23.717515],[121.305605,23.717519],[121.305699,23.71779],[121.305797,23.717792],[121.305794,23.718062],[121.305988,23.718245],[121.306283,23.718158],[121.306574,23.718432],[121.307169,23.717897],[121.307072,23.717806],[121.307173,23.717626],[121.307565,23.71763],[121.307564,23.717721],[121.307955,23.717815],[121.308252,23.717548],[121.308059,23.717365],[121.307665,23.717451],[121.307569,23.717269],[121.306982,23.717172],[121.306887,23.716991],[121.306592,23.716988],[121.306594,23.716897],[121.305808,23.716979],[121.305712,23.716797],[121.305613,23.716887],[121.305222,23.716792],[121.305022,23.717061],[121.304826,23.717059],[121.304632,23.716876],[121.304831,23.716697],[121.304743,23.715884],[121.304354,23.715609],[121.304359,23.715247],[121.304261,23.715246],[121.304072,23.714702],[121.303877,23.71461],[121.303881,23.714339],[121.304079,23.714161],[121.303884,23.714068],[121.303686,23.714247],[121.303096,23.714331],[121.303103,23.713789],[121.303005,23.713788],[121.302913,23.713335],[121.302816,23.713244],[121.302717,23.713333],[121.302128,23.713327],[121.302131,23.713146],[121.302033,23.713145],[121.302134,23.712875],[121.301841,23.712782],[121.301842,23.712691],[121.302235,23.712696],[121.302335,23.712516],[121.302043,23.712332],[121.302142,23.712243],[121.302047,23.712062],[121.301849,23.71215],[121.301754,23.711968],[121.301459,23.711965],[121.301468,23.711333],[121.301175,23.711239],[121.301179,23.710878],[121.300693,23.710602],[121.300506,23.709877],[121.300312,23.709695],[121.29992,23.70969],[121.299921,23.7096],[121.29953,23.709506],[121.29924,23.709141],[121.299043,23.709229],[121.299138,23.709501],[121.298939,23.70968],[121.299134,23.709772],[121.299333,23.709594],[121.299623,23.709868],[121.299619,23.710229],[121.299322,23.710406],[121.29932,23.710587],[121.299612,23.710771],[121.29981,23.710592],[121.299812,23.710412],[121.300107,23.710415],[121.300299,23.710688],[121.300495,23.71069],[121.300689,23.710873],[121.300686,23.711144],[121.300879,23.711326],[121.301075,23.711329],[121.301073,23.711509],[121.301171,23.71151],[121.30126,23.712234],[121.300864,23.7125],[121.300959,23.712772],[121.300661,23.71304],[121.300659,23.71322],[121.300949,23.713494],[121.300943,23.713946],[121.300746,23.714034],[121.30065,23.713852],[121.300454,23.71385],[121.300256,23.714029],[121.300252,23.714299],[121.299955,23.714567],[121.299946,23.715199],[121.299848,23.715198],[121.299746,23.715558],[121.299151,23.716003],[121.299149,23.716184],[121.299051,23.716182],[121.299146,23.716454],[121.29875,23.716721],[121.298547,23.71726],[121.298051,23.717707],[121.297854,23.717704],[121.297656,23.717883],[121.297453,23.718422],[121.297257,23.71842],[121.297255,23.71851],[121.297061,23.718418],[121.29696,23.718598],[121.29647,23.718592],[121.296371,23.718681],[121.296382,23.717778],[121.296284,23.717777],[121.296288,23.717507],[121.296093,23.717414],[121.295597,23.71786],[121.29579,23.718043],[121.295786,23.718404],[121.295981,23.718496],[121.295779,23.718946],[121.295584,23.718853],[121.295483,23.719033],[121.295188,23.71912],[121.295191,23.718849],[121.29539,23.718671],[121.295293,23.718579],[121.295096,23.718667],[121.295098,23.718487],[121.294903,23.718394],[121.294902,23.718485],[121.294608,23.718481],[121.294409,23.71866],[121.294407,23.71884],[121.293715,23.719284],[121.293513,23.719733],[121.293901,23.720009],[121.293996,23.720281],[121.294192,23.720283],[121.294189,23.720554],[121.294478,23.720918],[121.294675,23.72083],[121.294679,23.720559],[121.295076,23.720202],[121.295272,23.720204],[121.295167,23.720745],[121.29487,23.720922],[121.294868,23.721103],[121.294474,23.721189],[121.294471,23.72146],[121.293978,23.721635],[121.293786,23.721362],[121.29359,23.72136],[121.293396,23.721177],[121.293398,23.720996],[121.2933,23.720995],[121.293308,23.720363],[121.293406,23.720364],[121.293313,23.720002],[121.293216,23.719911],[121.292921,23.719998],[121.292923,23.719817],[121.292729,23.719634],[121.292733,23.719364],[121.292635,23.719363],[121.292734,23.719273],[121.292736,23.719093],[121.292638,23.719092],[121.292738,23.719002],[121.292641,23.718911],[121.292651,23.718099],[121.293147,23.717652],[121.29315,23.717472],[121.293546,23.717205],[121.293548,23.717025],[121.293844,23.716847],[121.293651,23.716665],[121.293849,23.716486],[121.293851,23.716306],[121.293951,23.716217],[121.294441,23.716222],[121.294838,23.715865],[121.29523,23.715869],[121.295222,23.716501],[121.295319,23.716593],[121.295516,23.716505],[121.295513,23.716776],[121.295315,23.716864],[121.295311,23.717225],[121.295506,23.717317],[121.295803,23.71705],[121.29581,23.716508],[121.296008,23.71642],[121.296014,23.715968],[121.296212,23.71579],[121.296215,23.715519],[121.296409,23.715702],[121.296607,23.715614],[121.2966,23.716155],[121.296501,23.716154],[121.296399,23.716514],[121.296003,23.716781],[121.295999,23.717052],[121.296291,23.717236],[121.29649,23.717057],[121.296493,23.716786],[121.296691,23.716698],[121.296796,23.716158],[121.296993,23.716069],[121.296898,23.715798],[121.297295,23.715441],[121.297102,23.715258],[121.2974,23.7149],[121.297306,23.714628],[121.297793,23.714904],[121.29779,23.715085],[121.297985,23.715177],[121.298079,23.71554],[121.298369,23.715814],[121.298762,23.715818],[121.298864,23.715458],[121.299062,23.71537],[121.299065,23.715099],[121.298385,23.71464],[121.298387,23.714459],[121.298681,23.714463],[121.298783,23.714193],[121.298294,23.714097],[121.298198,23.713916],[121.298002,23.713913],[121.297909,23.713461],[121.297715,23.713368],[121.297516,23.713547],[121.297509,23.714089],[121.297312,23.714177],[121.297309,23.714357],[121.297015,23.714354],[121.296816,23.714623],[121.29652,23.71471],[121.296518,23.71489],[121.296224,23.714887],[121.296124,23.714976],[121.296218,23.715339],[121.296022,23.715336],[121.295723,23.715694],[121.29543,23.715601],[121.295534,23.71515],[121.29534,23.714968],[121.29485,23.714962],[121.294853,23.714691],[121.295345,23.714607],[121.295543,23.714428],[121.295646,23.714068],[121.295941,23.713981],[121.296239,23.713713],[121.296143,23.713532],[121.296341,23.713444],[121.296344,23.713173],[121.296442,23.713174],[121.29645,23.712542],[121.296257,23.712359],[121.295961,23.712446],[121.295957,23.712807],[121.295858,23.712806],[121.295757,23.713076],[121.295267,23.713071],[121.295265,23.713161],[121.294971,23.713158],[121.29497,23.713248],[121.294775,23.713155],[121.294475,23.713604],[121.294181,23.7136],[121.293785,23.713867],[121.29359,23.713775],[121.293391,23.714043],[121.2929,23.714038],[121.293099,23.713859],[121.293003,23.713678],[121.292805,23.713856],[121.292608,23.713854],[121.29261,23.713764],[121.292216,23.71385],[121.292217,23.713759],[121.291826,23.713665],[121.291727,23.713754],[121.291823,23.713936],[121.29114,23.713657],[121.290937,23.714197],[121.290643,23.714193],[121.290641,23.714284],[121.290446,23.714191],[121.290248,23.71437],[121.290052,23.714368],[121.289956,23.714186],[121.28976,23.714184],[121.289562,23.714362],[121.289465,23.714271],[121.288974,23.714265],[121.288776,23.714444],[121.288286,23.714438],[121.28819,23.714257],[121.287602,23.71425],[121.287501,23.71443],[121.287012,23.714334],[121.287011,23.714424],[121.286029,23.714504],[121.285929,23.714683],[121.286122,23.714866],[121.286319,23.714868],[121.286117,23.715317],[121.285329,23.715579],[121.284932,23.715936],[121.284344,23.715839],[121.284146,23.716018],[121.284142,23.716289],[121.283946,23.716286],[121.283649,23.716554],[121.283646,23.716735],[121.283252,23.716911],[121.283249,23.717091],[121.283347,23.717093],[121.283343,23.717454],[121.283144,23.717632],[121.283235,23.718175],[121.283037,23.718353],[121.283033,23.718624],[121.282836,23.718712],[121.282832,23.718983],[121.282537,23.71907],[121.282533,23.719341],[121.282824,23.719615],[121.282428,23.719882],[121.281641,23.720053],[121.281635,23.720505],[121.281926,23.720779],[121.281924,23.72096],[121.282905,23.72088],[121.283701,23.720076],[121.283897,23.720078],[121.283793,23.720529],[121.283695,23.720528],[121.283789,23.7208],[121.283592,23.720888],[121.283688,23.721069],[121.283491,23.721067],[121.283192,23.721425],[121.283291,23.721426],[121.283288,23.721607],[121.283483,23.721699],[121.283578,23.721971],[121.283872,23.721974],[121.283972,23.721795],[121.284265,23.721889],[121.284263,23.722069],[121.284066,23.722157],[121.284061,23.722518],[121.284447,23.722974],[121.286016,23.722992],[121.286015,23.723082],[121.286309,23.723085],[121.286308,23.723175],[121.286699,23.72327],[121.286892,23.723543],[121.28709,23.723365],[121.287481,23.723459],[121.287283,23.723638],[121.28728,23.723818],[121.287571,23.724092],[121.287865,23.724096],[121.288056,23.724549],[121.288448,23.724554],[121.288541,23.724916],[121.288832,23.72519],[121.289028,23.725192],[121.289124,23.725374],[121.289321,23.725286],[121.289414,23.725648],[121.289709,23.725651],[121.28971,23.725561],[121.290395,23.725659],[121.290393,23.725839],[121.290785,23.725844],[121.290783,23.726024],[121.291175,23.726028],[121.291172,23.726209],[121.291565,23.726213],[121.291562,23.726394],[121.291959,23.726037],[121.292156,23.726039],[121.292349,23.726222],[121.292347,23.726403],[121.293427,23.726324],[121.293234,23.726051],[121.293037,23.726139],[121.292649,23.725774],[121.292256,23.72586],[121.292555,23.725502],[121.292849,23.725505],[121.293048,23.725327],[121.29305,23.725146],[121.292855,23.725054],[121.29286,23.724693],[121.293057,23.724604],[121.293062,23.724243],[121.292867,23.724151],[121.292869,23.72397],[121.293167,23.723703],[121.292979,23.723069],[121.29347,23.722984],[121.293571,23.722804],[121.293865,23.722807],[121.293866,23.722717],[121.294061,23.72281],[121.294261,23.722541],[121.294752,23.722456],[121.294952,23.722187],[121.294854,23.722186],[121.294859,23.721825],[121.294665,23.721642],[121.294862,23.721554],[121.295056,23.721737],[121.296048,23.720845],[121.296044,23.721206],[121.296237,23.721389],[121.295845,23.721384]],[[121.305022,23.717061],[121.305119,23.717152],[121.305021,23.717151],[121.305022,23.717061]],[[121.29388,23.721634],[121.294171,23.721908],[121.29407,23.722087],[121.293877,23.721905],[121.29388,23.721634]],[[121.29661,23.715343],[121.296708,23.715344],[121.296712,23.715073],[121.296909,23.714985],[121.297003,23.715257],[121.296705,23.715615],[121.296607,23.715614],[121.29661,23.715343]],[[121.284265,23.721889],[121.284364,23.721799],[121.284363,23.72189],[121.284265,23.721889]],[[121.292979,23.723069],[121.292882,23.722977],[121.29298,23.722978],[121.292979,23.723069]],[[121.294261,23.722541],[121.294164,23.72245],[121.294262,23.722451],[121.294261,23.722541]],[[121.296237,23.721389],[121.296334,23.72148],[121.296236,23.721479],[121.296237,23.721389]],[[121.296334,23.72148],[121.296431,23.721572],[121.296333,23.72157],[121.296334,23.72148]],[[121.296823,23.721576],[121.296723,23.721755],[121.29643,23.721662],[121.296431,23.721572],[121.296823,23.721576]],[[121.292545,23.726224],[121.292744,23.726046],[121.292838,23.726318],[121.292642,23.726316],[121.292545,23.726224]],[[121.301778,23.725242],[121.301777,23.725333],[121.30148,23.72551],[121.301482,23.725329],[121.301778,23.725242]],[[121.290988,23.725304],[121.29099,23.725123],[121.291089,23.725125],[121.291086,23.725305],[121.290988,23.725304]],[[121.298451,23.724664],[121.298058,23.72466],[121.298059,23.724569],[121.298356,23.724392],[121.298451,23.724664]],[[121.298258,23.724391],[121.298161,23.7243],[121.298259,23.724301],[121.298258,23.724391]],[[121.296983,23.724377],[121.296886,23.724286],[121.296984,23.724287],[121.296983,23.724377]],[[121.296104,23.724096],[121.296106,23.723916],[121.296204,23.723917],[121.296202,23.724097],[121.296104,23.724096]],[[121.29689,23.724015],[121.296793,23.723923],[121.296891,23.723924],[121.29689,23.724015]],[[121.297184,23.724018],[121.297186,23.723837],[121.297284,23.723838],[121.297282,23.724019],[121.297184,23.724018]],[[121.295819,23.723371],[121.29582,23.72328],[121.296017,23.723283],[121.296015,23.723373],[121.295819,23.723371]],[[121.30337,23.723454],[121.303273,23.723362],[121.303371,23.723364],[121.30337,23.723454]],[[121.301818,23.722173],[121.301728,23.721539],[121.301924,23.721542],[121.302215,23.721816],[121.302308,23.722178],[121.302503,23.72227],[121.302498,23.722632],[121.302596,23.722633],[121.302299,23.7229],[121.302296,23.723081],[121.302001,23.723168],[121.3019,23.723347],[121.301802,23.723346],[121.301806,23.723075],[121.301708,23.723074],[121.30172,23.722172],[121.301818,23.722173]],[[121.302588,23.723265],[121.302491,23.723173],[121.302589,23.723174],[121.302588,23.723265]],[[121.295829,23.722648],[121.296227,23.722201],[121.296423,23.722204],[121.296421,23.722384],[121.296223,23.722472],[121.296221,23.722653],[121.296022,23.722831],[121.296019,23.723102],[121.295628,23.723007],[121.295632,23.722646],[121.295829,23.722648]],[[121.296411,23.723106],[121.296413,23.722926],[121.29661,23.722928],[121.296607,23.723109],[121.296411,23.723106]],[[121.303377,23.722912],[121.303768,23.723007],[121.303668,23.723186],[121.303375,23.723093],[121.303377,23.722912]],[[121.303179,23.723091],[121.303082,23.722999],[121.30318,23.723],[121.303179,23.723091]],[[121.30387,23.722737],[121.304165,23.72265],[121.304261,23.722831],[121.304555,23.722835],[121.304553,23.723015],[121.304161,23.723011],[121.304162,23.722921],[121.303771,23.722826],[121.303773,23.722646],[121.30387,23.722737]],[[121.303773,23.722646],[121.303676,23.722554],[121.303774,23.722555],[121.303773,23.722646]],[[121.300926,23.722885],[121.300829,23.722794],[121.300927,23.722795],[121.300926,23.722885]],[[121.30289,23.722636],[121.302888,23.722816],[121.302985,23.722908],[121.302692,23.722814],[121.302694,23.722634],[121.30289,23.722636]],[[121.299267,23.722235],[121.299262,23.722596],[121.29936,23.722597],[121.299358,23.722778],[121.299163,23.722685],[121.299169,23.722234],[121.299267,23.722235]],[[121.297497,23.722577],[121.297596,23.722487],[121.297595,23.722578],[121.297497,23.722577]],[[121.297204,23.722483],[121.297205,23.722393],[121.29691,23.72248],[121.296913,23.722209],[121.297011,23.72221],[121.297014,23.722029],[121.297604,23.721855],[121.297607,23.721675],[121.297412,23.721582],[121.297414,23.721402],[121.297512,23.721403],[121.297803,23.721677],[121.297897,23.721949],[121.297799,23.721948],[121.297797,23.722128],[121.297498,23.722486],[121.297204,23.722483]],[[121.29868,23.722138],[121.298878,23.72196],[121.298973,23.722232],[121.29868,23.722138]],[[121.298291,23.721863],[121.298292,23.721773],[121.298488,23.721775],[121.298485,23.722046],[121.297995,23.72195],[121.297997,23.72186],[121.298291,23.721863]],[[121.29849,23.721594],[121.298594,23.721144],[121.298792,23.721056],[121.298687,23.721596],[121.29849,23.721594]],[[121.298795,23.720785],[121.298992,23.720697],[121.298995,23.720516],[121.29959,23.719981],[121.299786,23.719983],[121.299489,23.720251],[121.299386,23.720611],[121.299288,23.72061],[121.299381,23.720972],[121.29899,23.720877],[121.298792,23.721056],[121.298795,23.720785]],[[121.28388,23.721342],[121.283783,23.721251],[121.283881,23.721252],[121.28388,23.721342]],[[121.299081,23.72142],[121.299178,23.721511],[121.29908,23.72151],[121.299081,23.72142]],[[121.299179,23.721421],[121.299278,23.721332],[121.299277,23.721422],[121.299179,23.721421]],[[121.298004,23.721318],[121.297806,23.721406],[121.29781,23.721135],[121.298006,23.721137],[121.298004,23.721318]],[[121.297125,23.721037],[121.297221,23.721129],[121.297123,23.721128],[121.297125,23.721037]],[[121.297223,23.721038],[121.297322,23.720949],[121.297321,23.72104],[121.297223,23.721038]],[[121.29145,23.719982],[121.291447,23.720162],[121.291054,23.720248],[121.291156,23.719978],[121.29145,23.719982]],[[121.292819,23.720268],[121.292722,23.720176],[121.29282,23.720177],[121.292819,23.720268]],[[121.298213,23.720327],[121.298116,23.720236],[121.298214,23.720237],[121.298213,23.720327]],[[121.294784,23.720018],[121.294684,23.720198],[121.294585,23.720197],[121.294588,23.720016],[121.294784,23.720018]],[[121.291645,23.720074],[121.291647,23.719893],[121.291745,23.719894],[121.291743,23.720075],[121.291645,23.720074]],[[121.295084,23.71957],[121.294887,23.719658],[121.294589,23.719926],[121.294594,23.719565],[121.294692,23.719566],[121.294793,23.719296],[121.294987,23.719479],[121.295183,23.719481],[121.295181,23.719661],[121.295084,23.71957]],[[121.294891,23.719297],[121.294991,23.719208],[121.294989,23.719298],[121.294891,23.719297]],[[121.295279,23.719663],[121.295277,23.719843],[121.29508,23.719841],[121.295082,23.719751],[121.295279,23.719663]],[[121.298716,23.719339],[121.298914,23.719161],[121.298917,23.71898],[121.299114,23.718892],[121.299319,23.718172],[121.299518,23.717994],[121.29991,23.717998],[121.300109,23.717819],[121.299997,23.718902],[121.300095,23.718903],[121.300188,23.719265],[121.299991,23.719353],[121.299987,23.719624],[121.299203,23.719615],[121.299102,23.719795],[121.298906,23.719793],[121.298907,23.719703],[121.298612,23.71979],[121.29852,23.719337],[121.298716,23.719339]],[[121.285083,23.719369],[121.285086,23.719098],[121.285285,23.71892],[121.285674,23.719195],[121.285375,23.719553],[121.285083,23.719369]],[[121.292046,23.719356],[121.29224,23.719539],[121.291749,23.719624],[121.291751,23.719443],[121.292046,23.719356]],[[121.29783,23.7196],[121.297927,23.719692],[121.297829,23.719691],[121.29783,23.7196]],[[121.297928,23.719601],[121.298027,23.719512],[121.298026,23.719603],[121.297928,23.719601]],[[121.295678,23.719125],[121.295676,23.719306],[121.295479,23.719394],[121.295481,23.719213],[121.295678,23.719125]],[[121.29254,23.719091],[121.292443,23.718999],[121.292541,23.719],[121.29254,23.719091]],[[121.298228,23.719153],[121.298131,23.719062],[121.298229,23.719063],[121.298228,23.719153]],[[121.294601,23.719023],[121.294504,23.718932],[121.294602,23.718933],[121.294601,23.719023]],[[121.297745,23.718606],[121.297747,23.718426],[121.297845,23.718427],[121.297843,23.718607],[121.297745,23.718606]],[[121.283924,23.718002],[121.283827,23.717911],[121.283925,23.717912],[121.283924,23.718002]],[[121.306779,23.717712],[121.306679,23.717892],[121.306581,23.71789],[121.306583,23.71771],[121.306779,23.717712]],[[121.299819,23.717455],[121.300116,23.717278],[121.300119,23.717007],[121.300217,23.717008],[121.300225,23.716376],[121.300423,23.716288],[121.300525,23.715928],[121.300822,23.71575],[121.300912,23.716383],[121.300814,23.716382],[121.300809,23.716744],[121.300611,23.716922],[121.300607,23.717193],[121.300313,23.71719],[121.30021,23.71755],[121.299718,23.717725],[121.299819,23.717455]],[[121.28374,23.717097],[121.283742,23.716916],[121.28384,23.716917],[121.283838,23.717098],[121.28374,23.717097]],[[121.284536,23.716203],[121.284439,23.716111],[121.284537,23.716112],[121.284536,23.716203]],[[121.301023,23.715391],[121.300926,23.7153],[121.301024,23.715301],[121.301023,23.715391]],[[121.301238,23.713949],[121.301235,23.71413],[121.301038,23.714218],[121.30104,23.714037],[121.301238,23.713949]],[[121.301643,23.71296],[121.301546,23.712869],[121.301644,23.71287],[121.301643,23.71296]],[[121.301845,23.712511],[121.301748,23.71242],[121.301846,23.712421],[121.301845,23.712511]]],[[[121.29924,23.701646],[121.299243,23.701375],[121.298753,23.70137],[121.298657,23.701188],[121.297971,23.701181],[121.298054,23.702356],[121.298248,23.702448],[121.298433,23.703353],[121.299111,23.703993],[121.299103,23.704625],[121.299005,23.704624],[121.299001,23.704894],[121.298903,23.704893],[121.298995,23.705346],[121.299193,23.705258],[121.299196,23.704987],[121.299294,23.704988],[121.299497,23.704448],[121.299695,23.70436],[121.299701,23.703909],[121.299602,23.703908],[121.299605,23.703727],[121.29941,23.703635],[121.299412,23.703454],[121.299218,23.703271],[121.299224,23.70282],[121.299029,23.702728],[121.299129,23.702638],[121.299141,23.701645],[121.29924,23.701646]],[[121.299029,23.702728],[121.29893,23.702817],[121.298931,23.702727],[121.299029,23.702728]],[[121.299019,23.70354],[121.298922,23.703449],[121.29902,23.70345],[121.299019,23.70354]],[[121.298554,23.701549],[121.298654,23.701459],[121.298652,23.70155],[121.298554,23.701549]],[[121.298556,23.701458],[121.298459,23.701367],[121.298557,23.701368],[121.298556,23.701458]]],[[[121.298774,23.70733],[121.298677,23.707239],[121.298683,23.706787],[121.298586,23.706696],[121.298093,23.706871],[121.298481,23.707237],[121.298574,23.707599],[121.29877,23.707601],[121.298771,23.707511],[121.298966,23.707603],[121.298767,23.707872],[121.29906,23.707965],[121.299154,23.708237],[121.299253,23.708148],[121.29935,23.708239],[121.299842,23.708155],[121.299937,23.708336],[121.300133,23.708338],[121.300529,23.708072],[121.300528,23.708162],[121.301016,23.708348],[121.300913,23.708708],[121.301206,23.708802],[121.301505,23.708444],[121.301216,23.708079],[121.300628,23.707983],[121.300632,23.707712],[121.300731,23.707622],[121.301122,23.707717],[121.30142,23.707449],[121.301714,23.707453],[121.302012,23.707185],[121.302015,23.706914],[121.301725,23.70664],[121.30143,23.706637],[121.301328,23.706997],[121.301231,23.706906],[121.301033,23.706994],[121.30084,23.706811],[121.300055,23.706802],[121.300054,23.706893],[121.29976,23.706889],[121.299263,23.707426],[121.298774,23.70733]],[[121.299263,23.707426],[121.29936,23.707517],[121.299261,23.707516],[121.299263,23.707426]],[[121.300339,23.707618],[121.300335,23.707889],[121.300139,23.707887],[121.300045,23.707615],[121.300339,23.707618]],[[121.300051,23.707164],[121.299954,23.707072],[121.300052,23.707073],[121.300051,23.707164]],[[121.301129,23.707175],[121.301032,23.707084],[121.30113,23.707085],[121.301129,23.707175]]],[[[121.309968,23.713774],[121.310164,23.713776],[121.310363,23.713597],[121.310273,23.712964],[121.310079,23.712782],[121.309882,23.71287],[121.309878,23.713141],[121.310072,23.713323],[121.309873,23.713592],[121.309776,23.713501],[121.309187,23.713494],[121.309088,23.713584],[121.309184,23.713765],[121.309772,23.713772],[121.309773,23.713681],[121.30997,23.713683],[121.309968,23.713774]]],[[[121.306367,23.719243],[121.306465,23.719244],[121.30647,23.718883],[121.306567,23.718974],[121.306764,23.718886],[121.306669,23.718614],[121.306276,23.7187],[121.306082,23.718517],[121.305983,23.718606],[121.306079,23.718788],[121.305785,23.718785],[121.305683,23.719055],[121.305486,23.719143],[121.3052,23.718507],[121.305102,23.718506],[121.305105,23.718235],[121.305203,23.718237],[121.305009,23.718054],[121.305113,23.717603],[121.304918,23.717511],[121.304818,23.717691],[121.304523,23.717778],[121.30452,23.717958],[121.304812,23.718142],[121.304713,23.718231],[121.304706,23.718773],[121.304901,23.718865],[121.304897,23.719136],[121.304799,23.719135],[121.304895,23.719317],[121.305288,23.719231],[121.305579,23.719505],[121.306069,23.71951],[121.306263,23.719693],[121.306367,23.719243]]],[[[121.305509,23.724922],[121.30521,23.72528],[121.305601,23.725375],[121.305695,23.725737],[121.305891,23.725739],[121.305892,23.725649],[121.306381,23.725744],[121.306382,23.725654],[121.306678,23.725567],[121.306681,23.725296],[121.306977,23.725209],[121.306882,23.724937],[121.30639,23.725022],[121.306295,23.72484],[121.306001,23.724837],[121.3059,23.725017],[121.305803,23.724925],[121.305509,23.724922]],[[121.305998,23.725018],[121.306092,23.72538],[121.305797,23.725377],[121.305801,23.725106],[121.305998,23.725018]]],[[[121.305887,23.72601],[121.305886,23.7261],[121.30569,23.726098],[121.305294,23.726364],[121.305388,23.726727],[121.305685,23.726459],[121.306176,23.726464],[121.306175,23.726555],[121.306469,23.726558],[121.306468,23.726648],[121.306665,23.72656],[121.306473,23.726197],[121.306277,23.726195],[121.306182,23.726013],[121.305887,23.72601]],[[121.306277,23.726195],[121.306178,23.726284],[121.306179,23.726194],[121.306277,23.726195]]],[[[121.305961,23.727907],[121.305572,23.727632],[121.305479,23.727269],[121.305091,23.726904],[121.304797,23.726901],[121.30441,23.726445],[121.304213,23.726533],[121.304504,23.726807],[121.3045,23.727078],[121.30489,23.727263],[121.304888,23.727444],[121.305083,23.727536],[121.305081,23.727717],[121.305468,23.728082],[121.30586,23.728086],[121.305961,23.727907]]],[[[121.30331,23.728149],[121.30341,23.727969],[121.303216,23.727786],[121.302825,23.727692],[121.303123,23.727424],[121.303027,23.727243],[121.302831,23.72724],[121.302637,23.727058],[121.302535,23.727328],[121.302339,23.727325],[121.301952,23.72696],[121.301754,23.727048],[121.301752,23.727229],[121.301947,23.727321],[121.301944,23.727592],[121.301847,23.727501],[121.301649,23.727589],[121.30184,23.728042],[121.302135,23.727955],[121.302231,23.728137],[121.302819,23.728143],[121.302818,23.728234],[121.30331,23.728149]]]]}},{"type":"Feature","properties":{"kind":"bare_dam","month":"2025-03","area_ha":28.64},"geometry":{"type":"MultiPolygon","coordinates":[[[[121.298708,23.689721],[121.298607,23.6899],[121.298117,23.689895],[121.297522,23.69043],[121.297515,23.690972],[121.297807,23.691156],[121.297797,23.691878],[121.297991,23.692061],[121.298187,23.692063],[121.297987,23.692332],[121.298476,23.692427],[121.298566,23.693061],[121.298956,23.693245],[121.298953,23.693516],[121.298657,23.693603],[121.298553,23.694054],[121.298747,23.694236],[121.298943,23.694239],[121.299232,23.694693],[121.299429,23.694605],[121.299428,23.694695],[121.299918,23.694701],[121.300014,23.694882],[121.30021,23.694885],[121.30031,23.694705],[121.300116,23.694522],[121.30041,23.694526],[121.300604,23.694708],[121.300705,23.694529],[121.30051,23.694436],[121.300512,23.694256],[121.300806,23.694259],[121.300805,23.694349],[121.301392,23.694446],[121.301586,23.694629],[121.301679,23.694991],[121.301878,23.694813],[121.302073,23.694905],[121.302174,23.694635],[121.301883,23.694361],[121.301687,23.694359],[121.301497,23.693905],[121.301303,23.693723],[121.301107,23.693721],[121.300916,23.693357],[121.300719,23.693445],[121.300625,23.693083],[121.300333,23.692899],[121.300434,23.69272],[121.300239,23.692627],[121.300038,23.692986],[121.299645,23.693072],[121.299647,23.692892],[121.299357,23.692618],[121.299753,23.692261],[121.299463,23.691987],[121.299166,23.692164],[121.299169,23.691984],[121.298587,23.691435],[121.298194,23.691521],[121.298198,23.69125],[121.2981,23.691249],[121.2982,23.69107],[121.298103,23.690979],[121.297906,23.691067],[121.297812,23.690704],[121.298206,23.690618],[121.298109,23.690527],[121.29821,23.690257],[121.298699,23.690353],[121.299096,23.689996],[121.299488,23.69],[121.299682,23.690183],[121.299484,23.690362],[121.299481,23.690542],[121.299675,23.690725],[121.300067,23.690729],[121.30026,23.691002],[121.300555,23.690915],[121.300749,23.691098],[121.300647,23.691368],[121.300353,23.691364],[121.300258,23.691183],[121.299864,23.691269],[121.299769,23.691087],[121.299474,23.691084],[121.299282,23.690811],[121.29889,23.690807],[121.298891,23.690716],[121.298695,23.690714],[121.298694,23.690804],[121.298401,23.690711],[121.2983,23.69089],[121.298397,23.690982],[121.298594,23.690894],[121.298688,23.691256],[121.299075,23.691621],[121.299469,23.691535],[121.299467,23.691626],[121.300643,23.691729],[121.300743,23.691549],[121.301036,23.691643],[121.301235,23.691464],[121.301233,23.691555],[121.301526,23.691648],[121.301425,23.691918],[121.301717,23.692102],[121.301816,23.692013],[121.30172,23.691831],[121.302014,23.691834],[121.302412,23.691387],[121.302704,23.691571],[121.302504,23.69184],[121.302993,23.691935],[121.303094,23.691756],[121.3029,23.691573],[121.303198,23.691305],[121.303004,23.691123],[121.302416,23.691116],[121.302417,23.691026],[121.30222,23.691114],[121.302124,23.690932],[121.301927,23.691021],[121.301443,23.690473],[121.302423,23.690574],[121.302424,23.690484],[121.302718,23.690487],[121.302818,23.690308],[121.302721,23.690217],[121.302231,23.690211],[121.302232,23.690121],[121.301937,23.690208],[121.301938,23.690118],[121.301742,23.690116],[121.301843,23.689936],[121.301058,23.689927],[121.300865,23.689745],[121.300276,23.689738],[121.300275,23.689829],[121.300178,23.689737],[121.298708,23.689721]],[[121.300719,23.693445],[121.300619,23.693535],[121.300621,23.693444],[121.300719,23.693445]],[[121.300079,23.689826],[121.30037,23.6901],[121.300073,23.690278],[121.299881,23.690005],[121.300079,23.689826]],[[121.299345,23.693521],[121.299248,23.693429],[121.299346,23.69343],[121.299345,23.693521]],[[121.298678,23.691978],[121.298582,23.691887],[121.29868,23.691888],[121.298678,23.691978]],[[121.298484,23.691886],[121.298387,23.691794],[121.298485,23.691795],[121.298484,23.691886]],[[121.301238,23.691194],[121.301236,23.691374],[121.300845,23.69128],[121.300846,23.691189],[121.301238,23.691194]]],[[[121.301281,23.695438],[121.301672,23.695533],[121.301671,23.695623],[121.301965,23.695626],[121.301964,23.695717],[121.302161,23.695628],[121.301871,23.695354],[121.301776,23.695082],[121.301578,23.695261],[121.301089,23.695165],[121.30089,23.695344],[121.30108,23.695797],[121.301278,23.695709],[121.301281,23.695438]]],[[[121.299707,23.695872],[121.299805,23.695873],[121.29981,23.695422],[121.299324,23.695146],[121.299222,23.695415],[121.29932,23.695417],[121.29941,23.69605],[121.299605,23.696142],[121.299707,23.695872]]],[[[121.299494,23.697134],[121.299398,23.696953],[121.299202,23.69695],[121.299205,23.69677],[121.299107,23.696769],[121.299207,23.696589],[121.298915,23.696405],[121.298919,23.696135],[121.299116,23.696046],[121.299118,23.695866],[121.29902,23.695865],[121.299027,23.695323],[121.298736,23.695139],[121.298838,23.694779],[121.298643,23.694687],[121.298543,23.694866],[121.298248,23.694953],[121.298253,23.694502],[121.298452,23.694323],[121.298455,23.694053],[121.29826,23.69396],[121.29816,23.69414],[121.297865,23.694227],[121.297958,23.694589],[121.297665,23.694495],[121.297564,23.694765],[121.297466,23.694764],[121.297461,23.695125],[121.297656,23.695218],[121.297654,23.695398],[121.297555,23.695397],[121.297649,23.695759],[121.297551,23.695758],[121.297449,23.696028],[121.297839,23.696213],[121.297737,23.696483],[121.297932,23.696575],[121.298025,23.697028],[121.298315,23.697302],[121.298215,23.697481],[121.29841,23.697574],[121.298202,23.698474],[121.297904,23.698742],[121.2979,23.699103],[121.297802,23.699102],[121.297896,23.699374],[121.298391,23.699018],[121.298393,23.698838],[121.298592,23.698659],[121.298496,23.698478],[121.298889,23.698392],[121.298699,23.697938],[121.298898,23.69776],[121.29929,23.697764],[121.299488,23.697586],[121.299295,23.697403],[121.299297,23.697222],[121.299494,23.697134]],[[121.299295,23.697403],[121.299195,23.697492],[121.299196,23.697402],[121.299295,23.697403]],[[121.299101,23.69722],[121.299004,23.697129],[121.299102,23.69713],[121.299101,23.69722]],[[121.298433,23.695768],[121.298436,23.695587],[121.298632,23.69559],[121.298629,23.69577],[121.298433,23.695768]]],[[[121.302139,23.697344],[121.302437,23.697076],[121.302439,23.696896],[121.302635,23.696898],[121.302634,23.696988],[121.302831,23.6969],[121.302444,23.696534],[121.302543,23.696445],[121.302447,23.696264],[121.302151,23.696441],[121.302246,23.696623],[121.302148,23.696622],[121.302145,23.696892],[121.301848,23.69707],[121.301846,23.69725],[121.302139,23.697344]]],[[[121.300078,23.697502],[121.300373,23.697415],[121.300179,23.697232],[121.300184,23.696871],[121.299891,23.696777],[121.299796,23.696505],[121.299602,23.696413],[121.2995,23.696683],[121.299695,23.696775],[121.299687,23.697407],[121.299784,23.697499],[121.300079,23.697411],[121.300078,23.697502]]],[[[121.300557,23.69832],[121.301147,23.698236],[121.301446,23.697878],[121.301349,23.697787],[121.300955,23.697873],[121.300665,23.697599],[121.300664,23.697689],[121.30037,23.697686],[121.300368,23.697776],[121.300172,23.697774],[121.300072,23.697953],[121.299876,23.697951],[121.299677,23.698129],[121.299773,23.698311],[121.300459,23.698319],[121.300461,23.698228],[121.300557,23.69832]]],[[[121.298372,23.700463],[121.299157,23.700472],[121.298966,23.700018],[121.298868,23.700017],[121.298872,23.699746],[121.298774,23.699745],[121.298776,23.699564],[121.298874,23.699565],[121.298779,23.699384],[121.298976,23.699296],[121.29888,23.699114],[121.298584,23.699291],[121.298679,23.699473],[121.298385,23.69947],[121.298187,23.699648],[121.298184,23.699829],[121.298282,23.69983],[121.298181,23.7001],[121.298278,23.700191],[121.297884,23.700277],[121.297882,23.700458],[121.298274,23.700462],[121.298275,23.700372],[121.298372,23.700463]]],[[[121.312271,23.687251],[121.312367,23.687432],[121.312663,23.687255],[121.312569,23.686983],[121.312471,23.686982],[121.312571,23.686803],[121.312278,23.686709],[121.312279,23.686619],[121.312083,23.686617],[121.311983,23.686796],[121.311886,23.686705],[121.311689,23.686793],[121.311692,23.686522],[121.3114,23.686338],[121.311405,23.685977],[121.31121,23.685885],[121.311212,23.685704],[121.310723,23.685608],[121.310622,23.685878],[121.31072,23.685879],[121.310813,23.686242],[121.311106,23.686335],[121.311201,23.686607],[121.311492,23.686791],[121.311289,23.68733],[121.311484,23.687423],[121.311486,23.687332],[121.311879,23.687246],[121.311978,23.687157],[121.311883,23.686885],[121.312274,23.68698],[121.312371,23.687071],[121.312369,23.687252],[121.312271,23.687251]],[[121.312274,23.68698],[121.312374,23.686891],[121.312372,23.686981],[121.312274,23.68698]]],[[[121.309405,23.689025],[121.309504,23.688936],[121.309408,23.688755],[121.308917,23.68884],[121.309109,23.689113],[121.309405,23.689025]]],[[[121.308911,23.689291],[121.308716,23.689199],[121.308916,23.68893],[121.308624,23.688746],[121.308522,23.689016],[121.308424,23.689015],[121.308421,23.689286],[121.308614,23.689468],[121.308811,23.68947],[121.308911,23.689291]]],[[[121.3088,23.690283],[121.308606,23.6901],[121.30861,23.689829],[121.308317,23.689736],[121.308215,23.690006],[121.30841,23.690098],[121.308408,23.690279],[121.308602,23.690462],[121.3088,23.690283]]],[[[121.304547,23.693126],[121.304745,23.692948],[121.304748,23.692767],[121.304455,23.692674],[121.304456,23.692583],[121.304848,23.692588],[121.304941,23.69295],[121.305334,23.692954],[121.305434,23.692775],[121.30524,23.692592],[121.305836,23.692057],[121.306029,23.692239],[121.306227,23.692151],[121.306034,23.691878],[121.305838,23.691876],[121.30584,23.691695],[121.305938,23.691697],[121.305843,23.691515],[121.305352,23.69151],[121.305055,23.691777],[121.305052,23.691958],[121.304758,23.691955],[121.304262,23.692401],[121.304357,23.692673],[121.304158,23.692851],[121.304547,23.693126]],[[121.304848,23.692588],[121.304947,23.692498],[121.304946,23.692589],[121.304848,23.692588]],[[121.304353,23.692943],[121.304452,23.692854],[121.304451,23.692944],[121.304353,23.692943]]],[[[121.304059,23.69294],[121.303864,23.692848],[121.304063,23.692669],[121.304065,23.692489],[121.303772,23.692395],[121.303673,23.692484],[121.303669,23.692755],[121.303767,23.692756],[121.303667,23.692936],[121.303861,23.693119],[121.304059,23.69294]]],[[[121.303543,23.694921],[121.303253,23.694647],[121.302762,23.694642],[121.302665,23.69455],[121.302566,23.69464],[121.302662,23.694821],[121.302465,23.694909],[121.302462,23.69509],[121.302656,23.695273],[121.302853,23.695184],[121.302949,23.695366],[121.30334,23.695461],[121.303439,23.695371],[121.303345,23.6951],[121.303543,23.694921]],[[121.303051,23.695096],[121.302857,23.694914],[121.303346,23.695009],[121.303345,23.6951],[121.303051,23.695096]]],[[[121.304221,23.695561],[121.304514,23.695654],[121.304714,23.695385],[121.305305,23.695211],[121.305901,23.694586],[121.305706,23.694493],[121.305705,23.694584],[121.305411,23.69458],[121.305212,23.694759],[121.304821,23.694664],[121.304423,23.695111],[121.304131,23.694928],[121.304037,23.694656],[121.303841,23.694653],[121.303642,23.694832],[121.30403,23.695197],[121.30383,23.695466],[121.304024,23.695649],[121.30422,23.695651],[121.304221,23.695561]],[[121.304223,23.69547],[121.304225,23.69529],[121.304323,23.695291],[121.304321,23.695471],[121.304223,23.69547]]]]}},{"type":"Feature","properties":{"kind":"water","month":"2025-03","area_ha":3.48},"geometry":{"type":"MultiPolygon","coordinates":[[[[121.283004,23.690902],[121.28291,23.69054],[121.282615,23.690627],[121.282809,23.69081],[121.282806,23.69099],[121.283004,23.690902]]],[[[121.284068,23.691997],[121.283873,23.691905],[121.283869,23.692176],[121.28416,23.69245],[121.284068,23.691997]]],[[[121.290084,23.69685],[121.289695,23.696575],[121.289692,23.696846],[121.289886,23.697028],[121.290082,23.69703],[121.290084,23.69685]]],[[[121.290176,23.697302],[121.290273,23.697394],[121.290469,23.697396],[121.290472,23.697215],[121.290275,23.697213],[121.290278,23.697033],[121.290082,23.69703],[121.290176,23.697302]]],[[[121.291341,23.698218],[121.29144,23.698129],[121.291342,23.698128],[121.291341,23.698218]]],[[[121.291633,23.698402],[121.291634,23.698312],[121.291927,23.698405],[121.292021,23.698677],[121.292219,23.698589],[121.291929,23.698225],[121.291538,23.69813],[121.291438,23.69831],[121.291633,23.698402]]],[[[121.292416,23.698501],[121.292219,23.698589],[121.292216,23.69877],[121.292412,23.698772],[121.292416,23.698501]]],[[[121.294471,23.698795],[121.294473,23.698704],[121.29408,23.6987],[121.294078,23.698881],[121.294372,23.698884],[121.294566,23.699067],[121.294668,23.698797],[121.294471,23.698795]]],[[[121.295347,23.699346],[121.295646,23.698988],[121.295842,23.69899],[121.295746,23.698809],[121.295353,23.698895],[121.295252,23.699074],[121.294764,23.698888],[121.29476,23.699249],[121.295347,23.699346]]],[[[121.311977,23.687248],[121.312269,23.687431],[121.312371,23.687071],[121.311883,23.686885],[121.311977,23.687248]]],[[[121.311977,23.687248],[121.311683,23.687244],[121.311682,23.687335],[121.311976,23.687338],[121.311977,23.687248]]],[[[121.308787,23.691276],[121.308884,23.691368],[121.308885,23.691277],[121.308787,23.691276]]],[[[121.308785,23.691457],[121.308688,23.691365],[121.308687,23.691456],[121.308785,23.691457]]],[[[121.308092,23.691991],[121.30849,23.691544],[121.308686,23.691546],[121.308687,23.691456],[121.308196,23.691541],[121.307996,23.691809],[121.307801,23.691717],[121.307896,23.691989],[121.308092,23.691991]]],[[[121.307402,23.692254],[121.307501,23.692165],[121.307503,23.691985],[121.307209,23.691981],[121.30701,23.69225],[121.306815,23.692158],[121.306812,23.692338],[121.307107,23.692341],[121.307108,23.692251],[121.307402,23.692254]]],[[[121.298293,23.699017],[121.297698,23.699553],[121.297796,23.699554],[121.297792,23.699824],[121.297989,23.699736],[121.297986,23.700007],[121.298085,23.699918],[121.29828,23.70001],[121.298187,23.699648],[121.298285,23.699649],[121.298287,23.699469],[121.298679,23.699473],[121.298582,23.699382],[121.298684,23.699112],[121.29888,23.699114],[121.298884,23.698843],[121.29918,23.698666],[121.299086,23.698394],[121.29928,23.698486],[121.299382,23.698217],[121.299578,23.698219],[121.29958,23.698038],[121.299775,23.698131],[121.299778,23.69795],[121.300072,23.697953],[121.300074,23.697773],[121.300664,23.697689],[121.300961,23.697421],[121.300275,23.697414],[121.300274,23.697504],[121.299981,23.69741],[121.299979,23.697591],[121.299784,23.697499],[121.299683,23.697678],[121.298898,23.69776],[121.298796,23.698029],[121.298993,23.697941],[121.298986,23.698483],[121.298595,23.698388],[121.298496,23.698478],[121.298592,23.698659],[121.298494,23.698658],[121.298391,23.699018],[121.298293,23.699017]],[[121.30037,23.697686],[121.300273,23.697594],[121.300371,23.697595],[121.30037,23.697686]],[[121.298292,23.699108],[121.298389,23.699199],[121.298291,23.699198],[121.298292,23.699108]],[[121.298189,23.699468],[121.298092,23.699376],[121.29819,23.699377],[121.298189,23.699468]],[[121.298788,23.698662],[121.298691,23.69857],[121.298789,23.698571],[121.298788,23.698662]],[[121.299188,23.698034],[121.299091,23.697942],[121.299189,23.697944],[121.299188,23.698034]]],[[[121.297887,23.700096],[121.297986,23.700007],[121.297888,23.700006],[121.297887,23.700096]]],[[[121.298084,23.700008],[121.298082,23.700189],[121.298278,23.700191],[121.298279,23.700101],[121.298084,23.700008]]]]}}]}