{"type":"FeatureCollection","features":[{"type":"Feature","properties":{"kind":"bare_slide","month":"2025-02","area_ha":41.91},"geometry":{"type":"MultiPolygon","coordinates":[[[[121.294466,23.706741],[121.294764,23.706473],[121.29457,23.706291],[121.294276,23.706287],[121.29418,23.706106],[121.293886,23.706102],[121.293987,23.705923],[121.294282,23.705836],[121.294285,23.705565],[121.294092,23.705382],[121.293698,23.705468],[121.293599,23.705557],[121.293688,23.706281],[121.293489,23.706459],[121.293683,23.706642],[121.293977,23.706645],[121.293978,23.706555],[121.294272,23.706558],[121.294466,23.706741]]],[[[121.297338,23.71219],[121.297632,23.712194],[121.297727,23.712375],[121.297925,23.712287],[121.29803,23.711747],[121.298325,23.711659],[121.298133,23.711386],[121.29833,23.711298],[121.298434,23.710848],[121.298532,23.710849],[121.298633,23.710579],[121.298535,23.710578],[121.298539,23.710307],[121.298345,23.710125],[121.298149,23.710122],[121.297764,23.709576],[121.297566,23.709665],[121.29757,23.709394],[121.297472,23.709393],[121.297575,23.709033],[121.296991,23.708665],[121.296892,23.708754],[121.296986,23.709026],[121.296791,23.708934],[121.296689,23.709294],[121.296295,23.70938],[121.295995,23.709828],[121.296092,23.709919],[121.296191,23.70983],[121.296682,23.709835],[121.29668,23.709926],[121.296975,23.709929],[121.29707,23.710111],[121.297367,23.709933],[121.297364,23.710114],[121.297849,23.710571],[121.297745,23.711021],[121.297939,23.711204],[121.297741,23.711292],[121.297738,23.711563],[121.296656,23.711822],[121.296749,23.712184],[121.296948,23.712006],[121.297339,23.7121],[121.297338,23.71219]],[[121.297955,23.70994],[121.297856,23.710029],[121.297857,23.709939],[121.297955,23.70994]],[[121.296948,23.712006],[121.296851,23.711914],[121.296949,23.711915],[121.296948,23.712006]],[[121.298032,23.711566],[121.297935,23.711475],[121.298033,23.711476],[121.298032,23.711566]],[[121.29766,23.710027],[121.297563,23.709935],[121.297661,23.709937],[121.29766,23.710027]],[[121.297368,23.709843],[121.297271,23.709752],[121.297369,23.709753],[121.297368,23.709843]],[[121.29737,23.709662],[121.297273,23.709571],[121.297372,23.709572],[121.29737,23.709662]]],[[[121.295646,23.714068],[121.296039,23.713982],[121.296141,23.713712],[121.296239,23.713713],[121.296242,23.713443],[121.29644,23.713354],[121.296343,23.713263],[121.296442,23.713174],[121.296449,23.712632],[121.296351,23.712631],[121.296257,23.712359],[121.29606,23.712357],[121.295862,23.712535],[121.295957,23.712807],[121.295858,23.712806],[121.295757,23.713076],[121.295366,23.712981],[121.295265,23.713161],[121.294677,23.713154],[121.294578,23.713244],[121.294574,23.713514],[121.295446,23.714337],[121.295644,23.714249],[121.295646,23.714068]],[[121.295354,23.713884],[121.295257,23.713793],[121.295355,23.713794],[121.295354,23.713884]]],[[[121.29878,23.714373],[121.298686,23.714102],[121.298294,23.714097],[121.298198,23.713916],[121.297905,23.713822],[121.297913,23.71319],[121.297621,23.713006],[121.297522,23.713095],[121.297614,23.713548],[121.297516,23.713547],[121.29741,23.714178],[121.297211,23.714356],[121.297015,23.714354],[121.296816,23.714623],[121.296619,23.714621],[121.29642,23.714889],[121.296224,23.714887],[121.296123,23.715067],[121.296317,23.715249],[121.295625,23.715693],[121.295914,23.716058],[121.296112,23.715969],[121.296214,23.715609],[121.296604,23.715794],[121.296498,23.716425],[121.296102,23.716692],[121.296295,23.716965],[121.296691,23.716698],[121.296695,23.716337],[121.296993,23.716069],[121.296898,23.715798],[121.297295,23.715441],[121.297103,23.715168],[121.2973,23.71508],[121.297403,23.71472],[121.297793,23.714904],[121.29779,23.715085],[121.297985,23.715177],[121.297983,23.715358],[121.298177,23.715541],[121.298374,23.715453],[121.298663,23.715817],[121.298861,23.715729],[121.298863,23.715548],[121.29906,23.71546],[121.299065,23.715099],[121.298385,23.71464],[121.298387,23.714459],[121.29878,23.714373]],[[121.298387,23.714459],[121.29829,23.714368],[121.298388,23.714369],[121.298387,23.714459]],[[121.296712,23.715073],[121.296908,23.715075],[121.297003,23.715257],[121.296607,23.715614],[121.296712,23.715073]],[[121.298093,23.714456],[121.297897,23.714454],[121.297899,23.714273],[121.298095,23.714276],[121.298093,23.714456]]],[[[121.294739,23.715954],[121.295132,23.715868],[121.29543,23.715601],[121.295534,23.71515],[121.29534,23.714968],[121.295046,23.714964],[121.294944,23.715234],[121.294747,23.715322],[121.294743,23.715593],[121.294348,23.71586],[121.294442,23.716132],[121.294738,23.716045],[121.294739,23.715954]]],[[[121.28261,23.720967],[121.28281,23.720699],[121.282518,23.720515],[121.282619,23.720245],[121.282521,23.720244],[121.282429,23.719791],[121.28233,23.71988],[121.282037,23.719787],[121.281937,23.719966],[121.281641,23.720053],[121.281635,23.720505],[121.281733,23.720506],[121.281924,23.72096],[121.28261,23.720967]]],[[[121.29914,23.701736],[121.299238,23.701737],[121.299243,23.701375],[121.298753,23.70137],[121.298657,23.701188],[121.297971,23.701181],[121.298057,23.702085],[121.298155,23.702086],[121.298054,23.702356],[121.298248,23.702448],[121.298244,23.702809],[121.298342,23.70281],[121.298529,23.703535],[121.29911,23.704083],[121.299103,23.704625],[121.298904,23.704803],[121.298899,23.705255],[121.298997,23.705256],[121.298896,23.705435],[121.297916,23.705424],[121.297815,23.705604],[121.297521,23.705601],[121.29742,23.70587],[121.297713,23.705964],[121.297905,23.706237],[121.298004,23.706148],[121.298593,23.706154],[121.298486,23.706785],[121.298095,23.706691],[121.297995,23.70687],[121.298481,23.707237],[121.298574,23.707599],[121.298868,23.707602],[121.298865,23.707873],[121.29906,23.707965],[121.299154,23.708237],[121.299253,23.708148],[121.29935,23.708239],[121.299842,23.708155],[121.299839,23.708335],[121.300034,23.708428],[121.300135,23.708248],[121.30033,23.70834],[121.30043,23.708161],[121.300626,23.708163],[121.300625,23.708253],[121.301016,23.708348],[121.300913,23.708708],[121.301206,23.708802],[121.301504,23.708534],[121.301409,23.708262],[121.301216,23.708079],[121.300628,23.707983],[121.300631,23.707802],[121.300729,23.707803],[121.300731,23.707622],[121.301122,23.707717],[121.301123,23.707627],[121.301319,23.707629],[121.30142,23.707449],[121.301714,23.707453],[121.302012,23.707185],[121.302015,23.706914],[121.301725,23.70664],[121.301528,23.706638],[121.30133,23.706816],[121.301328,23.706997],[121.301231,23.706906],[121.301033,23.706994],[121.300938,23.706812],[121.300153,23.706803],[121.300053,23.706983],[121.29976,23.706889],[121.299363,23.707246],[121.299458,23.707518],[121.299261,23.707516],[121.299166,23.707334],[121.298677,23.707239],[121.298786,23.706337],[121.299083,23.70616],[121.298986,23.706068],[121.299088,23.705798],[121.298894,23.705616],[121.299287,23.70553],[121.299095,23.705257],[121.299193,23.705258],[121.299196,23.704987],[121.299294,23.704988],[121.299497,23.704448],[121.299695,23.70436],[121.299699,23.703999],[121.299504,23.703907],[121.299605,23.703727],[121.299217,23.703362],[121.29932,23.703002],[121.299029,23.702728],[121.299129,23.702638],[121.29914,23.701736]],[[121.298786,23.706337],[121.29869,23.706246],[121.298788,23.706247],[121.298786,23.706337]],[[121.299504,23.703907],[121.299405,23.703996],[121.299406,23.703906],[121.299504,23.703907]],[[121.299029,23.702728],[121.29893,23.702817],[121.298931,23.702727],[121.299029,23.702728]],[[121.300137,23.708067],[121.300038,23.708157],[121.300039,23.708066],[121.300137,23.708067]],[[121.299356,23.707788],[121.299257,23.707877],[121.299258,23.707787],[121.299356,23.707788]],[[121.300045,23.707615],[121.300339,23.707618],[121.300335,23.707889],[121.300139,23.707887],[121.300045,23.707615]],[[121.300051,23.707164],[121.299855,23.707161],[121.299856,23.707071],[121.300052,23.707073],[121.300051,23.707164]],[[121.30113,23.707085],[121.301031,23.707174],[121.301032,23.707084],[121.30113,23.707085]],[[121.298888,23.706067],[121.29879,23.706066],[121.298792,23.705885],[121.29889,23.705887],[121.298888,23.706067]],[[121.299309,23.703814],[121.29921,23.703904],[121.299211,23.703813],[121.299309,23.703814]],[[121.29902,23.70345],[121.298921,23.703539],[121.298922,23.703449],[121.29902,23.70345]]],[[[121.301466,23.711423],[121.301272,23.711331],[121.301179,23.710878],[121.300597,23.71042],[121.300602,23.710059],[121.300407,23.709967],[121.300409,23.709786],[121.300116,23.709693],[121.300117,23.709602],[121.299823,23.709599],[121.299824,23.709509],[121.299432,23.709504],[121.299337,23.709233],[121.299045,23.709049],[121.298945,23.709228],[121.299043,23.709229],[121.299138,23.709501],[121.298939,23.70968],[121.299036,23.709771],[121.299331,23.709684],[121.299427,23.709866],[121.299623,23.709868],[121.299619,23.710229],[121.299322,23.710406],[121.29932,23.710587],[121.299612,23.710771],[121.29981,23.710592],[121.299812,23.710412],[121.300008,23.710414],[121.300201,23.710687],[121.300495,23.71069],[121.300689,23.710873],[121.300686,23.711144],[121.300979,23.711237],[121.300976,23.711418],[121.30117,23.7116],[121.301366,23.711603],[121.301466,23.711423]]],[[[121.297919,23.712739],[121.297821,23.712738],[121.297921,23.712558],[121.297726,23.712466],[121.297622,23.712916],[121.297817,23.713008],[121.297919,23.712739]]],[[[121.298823,23.718618],[121.299115,23.718802],[121.299217,23.718532],[121.299315,23.718533],[121.299419,23.718083],[121.29991,23.717998],[121.300109,23.717819],[121.300105,23.71809],[121.300007,23.718089],[121.299904,23.718449],[121.300002,23.71845],[121.299995,23.718992],[121.300093,23.718993],[121.300188,23.719265],[121.299991,23.719353],[121.299887,23.719804],[121.300274,23.720169],[121.300569,23.720172],[121.300567,23.720263],[121.300765,23.720174],[121.300768,23.719904],[121.300477,23.719629],[121.300395,23.718455],[121.300493,23.718456],[121.300496,23.718185],[121.300693,23.718097],[121.300702,23.717465],[121.3008,23.717466],[121.300803,23.717195],[121.301001,23.717107],[121.300906,23.716835],[121.301103,23.716747],[121.301108,23.716386],[121.301206,23.716387],[121.30121,23.716116],[121.301308,23.716117],[121.301213,23.715845],[121.301016,23.715933],[121.301018,23.715753],[121.301217,23.715574],[121.300924,23.715481],[121.300927,23.71521],[121.301025,23.715211],[121.301027,23.71503],[121.301323,23.714943],[121.301526,23.714404],[121.301723,23.714316],[121.301727,23.714045],[121.301825,23.714046],[121.301734,23.713503],[121.302317,23.713871],[121.302411,23.714233],[121.3028,23.714508],[121.302892,23.71496],[121.303187,23.714873],[121.303283,23.715055],[121.303772,23.715151],[121.303566,23.715871],[121.30386,23.715964],[121.304344,23.716421],[121.304626,23.717327],[121.305118,23.717242],[121.305117,23.717333],[121.305606,23.717428],[121.305605,23.717519],[121.3059,23.717431],[121.306093,23.717705],[121.306289,23.717707],[121.306287,23.717887],[121.305992,23.717884],[121.305994,23.717794],[121.305796,23.717882],[121.30589,23.718244],[121.306083,23.718427],[121.30608,23.718698],[121.306274,23.71888],[121.30647,23.718883],[121.306668,23.718704],[121.306575,23.718342],[121.306772,23.718254],[121.306776,23.717983],[121.306484,23.717799],[121.306584,23.71762],[121.307073,23.717715],[121.307272,23.717537],[121.307271,23.717627],[121.307663,23.717631],[121.307662,23.717722],[121.307955,23.717815],[121.308154,23.717546],[121.307961,23.717364],[121.307665,23.717451],[121.307276,23.717176],[121.307079,23.717264],[121.306788,23.71699],[121.306689,23.717079],[121.306592,23.716988],[121.306004,23.716981],[121.305905,23.71707],[121.305906,23.71698],[121.305515,23.716885],[121.305413,23.717155],[121.305217,23.717153],[121.30522,23.716973],[121.30483,23.716788],[121.304743,23.715884],[121.304354,23.715609],[121.304359,23.715247],[121.304164,23.715155],[121.304168,23.714884],[121.303877,23.71461],[121.303881,23.714339],[121.304079,23.714161],[121.303884,23.714068],[121.303784,23.714248],[121.303391,23.714244],[121.303291,23.714423],[121.303095,23.714421],[121.303097,23.71424],[121.302902,23.714148],[121.303101,23.713969],[121.303007,23.713607],[121.302717,23.713333],[121.302422,23.71333],[121.302421,23.71342],[121.302128,23.713327],[121.302131,23.713146],[121.302033,23.713145],[121.302134,23.712875],[121.301841,23.712782],[121.301842,23.712691],[121.302235,23.712696],[121.302335,23.712516],[121.30214,23.712424],[121.302142,23.712243],[121.301852,23.711969],[121.301558,23.711966],[121.301364,23.711783],[121.301263,23.711963],[121.301554,23.712237],[121.301552,23.712417],[121.301162,23.712232],[121.301161,23.712323],[121.300865,23.71241],[121.300959,23.712772],[121.300862,23.712681],[121.300566,23.712768],[121.300561,23.713219],[121.300854,23.713313],[121.300943,23.713946],[121.300746,23.714034],[121.300554,23.713761],[121.300356,23.713849],[121.300252,23.714299],[121.299955,23.714567],[121.299946,23.715199],[121.299749,23.715287],[121.299746,23.715558],[121.299051,23.716182],[121.299144,23.716545],[121.298751,23.716631],[121.298547,23.71726],[121.298052,23.717616],[121.298244,23.717889],[121.29854,23.717802],[121.298438,23.718072],[121.298729,23.718346],[121.298925,23.718348],[121.298823,23.718618]],[[121.301834,23.713323],[121.301932,23.713325],[121.30193,23.713505],[121.301832,23.713504],[121.301834,23.713323]],[[121.298925,23.718348],[121.299024,23.718259],[121.299023,23.718349],[121.298925,23.718348]],[[121.299227,23.717719],[121.299128,23.717809],[121.299129,23.717718],[121.299227,23.717719]],[[121.299918,23.717366],[121.300216,23.717098],[121.300225,23.716376],[121.300423,23.716288],[121.300525,23.715928],[121.300822,23.71575],[121.300919,23.715842],[121.30082,23.715931],[121.300917,23.716022],[121.300809,23.716744],[121.300711,23.716742],[121.300608,23.717103],[121.300114,23.717368],[121.300013,23.717638],[121.299817,23.717636],[121.299918,23.717366]],[[121.30074,23.714485],[121.300642,23.714484],[121.300645,23.714304],[121.300743,23.714305],[121.30074,23.714485]],[[121.301136,23.714219],[121.301038,23.714218],[121.30104,23.714037],[121.301138,23.714038],[121.301136,23.714219]],[[121.301836,23.713143],[121.30174,23.713052],[121.301838,23.713053],[121.301836,23.713143]],[[121.30174,23.713052],[121.301643,23.71296],[121.301741,23.712961],[121.30174,23.713052]],[[121.301846,23.712421],[121.301747,23.71251],[121.301748,23.71242],[121.301846,23.712421]]],[[[121.307072,23.717806],[121.306877,23.717713],[121.306777,23.717893],[121.306972,23.717985],[121.307072,23.717806]]],[[[121.301933,23.720819],[121.302131,23.720731],[121.302234,23.720281],[121.302433,23.720102],[121.302439,23.719651],[121.302342,23.71956],[121.302146,23.719558],[121.301648,23.720094],[121.301542,23.720725],[121.301639,23.720816],[121.301934,23.720729],[121.301933,23.720819]]]]}},{"type":"Feature","properties":{"kind":"bare_dam","month":"2025-02","area_ha":27.61},"geometry":{"type":"MultiPolygon","coordinates":[[[[121.298955,23.693336],[121.298657,23.693603],[121.298553,23.694054],[121.298747,23.694236],[121.298943,23.694239],[121.299232,23.694693],[121.299429,23.694605],[121.299428,23.694695],[121.299918,23.694701],[121.300014,23.694882],[121.30021,23.694885],[121.300309,23.694795],[121.300214,23.694523],[121.30041,23.694526],[121.300506,23.694707],[121.300703,23.694619],[121.30051,23.694436],[121.300512,23.694256],[121.301392,23.694446],[121.30168,23.694901],[121.302173,23.694725],[121.30198,23.694452],[121.301784,23.69445],[121.30159,23.694268],[121.301497,23.693905],[121.301303,23.693723],[121.301107,23.693721],[121.300332,23.69299],[121.300335,23.692809],[121.300433,23.69281],[121.300337,23.692628],[121.300141,23.692626],[121.299947,23.692444],[121.299847,23.692623],[121.30004,23.692806],[121.299842,23.692984],[121.299453,23.692709],[121.299751,23.692441],[121.299753,23.692261],[121.299463,23.691987],[121.299266,23.692075],[121.299459,23.692258],[121.29926,23.692526],[121.298968,23.692343],[121.299166,23.692164],[121.299169,23.691984],[121.298876,23.69189],[121.298684,23.691527],[121.298488,23.691525],[121.298489,23.691434],[121.298292,23.691522],[121.298583,23.691796],[121.29858,23.691977],[121.298484,23.691886],[121.298286,23.691974],[121.2981,23.691249],[121.298198,23.69125],[121.298201,23.69098],[121.298397,23.690982],[121.298398,23.690891],[121.298692,23.690895],[121.29869,23.691075],[121.298885,23.691168],[121.298882,23.691439],[121.299075,23.691621],[121.299567,23.691536],[121.299565,23.691627],[121.300252,23.691634],[121.300251,23.691725],[121.300544,23.691818],[121.300743,23.691549],[121.301136,23.691463],[121.301135,23.691554],[121.301429,23.691557],[121.301525,23.691739],[121.301819,23.691742],[121.301818,23.691832],[121.301917,23.691743],[121.302408,23.691748],[121.302698,23.692022],[121.302993,23.691935],[121.303284,23.692209],[121.303779,23.691854],[121.303781,23.691673],[121.303586,23.691581],[121.303486,23.69176],[121.303191,23.691847],[121.302997,23.691664],[121.303195,23.691486],[121.303198,23.691305],[121.303004,23.691123],[121.302514,23.691117],[121.302515,23.691027],[121.302318,23.691115],[121.302222,23.690933],[121.302026,23.690931],[121.302025,23.691022],[121.301732,23.690928],[121.301734,23.690748],[121.301442,23.690564],[121.301445,23.690383],[121.301934,23.690479],[121.301932,23.690569],[121.302423,23.690574],[121.302621,23.690396],[121.302525,23.690214],[121.302231,23.690211],[121.302232,23.690121],[121.301839,23.690207],[121.301843,23.689936],[121.301058,23.689927],[121.300865,23.689745],[121.300472,23.68974],[121.300373,23.68983],[121.300468,23.690102],[121.300269,23.69028],[121.299974,23.690367],[121.299878,23.690185],[121.299682,23.690183],[121.299383,23.690541],[121.299676,23.690635],[121.299675,23.690725],[121.299969,23.690728],[121.30026,23.691002],[121.30006,23.691271],[121.299864,23.691269],[121.299769,23.691087],[121.299474,23.691084],[121.299185,23.69072],[121.298988,23.690808],[121.298989,23.690717],[121.298695,23.690714],[121.298599,23.690532],[121.298304,23.69062],[121.298111,23.690347],[121.29831,23.690168],[121.298503,23.690351],[121.299093,23.690267],[121.299292,23.689998],[121.299683,23.690093],[121.299883,23.689824],[121.300176,23.689918],[121.300276,23.689738],[121.298708,23.689721],[121.298607,23.6899],[121.298215,23.689896],[121.297521,23.690521],[121.297812,23.690704],[121.297614,23.690883],[121.297612,23.691063],[121.297903,23.691247],[121.297797,23.691878],[121.297991,23.692061],[121.298187,23.692063],[121.297989,23.692241],[121.297986,23.692422],[121.298083,23.692513],[121.298476,23.692427],[121.298566,23.693061],[121.298859,23.693154],[121.298857,23.693335],[121.298955,23.693336]],[[121.298954,23.693426],[121.299051,23.693517],[121.298953,23.693516],[121.298954,23.693426]],[[121.299443,23.693522],[121.299346,23.69343],[121.299444,23.693431],[121.299443,23.693522]],[[121.300619,23.693535],[121.300523,23.693443],[121.300621,23.693444],[121.300619,23.693535]],[[121.301138,23.691373],[121.301041,23.691282],[121.301139,23.691283],[121.301138,23.691373]]],[[[121.303961,23.692939],[121.304159,23.692761],[121.304065,23.692489],[121.303772,23.692395],[121.303668,23.692846],[121.303961,23.692939]]],[[[121.303344,23.69519],[121.302758,23.695003],[121.302759,23.694913],[121.303151,23.694917],[121.30315,23.695007],[121.303443,23.695101],[121.303543,23.694921],[121.303155,23.694646],[121.302762,23.694642],[121.302465,23.694909],[121.302462,23.69509],[121.302656,23.695273],[121.302853,23.695184],[121.303144,23.695459],[121.303341,23.69537],[121.303344,23.69519]]],[[[121.302259,23.695629],[121.301871,23.695354],[121.301776,23.695082],[121.301579,23.69517],[121.301477,23.69544],[121.301671,23.695623],[121.301965,23.695626],[121.302061,23.695808],[121.302259,23.695629]]],[[[121.299707,23.695872],[121.299805,23.695873],[121.299712,23.695421],[121.299519,23.695238],[121.299323,23.695236],[121.299222,23.695415],[121.29932,23.695417],[121.299317,23.695687],[121.299415,23.695689],[121.299316,23.695778],[121.29941,23.69605],[121.299605,23.696142],[121.299707,23.695872]]],[[[121.302349,23.696263],[121.302151,23.696441],[121.302248,23.696532],[121.302145,23.696892],[121.301848,23.69707],[121.301943,23.697342],[121.302139,23.697344],[121.302439,23.696896],[121.302732,23.696989],[121.302834,23.696719],[121.302932,23.69672],[121.302545,23.696265],[121.302349,23.696263]],[[121.302641,23.696446],[121.302542,23.696536],[121.302543,23.696445],[121.302641,23.696446]]],[[[121.29998,23.697501],[121.300277,23.697233],[121.300184,23.696871],[121.299891,23.696777],[121.2996,23.696503],[121.299501,23.696592],[121.299695,23.696775],[121.299688,23.697317],[121.299589,23.697406],[121.29998,23.697501]]],[[[121.297402,23.69964],[121.297303,23.699729],[121.297399,23.69991],[121.297595,23.699913],[121.297596,23.699822],[121.29779,23.700005],[121.297987,23.699917],[121.297882,23.700458],[121.299157,23.700472],[121.299062,23.7002],[121.298867,23.700107],[121.298968,23.699928],[121.298774,23.699745],[121.298776,23.699564],[121.298874,23.699565],[121.298779,23.699384],[121.299076,23.699116],[121.298587,23.69902],[121.298984,23.698664],[121.298789,23.698571],[121.298591,23.69875],[121.298397,23.698567],[121.298399,23.698386],[121.298497,23.698387],[121.298502,23.698026],[121.2987,23.697848],[121.29929,23.697764],[121.299488,23.697586],[121.299393,23.697404],[121.299097,23.697491],[121.299495,23.697044],[121.299398,23.696953],[121.299201,23.697041],[121.299205,23.69677],[121.299107,23.696769],[121.299207,23.696589],[121.298914,23.696496],[121.298919,23.696135],[121.298821,23.696133],[121.298823,23.695953],[121.29902,23.695865],[121.29893,23.695232],[121.298736,23.695139],[121.298641,23.694867],[121.298443,23.695046],[121.298151,23.694862],[121.29825,23.694773],[121.298154,23.694591],[121.298452,23.694323],[121.298357,23.694052],[121.297865,23.694227],[121.297862,23.694407],[121.298057,23.6945],[121.297957,23.694679],[121.297665,23.694495],[121.297564,23.694765],[121.297466,23.694764],[121.29746,23.695216],[121.297654,23.695398],[121.297852,23.69522],[121.298144,23.695404],[121.298141,23.695584],[121.297943,23.695763],[121.29765,23.695669],[121.297452,23.695848],[121.297448,23.696118],[121.297839,23.696213],[121.297639,23.696482],[121.298028,23.696757],[121.298025,23.697028],[121.298316,23.697212],[121.298312,23.697573],[121.29841,23.697574],[121.298203,23.698384],[121.297904,23.698742],[121.297898,23.699194],[121.2978,23.699192],[121.297698,23.699553],[121.297402,23.69964]],[[121.298867,23.700107],[121.298768,23.700196],[121.298769,23.700106],[121.298867,23.700107]],[[121.298587,23.69902],[121.298488,23.69911],[121.298489,23.699019],[121.298587,23.69902]],[[121.29784,23.696123],[121.298335,23.695767],[121.298241,23.695495],[121.298438,23.695407],[121.298632,23.69559],[121.298627,23.695951],[121.298725,23.695952],[121.29862,23.696492],[121.298227,23.696578],[121.298229,23.696398],[121.29784,23.696123]],[[121.298619,23.696583],[121.298812,23.696765],[121.29881,23.696946],[121.298514,23.697123],[121.29832,23.696941],[121.298322,23.69676],[121.298619,23.696583]],[[121.298711,23.697035],[121.298808,23.697127],[121.29871,23.697126],[121.298711,23.697035]],[[121.297698,23.699553],[121.297795,23.699644],[121.297697,23.699643],[121.297698,23.699553]],[[121.298281,23.69992],[121.298184,23.699829],[121.298282,23.69983],[121.298281,23.69992]],[[121.298673,23.699924],[121.298577,23.699833],[121.298675,23.699834],[121.298673,23.699924]],[[121.297891,23.699735],[121.297894,23.699555],[121.297992,23.699556],[121.297989,23.699736],[121.297891,23.699735]],[[121.298679,23.699473],[121.298582,23.699382],[121.29868,23.699383],[121.298679,23.699473]],[[121.298802,23.697578],[121.298705,23.697487],[121.298803,23.697488],[121.298802,23.697578]],[[121.29844,23.695226],[121.298343,23.695135],[121.298441,23.695136],[121.29844,23.695226]]],[[[121.30095,23.698324],[121.301345,23.698057],[121.30125,23.697876],[121.301052,23.697964],[121.30086,23.697691],[121.300566,23.697688],[121.300564,23.697778],[121.30037,23.697686],[121.300269,23.697865],[121.300074,23.697773],[121.299578,23.698219],[121.299675,23.69831],[121.30095,23.698324]]],[[[121.311292,23.68715],[121.311386,23.687422],[121.311682,23.687335],[121.31188,23.687156],[121.311784,23.686975],[121.311983,23.686796],[121.311692,23.686522],[121.311399,23.686429],[121.311404,23.686067],[121.31082,23.6857],[121.31102,23.685431],[121.310727,23.685338],[121.310628,23.685427],[121.310625,23.685607],[121.310723,23.685608],[121.310622,23.685878],[121.31072,23.685879],[121.310813,23.686242],[121.311203,23.686426],[121.311295,23.686879],[121.31149,23.686971],[121.311292,23.68715]],[[121.311788,23.686704],[121.311689,23.686793],[121.31169,23.686703],[121.311788,23.686704]],[[121.31149,23.686971],[121.311589,23.686882],[121.311588,23.686972],[121.31149,23.686971]]],[[[121.312278,23.686709],[121.312083,23.686617],[121.311983,23.686796],[121.312178,23.686889],[121.312278,23.686709]]],[[[121.3088,23.690283],[121.308702,23.690282],[121.30861,23.689829],[121.308317,23.689736],[121.308216,23.689915],[121.308507,23.69019],[121.308505,23.69037],[121.3087,23.690463],[121.3088,23.690283]]],[[[121.308693,23.691004],[121.308498,23.690912],[121.308396,23.691182],[121.308591,23.691274],[121.308693,23.691004]]],[[[121.308099,23.691449],[121.308392,23.691543],[121.30839,23.691633],[121.308784,23.691547],[121.308493,23.691273],[121.308199,23.69127],[121.308099,23.691449]]],[[[121.307798,23.691988],[121.307997,23.691719],[121.307901,23.691537],[121.307703,23.691716],[121.307409,23.691713],[121.307209,23.691981],[121.307502,23.692075],[121.307503,23.691985],[121.307798,23.691988]]],[[[121.30553,23.692956],[121.30524,23.692592],[121.305537,23.692415],[121.30544,23.692323],[121.305638,23.692145],[121.305543,23.691963],[121.305345,23.692051],[121.30525,23.69187],[121.304955,23.691866],[121.304557,23.692314],[121.304164,23.6924],[121.30426,23.692581],[121.304848,23.692588],[121.304947,23.692498],[121.304945,23.692679],[121.304847,23.692678],[121.304941,23.69295],[121.305139,23.692862],[121.305138,23.692952],[121.305431,23.693046],[121.30553,23.692956]]],[[[121.304221,23.695561],[121.304514,23.695654],[121.304714,23.695385],[121.305305,23.695211],[121.305703,23.694764],[121.305411,23.69458],[121.30531,23.69476],[121.305114,23.694758],[121.305113,23.694848],[121.30482,23.694755],[121.304719,23.695024],[121.304524,23.694932],[121.304325,23.69511],[121.304131,23.694928],[121.304232,23.694748],[121.303841,23.694653],[121.303542,23.695011],[121.30354,23.695192],[121.303638,23.695193],[121.303536,23.695463],[121.303731,23.695555],[121.303529,23.696005],[121.303724,23.696097],[121.303923,23.695919],[121.303925,23.695738],[121.303827,23.695737],[121.303928,23.695467],[121.304122,23.69565],[121.304221,23.695561]],[[121.304026,23.695468],[121.304126,23.695379],[121.304124,23.695469],[121.304026,23.695468]],[[121.304223,23.69547],[121.304322,23.695381],[121.304321,23.695471],[121.304223,23.69547]],[[121.303735,23.695284],[121.303834,23.695195],[121.303833,23.695285],[121.303735,23.695284]]]]}},{"type":"Feature","properties":{"kind":"water","month":"2025-02","area_ha":2.61},"geometry":{"type":"MultiPolygon","coordinates":[[[[121.283006,23.690722],[121.282908,23.69072],[121.28291,23.69054],[121.282811,23.690629],[121.282616,23.690537],[121.282806,23.69099],[121.282904,23.690991],[121.283006,23.690722]]],[[[121.298438,23.695407],[121.29834,23.695406],[121.298335,23.695767],[121.298628,23.69586],[121.298632,23.69559],[121.298436,23.695587],[121.298438,23.695407]]],[[[121.290181,23.696941],[121.28989,23.696667],[121.289694,23.696665],[121.289788,23.697027],[121.290179,23.697122],[121.290181,23.696941]]],[[[121.290466,23.697667],[121.290472,23.697215],[121.290179,23.697122],[121.290175,23.697393],[121.290371,23.697395],[121.290368,23.697666],[121.290466,23.697667]]],[[[121.291048,23.698125],[121.290857,23.697761],[121.290757,23.697851],[121.290563,23.697758],[121.29056,23.697939],[121.291048,23.698125]]],[[[121.29222,23.698499],[121.292025,23.698406],[121.292027,23.698226],[121.29183,23.698314],[121.291734,23.698132],[121.291538,23.69813],[121.291536,23.698311],[121.291927,23.698405],[121.292021,23.698677],[121.29222,23.698499]]],[[[121.295743,23.699079],[121.295843,23.6989],[121.295451,23.698896],[121.295546,23.699077],[121.295743,23.699079]]],[[[121.29535,23.699075],[121.29545,23.698986],[121.295352,23.698985],[121.29535,23.699075]]],[[[121.295056,23.699072],[121.295054,23.699253],[121.295348,23.699256],[121.29535,23.699075],[121.295251,23.699164],[121.295056,23.699072]]],[[[121.312265,23.687702],[121.312363,23.687703],[121.312273,23.68707],[121.312469,23.687072],[121.312471,23.686982],[121.312372,23.686981],[121.312375,23.6868],[121.312277,23.686799],[121.312274,23.68698],[121.311983,23.686796],[121.311783,23.687065],[121.311979,23.687067],[121.312173,23.68725],[121.312265,23.687702]]],[[[121.311878,23.687337],[121.312074,23.687339],[121.312075,23.687249],[121.311683,23.687244],[121.31168,23.687425],[121.311876,23.687427],[121.311878,23.687337]]],[[[121.31168,23.687425],[121.311486,23.687332],[121.311481,23.687694],[121.311678,23.687605],[121.31168,23.687425]]],[[[121.308695,23.690824],[121.308788,23.691186],[121.308592,23.691184],[121.308492,23.691363],[121.308884,23.691368],[121.308891,23.690826],[121.308695,23.690824]]],[[[121.308193,23.691721],[121.308389,23.691723],[121.308392,23.691543],[121.308097,23.69154],[121.308095,23.69172],[121.307899,23.691718],[121.307798,23.691988],[121.308191,23.691902],[121.308193,23.691721]]],[[[121.3075,23.692255],[121.307699,23.691987],[121.307503,23.691985],[121.307502,23.692075],[121.307209,23.691981],[121.307206,23.692252],[121.3075,23.692255]]],[[[121.30008,23.697321],[121.300177,23.697413],[121.300178,23.697322],[121.30008,23.697321]]],[[[121.30096,23.697511],[121.301059,23.697422],[121.300961,23.697421],[121.30096,23.697511]]],[[[121.298798,23.697849],[121.298992,23.698032],[121.298886,23.698663],[121.299081,23.698755],[121.299086,23.698394],[121.299279,23.698577],[121.299283,23.698306],[121.299578,23.698219],[121.29958,23.698038],[121.299875,23.698041],[121.300074,23.697773],[121.300269,23.697865],[121.30037,23.697686],[121.300466,23.697777],[121.30086,23.697691],[121.30096,23.697511],[121.300764,23.697509],[121.300765,23.697419],[121.300078,23.697502],[121.299981,23.69741],[121.299683,23.697678],[121.298898,23.69776],[121.298798,23.697849]],[[121.29929,23.697764],[121.299387,23.697855],[121.299289,23.697854],[121.29929,23.697764]]]]}}]}