{"type":"FeatureCollection","features":[{"type":"Feature","properties":{"kind":"bare_slide","month":"2025-06","area_ha":134.92},"geometry":{"type":"MultiPolygon","coordinates":[[[[121.298886,23.706248],[121.298788,23.706247],[121.298894,23.705616],[121.2987,23.705433],[121.297916,23.705424],[121.297815,23.705604],[121.297422,23.70569],[121.297905,23.706237],[121.298004,23.706148],[121.298593,23.706154],[121.298686,23.706516],[121.298883,23.706428],[121.298886,23.706248]]],[[[121.298286,23.707144],[121.298092,23.706961],[121.297991,23.707141],[121.298186,23.707233],[121.298286,23.707144]]],[[[121.297568,23.709574],[121.297272,23.709661],[121.297282,23.708939],[121.297477,23.709031],[121.298171,23.708407],[121.298175,23.708136],[121.29798,23.708044],[121.298083,23.707684],[121.297889,23.707501],[121.297398,23.707496],[121.297003,23.707762],[121.297098,23.707944],[121.297787,23.707771],[121.297785,23.707951],[121.297883,23.707952],[121.297779,23.708403],[121.297484,23.70849],[121.297382,23.70876],[121.297088,23.708756],[121.296888,23.709025],[121.296693,23.708933],[121.296594,23.709022],[121.296689,23.709294],[121.296295,23.70938],[121.296194,23.709649],[121.296096,23.709648],[121.296191,23.70983],[121.296975,23.709929],[121.296972,23.71011],[121.296675,23.710377],[121.29677,23.710559],[121.297166,23.710292],[121.297269,23.709932],[121.297657,23.710207],[121.297654,23.710478],[121.297849,23.710571],[121.297843,23.711022],[121.297941,23.711023],[121.297743,23.711202],[121.297833,23.711835],[121.297635,23.711923],[121.297633,23.712103],[121.297731,23.712104],[121.297632,23.712194],[121.297729,23.712285],[121.297626,23.712645],[121.297821,23.712738],[121.298019,23.712559],[121.298027,23.711927],[121.298325,23.711659],[121.298332,23.711118],[121.29843,23.711119],[121.298434,23.710848],[121.298532,23.710849],[121.298635,23.710489],[121.298345,23.710125],[121.298149,23.710122],[121.298151,23.709942],[121.297861,23.709668],[121.297761,23.709757],[121.297568,23.709574]],[[121.297663,23.709756],[121.297564,23.709845],[121.297565,23.709755],[121.297663,23.709756]],[[121.29727,23.709842],[121.297369,23.709753],[121.297368,23.709843],[121.29727,23.709842]]],[[[121.293886,23.713687],[121.294084,23.713509],[121.293988,23.713327],[121.293792,23.713325],[121.293791,23.713416],[121.293498,23.713322],[121.293101,23.713679],[121.293296,23.713771],[121.293297,23.713681],[121.293886,23.713687]]],[[[121.293094,23.714221],[121.2929,23.714038],[121.2928,23.714217],[121.292995,23.71431],[121.293094,23.714221]]],[[[121.283958,23.715384],[121.283962,23.715113],[121.284256,23.715116],[121.284446,23.71557],[121.284741,23.715483],[121.284548,23.7153],[121.284454,23.714938],[121.284259,23.714845],[121.284262,23.714665],[121.284067,23.714572],[121.28417,23.714212],[121.284466,23.714035],[121.284274,23.713762],[121.28388,23.713848],[121.283285,23.714383],[121.283282,23.714563],[121.283476,23.714746],[121.283278,23.714925],[121.283181,23.714833],[121.282983,23.714921],[121.283465,23.715559],[121.28376,23.715562],[121.283958,23.715384]]],[[[121.290717,23.716],[121.291015,23.715733],[121.29082,23.71564],[121.290522,23.715908],[121.290717,23.716]]],[[[121.283339,23.717725],[121.283737,23.717277],[121.284129,23.717282],[121.284225,23.717463],[121.284421,23.717466],[121.284719,23.717198],[121.284721,23.717017],[121.284042,23.716468],[121.283846,23.716466],[121.283646,23.716735],[121.283254,23.71673],[121.283154,23.71691],[121.282858,23.716997],[121.282953,23.717269],[121.283346,23.717183],[121.283247,23.717272],[121.283339,23.717725]]],[[[121.294125,23.717934],[121.294029,23.717753],[121.293833,23.71775],[121.293633,23.718019],[121.293828,23.718111],[121.293829,23.718021],[121.294125,23.717934]]],[[[121.296373,23.718501],[121.296379,23.718049],[121.296185,23.717867],[121.296289,23.717416],[121.296094,23.717324],[121.295597,23.71786],[121.295792,23.717953],[121.295788,23.718223],[121.295886,23.718224],[121.296076,23.718678],[121.296373,23.718501]],[[121.295991,23.717684],[121.296089,23.717685],[121.296087,23.717865],[121.295989,23.717864],[121.295991,23.717684]]],[[[121.295115,23.724718],[121.295412,23.72454],[121.295407,23.724901],[121.295113,23.724898],[121.295012,23.725078],[121.295109,23.725169],[121.295503,23.725083],[121.295402,23.725262],[121.295695,23.725356],[121.295789,23.725718],[121.296081,23.725902],[121.296077,23.726173],[121.296174,23.726264],[121.296664,23.72627],[121.296764,23.72618],[121.296676,23.725367],[121.296285,23.725272],[121.296584,23.724914],[121.296973,23.725189],[121.297667,23.724565],[121.298058,23.72466],[121.298159,23.72448],[121.298061,23.724479],[121.29797,23.723936],[121.298166,23.723938],[121.298163,23.724119],[121.298358,23.724211],[121.298355,23.724482],[121.298549,23.724665],[121.298746,23.724577],[121.298655,23.724034],[121.297973,23.723665],[121.298084,23.722673],[121.298674,23.72259],[121.298672,23.72268],[121.299064,23.722774],[121.299253,23.723318],[121.300136,23.723238],[121.30033,23.72342],[121.300723,23.723425],[121.30072,23.723605],[121.300329,23.723511],[121.300131,23.723689],[121.300226,23.723871],[121.300422,23.723873],[121.300321,23.724143],[121.300515,23.724325],[121.300811,23.724148],[121.300817,23.723697],[121.301013,23.723699],[121.301206,23.723972],[121.301305,23.723883],[121.301696,23.723977],[121.301797,23.723798],[121.301993,23.7238],[121.301893,23.723889],[121.301989,23.724071],[121.30248,23.724076],[121.302569,23.724709],[121.302471,23.724708],[121.30237,23.724978],[121.301881,23.724882],[121.301682,23.725061],[121.301779,23.725152],[121.301676,23.725512],[121.30148,23.72551],[121.301482,23.725329],[121.301581,23.72533],[121.301486,23.725059],[121.301191,23.725146],[121.301186,23.725507],[121.301284,23.725508],[121.301174,23.72641],[121.301271,23.726501],[121.301568,23.726324],[121.301575,23.725782],[121.301966,23.725876],[121.302069,23.725516],[121.302263,23.725609],[121.302462,23.72543],[121.302464,23.72525],[121.30286,23.724983],[121.302865,23.724622],[121.302964,23.724533],[121.303159,23.724625],[121.303259,23.724446],[121.303454,23.724538],[121.303354,23.724718],[121.303744,23.724903],[121.303641,23.725263],[121.303835,23.725445],[121.30413,23.725358],[121.304514,23.725995],[121.304712,23.725907],[121.30452,23.725543],[121.304818,23.725276],[121.304525,23.725182],[121.304235,23.724818],[121.303941,23.724815],[121.303943,23.724634],[121.30365,23.72454],[121.303459,23.724177],[121.303165,23.724174],[121.303168,23.723903],[121.303367,23.723725],[121.303563,23.723727],[121.303663,23.723547],[121.303958,23.723551],[121.304059,23.723281],[121.304157,23.723282],[121.303674,23.722735],[121.30387,23.722737],[121.303871,23.722647],[121.305047,23.72275],[121.305248,23.722391],[121.305054,23.722208],[121.30476,23.722205],[121.304762,23.722024],[121.30486,23.722025],[121.304764,23.721844],[121.304467,23.722111],[121.304562,23.722293],[121.303385,23.72228],[121.302997,23.722005],[121.302603,23.722091],[121.302409,23.721908],[121.302309,23.722088],[121.302407,23.722089],[121.302596,23.722633],[121.302794,23.722544],[121.302797,23.722274],[121.302992,23.722366],[121.30299,23.722547],[121.302892,23.722546],[121.302984,23.722998],[121.302496,23.722812],[121.302297,23.722991],[121.302295,23.723171],[121.302099,23.723169],[121.301801,23.723437],[121.301804,23.723256],[121.301705,23.723255],[121.301718,23.722262],[121.301816,23.722263],[121.301728,23.721539],[121.302022,23.721543],[121.302118,23.721724],[121.302315,23.721636],[121.302317,23.721456],[121.302219,23.721455],[121.302126,23.721092],[121.301931,23.721],[121.301933,23.720819],[121.302131,23.720731],[121.302134,23.72046],[121.302433,23.720102],[121.302438,23.719741],[121.302146,23.719558],[121.301748,23.720005],[121.301641,23.720636],[121.301543,23.720634],[121.301632,23.721358],[121.301434,23.721536],[121.301337,23.721445],[121.300943,23.721531],[121.300949,23.721079],[121.301148,23.720901],[121.301151,23.72063],[121.30086,23.720356],[121.300768,23.719904],[121.300477,23.719629],[121.300482,23.719268],[121.300384,23.719267],[121.300484,23.719088],[121.300386,23.719087],[121.300293,23.718724],[121.300096,23.718813],[121.300286,23.719266],[121.299989,23.719444],[121.299888,23.719713],[121.299399,23.719618],[121.299297,23.719887],[121.299199,23.719886],[121.299196,23.720157],[121.299098,23.720156],[121.299291,23.720339],[121.299393,23.720069],[121.299491,23.72007],[121.299487,23.720341],[121.299389,23.72034],[121.299186,23.720879],[121.29889,23.721057],[121.298886,23.721328],[121.298788,23.721327],[121.298782,23.721778],[121.299073,23.722052],[121.299071,23.722233],[121.298873,23.722321],[121.298778,23.722139],[121.298385,23.722135],[121.29829,23.721953],[121.297798,23.722038],[121.297795,23.722309],[121.297697,23.722308],[121.297693,23.722579],[121.297595,23.722578],[121.297587,23.72321],[121.29729,23.723387],[121.297288,23.723568],[121.297386,23.723569],[121.297286,23.723748],[121.29748,23.723841],[121.297574,23.724203],[121.297377,23.724291],[121.297275,23.724561],[121.296981,23.724557],[121.296787,23.724375],[121.296887,23.724195],[121.297183,23.724108],[121.297089,23.723746],[121.296896,23.723563],[121.296996,23.723384],[121.296704,23.7232],[121.296708,23.722929],[121.29661,23.722928],[121.296712,23.722568],[121.296911,23.72239],[121.296914,23.722119],[121.297212,23.721851],[121.297214,23.72167],[121.297412,23.721582],[121.297315,23.721491],[121.297415,23.721311],[121.297609,23.721494],[121.297806,23.721406],[121.29781,23.721135],[121.297615,23.721043],[121.297718,23.720683],[121.298007,23.721047],[121.298002,23.721408],[121.297805,23.721496],[121.297802,23.721767],[121.298095,23.721861],[121.29849,23.721594],[121.298598,23.720873],[121.298307,23.720599],[121.297916,23.720504],[121.297918,23.720324],[121.298314,23.720057],[121.298319,23.719696],[121.298516,23.719608],[121.29852,23.719337],[121.298915,23.719071],[121.299018,23.71871],[121.299216,23.718622],[121.299219,23.718351],[121.299317,23.718353],[121.29942,23.717992],[121.299715,23.717905],[121.299425,23.717631],[121.299719,23.717635],[121.29982,23.717365],[121.300117,23.717187],[121.300227,23.716286],[121.300822,23.71575],[121.300825,23.71548],[121.300924,23.715481],[121.301026,23.715121],[121.301323,23.714943],[121.301326,23.714672],[121.301624,23.714405],[121.301729,23.713864],[121.301827,23.713865],[121.301929,23.713595],[121.302222,23.713689],[121.302412,23.714142],[121.302898,23.714509],[121.302895,23.71469],[121.302797,23.714689],[121.302893,23.71487],[121.303285,23.714874],[121.303284,23.714965],[121.303772,23.715151],[121.303767,23.715512],[121.303669,23.715511],[121.303566,23.715871],[121.303958,23.715965],[121.304151,23.716148],[121.304149,23.716329],[121.304538,23.716604],[121.304532,23.717055],[121.30463,23.717056],[121.30453,23.717236],[121.304626,23.717327],[121.305118,23.717242],[121.305117,23.717333],[121.305606,23.717428],[121.305605,23.717519],[121.3059,23.717431],[121.306093,23.717705],[121.306386,23.717798],[121.306385,23.717888],[121.305893,23.717973],[121.306177,23.718789],[121.306668,23.718704],[121.306575,23.718342],[121.306772,23.718254],[121.306776,23.717983],[121.306484,23.717799],[121.306584,23.71762],[121.306973,23.717895],[121.307075,23.717625],[121.308054,23.717726],[121.308254,23.717457],[121.308057,23.717455],[121.307962,23.717273],[121.307568,23.717359],[121.307375,23.717177],[121.306982,23.717172],[121.306887,23.716991],[121.306592,23.716988],[121.306594,23.716897],[121.305808,23.716979],[121.305712,23.716797],[121.305416,23.716975],[121.305413,23.717155],[121.305217,23.717153],[121.305318,23.716974],[121.304831,23.716697],[121.304743,23.715884],[121.30445,23.71579],[121.304358,23.715338],[121.304163,23.715245],[121.304072,23.714702],[121.303878,23.71452],[121.303681,23.714608],[121.303683,23.714427],[121.303882,23.714249],[121.303687,23.714156],[121.303686,23.714247],[121.303391,23.714244],[121.303291,23.714423],[121.302998,23.71433],[121.303097,23.71424],[121.303,23.714149],[121.303102,23.713879],[121.302907,23.713787],[121.303007,23.713607],[121.302812,23.713515],[121.302614,23.713693],[121.302616,23.713513],[121.302714,23.713514],[121.302619,23.713332],[121.302225,23.713418],[121.302031,23.713235],[121.301734,23.713503],[121.301644,23.71287],[121.301742,23.712871],[121.301843,23.712601],[121.301553,23.712327],[121.301454,23.712416],[121.301063,23.712322],[121.300864,23.7125],[121.301057,23.712773],[121.300761,23.71286],[121.300657,23.713311],[121.301239,23.713859],[121.301234,23.71422],[121.301037,23.714308],[121.300942,23.714036],[121.300648,23.714033],[121.300552,23.713851],[121.300355,23.713939],[121.300353,23.71412],[121.300154,23.714298],[121.300249,23.71457],[121.300053,23.714568],[121.29995,23.714928],[121.299852,23.714927],[121.299744,23.715648],[121.299447,23.715916],[121.299151,23.716003],[121.299146,23.716454],[121.299242,23.716546],[121.298849,23.716632],[121.298744,23.717172],[121.298447,23.71735],[121.298445,23.71753],[121.298052,23.717616],[121.297754,23.717884],[121.297752,23.718064],[121.297554,23.718153],[121.297551,23.718423],[121.297355,23.718421],[121.297155,23.71869],[121.296959,23.718688],[121.29696,23.718598],[121.296469,23.718682],[121.296466,23.718863],[121.296268,23.719041],[121.296458,23.719495],[121.296061,23.719852],[121.295963,23.719851],[121.296066,23.719491],[121.295872,23.719308],[121.295676,23.719306],[121.295575,23.719485],[121.295479,23.719394],[121.295183,23.719481],[121.295377,23.719664],[121.295274,23.720024],[121.295567,23.720117],[121.295468,23.720206],[121.295559,23.720749],[121.295363,23.720747],[121.295164,23.720925],[121.295161,23.721196],[121.294862,23.721554],[121.294765,23.721463],[121.294568,23.721551],[121.294563,23.721912],[121.294269,23.721909],[121.294069,23.722178],[121.293873,23.722175],[121.293881,23.721543],[121.293588,23.72145],[121.293299,23.721086],[121.292803,23.721532],[121.292409,23.721617],[121.292608,23.721439],[121.292513,23.721167],[121.292711,23.721079],[121.292517,23.720896],[121.292519,23.720716],[121.292616,23.720807],[121.292813,23.720719],[121.292723,23.720086],[121.292921,23.719998],[121.293018,23.720089],[121.292917,23.720269],[121.293112,23.720361],[121.29311,23.720542],[121.293403,23.720635],[121.293503,23.720456],[121.293309,23.720273],[121.293605,23.720186],[121.293611,23.719734],[121.293513,23.719733],[121.293614,23.719464],[121.294005,23.719558],[121.294504,23.718932],[121.2947,23.718934],[121.294598,23.719204],[121.294793,23.719296],[121.294894,23.719117],[121.295189,23.719029],[121.295291,23.71876],[121.295096,23.718667],[121.295099,23.718396],[121.294809,23.718122],[121.294514,23.718119],[121.294516,23.718029],[121.294122,23.718115],[121.294025,23.718023],[121.293924,23.718293],[121.293726,23.718381],[121.293823,23.718473],[121.293718,23.719013],[121.293521,23.719101],[121.293429,23.718649],[121.293626,23.718561],[121.293628,23.71838],[121.29353,23.718379],[121.293631,23.7182],[121.293436,23.718107],[121.293234,23.718556],[121.292839,23.718733],[121.292836,23.719004],[121.292934,23.719005],[121.292833,23.719184],[121.29293,23.719275],[121.293126,23.719278],[121.293227,23.719098],[121.293422,23.719191],[121.293124,23.719458],[121.29322,23.71964],[121.293024,23.719638],[121.29283,23.719455],[121.292832,23.719274],[121.292638,23.719092],[121.292442,23.719089],[121.292545,23.718729],[121.292254,23.718455],[121.292551,23.718278],[121.292553,23.718097],[121.29285,23.71792],[121.292852,23.71774],[121.293149,23.717562],[121.293151,23.717382],[121.293944,23.716758],[121.29375,23.716576],[121.293853,23.716215],[121.294147,23.716219],[121.294146,23.716309],[121.294344,23.716131],[121.294735,23.716225],[121.294836,23.716046],[121.295229,23.71596],[121.295224,23.716321],[121.295614,23.716506],[121.295513,23.716776],[121.295315,23.716864],[121.295312,23.717135],[121.295507,23.717227],[121.295804,23.716959],[121.29581,23.716508],[121.296009,23.71633],[121.295914,23.716058],[121.296112,23.715969],[121.296215,23.715519],[121.296312,23.715611],[121.296608,23.715523],[121.296713,23.714983],[121.297006,23.715076],[121.297003,23.715257],[121.296805,23.715435],[121.296901,23.715617],[121.297295,23.715441],[121.297102,23.715258],[121.297104,23.715077],[121.297301,23.714989],[121.297306,23.714628],[121.297794,23.714814],[121.297791,23.714995],[121.298083,23.715179],[121.298075,23.715811],[121.298172,23.715902],[121.298663,23.715817],[121.298862,23.715639],[121.299065,23.715099],[121.298772,23.715005],[121.298676,23.714824],[121.29848,23.714822],[121.298483,23.714641],[121.298192,23.714367],[121.298392,23.714098],[121.298198,23.713916],[121.298,23.714004],[121.298003,23.713823],[121.297905,23.713822],[121.297909,23.713461],[121.297811,23.71346],[121.297814,23.713279],[121.298011,23.713191],[121.297918,23.712829],[121.297621,23.713006],[121.297713,23.713459],[121.297417,23.713636],[121.297414,23.713817],[121.297706,23.714],[121.297606,23.71418],[121.29741,23.714178],[121.297509,23.714089],[121.297413,23.713907],[121.297314,23.713996],[121.29702,23.713993],[121.297021,23.713903],[121.296726,23.71399],[121.29663,23.713808],[121.296434,23.713806],[121.296143,23.713532],[121.296343,23.713263],[121.296052,23.712989],[121.29635,23.712721],[121.296546,23.712724],[121.296934,23.713089],[121.297133,23.71282],[121.297429,23.712733],[121.297332,23.712642],[121.29753,23.712463],[121.297437,23.712101],[121.29734,23.71201],[121.296848,23.712095],[121.296655,23.711912],[121.296553,23.712182],[121.296357,23.71218],[121.296158,23.712358],[121.296065,23.711996],[121.295968,23.711904],[121.295771,23.711993],[121.295873,23.711723],[121.295581,23.711539],[121.295378,23.712079],[121.295668,23.712353],[121.295271,23.712709],[121.295075,23.712707],[121.294876,23.712976],[121.294679,23.712974],[121.294678,23.713064],[121.294482,23.713062],[121.294382,23.713241],[121.294086,23.713328],[121.294182,23.71351],[121.294675,23.713335],[121.294573,23.713605],[121.294181,23.7136],[121.294079,23.71387],[121.293785,23.713867],[121.293586,23.714136],[121.293391,23.714043],[121.293092,23.714401],[121.292798,23.714398],[121.292799,23.714308],[121.292503,23.714395],[121.292501,23.714575],[121.292792,23.714849],[121.292988,23.714851],[121.293583,23.714316],[121.293877,23.714319],[121.293978,23.71414],[121.294568,23.713966],[121.295264,23.713251],[121.295658,23.713165],[121.29585,23.713438],[121.295454,23.713705],[121.295452,23.713885],[121.295745,23.713979],[121.295744,23.714069],[121.29545,23.714066],[121.295449,23.714156],[121.29496,23.714061],[121.29486,23.71415],[121.294956,23.714331],[121.29525,23.714335],[121.295248,23.714515],[121.29515,23.714514],[121.295244,23.714786],[121.295046,23.714964],[121.294851,23.714872],[121.29475,23.715051],[121.294847,23.715143],[121.294947,23.715054],[121.295043,23.715145],[121.295535,23.71506],[121.295634,23.714971],[121.295537,23.71488],[121.29564,23.71452],[121.295836,23.714522],[121.296036,23.714253],[121.29633,23.714256],[121.296331,23.714166],[121.296625,23.714169],[121.296627,23.714079],[121.29692,23.714172],[121.29682,23.714262],[121.296915,23.714534],[121.296423,23.714618],[121.296323,23.714798],[121.296029,23.714795],[121.295928,23.714974],[121.296122,23.715157],[121.295925,23.715245],[121.295922,23.715426],[121.295724,23.715604],[121.29543,23.715601],[121.295429,23.715691],[121.295036,23.715687],[121.294746,23.715413],[121.294647,23.715502],[121.294157,23.715406],[121.29416,23.715226],[121.294556,23.714959],[121.294462,23.714597],[121.294265,23.714685],[121.294263,23.714866],[121.293967,23.714953],[121.293864,23.715313],[121.293079,23.715394],[121.293179,23.715215],[121.293869,23.714951],[121.294366,23.714415],[121.294758,23.71451],[121.294858,23.71433],[121.294567,23.714056],[121.294369,23.714235],[121.294173,23.714232],[121.293379,23.714946],[121.292789,23.71503],[121.29249,23.715388],[121.291315,23.715284],[121.291317,23.715104],[121.291024,23.71501],[121.291025,23.71492],[121.291422,23.714563],[121.291717,23.714567],[121.291718,23.714476],[121.292011,23.71457],[121.292507,23.714124],[121.2929,23.714038],[121.293002,23.713768],[121.292905,23.713677],[121.29261,23.713764],[121.292514,23.713582],[121.292318,23.71358],[121.292217,23.713759],[121.291826,23.713665],[121.291726,23.713844],[121.291237,23.713749],[121.291037,23.714017],[121.291134,23.714109],[121.291429,23.714022],[121.291427,23.714202],[121.29084,23.714105],[121.290641,23.714284],[121.290347,23.71428],[121.290247,23.71446],[121.289954,23.714366],[121.289755,23.714545],[121.289851,23.714727],[121.290243,23.714731],[121.290344,23.714551],[121.290736,23.714556],[121.290735,23.714646],[121.290537,23.714734],[121.290535,23.714915],[121.290438,23.714823],[121.290046,23.714819],[121.289946,23.714998],[121.289555,23.714904],[121.289256,23.715262],[121.288961,23.715258],[121.288964,23.715078],[121.289357,23.714992],[121.28936,23.714811],[121.289458,23.714812],[121.289362,23.714631],[121.289163,23.714809],[121.288478,23.714711],[121.28828,23.71489],[121.288281,23.714799],[121.288085,23.714797],[121.288088,23.714526],[121.287795,23.714433],[121.287696,23.714522],[121.287788,23.714975],[121.287689,23.715064],[121.287493,23.715062],[121.287494,23.714971],[121.287101,23.715057],[121.287102,23.714967],[121.286809,23.714873],[121.286811,23.714693],[121.286617,23.71451],[121.286225,23.714506],[121.286125,23.714685],[121.286417,23.714869],[121.286215,23.715318],[121.285722,23.715493],[121.28562,23.715763],[121.285425,23.715671],[121.285226,23.715939],[121.28493,23.716027],[121.284928,23.716207],[121.285123,23.7163],[121.285018,23.71684],[121.285115,23.716932],[121.285997,23.716941],[121.286098,23.716762],[121.286392,23.716765],[121.286488,23.716947],[121.286685,23.716859],[121.286684,23.716949],[121.287468,23.716958],[121.287467,23.717048],[121.287665,23.716869],[121.287862,23.716872],[121.288054,23.717145],[121.288446,23.717149],[121.288445,23.717239],[121.288836,23.717334],[121.288932,23.717516],[121.28913,23.717337],[121.289325,23.71743],[121.289426,23.71725],[121.289622,23.717252],[121.289225,23.717609],[121.289223,23.71779],[121.289516,23.717883],[121.289617,23.717613],[121.289715,23.717615],[121.28961,23.718155],[121.289999,23.71843],[121.290093,23.718702],[121.290388,23.718706],[121.290385,23.718886],[121.290187,23.719065],[121.290182,23.719426],[121.290377,23.719518],[121.290369,23.72015],[121.290564,23.720243],[121.290552,23.721145],[121.290355,23.721234],[121.290351,23.721504],[121.289955,23.721771],[121.290146,23.722225],[121.289849,23.722402],[121.289847,23.722582],[121.289945,23.722584],[121.289941,23.722854],[121.290329,23.72322],[121.290722,23.723134],[121.29111,23.723499],[121.291106,23.72377],[121.291301,23.723863],[121.291299,23.724043],[121.291101,23.724131],[121.291098,23.724402],[121.291293,23.724495],[121.292087,23.723781],[121.292094,23.723239],[121.291899,23.723147],[121.291901,23.722966],[121.292199,23.722699],[121.292683,23.723156],[121.292777,23.723518],[121.292973,23.72352],[121.293272,23.723162],[121.293468,23.723164],[121.293662,23.723347],[121.293657,23.723708],[121.292962,23.724333],[121.293452,23.724428],[121.29345,23.724519],[121.293646,23.724521],[121.293845,23.724342],[121.293843,23.724523],[121.293645,23.724611],[121.293641,23.724972],[121.293739,23.724973],[121.293637,23.725243],[121.293734,23.725334],[121.29393,23.725337],[121.294031,23.725157],[121.294227,23.725159],[121.294425,23.724981],[121.294817,23.724985],[121.294921,23.724535],[121.295115,23.724718]],[[121.304525,23.725182],[121.304426,23.725271],[121.304427,23.725181],[121.304525,23.725182]],[[121.301703,23.723436],[121.301898,23.723528],[121.301897,23.723618],[121.301701,23.723616],[121.301703,23.723436]],[[121.296396,23.72428],[121.2963,23.724098],[121.295807,23.724274],[121.296006,23.724095],[121.296008,23.723915],[121.295813,23.723822],[121.296015,23.723373],[121.296408,23.723377],[121.296698,23.723651],[121.296695,23.723922],[121.296499,23.72392],[121.296398,23.7241],[121.296495,23.724191],[121.296692,23.724103],[121.296788,23.724284],[121.296396,23.72428]],[[121.295807,23.724274],[121.295708,23.724363],[121.295709,23.724273],[121.295807,23.724274]],[[121.298445,23.71753],[121.298542,23.717622],[121.298444,23.717621],[121.298445,23.71753]],[[121.292409,23.721617],[121.29231,23.721707],[121.292311,23.721616],[121.292409,23.721617]],[[121.292311,23.721616],[121.292214,23.721525],[121.292312,23.721526],[121.292311,23.721616]],[[121.298193,23.714277],[121.298096,23.714185],[121.298194,23.714186],[121.298193,23.714277]],[[121.298,23.714004],[121.297901,23.714093],[121.297902,23.714003],[121.298,23.714004]],[[121.296434,23.713806],[121.296335,23.713895],[121.296336,23.713805],[121.296434,23.713806]],[[121.296158,23.712358],[121.296059,23.712447],[121.29606,23.712357],[121.296158,23.712358]],[[121.294675,23.713335],[121.294775,23.713155],[121.294971,23.713158],[121.294871,23.713337],[121.294675,23.713335]],[[121.294971,23.713158],[121.29507,23.713068],[121.295069,23.713159],[121.294971,23.713158]],[[121.29564,23.71452],[121.295543,23.714428],[121.295641,23.714429],[121.29564,23.71452]],[[121.295922,23.715426],[121.296019,23.715517],[121.295921,23.715516],[121.295922,23.715426]],[[121.293078,23.715485],[121.292585,23.71566],[121.292584,23.71575],[121.292192,23.715746],[121.291993,23.715924],[121.291699,23.715921],[121.291302,23.716278],[121.291009,23.716184],[121.291109,23.716005],[121.291206,23.716096],[121.291404,23.716008],[121.291308,23.715826],[121.291602,23.715829],[121.291603,23.715739],[121.291896,23.715833],[121.291997,23.715653],[121.292684,23.71557],[121.292785,23.715391],[121.293079,23.715394],[121.293078,23.715485]],[[121.291011,23.716004],[121.290914,23.715912],[121.290715,23.716181],[121.290519,23.716179],[121.290325,23.715996],[121.290223,23.716266],[121.290026,23.716354],[121.290032,23.715902],[121.289935,23.715811],[121.290228,23.715905],[121.290429,23.715546],[121.291313,23.715465],[121.291114,23.715643],[121.291209,23.715915],[121.291011,23.716004]],[[121.290715,23.716181],[121.290812,23.716272],[121.290714,23.716271],[121.290715,23.716181]],[[121.291422,23.714563],[121.291325,23.714472],[121.291424,23.714473],[121.291422,23.714563]],[[121.291427,23.714202],[121.291524,23.714294],[121.291426,23.714292],[121.291427,23.714202]],[[121.290737,23.714465],[121.291129,23.71447],[121.291127,23.71465],[121.290833,23.714647],[121.290737,23.714465]],[[121.285325,23.71585],[121.285422,23.715942],[121.285324,23.715941],[121.285325,23.71585]],[[121.294822,23.724624],[121.294725,23.724533],[121.294823,23.724534],[121.294822,23.724624]],[[121.295019,23.724536],[121.295119,23.724447],[121.295117,23.724537],[121.295019,23.724536]],[[121.295217,23.724448],[121.295022,23.724355],[121.295026,23.723994],[121.295125,23.723995],[121.295217,23.724448]],[[121.296181,23.725723],[121.29628,23.725633],[121.296279,23.725724],[121.296181,23.725723]],[[121.293836,23.725065],[121.293935,23.724975],[121.293934,23.725066],[121.293836,23.725065]],[[121.294039,23.724525],[121.294235,23.724527],[121.294234,23.724617],[121.294038,23.724615],[121.294039,23.724525]],[[121.294143,23.724075],[121.294435,23.724259],[121.294633,23.72408],[121.294637,23.723809],[121.294735,23.72381],[121.29473,23.724171],[121.294432,23.724439],[121.29414,23.724255],[121.294143,23.724075]],[[121.295519,23.723819],[121.295616,23.72391],[121.295614,23.724091],[121.295416,23.724179],[121.295323,23.723817],[121.295519,23.723819]],[[121.294834,23.723721],[121.294736,23.72372],[121.294738,23.723539],[121.294836,23.723541],[121.294742,23.723269],[121.295039,23.723001],[121.294834,23.723721]],[[121.294842,23.723089],[121.294745,23.722998],[121.294843,23.722999],[121.294842,23.723089]],[[121.295042,23.72282],[121.29514,23.722821],[121.295143,23.722551],[121.295342,23.722372],[121.295634,23.722556],[121.295635,23.722466],[121.296223,23.722472],[121.296422,23.722294],[121.296216,23.723014],[121.295721,23.72337],[121.295428,23.723276],[121.295432,23.723005],[121.29553,23.723006],[121.295438,23.722554],[121.29524,23.722642],[121.295137,23.723002],[121.295039,23.723001],[121.295042,23.72282]],[[121.295423,23.723637],[121.29552,23.723729],[121.295422,23.723728],[121.295423,23.723637]],[[121.295423,23.723637],[121.295327,23.723546],[121.295425,23.723547],[121.295423,23.723637]],[[121.294346,23.723535],[121.29415,23.723533],[121.294253,23.723173],[121.294351,23.723174],[121.294346,23.723535]],[[121.302587,23.723355],[121.302686,23.723266],[121.302685,23.723356],[121.302587,23.723355]],[[121.294257,23.722812],[121.294356,23.722723],[121.294355,23.722813],[121.294257,23.722812]],[[121.30034,23.722698],[121.300833,23.722433],[121.300831,23.722613],[121.300533,23.722881],[121.300337,23.722879],[121.30034,23.722698]],[[121.293474,23.722713],[121.293573,23.722624],[121.293572,23.722714],[121.293474,23.722713]],[[121.294455,23.722724],[121.294554,23.722634],[121.294553,23.722725],[121.294455,23.722724]],[[121.290827,23.722593],[121.290927,23.722504],[121.290925,23.722594],[121.290827,23.722593]],[[121.298577,23.722498],[121.298676,23.722409],[121.298675,23.722499],[121.298577,23.722498]],[[121.290931,23.722143],[121.291427,23.721697],[121.291424,23.721968],[121.291227,23.722056],[121.291223,23.722327],[121.290929,23.722324],[121.290931,23.722143]],[[121.295343,23.722282],[121.295442,23.722193],[121.295441,23.722283],[121.295343,23.722282]],[[121.297991,23.722311],[121.29809,23.722222],[121.298089,23.722312],[121.297991,23.722311]],[[121.293091,23.721986],[121.292893,23.722165],[121.292895,23.721984],[121.293091,23.721986]],[[121.29594,23.721656],[121.296136,23.721659],[121.296135,23.721749],[121.295739,23.722015],[121.295741,23.721835],[121.29594,23.721656]],[[121.296621,23.722025],[121.296523,23.722024],[121.296526,23.721843],[121.296624,23.721845],[121.296621,23.722025]],[[121.296624,23.721845],[121.296723,23.721755],[121.296722,23.721846],[121.296624,23.721845]],[[121.296231,23.72184],[121.296331,23.721751],[121.296329,23.721841],[121.296231,23.72184]],[[121.29143,23.721516],[121.29114,23.721152],[121.291143,23.720971],[121.291437,23.720975],[121.291627,23.721428],[121.29143,23.721516]],[[121.296039,23.721567],[121.296138,23.721478],[121.296137,23.721568],[121.296039,23.721567]],[[121.296431,23.721572],[121.29653,23.721482],[121.296529,23.721573],[121.296431,23.721572]],[[121.296731,23.721123],[121.297028,23.720946],[121.296933,23.720674],[121.29713,23.720586],[121.297128,23.720767],[121.297226,23.720768],[121.297123,23.721128],[121.296725,23.721575],[121.296731,23.721123]],[[121.29634,23.721029],[121.296439,23.72094],[121.296438,23.72103],[121.29634,23.721029]],[[121.291244,23.720702],[121.290856,23.720426],[121.29096,23.719976],[121.291156,23.719978],[121.291354,23.7198],[121.291356,23.719619],[121.291849,23.719444],[121.291951,23.719174],[121.292049,23.719175],[121.292142,23.719538],[121.291946,23.719535],[121.291748,23.719714],[121.291844,23.719805],[121.29174,23.720256],[121.291544,23.720253],[121.291247,23.720521],[121.291244,23.720702]],[[121.291931,23.720709],[121.291933,23.720529],[121.292329,23.720262],[121.292324,23.720623],[121.291931,23.720709]],[[121.292133,23.72026],[121.292135,23.720079],[121.292233,23.72008],[121.29214,23.719718],[121.292436,23.719541],[121.292434,23.719721],[121.292336,23.71972],[121.292429,23.720083],[121.292133,23.72026]],[[121.296939,23.720223],[121.297134,23.720315],[121.297132,23.720496],[121.296839,23.720402],[121.296939,23.720223]],[[121.297332,23.720137],[121.297233,23.720226],[121.297234,23.720136],[121.297332,23.720137]],[[121.297335,23.719956],[121.297433,23.719957],[121.29743,23.720138],[121.297332,23.720137],[121.297335,23.719956]],[[121.293214,23.720091],[121.293313,23.720002],[121.293312,23.720092],[121.293214,23.720091]],[[121.292727,23.719815],[121.292532,23.719723],[121.292534,23.719542],[121.292731,23.719544],[121.292727,23.719815]],[[121.296948,23.7195],[121.297046,23.719501],[121.297044,23.719682],[121.296946,23.719681],[121.296948,23.7195]],[[121.292536,23.719452],[121.292635,23.719363],[121.292634,23.719453],[121.292536,23.719452]],[[121.29744,23.719415],[121.297341,23.719505],[121.297342,23.719414],[121.29744,23.719415]],[[121.29744,23.719415],[121.297539,23.719326],[121.297538,23.719417],[121.29744,23.719415]],[[121.297441,23.719325],[121.297344,23.719234],[121.297442,23.719235],[121.297441,23.719325]],[[121.297049,23.719321],[121.297148,23.719232],[121.297147,23.719322],[121.297049,23.719321]],[[121.298226,23.719334],[121.298325,23.719245],[121.298324,23.719335],[121.298226,23.719334]],[[121.291265,23.719076],[121.291166,23.719166],[121.291167,23.719075],[121.291265,23.719076]],[[121.291265,23.719076],[121.291365,23.718987],[121.291364,23.719078],[121.291265,23.719076]],[[121.29715,23.719051],[121.29725,23.718962],[121.297248,23.719052],[121.29715,23.719051]],[[121.297643,23.718876],[121.297445,23.719054],[121.297548,23.718604],[121.297647,23.718605],[121.297643,23.718876]],[[121.29176,23.718721],[121.291859,23.718722],[121.291856,23.718902],[121.291758,23.718901],[121.29176,23.718721]],[[121.298442,23.717801],[121.298438,23.718072],[121.29834,23.718071],[121.298432,23.718523],[121.298334,23.718522],[121.298231,23.718882],[121.298034,23.718971],[121.298136,23.718701],[121.297942,23.718518],[121.298139,23.71843],[121.298143,23.718159],[121.298241,23.71816],[121.298145,23.717978],[121.298442,23.717801]],[[121.298145,23.717978],[121.298048,23.717887],[121.298146,23.717888],[121.298145,23.717978]],[[121.294507,23.718661],[121.29431,23.718749],[121.294413,23.718389],[121.294511,23.71839],[121.294507,23.718661]],[[121.290879,23.718621],[121.290978,23.718532],[121.290977,23.718622],[121.290879,23.718621]],[[121.290202,23.717891],[121.290396,23.718074],[121.290197,23.718252],[121.290001,23.71825],[121.2902,23.718071],[121.290202,23.717891]],[[121.290688,23.718257],[121.290787,23.718168],[121.290786,23.718258],[121.290688,23.718257]],[[121.291179,23.718173],[121.291278,23.718083],[121.291277,23.718174],[121.291179,23.718173]],[[121.299223,23.718081],[121.299124,23.71808],[121.299127,23.717899],[121.299225,23.7179],[121.299223,23.718081]],[[121.299225,23.7179],[121.299324,23.717811],[121.299323,23.717901],[121.299225,23.7179]],[[121.290992,23.717448],[121.291487,23.717092],[121.29149,23.716912],[121.291588,23.716913],[121.291492,23.716731],[121.291982,23.716737],[121.291978,23.717098],[121.291581,23.717455],[121.291287,23.717451],[121.291186,23.717631],[121.29099,23.717629],[121.290992,23.717448]],[[121.292172,23.717281],[121.292271,23.717191],[121.29227,23.717282],[121.292172,23.717281]],[[121.288547,23.71697],[121.288646,23.71688],[121.288645,23.716971],[121.288547,23.71697]],[[121.290019,23.716896],[121.28992,23.716985],[121.289921,23.716894],[121.290019,23.716896]],[[121.290021,23.716715],[121.29022,23.716537],[121.290414,23.716719],[121.290709,23.716632],[121.290707,23.716813],[121.29051,23.716811],[121.290509,23.716901],[121.290019,23.716896],[121.290021,23.716715]],[[121.288156,23.716875],[121.288255,23.716786],[121.288254,23.716876],[121.288156,23.716875]],[[121.286988,23.71614],[121.287283,23.716143],[121.287476,23.716326],[121.287178,23.716683],[121.286789,23.716408],[121.286988,23.71614]],[[121.286788,23.716499],[121.286493,23.716495],[121.286495,23.716405],[121.286692,23.716317],[121.286788,23.716499]],[[121.286492,23.716586],[121.286296,23.716583],[121.286299,23.716403],[121.286397,23.716404],[121.286492,23.716586]],[[121.28914,23.716615],[121.289438,23.716347],[121.28983,23.716352],[121.289829,23.716442],[121.289435,23.716528],[121.289531,23.71671],[121.28914,23.716615]],[[121.291102,23.716546],[121.291301,23.716368],[121.291298,23.716548],[121.290904,23.716725],[121.290906,23.716544],[121.291102,23.716546]],[[121.285512,23.716575],[121.285611,23.716486],[121.28561,23.716576],[121.285512,23.716575]],[[121.292278,23.71665],[121.292377,23.71656],[121.292376,23.716651],[121.292278,23.71665]],[[121.29316,23.716659],[121.29326,23.71657],[121.293258,23.71666],[121.29316,23.716659]],[[121.285519,23.716033],[121.285715,23.716035],[121.285713,23.716216],[121.285516,23.716214],[121.285519,23.716033]],[[121.292384,23.716019],[121.292578,23.716201],[121.292086,23.716286],[121.292088,23.716196],[121.292383,23.716109],[121.292384,23.716019]],[[121.286405,23.715772],[121.286603,23.715594],[121.286799,23.715596],[121.286993,23.715778],[121.286991,23.715959],[121.286792,23.716137],[121.286596,23.716135],[121.286402,23.715953],[121.286405,23.715772]],[[121.293068,23.716207],[121.293167,23.716118],[121.293166,23.716208],[121.293068,23.716207]],[[121.292677,23.716112],[121.292776,23.716023],[121.292775,23.716113],[121.292677,23.716112]],[[121.293074,23.715755],[121.293172,23.715756],[121.29317,23.715937],[121.293072,23.715936],[121.293074,23.715755]],[[121.293367,23.715849],[121.293466,23.71576],[121.293465,23.71585],[121.293367,23.715849]],[[121.293859,23.715764],[121.294055,23.715766],[121.294053,23.715857],[121.293857,23.715854],[121.293859,23.715764]],[[121.28974,23.715719],[121.289446,23.715715],[121.289447,23.715625],[121.289742,23.715538],[121.28974,23.715719]],[[121.288368,23.715613],[121.288666,23.715345],[121.288861,23.715438],[121.28886,23.715528],[121.288368,23.715613]],[[121.289056,23.71553],[121.289055,23.715621],[121.288859,23.715619],[121.28886,23.715528],[121.289056,23.71553]],[[121.290235,23.715363],[121.290136,23.715452],[121.289937,23.71563],[121.290039,23.715361],[121.290235,23.715363]],[[121.30043,23.715746],[121.300529,23.715657],[121.300528,23.715747],[121.30043,23.715746]],[[121.288863,23.715257],[121.288667,23.715255],[121.288572,23.715074],[121.288866,23.715077],[121.288863,23.715257]],[[121.290825,23.715279],[121.290628,23.715277],[121.290631,23.715096],[121.290925,23.7151],[121.290825,23.715279]],[[121.286707,23.715143],[121.286807,23.715054],[121.286805,23.715144],[121.286707,23.715143]],[[121.288277,23.71507],[121.288377,23.714981],[121.288375,23.715071],[121.288277,23.71507]],[[121.300448,23.714302],[121.300643,23.714394],[121.30064,23.714665],[121.300543,23.714573],[121.300346,23.714662],[121.300448,23.714302]],[[121.301232,23.7144],[121.301033,23.714579],[121.301036,23.714398],[121.301232,23.7144]],[[121.295846,23.713799],[121.295945,23.71371],[121.295944,23.7138],[121.295846,23.713799]],[[121.297036,23.712729],[121.296938,23.712728],[121.296942,23.712457],[121.297138,23.712459],[121.297036,23.712729]],[[121.295769,23.712173],[121.295867,23.712174],[121.295864,23.712355],[121.295766,23.712354],[121.295769,23.712173]]],[[[121.295382,23.719303],[121.295188,23.71912],[121.295088,23.719299],[121.295282,23.719392],[121.295382,23.719303]]],[[[121.286312,23.722905],[121.286413,23.722635],[121.286123,23.722361],[121.285828,23.722357],[121.285441,23.721992],[121.285446,23.721631],[121.285644,23.721452],[121.28584,23.721455],[121.285941,23.721275],[121.285649,23.721091],[121.285554,23.720819],[121.285257,23.721087],[121.28506,23.721085],[121.284867,23.720902],[121.285069,23.720453],[121.284584,23.719996],[121.28429,23.719993],[121.284092,23.720171],[121.284089,23.720352],[121.283693,23.720618],[121.28369,23.720889],[121.283493,23.720977],[121.283488,23.721338],[121.283683,23.721431],[121.283776,23.721793],[121.283972,23.721795],[121.284073,23.721616],[121.284662,23.721532],[121.284561,23.721802],[121.284463,23.7218],[121.284459,23.722071],[121.284262,23.722159],[121.284255,23.722701],[121.284448,23.722884],[121.285526,23.722986],[121.285525,23.723076],[121.286312,23.722905]]],[[[121.289532,23.724114],[121.289242,23.72384],[121.28885,23.723836],[121.288749,23.724015],[121.288553,23.724013],[121.288265,23.723558],[121.287576,23.723731],[121.28767,23.724003],[121.288161,23.724009],[121.288256,23.72419],[121.288551,23.724193],[121.288646,23.724375],[121.289431,23.724384],[121.289532,23.724114]]],[[[121.298545,23.702271],[121.298355,23.701817],[121.298452,23.701909],[121.298747,23.701822],[121.298941,23.702004],[121.29924,23.701646],[121.299243,23.701375],[121.298949,23.701372],[121.298944,23.701733],[121.298457,23.701457],[121.298061,23.701814],[121.298152,23.702357],[121.298347,23.702449],[121.298545,23.702271]]],[[[121.299124,23.703],[121.298827,23.703177],[121.298829,23.703087],[121.298632,23.703084],[121.298637,23.702723],[121.298443,23.702541],[121.298246,23.702629],[121.298338,23.703081],[121.298532,23.703264],[121.298529,23.703535],[121.299111,23.703993],[121.299109,23.704173],[121.299207,23.704174],[121.299105,23.704444],[121.2993,23.704537],[121.299399,23.704447],[121.299305,23.704175],[121.299702,23.703819],[121.29912,23.70327],[121.29922,23.703181],[121.299124,23.703]],[[121.29912,23.70327],[121.299021,23.70336],[121.299022,23.703269],[121.29912,23.70327]],[[121.298921,23.703539],[121.29902,23.70345],[121.299019,23.70354],[121.298921,23.703539]]],[[[121.298586,23.706696],[121.298288,23.706964],[121.298384,23.707145],[121.298679,23.707058],[121.298586,23.706696]]],[[[121.298575,23.707508],[121.298966,23.707603],[121.298867,23.707692],[121.29896,23.708055],[121.299156,23.708057],[121.299155,23.708147],[121.299353,23.708059],[121.299448,23.70824],[121.299842,23.708155],[121.300229,23.70852],[121.300428,23.708342],[121.300332,23.70816],[121.300529,23.708072],[121.300533,23.707801],[121.300731,23.707622],[121.301024,23.707716],[121.30142,23.707449],[121.301714,23.707453],[121.302012,23.707185],[121.302015,23.706914],[121.301725,23.70664],[121.30143,23.706637],[121.301328,23.706997],[121.300839,23.706901],[121.30084,23.706811],[121.300055,23.706802],[121.299955,23.706982],[121.29976,23.706889],[121.299362,23.707337],[121.298872,23.707331],[121.298873,23.707241],[121.29858,23.707147],[121.298481,23.707237],[121.298575,23.707508]],[[121.300136,23.708158],[121.300235,23.708069],[121.300234,23.708159],[121.300136,23.708158]],[[121.299453,23.707879],[121.299257,23.707877],[121.299259,23.707697],[121.299357,23.707698],[121.299453,23.707879]],[[121.300437,23.707619],[121.300338,23.707708],[121.300335,23.707889],[121.299944,23.707794],[121.299947,23.707614],[121.300437,23.707619]],[[121.299358,23.707607],[121.299458,23.707518],[121.299456,23.707608],[121.299358,23.707607]],[[121.299856,23.707071],[121.300052,23.707073],[121.300051,23.707164],[121.299855,23.707161],[121.299856,23.707071]]],[[[121.301468,23.711333],[121.301371,23.711241],[121.301175,23.711239],[121.301179,23.710878],[121.300597,23.71042],[121.300603,23.709969],[121.300312,23.709695],[121.299822,23.709689],[121.299726,23.709508],[121.29953,23.709506],[121.299142,23.70914],[121.299043,23.709229],[121.299138,23.709501],[121.299623,23.709868],[121.299617,23.710319],[121.29942,23.710407],[121.299418,23.710588],[121.299613,23.71068],[121.299812,23.710412],[121.300107,23.710415],[121.300299,23.710688],[121.300495,23.71069],[121.300689,23.710873],[121.300686,23.711144],[121.301172,23.71142],[121.301166,23.711871],[121.301263,23.711963],[121.301461,23.711875],[121.301468,23.711333]]],[[[121.301849,23.71215],[121.301754,23.711968],[121.301458,23.712055],[121.301553,23.712327],[121.301849,23.71215]]],[[[121.302036,23.712874],[121.301841,23.712782],[121.301741,23.712961],[121.301936,23.713054],[121.302036,23.712874]]],[[[121.300495,23.718275],[121.300497,23.718095],[121.300695,23.718006],[121.300699,23.717645],[121.300601,23.717644],[121.300703,23.717374],[121.300606,23.717283],[121.30041,23.717281],[121.300211,23.717459],[121.300099,23.718542],[121.300294,23.718634],[121.300397,23.718274],[121.300495,23.718275]]],[[[121.30658,23.725566],[121.306485,23.725294],[121.306779,23.725297],[121.30688,23.725118],[121.306783,23.725026],[121.306292,23.725021],[121.306197,23.724839],[121.306001,23.724837],[121.305999,23.724927],[121.305803,23.724925],[121.305407,23.725192],[121.305503,23.725373],[121.305699,23.725376],[121.305794,23.725648],[121.30648,23.725655],[121.30658,23.725566]]],[[[121.30511,23.725459],[121.304916,23.725277],[121.304816,23.725456],[121.305011,23.725549],[121.30511,23.725459]]],[[[121.303816,23.72689],[121.30372,23.726708],[121.303523,23.726797],[121.303527,23.726526],[121.304018,23.726441],[121.303928,23.725808],[121.303733,23.725715],[121.303534,23.725984],[121.303338,23.725982],[121.303139,23.72616],[121.303134,23.726521],[121.303328,23.726704],[121.303322,23.727156],[121.303516,23.727338],[121.303713,23.72725],[121.303718,23.726889],[121.303816,23.72689]]],[[[121.305862,23.727996],[121.305571,23.727722],[121.305478,23.72736],[121.304993,23.726903],[121.3047,23.726809],[121.3046,23.726989],[121.304988,23.727264],[121.305177,23.727808],[121.305371,23.727991],[121.305666,23.727994],[121.305664,23.728084],[121.305862,23.727996]]],[[[121.303311,23.728058],[121.303118,23.727785],[121.302726,23.727781],[121.302728,23.727601],[121.30263,23.727599],[121.302829,23.727421],[121.302733,23.727239],[121.302241,23.727324],[121.302049,23.727051],[121.301851,23.727139],[121.301946,23.727411],[121.302044,23.727412],[121.302042,23.727593],[121.301745,23.72777],[121.301841,23.727952],[121.302233,23.727956],[121.302427,23.728139],[121.303211,23.728148],[121.303311,23.728058]]]]}},{"type":"Feature","properties":{"kind":"bare_dam","month":"2025-06","area_ha":21.54},"geometry":{"type":"MultiPolygon","coordinates":[[[[121.302213,23.691656],[121.30251,23.691388],[121.302704,23.691571],[121.302602,23.691841],[121.302797,23.691933],[121.302799,23.691843],[121.303094,23.691756],[121.302998,23.691574],[121.303197,23.691396],[121.303098,23.691395],[121.303004,23.691123],[121.301829,23.691019],[121.301734,23.690748],[121.301249,23.690381],[121.301739,23.690386],[121.301738,23.690477],[121.302423,23.690574],[121.302424,23.690484],[121.302817,23.690398],[121.302721,23.690217],[121.302231,23.690211],[121.302232,23.690121],[121.301839,23.690207],[121.301743,23.690025],[121.301351,23.690021],[121.301352,23.689931],[121.301058,23.689927],[121.301059,23.689837],[121.300765,23.689834],[121.300767,23.689744],[121.300667,23.689833],[121.300373,23.68983],[121.300374,23.689739],[121.298708,23.689721],[121.298607,23.6899],[121.298018,23.689984],[121.297522,23.69043],[121.297521,23.690521],[121.297912,23.690615],[121.298212,23.690167],[121.298604,23.690171],[121.298603,23.690262],[121.298898,23.690175],[121.298897,23.690265],[121.299289,23.690269],[121.299481,23.690542],[121.299774,23.690636],[121.300072,23.690368],[121.299969,23.690728],[121.30026,23.691002],[121.300653,23.690916],[121.300846,23.691189],[121.301238,23.691194],[121.301526,23.691648],[121.302213,23.691656]],[[121.301432,23.691376],[121.301531,23.691287],[121.30153,23.691377],[121.301432,23.691376]],[[121.301922,23.691382],[121.301825,23.69129],[121.301923,23.691291],[121.301922,23.691382]],[[121.301242,23.690923],[121.301145,23.690831],[121.301243,23.690832],[121.301242,23.690923]],[[121.301147,23.690651],[121.30105,23.690559],[121.301148,23.69056],[121.301147,23.690651]]],[[[121.299958,23.691631],[121.300546,23.691637],[121.300646,23.691458],[121.300259,23.691093],[121.299766,23.691268],[121.299671,23.691086],[121.299474,23.691084],[121.299184,23.69081],[121.29889,23.690807],[121.298891,23.690716],[121.298596,23.690803],[121.298886,23.691077],[121.298883,23.691348],[121.299076,23.691531],[121.299567,23.691536],[121.299565,23.691627],[121.299959,23.691541],[121.299958,23.691631]],[[121.29996,23.69145],[121.299863,23.691359],[121.299961,23.69136],[121.29996,23.69145]]],[[[121.301138,23.691373],[121.300845,23.69128],[121.300846,23.691189],[121.300649,23.691277],[121.300939,23.691551],[121.301138,23.691373]]],[[[121.300625,23.693083],[121.300528,23.692992],[121.300629,23.692812],[121.300337,23.692628],[121.300238,23.692718],[121.300431,23.6929],[121.300331,23.69308],[121.300428,23.693171],[121.300625,23.693083]]],[[[121.300037,23.693077],[121.299941,23.692895],[121.299745,23.692893],[121.299649,23.692711],[121.299453,23.692709],[121.299163,23.692435],[121.299262,23.692346],[121.299264,23.692165],[121.299166,23.692164],[121.299268,23.691894],[121.298685,23.691436],[121.298195,23.691431],[121.298098,23.69134],[121.2982,23.69107],[121.298005,23.690977],[121.297903,23.691247],[121.297805,23.691246],[121.297898,23.691699],[121.297996,23.6917],[121.297894,23.69197],[121.298187,23.692063],[121.298088,23.692152],[121.298182,23.692424],[121.298381,23.692246],[121.298577,23.692248],[121.298575,23.692429],[121.298476,23.692427],[121.298568,23.69297],[121.29886,23.693064],[121.298955,23.693336],[121.29915,23.693428],[121.299149,23.693518],[121.298755,23.693604],[121.298553,23.694054],[121.299041,23.69424],[121.299232,23.694693],[121.299331,23.694604],[121.299722,23.694699],[121.299821,23.694609],[121.299726,23.694337],[121.300021,23.694341],[121.300116,23.694522],[121.300507,23.694617],[121.300607,23.694528],[121.300512,23.694256],[121.301392,23.694446],[121.30168,23.694901],[121.302173,23.694725],[121.301883,23.694361],[121.301687,23.694359],[121.30169,23.694178],[121.301592,23.694177],[121.301594,23.693997],[121.301496,23.693996],[121.301498,23.693815],[121.301303,23.693723],[121.301209,23.693451],[121.300915,23.693448],[121.300617,23.693715],[121.300326,23.693441],[121.300428,23.693171],[121.300037,23.693077]],[[121.299248,23.693429],[121.299444,23.693431],[121.299443,23.693522],[121.299247,23.693519],[121.299248,23.693429]],[[121.299547,23.693071],[121.299646,23.692982],[121.299645,23.693072],[121.299547,23.693071]],[[121.29829,23.691703],[121.298486,23.691705],[121.29868,23.691888],[121.298677,23.692068],[121.298481,23.692066],[121.298287,23.691884],[121.29829,23.691703]]],[[[121.303543,23.694921],[121.303349,23.694738],[121.303152,23.694827],[121.303345,23.6951],[121.303543,23.694921]]],[[[121.303442,23.695191],[121.303345,23.6951],[121.302953,23.695095],[121.302954,23.695005],[121.30256,23.695091],[121.302656,23.695273],[121.30295,23.695276],[121.303144,23.695459],[121.303439,23.695371],[121.303442,23.695191]]],[[[121.302259,23.695629],[121.301775,23.695173],[121.301676,23.695262],[121.301089,23.695165],[121.30089,23.695344],[121.300985,23.695615],[121.301477,23.69544],[121.301671,23.695623],[121.30216,23.695719],[121.302259,23.695629]]],[[[121.299707,23.695872],[121.299904,23.695784],[121.299906,23.695604],[121.299808,23.695603],[121.299714,23.695331],[121.299421,23.695237],[121.299321,23.695326],[121.29941,23.69605],[121.299605,23.696142],[121.299707,23.695872]]],[[[121.299195,23.697492],[121.299199,23.697221],[121.299395,23.697223],[121.299495,23.697044],[121.299398,23.696953],[121.299201,23.697041],[121.299207,23.696589],[121.298914,23.696496],[121.299013,23.696406],[121.298916,23.696315],[121.299028,23.695233],[121.298736,23.695139],[121.298738,23.694959],[121.298836,23.69496],[121.298741,23.694688],[121.298346,23.694954],[121.298151,23.694862],[121.29825,23.694773],[121.298155,23.694501],[121.298453,23.694233],[121.298455,23.694053],[121.29826,23.69396],[121.297864,23.694317],[121.297958,23.694589],[121.297665,23.694495],[121.297562,23.694855],[121.297464,23.694854],[121.297461,23.695125],[121.297656,23.695218],[121.297554,23.695487],[121.297748,23.69567],[121.297548,23.695939],[121.29784,23.696123],[121.297737,23.696483],[121.29803,23.696576],[121.298025,23.697028],[121.298509,23.697485],[121.298705,23.697487],[121.298904,23.697308],[121.298901,23.697489],[121.298803,23.697488],[121.298899,23.697669],[121.299195,23.697492]],[[121.29832,23.696941],[121.298618,23.696673],[121.298712,23.696945],[121.298417,23.697032],[121.29832,23.696941]],[[121.298431,23.695949],[121.298436,23.695587],[121.298632,23.69559],[121.29862,23.696492],[121.298227,23.696578],[121.298329,23.696218],[121.298527,23.69613],[121.298529,23.69595],[121.298431,23.695949]],[[121.298329,23.696218],[121.298232,23.696127],[121.29833,23.696128],[121.298329,23.696218]],[[121.298134,23.696126],[121.298137,23.695945],[121.298235,23.695946],[121.298232,23.696127],[121.298134,23.696126]],[[121.298245,23.695134],[121.298344,23.695045],[121.298343,23.695135],[121.298245,23.695134]]],[[[121.302539,23.696716],[121.302642,23.696356],[121.302349,23.696263],[121.302151,23.696441],[121.302248,23.696532],[121.302146,23.696802],[121.302341,23.696895],[121.302539,23.696716]]],[[[121.299883,23.697409],[121.300179,23.697232],[121.300184,23.696871],[121.299794,23.696686],[121.299695,23.696775],[121.299688,23.697317],[121.299883,23.697409]]],[[[121.311785,23.686884],[121.311692,23.686522],[121.3114,23.686338],[121.311404,23.686067],[121.311306,23.686066],[121.311212,23.685704],[121.310723,23.685608],[121.310624,23.685698],[121.310717,23.68606],[121.311203,23.686426],[121.311201,23.686607],[121.311588,23.686972],[121.311785,23.686884]]],[[[121.312375,23.6868],[121.312279,23.686619],[121.312083,23.686617],[121.311983,23.686796],[121.312276,23.68689],[121.312375,23.6868]]],[[[121.312761,23.687256],[121.312663,23.687255],[121.312667,23.686984],[121.312569,23.686983],[121.312669,23.686804],[121.312474,23.686711],[121.312375,23.6868],[121.312472,23.686892],[121.312369,23.687252],[121.312563,23.687435],[121.312761,23.687256]]],[[[121.310979,23.688591],[121.311079,23.688412],[121.310789,23.688138],[121.310491,23.688405],[121.31039,23.688675],[121.310585,23.688767],[121.310586,23.688677],[121.310979,23.688591]]],[[[121.303995,23.690321],[121.303703,23.690137],[121.303705,23.689956],[121.30351,23.689864],[121.303409,23.690134],[121.303604,23.690226],[121.303602,23.690407],[121.303795,23.69059],[121.303993,23.690501],[121.303995,23.690321]]],[[[121.310054,23.691922],[121.310055,23.691832],[121.309858,23.69192],[121.31005,23.692193],[121.310444,23.692107],[121.310348,23.691925],[121.310054,23.691922]]],[[[121.305251,23.691779],[121.304953,23.692047],[121.304758,23.691955],[121.304559,23.692223],[121.304363,23.692221],[121.304261,23.692491],[121.304358,23.692582],[121.304947,23.692498],[121.304944,23.692769],[121.305139,23.692862],[121.305238,23.692773],[121.305147,23.69223],[121.305345,23.692051],[121.305739,23.691965],[121.305939,23.691606],[121.305746,23.691424],[121.305452,23.69142],[121.305253,23.691599],[121.305251,23.691779]],[[121.305349,23.69178],[121.305348,23.691871],[121.30525,23.69187],[121.305251,23.691779],[121.305349,23.69178]]],[[[121.310836,23.692111],[121.310739,23.69202],[121.310543,23.692018],[121.310442,23.692197],[121.310734,23.692381],[121.310833,23.692292],[121.310836,23.692111]]],[[[121.304256,23.692852],[121.30387,23.692396],[121.303673,23.692484],[121.303665,23.693116],[121.304056,23.693211],[121.304151,23.693393],[121.304347,23.693395],[121.304349,23.693305],[121.304543,23.693397],[121.304842,23.693039],[121.304748,23.692767],[121.304455,23.692674],[121.304356,23.692763],[121.304449,23.693125],[121.304155,23.693122],[121.304256,23.692852]],[[121.304061,23.69276],[121.303962,23.692849],[121.303963,23.692759],[121.304061,23.69276]]],[[[121.305305,23.695211],[121.3059,23.694676],[121.305804,23.694494],[121.305509,23.694581],[121.30521,23.694939],[121.304917,23.694846],[121.304719,23.695024],[121.304812,23.695387],[121.305305,23.695211]]],[[[121.303927,23.695557],[121.304227,23.695109],[121.304325,23.69511],[121.304131,23.694928],[121.304232,23.694748],[121.303841,23.694653],[121.303739,23.694923],[121.303542,23.695011],[121.303639,23.695103],[121.303537,23.695373],[121.303731,23.695555],[121.303927,23.695557]],[[121.30403,23.695197],[121.303834,23.695195],[121.303735,23.695284],[121.303737,23.695104],[121.303933,23.695106],[121.303934,23.695016],[121.304032,23.695017],[121.30403,23.695197]]]]}},{"type":"Feature","properties":{"kind":"water","month":"2025-06","area_ha":10.2},"geometry":{"type":"MultiPolygon","coordinates":[[[[121.282122,23.690802],[121.282318,23.690804],[121.28232,23.690714],[121.282124,23.690712],[121.282122,23.690802]]],[[[121.280648,23.691057],[121.280452,23.691054],[121.280453,23.690964],[121.280257,23.690962],[121.280352,23.691234],[121.280842,23.691239],[121.280648,23.691057]]],[[[121.284357,23.692362],[121.284164,23.692179],[121.284069,23.691907],[121.283873,23.691905],[121.283875,23.691724],[121.283682,23.691542],[121.283389,23.691448],[121.283392,23.691177],[121.283294,23.691176],[121.283202,23.690724],[121.283007,23.690631],[121.283009,23.690451],[121.282616,23.690537],[121.282615,23.690627],[121.282321,23.690624],[121.28232,23.690714],[121.282614,23.690717],[121.283097,23.691264],[121.283293,23.691266],[121.283287,23.691718],[121.283481,23.691901],[121.283872,23.691995],[121.284161,23.69236],[121.284357,23.692362]]],[[[121.284929,23.693632],[121.284934,23.693271],[121.284739,23.693179],[121.28484,23.692909],[121.28455,23.692635],[121.284448,23.692905],[121.284546,23.692906],[121.284637,23.693449],[121.284832,23.693541],[121.284825,23.694083],[121.285117,23.694267],[121.285122,23.693905],[121.285023,23.693904],[121.285027,23.693633],[121.284929,23.693632]]],[[[121.285788,23.695448],[121.28579,23.695267],[121.285399,23.695173],[121.285407,23.694541],[121.285309,23.69454],[121.2853,23.695262],[121.285687,23.695627],[121.285982,23.695631],[121.285788,23.695448]]],[[[121.298431,23.695949],[121.298529,23.69595],[121.298425,23.6964],[121.29862,23.696492],[121.298632,23.69559],[121.298436,23.695587],[121.298431,23.695949]]],[[[121.29222,23.698499],[121.291832,23.698133],[121.29144,23.698129],[121.291441,23.698039],[121.29105,23.697944],[121.290955,23.697763],[121.290661,23.697759],[121.290567,23.697397],[121.29018,23.697032],[121.290182,23.696851],[121.289988,23.696668],[121.289693,23.696755],[121.289788,23.697027],[121.290081,23.697121],[121.290078,23.697301],[121.29037,23.697485],[121.290368,23.697666],[121.290563,23.697758],[121.29056,23.697939],[121.290754,23.698121],[121.29095,23.698124],[121.290949,23.698214],[121.291244,23.698127],[121.291535,23.698401],[121.291732,23.698313],[121.291925,23.698586],[121.29222,23.698499]]],[[[121.295649,23.698717],[121.295648,23.698808],[121.295452,23.698805],[121.295545,23.699168],[121.296141,23.698632],[121.295649,23.698717]]],[[[121.29643,23.698997],[121.296432,23.698816],[121.296236,23.698814],[121.296238,23.698724],[121.29604,23.698812],[121.296136,23.698994],[121.296332,23.698996],[121.296428,23.699177],[121.296721,23.699271],[121.296723,23.69909],[121.29643,23.698997]]],[[[121.297884,23.700277],[121.297984,23.700188],[121.297886,23.700187],[121.297884,23.700277]]],[[[121.298368,23.700824],[121.29827,23.700823],[121.298265,23.701184],[121.298461,23.701186],[121.298368,23.700824]]],[[[121.311394,23.68679],[121.311491,23.686881],[121.311492,23.686791],[121.311394,23.68679]]],[[[121.31149,23.686971],[121.311589,23.686882],[121.311491,23.686881],[121.31149,23.686971]]],[[[121.311382,23.687783],[121.312076,23.687158],[121.312368,23.687342],[121.312375,23.6868],[121.312276,23.68689],[121.311885,23.686795],[121.311784,23.686975],[121.311588,23.686972],[121.311586,23.687153],[121.311387,23.687331],[121.311385,23.687512],[121.311483,23.687513],[121.311382,23.687783]]],[[[121.308714,23.689379],[121.309211,23.688843],[121.308917,23.68884],[121.308914,23.68902],[121.308717,23.689108],[121.308714,23.689379]]],[[[121.308509,23.690009],[121.308512,23.689828],[121.308414,23.689827],[121.308411,23.690008],[121.308509,23.690009]]],[[[121.308795,23.690644],[121.308799,23.690373],[121.308701,23.690372],[121.308703,23.690192],[121.308605,23.690191],[121.308607,23.69001],[121.308509,23.690009],[121.308597,23.690823],[121.308791,23.691005],[121.308987,23.691008],[121.30899,23.690737],[121.308795,23.690644]]],[[[121.308093,23.691901],[121.30839,23.691633],[121.308686,23.691546],[121.308591,23.691274],[121.308395,23.691272],[121.308393,23.691453],[121.308197,23.69145],[121.307998,23.691629],[121.308093,23.691901]]],[[[121.307403,23.692164],[121.307599,23.692166],[121.307505,23.691894],[121.307014,23.691889],[121.306816,23.692067],[121.306913,23.692159],[121.306812,23.692338],[121.307107,23.692341],[121.307108,23.692251],[121.307402,23.692254],[121.307403,23.692164]]],[[[121.304022,23.695829],[121.304221,23.695561],[121.304615,23.695475],[121.304819,23.694845],[121.305015,23.694847],[121.304918,23.694756],[121.30502,23.694486],[121.30443,23.69457],[121.304428,23.69475],[121.304625,23.694662],[121.304622,23.694933],[121.304423,23.695111],[121.304227,23.695109],[121.304225,23.69529],[121.303829,23.695556],[121.303627,23.696006],[121.304022,23.695829]]],[[[121.297011,23.699545],[121.297107,23.699727],[121.298085,23.699918],[121.297981,23.700368],[121.298079,23.700369],[121.298072,23.700911],[121.29817,23.700912],[121.29827,23.700823],[121.298176,23.700461],[121.298372,23.700463],[121.298375,23.700282],[121.298473,23.700283],[121.298468,23.700645],[121.298566,23.700646],[121.298669,23.700286],[121.298963,23.700289],[121.298964,23.700199],[121.29867,23.700195],[121.298672,23.700015],[121.29877,23.700016],[121.298777,23.699474],[121.298875,23.699475],[121.298879,23.699204],[121.298977,23.699205],[121.298983,23.698754],[121.299179,23.698756],[121.299282,23.698396],[121.300264,23.698226],[121.300267,23.698046],[121.300561,23.698049],[121.300759,23.69787],[121.300954,23.697963],[121.300854,23.698142],[121.30105,23.698145],[121.301352,23.697516],[121.301644,23.6977],[121.301645,23.697609],[121.301941,23.697522],[121.301943,23.697342],[121.302434,23.697257],[121.302733,23.696899],[121.303028,23.696812],[121.303136,23.696091],[121.303431,23.696003],[121.303432,23.695913],[121.303138,23.69591],[121.303034,23.69636],[121.302836,23.696539],[121.302543,23.696445],[121.302639,23.696627],[121.302143,23.697073],[121.301946,23.697071],[121.301648,23.697429],[121.301059,23.697422],[121.301061,23.697332],[121.300961,23.697421],[121.300864,23.69733],[121.300373,23.697415],[121.300374,23.697324],[121.300081,23.697231],[121.30008,23.697321],[121.299884,23.697319],[121.299782,23.697589],[121.298801,23.697668],[121.298601,23.697937],[121.298307,23.697934],[121.2982,23.698655],[121.298004,23.698653],[121.298001,23.698833],[121.297903,23.698832],[121.297897,23.699284],[121.297799,23.699283],[121.297894,23.699555],[121.2976,23.699551],[121.297598,23.699642],[121.297011,23.699545]],[[121.297894,23.699555],[121.297991,23.699646],[121.297893,23.699645],[121.297894,23.699555]],[[121.29828,23.70001],[121.298476,23.700013],[121.298474,23.700193],[121.298278,23.700191],[121.29828,23.70001]],[[121.298385,23.69947],[121.298189,23.699468],[121.298291,23.699198],[121.298389,23.699199],[121.298385,23.69947]],[[121.298683,23.699202],[121.298487,23.6992],[121.29849,23.698929],[121.298686,23.698931],[121.298683,23.699202]],[[121.298686,23.698931],[121.298786,23.698842],[121.298784,23.698932],[121.298686,23.698931]],[[121.298292,23.699108],[121.298391,23.699018],[121.29839,23.699109],[121.298292,23.699108]]]]}}]}