{"type":"FeatureCollection","features":[{"type":"Feature","properties":{"kind":"bare_slide","month":"2025-07","area_ha":344.68},"geometry":{"type":"MultiPolygon","coordinates":[[[[121.295448,23.706661],[121.29535,23.70666],[121.295356,23.706209],[121.295258,23.706208],[121.295166,23.705755],[121.295067,23.705754],[121.295078,23.704942],[121.294981,23.70485],[121.294784,23.704938],[121.294779,23.7053],[121.294681,23.705298],[121.29458,23.705568],[121.294289,23.705294],[121.2936,23.705467],[121.293598,23.705648],[121.2935,23.705647],[121.293592,23.706099],[121.29369,23.7061],[121.293586,23.706551],[121.293683,23.706642],[121.294272,23.706558],[121.294368,23.70674],[121.294662,23.706743],[121.29466,23.706924],[121.294562,23.706923],[121.294653,23.707465],[121.294358,23.707552],[121.294256,23.707822],[121.294158,23.707821],[121.294154,23.708092],[121.294253,23.708093],[121.294151,23.708363],[121.294248,23.708454],[121.294644,23.708188],[121.294647,23.707917],[121.294844,23.707829],[121.29485,23.707377],[121.295147,23.7072],[121.295053,23.706838],[121.295345,23.707021],[121.295448,23.706661]],[[121.293987,23.705923],[121.294183,23.705925],[121.294278,23.706107],[121.293885,23.706193],[121.293987,23.705923]]],[[[121.295245,23.707201],[121.29544,23.707293],[121.295241,23.707472],[121.295337,23.707653],[121.295533,23.707656],[121.295534,23.707565],[121.295729,23.707658],[121.29573,23.707567],[121.29632,23.707484],[121.296321,23.707393],[121.296517,23.707396],[121.296516,23.707486],[121.297007,23.707401],[121.29701,23.70722],[121.296816,23.707038],[121.29662,23.707035],[121.296421,23.707214],[121.295932,23.707118],[121.295832,23.707298],[121.295636,23.707296],[121.295345,23.707021],[121.295245,23.707201]]],[[[121.299427,23.709866],[121.299127,23.710314],[121.29942,23.710407],[121.299516,23.710589],[121.299814,23.710321],[121.300108,23.710325],[121.3003,23.710598],[121.300691,23.710692],[121.300687,23.711053],[121.301173,23.71133],[121.301261,23.712143],[121.300865,23.71241],[121.300669,23.712408],[121.300378,23.712134],[121.30018,23.712312],[121.299886,23.712309],[121.299885,23.712399],[121.299592,23.712306],[121.299492,23.712395],[121.299488,23.712756],[121.299289,23.712934],[121.299677,23.7133],[121.299971,23.713303],[121.300165,23.713486],[121.300255,23.714119],[121.300057,23.714207],[121.299955,23.714567],[121.299757,23.714655],[121.299852,23.714927],[121.299754,23.714926],[121.299749,23.715287],[121.299651,23.715286],[121.299548,23.715646],[121.299153,23.715913],[121.299146,23.716454],[121.298949,23.716452],[121.298751,23.716631],[121.298747,23.716901],[121.29845,23.717169],[121.298156,23.717166],[121.298055,23.717345],[121.297859,23.717343],[121.297665,23.71716],[121.297864,23.716982],[121.297671,23.716709],[121.297377,23.716706],[121.297376,23.716796],[121.29708,23.716883],[121.297274,23.717066],[121.297271,23.717337],[121.297466,23.717429],[121.297461,23.71779],[121.297559,23.717791],[121.297457,23.718061],[121.297845,23.718427],[121.298238,23.718341],[121.298236,23.718521],[121.298334,23.718522],[121.298331,23.718793],[121.297837,23.719059],[121.297834,23.719239],[121.297931,23.719331],[121.298129,23.719242],[121.298321,23.719515],[121.298223,23.719514],[121.298219,23.719876],[121.297823,23.720142],[121.297813,23.720864],[121.298008,23.720957],[121.298005,23.721228],[121.297711,23.721224],[121.297611,23.721314],[121.297606,23.721765],[121.296415,23.722836],[121.296119,23.722923],[121.296214,23.723195],[121.296506,23.723378],[121.296503,23.723559],[121.296305,23.723737],[121.296694,23.724013],[121.296689,23.724374],[121.295896,23.724997],[121.295992,23.725179],[121.295795,23.725267],[121.295692,23.725627],[121.296081,23.725902],[121.296175,23.726174],[121.296567,23.726178],[121.296766,23.726],[121.296773,23.725458],[121.296676,23.725367],[121.296872,23.725369],[121.297568,23.724654],[121.297863,23.724567],[121.297946,23.725742],[121.298239,23.725836],[121.298338,23.725746],[121.298345,23.725205],[121.298444,23.725206],[121.298253,23.724752],[121.298547,23.724755],[121.298746,23.724577],[121.298749,23.724306],[121.299432,23.724584],[121.299429,23.724855],[121.299818,23.72513],[121.300113,23.725043],[121.299919,23.724861],[121.299922,23.72468],[121.299727,23.724588],[121.299728,23.724497],[121.299924,23.7245],[121.300213,23.724864],[121.300901,23.724781],[121.300802,23.72487],[121.300895,23.725233],[121.300697,23.725411],[121.300891,23.725594],[121.301087,23.725596],[121.301081,23.726047],[121.301179,23.726048],[121.301077,23.726318],[121.30137,23.726412],[121.301569,23.726233],[121.301575,23.725782],[121.301673,23.725783],[121.301865,23.726056],[121.30216,23.726059],[121.302253,23.726421],[121.302155,23.72642],[121.302052,23.72678],[121.302246,23.726963],[121.302442,23.726965],[121.302544,23.726696],[121.302446,23.726694],[121.302352,23.726332],[121.302651,23.725974],[121.302759,23.725253],[121.303049,23.725527],[121.303148,23.725438],[121.303158,23.724716],[121.303354,23.724718],[121.303548,23.724901],[121.303544,23.725171],[121.303346,23.72535],[121.303439,23.725712],[121.303141,23.72598],[121.303038,23.72643],[121.303231,23.726613],[121.303227,23.726974],[121.303325,23.726975],[121.303418,23.727337],[121.303613,23.72743],[121.303411,23.727879],[121.3038,23.728154],[121.303903,23.727794],[121.304596,23.72726],[121.304307,23.726895],[121.304407,23.726716],[121.304505,23.726717],[121.304502,23.726988],[121.304795,23.727081],[121.304792,23.727262],[121.304594,23.72744],[121.304691,23.727532],[121.305084,23.727446],[121.305183,23.727357],[121.305086,23.727265],[121.305189,23.726905],[121.304701,23.726719],[121.304703,23.726539],[121.304509,23.726446],[121.304708,23.726177],[121.304611,23.726086],[121.304413,23.726265],[121.304022,23.72617],[121.303934,23.725356],[121.304612,23.725996],[121.304713,23.725816],[121.304615,23.725815],[121.30452,23.725543],[121.305012,23.725458],[121.305112,23.725279],[121.304428,23.725091],[121.304237,23.724728],[121.304039,23.724816],[121.303652,23.72445],[121.30405,23.724003],[121.303856,23.72382],[121.303861,23.723459],[121.304158,23.723192],[121.303965,23.723009],[121.303872,23.722556],[121.304265,23.722561],[121.304263,23.722651],[121.304654,23.722746],[121.304652,23.722926],[121.304456,23.722924],[121.304354,23.723194],[121.304548,23.723376],[121.304744,23.723379],[121.304746,23.723288],[121.305235,23.723384],[121.305718,23.723931],[121.305915,23.723843],[121.30592,23.723482],[121.306605,23.72358],[121.306698,23.724032],[121.306796,23.724033],[121.306791,23.724394],[121.306592,23.724573],[121.306396,23.724571],[121.306296,23.72475],[121.306003,23.724657],[121.306002,23.724747],[121.305806,23.724745],[121.30541,23.725011],[121.305407,23.725192],[121.305795,23.725557],[121.306186,23.725652],[121.30628,23.726014],[121.306577,23.725746],[121.306971,23.72566],[121.306874,23.725569],[121.306881,23.725027],[121.307277,23.724761],[121.307282,23.724309],[121.307087,23.724217],[121.30709,23.724036],[121.307287,23.723948],[121.307191,23.723767],[121.307585,23.723681],[121.307591,23.723229],[121.307493,23.723228],[121.307594,23.722958],[121.307008,23.722771],[121.306912,23.72259],[121.306716,23.722587],[121.306425,23.722313],[121.306326,23.722403],[121.306319,23.722944],[121.306417,23.722945],[121.306316,23.723215],[121.305925,23.723121],[121.305635,23.722756],[121.305438,23.722844],[121.305532,23.723116],[121.30514,23.723112],[121.305044,23.72293],[121.305342,23.722663],[121.305344,23.722482],[121.305246,23.722481],[121.305153,23.722119],[121.304859,23.722116],[121.304962,23.721756],[121.304572,23.721571],[121.304673,23.721301],[121.304478,23.721208],[121.304386,23.720756],[121.304189,23.720844],[121.30408,23.721656],[121.304467,23.722111],[121.303485,23.722191],[121.303194,23.721917],[121.302704,23.721911],[121.302316,23.721546],[121.30232,23.721275],[121.302222,23.721274],[121.302224,23.721093],[121.302029,23.721001],[121.301934,23.720729],[121.302233,23.720371],[121.302237,23.7201],[121.302434,23.720012],[121.302442,23.71938],[121.302247,23.719288],[121.302147,23.719467],[121.301951,23.719465],[121.301953,23.719284],[121.301758,23.719192],[121.301957,23.719014],[121.301959,23.718833],[121.301764,23.718741],[121.301867,23.718381],[121.301672,23.718288],[121.301772,23.718109],[121.301674,23.718108],[121.301679,23.717746],[121.301581,23.717745],[121.301591,23.716933],[121.301493,23.716932],[121.301496,23.716751],[121.301594,23.716752],[121.301609,23.715578],[121.301218,23.715484],[121.301225,23.714942],[121.301422,23.714854],[121.301424,23.714673],[121.301719,23.714677],[121.301619,23.714766],[121.301714,23.715038],[121.302012,23.71477],[121.303482,23.714786],[121.303582,23.714697],[121.303589,23.714155],[121.303394,23.714063],[121.303398,23.713702],[121.303795,23.713345],[121.305658,23.713365],[121.305759,23.713186],[121.306641,23.713196],[121.306742,23.713016],[121.308016,23.71303],[121.308117,23.71285],[121.308999,23.71286],[121.309298,23.712502],[121.309492,23.712685],[121.310571,23.712697],[121.310868,23.712429],[121.310774,23.712157],[121.310676,23.712156],[121.310776,23.711977],[121.310873,23.712068],[121.311266,23.711982],[121.311264,23.712162],[121.311362,23.712164],[121.311261,23.712433],[121.311554,23.712527],[121.311654,23.712347],[121.312045,23.712442],[121.312243,23.712263],[121.312346,23.711903],[121.311955,23.711809],[121.311861,23.711537],[121.311662,23.711715],[121.310976,23.711708],[121.310875,23.711887],[121.310679,23.711885],[121.310684,23.711524],[121.310391,23.711431],[121.31029,23.71161],[121.309408,23.7116],[121.309209,23.711779],[121.309207,23.711959],[121.309596,23.712235],[121.309302,23.712231],[121.308914,23.711866],[121.308913,23.711956],[121.308227,23.711949],[121.308225,23.712039],[121.307246,23.711938],[121.307146,23.712117],[121.30695,23.712115],[121.306751,23.712294],[121.306655,23.712112],[121.305969,23.712105],[121.305873,23.711923],[121.305579,23.71192],[121.305483,23.711738],[121.305287,23.711736],[121.305187,23.711915],[121.304893,23.711912],[121.304395,23.712449],[121.304199,23.712446],[121.304105,23.712174],[121.303809,23.712262],[121.303714,23.71208],[121.303419,23.712077],[121.303318,23.712346],[121.303221,23.712255],[121.303024,23.712343],[121.303028,23.711982],[121.302444,23.711705],[121.302344,23.711794],[121.30244,23.711976],[121.302243,23.712064],[121.302049,23.711881],[121.30195,23.71197],[121.302044,23.712242],[121.301449,23.712777],[121.301253,23.712775],[121.301257,23.712414],[121.301754,23.711968],[121.301462,23.711784],[121.301566,23.711334],[121.301177,23.711059],[121.30118,23.710788],[121.300987,23.710605],[121.301869,23.710615],[121.301965,23.710796],[121.302357,23.710801],[121.302453,23.710982],[121.302747,23.710986],[121.302847,23.710806],[121.302652,23.710714],[121.302656,23.710443],[121.303045,23.710718],[121.303443,23.710271],[121.303737,23.710274],[121.304036,23.709916],[121.304722,23.709924],[121.305218,23.709478],[121.305222,23.709207],[121.305717,23.708851],[121.30572,23.70858],[121.306011,23.708854],[121.306305,23.708857],[121.306405,23.708678],[121.307484,23.70869],[121.307584,23.70851],[121.307879,23.708514],[121.30788,23.708423],[121.308271,23.708518],[121.308371,23.708338],[121.308565,23.708521],[121.309251,23.708529],[121.309352,23.708349],[121.310332,23.70836],[121.310432,23.708271],[121.310338,23.707908],[121.310827,23.708004],[121.310928,23.707824],[121.311223,23.707737],[121.31103,23.707464],[121.310639,23.70737],[121.31074,23.70719],[121.310352,23.706825],[121.310455,23.706465],[121.310261,23.706282],[121.310064,23.70637],[121.310066,23.70619],[121.309872,23.706007],[121.309382,23.706002],[121.309286,23.70582],[121.308992,23.705817],[121.308605,23.705451],[121.308608,23.70518],[121.308219,23.704905],[121.308223,23.704634],[121.308028,23.704542],[121.308036,23.70391],[121.307841,23.703818],[121.30786,23.702373],[121.308057,23.702285],[121.308061,23.702014],[121.308258,23.701926],[121.308261,23.701655],[121.308359,23.701656],[121.308276,23.700481],[121.308573,23.700304],[121.308481,23.699851],[121.308775,23.699855],[121.308875,23.699675],[121.309071,23.699677],[121.309459,23.700043],[121.309263,23.70004],[121.309069,23.699858],[121.308966,23.700218],[121.309063,23.700309],[121.309259,23.700311],[121.30926,23.700221],[121.309553,23.700315],[121.309653,23.700225],[121.309558,23.699953],[121.309755,23.699865],[121.309661,23.699593],[121.309368,23.6995],[121.309078,23.699135],[121.308491,23.699039],[121.308302,23.698495],[121.308106,23.698493],[121.308004,23.698763],[121.308392,23.699128],[121.30839,23.699309],[121.30829,23.699398],[121.307899,23.699303],[121.307799,23.699483],[121.307309,23.699477],[121.307313,23.699116],[121.307118,23.699024],[121.307122,23.698753],[121.306734,23.698387],[121.306146,23.698381],[121.305948,23.698559],[121.305952,23.698198],[121.305659,23.698105],[121.305662,23.697924],[121.30537,23.69774],[121.305372,23.69756],[121.30567,23.697292],[121.30538,23.696928],[121.304687,23.697462],[121.304685,23.697643],[121.304489,23.69764],[121.304191,23.697908],[121.304185,23.69836],[121.303988,23.698448],[121.303983,23.698809],[121.304081,23.69881],[121.304085,23.698539],[121.30468,23.698004],[121.304972,23.698188],[121.304967,23.698549],[121.304274,23.699083],[121.304272,23.699263],[121.304075,23.699261],[121.304175,23.699172],[121.30408,23.6989],[121.303785,23.698987],[121.303781,23.699258],[121.303584,23.699346],[121.303579,23.699707],[121.302985,23.700152],[121.302982,23.700423],[121.303176,23.700606],[121.302977,23.700784],[121.302972,23.701146],[121.302675,23.701413],[121.302381,23.70141],[121.302378,23.701591],[121.302086,23.701407],[121.301986,23.701586],[121.3013,23.701579],[121.301199,23.701758],[121.300808,23.701664],[121.300411,23.70202],[121.300605,23.702203],[121.300406,23.702472],[121.300697,23.702656],[121.300499,23.702834],[121.300497,23.703015],[121.30069,23.703197],[121.300687,23.703468],[121.301074,23.703834],[121.301263,23.704378],[121.30087,23.704464],[121.300777,23.704101],[121.300486,23.703827],[121.300289,23.703915],[121.300186,23.704275],[121.300477,23.70455],[121.300868,23.704644],[121.300961,23.705006],[121.300764,23.705094],[121.30076,23.705365],[121.301052,23.705549],[121.301049,23.70582],[121.301244,23.705912],[121.301446,23.705463],[121.301544,23.705464],[121.301639,23.705646],[121.301835,23.705648],[121.302029,23.705831],[121.302027,23.706011],[121.302221,23.706194],[121.302417,23.706196],[121.302414,23.706377],[121.301922,23.706552],[121.301826,23.70637],[121.301533,23.706277],[121.301432,23.706547],[121.301136,23.706634],[121.301036,23.706813],[121.300549,23.706537],[121.300548,23.706627],[121.299762,23.706709],[121.299266,23.707155],[121.298874,23.707151],[121.298876,23.70697],[121.298778,23.706969],[121.298886,23.706248],[121.299082,23.70625],[121.299177,23.706432],[121.299668,23.706437],[121.299763,23.706619],[121.29996,23.706621],[121.300158,23.706442],[121.300165,23.705901],[121.299971,23.705718],[121.299775,23.705716],[121.299774,23.705806],[121.299579,23.705714],[121.299681,23.705444],[121.299583,23.705443],[121.299489,23.70508],[121.299688,23.704902],[121.299979,23.705086],[121.300178,23.704907],[121.300181,23.704637],[121.299502,23.704087],[121.299419,23.702913],[121.299618,23.702734],[121.299811,23.702917],[121.300008,23.702919],[121.300306,23.702561],[121.299919,23.702196],[121.299722,23.702284],[121.299816,23.702556],[121.299327,23.70246],[121.299133,23.702277],[121.299136,23.702097],[121.299433,23.701829],[121.299628,23.701922],[121.299729,23.701742],[121.300019,23.702016],[121.300215,23.702018],[121.300612,23.701661],[121.300515,23.70157],[121.299633,23.70156],[121.299537,23.701379],[121.298753,23.70137],[121.298657,23.701188],[121.297675,23.701268],[121.297965,23.701632],[121.298161,23.701634],[121.298359,23.701456],[121.298748,23.701731],[121.29845,23.701999],[121.298448,23.702179],[121.298254,23.701997],[121.298057,23.702085],[121.298051,23.702536],[121.297952,23.702625],[121.298341,23.702901],[121.298432,23.703443],[121.298724,23.703627],[121.298622,23.703897],[121.298817,23.703989],[121.299015,23.703811],[121.299012,23.704082],[121.298815,23.70417],[121.298907,23.704623],[121.298416,23.704617],[121.298218,23.704796],[121.298314,23.704977],[121.29851,23.704979],[121.298408,23.705249],[121.298016,23.705245],[121.298015,23.705335],[121.297721,23.705332],[121.29772,23.705422],[121.297227,23.705597],[121.297905,23.706237],[121.298101,23.706239],[121.298102,23.706149],[121.298296,23.706332],[121.298493,23.706243],[121.298489,23.706605],[121.298,23.706509],[121.2979,23.706598],[121.297997,23.706689],[121.297892,23.70723],[121.297793,23.707319],[121.297303,23.707314],[121.296906,23.707671],[121.297,23.707943],[121.297787,23.707771],[121.297784,23.708042],[121.297686,23.70804],[121.297682,23.708311],[121.297487,23.708219],[121.297289,23.708397],[121.297286,23.708578],[121.296797,23.708482],[121.296695,23.708842],[121.296596,23.708841],[121.296592,23.709202],[121.296298,23.709199],[121.295999,23.709557],[121.296093,23.709829],[121.296585,23.709744],[121.296875,23.710018],[121.296579,23.710195],[121.296477,23.710465],[121.296089,23.71019],[121.295985,23.71064],[121.295589,23.710907],[121.295583,23.711358],[121.295485,23.711357],[121.295382,23.711717],[121.295185,23.711806],[121.295183,23.711986],[121.295476,23.71208],[121.295472,23.71235],[121.295276,23.712348],[121.295176,23.712528],[121.294684,23.712613],[121.294286,23.71306],[121.294189,23.712968],[121.293993,23.712966],[121.293992,23.713057],[121.293405,23.71296],[121.293403,23.71305],[121.292913,23.713045],[121.292814,23.713134],[121.29262,23.712951],[121.292326,23.712948],[121.292325,23.713038],[121.292228,23.712947],[121.292032,23.712945],[121.292031,23.713035],[121.291738,23.712941],[121.291643,23.712669],[121.29184,23.712581],[121.292042,23.712132],[121.292729,23.71214],[121.292728,23.71223],[121.292827,23.712141],[121.293317,23.712146],[121.293316,23.712236],[121.293513,23.712148],[121.293223,23.711874],[121.293321,23.711875],[121.293323,23.711695],[121.29342,23.711786],[121.293617,23.711698],[121.293425,23.711425],[121.293722,23.711157],[121.293429,23.711064],[121.293132,23.711331],[121.292051,23.7115],[121.291951,23.711589],[121.291949,23.71177],[121.292047,23.711771],[121.291946,23.712041],[121.291748,23.712129],[121.291555,23.711946],[121.291256,23.712304],[121.29106,23.712302],[121.290958,23.712572],[121.290761,23.71266],[121.290758,23.71284],[121.290365,23.712926],[121.289866,23.713553],[121.289473,23.713639],[121.289271,23.714088],[121.288676,23.714623],[121.288481,23.714531],[121.288281,23.714799],[121.288085,23.714797],[121.288185,23.714618],[121.287991,23.714435],[121.287795,23.714433],[121.287597,23.714611],[121.287694,23.714703],[121.287592,23.714972],[121.287396,23.71497],[121.287398,23.71479],[121.287496,23.714791],[121.287401,23.714609],[121.287203,23.714697],[121.287299,23.714879],[121.287102,23.714967],[121.287103,23.714877],[121.28681,23.714783],[121.286909,23.714694],[121.286814,23.714512],[121.286324,23.714417],[121.286126,23.714595],[121.28632,23.714778],[121.286316,23.715049],[121.286019,23.715316],[121.285527,23.715401],[121.285329,23.715579],[121.285326,23.71576],[121.284832,23.716025],[121.285123,23.7163],[121.285121,23.71648],[121.284922,23.716659],[121.285018,23.71684],[121.284819,23.717019],[121.284526,23.716925],[121.28453,23.716654],[121.284239,23.71638],[121.283847,23.716376],[121.283647,23.716644],[121.28306,23.716548],[121.282959,23.716817],[121.282761,23.716905],[121.282758,23.717176],[121.28305,23.71736],[121.28304,23.718082],[121.282842,23.718261],[121.282451,23.718166],[121.282348,23.718526],[121.282638,23.7188],[121.282534,23.719251],[121.282825,23.719525],[121.282527,23.719792],[121.282036,23.719877],[121.282035,23.719968],[121.281739,23.720055],[121.28173,23.720777],[121.281924,23.72096],[121.282316,23.720964],[121.282515,23.720695],[121.282907,23.72079],[121.283105,23.720611],[121.283198,23.720974],[121.283296,23.720975],[121.283094,23.721424],[121.283288,23.721607],[121.283484,23.721609],[121.28358,23.721791],[121.284069,23.721886],[121.284368,23.721528],[121.284564,23.721531],[121.284461,23.721891],[121.284264,23.721979],[121.284257,23.722521],[121.284452,23.722613],[121.284349,23.722973],[121.285526,23.722986],[121.285524,23.723167],[121.28572,23.723169],[121.285717,23.723349],[121.286012,23.723353],[121.28621,23.723174],[121.286214,23.722903],[121.28641,23.722906],[121.286603,23.723088],[121.286405,23.723267],[121.286498,23.723629],[121.286694,23.723631],[121.286692,23.723812],[121.286888,23.723814],[121.286886,23.723994],[121.287278,23.723999],[121.287276,23.724179],[121.287374,23.72418],[121.287672,23.723913],[121.287865,23.724096],[121.287863,23.724276],[121.287765,23.724275],[121.287857,23.724728],[121.288053,23.72473],[121.288051,23.72491],[121.288247,23.724913],[121.288242,23.725274],[121.288536,23.725277],[121.288539,23.725096],[121.288735,23.725099],[121.288837,23.724829],[121.288935,23.72483],[121.28903,23.725011],[121.289226,23.725014],[121.289126,23.725193],[121.289613,23.725469],[121.289512,23.725649],[121.290395,23.725659],[121.290393,23.725839],[121.290785,23.725844],[121.290783,23.726024],[121.291175,23.726028],[121.291172,23.726209],[121.291565,23.726213],[121.291562,23.726394],[121.291662,23.726305],[121.292053,23.726399],[121.292055,23.726219],[121.292254,23.72604],[121.292646,23.726045],[121.292746,23.725865],[121.292942,23.725867],[121.293136,23.72605],[121.292937,23.726319],[121.293427,23.726324],[121.293527,23.726145],[121.29392,23.726149],[121.293922,23.725969],[121.294412,23.725974],[121.294611,23.725796],[121.294614,23.725525],[121.29481,23.725527],[121.29471,23.725706],[121.295001,23.72598],[121.295491,23.725986],[121.295297,23.725803],[121.2954,23.725443],[121.295302,23.725442],[121.295305,23.725171],[121.29511,23.725079],[121.295113,23.724898],[121.295211,23.724899],[121.295116,23.724627],[121.295509,23.724632],[121.295611,23.724271],[121.295809,23.724183],[121.295716,23.723731],[121.296014,23.723463],[121.296026,23.72256],[121.295928,23.722559],[121.296028,23.72238],[121.295833,23.722287],[121.29574,23.721925],[121.295446,23.721922],[121.29535,23.72174],[121.294762,23.721734],[121.294659,23.722094],[121.294463,23.722092],[121.294464,23.722001],[121.294267,23.722089],[121.294061,23.72281],[121.293963,23.722809],[121.294069,23.722178],[121.294167,23.722179],[121.29427,23.721819],[121.294467,23.72173],[121.29447,23.72155],[121.294082,23.721184],[121.29409,23.720552],[121.293896,23.72046],[121.293901,23.720009],[121.293706,23.719916],[121.293711,23.719555],[121.29332,23.71946],[121.293322,23.71928],[121.29352,23.719192],[121.293326,23.719009],[121.293329,23.718738],[121.293233,23.718647],[121.292546,23.718639],[121.292159,23.718274],[121.292166,23.717732],[121.292363,23.717644],[121.292366,23.717373],[121.292763,23.717016],[121.293352,23.717023],[121.293739,23.717388],[121.293731,23.71802],[121.294022,23.718294],[121.294218,23.718296],[121.294318,23.718117],[121.294612,23.71812],[121.29491,23.717853],[121.294914,23.717582],[121.295111,23.717494],[121.295117,23.717042],[121.295314,23.716954],[121.29532,23.716503],[121.295517,23.716414],[121.295521,23.716144],[121.295918,23.715787],[121.296114,23.715789],[121.296113,23.715879],[121.29631,23.715791],[121.296504,23.715974],[121.296596,23.716426],[121.296793,23.716338],[121.296796,23.716158],[121.296893,23.716249],[121.29709,23.716161],[121.297092,23.71598],[121.29719,23.715981],[121.297098,23.715529],[121.297297,23.71535],[121.297203,23.714988],[121.297301,23.714989],[121.297404,23.714629],[121.297697,23.714723],[121.29779,23.715085],[121.297986,23.715087],[121.297983,23.715358],[121.297885,23.715357],[121.297978,23.715719],[121.297487,23.715804],[121.297679,23.716077],[121.298073,23.715991],[121.29837,23.715723],[121.298663,23.715817],[121.298862,23.715639],[121.298865,23.715368],[121.299063,23.71528],[121.299066,23.715009],[121.298386,23.71455],[121.298388,23.714369],[121.298685,23.714192],[121.298688,23.713921],[121.2982,23.713735],[121.297909,23.713461],[121.297913,23.71319],[121.29811,23.713102],[121.298113,23.712921],[121.297919,23.712739],[121.297723,23.712736],[121.297524,23.712915],[121.297522,23.713095],[121.297716,23.713278],[121.297419,23.713456],[121.297417,23.713636],[121.297218,23.713814],[121.296632,23.713627],[121.296635,23.713447],[121.296832,23.713359],[121.296642,23.712905],[121.296936,23.712908],[121.297036,23.712729],[121.29733,23.712732],[121.29743,23.712643],[121.297334,23.712461],[121.297531,23.712373],[121.297534,23.712193],[121.297632,23.712194],[121.297724,23.712646],[121.29802,23.712469],[121.298027,23.711927],[121.298326,23.711569],[121.298333,23.711027],[121.298431,23.711029],[121.298435,23.710758],[121.298633,23.710579],[121.29854,23.710217],[121.298151,23.709942],[121.298252,23.709762],[121.297863,23.709487],[121.297768,23.709215],[121.297572,23.709213],[121.297577,23.708852],[121.297775,23.708674],[121.298068,23.708767],[121.298366,23.708499],[121.298274,23.708047],[121.298176,23.708046],[121.298181,23.707685],[121.298279,23.707686],[121.298189,23.707053],[121.298384,23.707145],[121.29838,23.707416],[121.298574,23.707599],[121.29877,23.707601],[121.29867,23.70778],[121.299156,23.708057],[121.299154,23.708237],[121.299056,23.708236],[121.299151,23.708508],[121.299547,23.708151],[121.299842,23.708155],[121.299839,23.708335],[121.300132,23.708429],[121.30013,23.708609],[121.300324,23.708792],[121.30052,23.708794],[121.300718,23.708616],[121.300721,23.708435],[121.301108,23.708801],[121.301305,23.708712],[121.301308,23.708532],[121.301504,23.708534],[121.3016,23.708716],[121.301699,23.708626],[121.301992,23.70872],[121.30189,23.70899],[121.301694,23.708988],[121.3015,23.708805],[121.301103,23.709162],[121.301296,23.709435],[121.301492,23.709437],[121.301294,23.709615],[121.301386,23.710068],[121.301092,23.710065],[121.300996,23.709883],[121.300605,23.709788],[121.300509,23.709607],[121.300313,23.709604],[121.300219,23.709333],[121.300023,23.70933],[121.300021,23.709421],[121.29963,23.709326],[121.298952,23.708687],[121.298849,23.709047],[121.298947,23.709048],[121.299041,23.70941],[121.29845,23.709584],[121.29835,23.709763],[121.298544,23.709946],[121.29874,23.709948],[121.298834,23.71022],[121.299031,23.710132],[121.299035,23.709861],[121.29933,23.709774],[121.299427,23.709866]],[[121.301672,23.718288],[121.301573,23.718377],[121.301574,23.718287],[121.301672,23.718288]],[[121.305659,23.698105],[121.30556,23.698194],[121.305561,23.698104],[121.305659,23.698105]],[[121.304388,23.69782],[121.304485,23.697911],[121.304387,23.69791],[121.304388,23.69782]],[[121.304972,23.698188],[121.305071,23.698098],[121.30507,23.698189],[121.304972,23.698188]],[[121.304074,23.699352],[121.303878,23.699349],[121.303879,23.699259],[121.304075,23.699261],[121.304074,23.699352]],[[121.289228,23.724923],[121.289424,23.724926],[121.289423,23.725016],[121.289226,23.725014],[121.289228,23.724923]],[[121.289424,23.724926],[121.289523,23.724836],[121.289522,23.724927],[121.289424,23.724926]],[[121.289523,23.724836],[121.289622,23.724747],[121.289621,23.724837],[121.289523,23.724836]],[[121.292055,23.726219],[121.291958,23.726127],[121.292056,23.726129],[121.292055,23.726219]],[[121.296642,23.712905],[121.296545,23.712814],[121.296643,23.712815],[121.296642,23.712905]],[[121.29877,23.707601],[121.298869,23.707512],[121.298868,23.707602],[121.29877,23.707601]],[[121.301492,23.709437],[121.301591,23.709348],[121.30159,23.709438],[121.301492,23.709437]],[[121.29874,23.709948],[121.298839,23.709859],[121.298838,23.709949],[121.29874,23.709948]],[[121.299427,23.709866],[121.299526,23.709776],[121.299525,23.709867],[121.299427,23.709866]],[[121.303913,23.726981],[121.303814,23.727071],[121.303815,23.72698],[121.303913,23.726981]],[[121.293433,23.725873],[121.293333,23.725962],[121.293335,23.725872],[121.293433,23.725873]],[[121.293634,23.725514],[121.293534,23.725603],[121.293535,23.725513],[121.293634,23.725514]],[[121.290796,23.725031],[121.290699,23.72494],[121.290797,23.724941],[121.290796,23.725031]],[[121.290502,23.724937],[121.29031,23.724664],[121.290606,23.724487],[121.290799,23.72476],[121.290701,23.724759],[121.290699,23.72494],[121.290502,23.724937]],[[121.29767,23.724384],[121.297378,23.724201],[121.297477,23.724111],[121.297381,23.72393],[121.297579,23.723842],[121.297581,23.723661],[121.29729,23.723387],[121.297293,23.723206],[121.297491,23.723028],[121.297588,23.723119],[121.297785,23.723031],[121.297591,23.722849],[121.297596,23.722487],[121.297893,23.72231],[121.298085,23.722583],[121.298185,23.722494],[121.298478,23.722587],[121.298579,23.722318],[121.298776,23.722229],[121.29878,23.721959],[121.298978,23.72178],[121.299175,23.721782],[121.29917,23.722143],[121.298973,23.722232],[121.298969,23.722502],[121.298772,23.722591],[121.298768,23.722861],[121.298571,23.72295],[121.298467,23.7234],[121.298169,23.723668],[121.297776,23.723754],[121.297868,23.724206],[121.29767,23.724384]],[[121.295629,23.722917],[121.295432,23.723005],[121.295427,23.723366],[121.295525,23.723368],[121.295421,23.723818],[121.295225,23.723816],[121.295327,23.723546],[121.295228,23.723545],[121.295134,23.723273],[121.294938,23.723271],[121.295237,23.722913],[121.295043,23.72273],[121.294847,23.722728],[121.294751,23.722546],[121.294652,23.722636],[121.294456,23.722633],[121.294457,23.722543],[121.294556,23.722454],[121.295045,23.72255],[121.295145,23.72246],[121.295051,23.722098],[121.295248,23.72201],[121.295538,23.722374],[121.295438,23.722554],[121.295534,23.722645],[121.295732,23.722557],[121.295629,23.722917]],[[121.295732,23.722557],[121.295831,23.722468],[121.29583,23.722558],[121.295732,23.722557]],[[121.287088,23.723545],[121.286991,23.723454],[121.287089,23.723455],[121.287088,23.723545]],[[121.286991,23.723454],[121.286894,23.723362],[121.286992,23.723364],[121.286991,23.723454]],[[121.286894,23.723362],[121.286797,23.723271],[121.286895,23.723272],[121.286894,23.723362]],[[121.286699,23.72327],[121.286702,23.723089],[121.286899,23.723001],[121.286896,23.723182],[121.286699,23.72327]],[[121.293954,23.723531],[121.293854,23.72362],[121.293856,23.72353],[121.293954,23.723531]],[[121.287093,23.723184],[121.287291,23.723006],[121.287198,23.722643],[121.287491,23.722737],[121.287392,23.722826],[121.287386,23.723278],[121.287188,23.723366],[121.287093,23.723184]],[[121.294553,23.722725],[121.294748,23.722817],[121.294743,23.723178],[121.294645,23.723177],[121.294553,23.722725]],[[121.301909,23.722715],[121.302296,23.723081],[121.301804,23.723256],[121.301909,23.722715]],[[121.301909,23.722715],[121.301812,23.722624],[121.30191,23.722625],[121.301909,23.722715]],[[121.302208,23.722357],[121.302405,23.722269],[121.3024,23.72263],[121.302302,23.722629],[121.302208,23.722357]],[[121.288187,23.722022],[121.288286,23.721933],[121.288285,23.722023],[121.288187,23.722022]],[[121.288289,23.721662],[121.288487,23.721574],[121.288384,23.721934],[121.288286,23.721933],[121.288289,23.721662]],[[121.292213,23.721615],[121.292509,23.721528],[121.292405,23.721979],[121.29221,23.721886],[121.292213,23.721615]],[[121.286035,23.721547],[121.285936,23.721636],[121.285937,23.721546],[121.286035,23.721547]],[[121.293292,23.721627],[121.293193,23.721716],[121.293194,23.721626],[121.293292,23.721627]],[[121.289861,23.721499],[121.289765,23.721317],[121.289568,23.721405],[121.289277,23.721131],[121.289376,23.721042],[121.289281,23.720861],[121.289672,23.720955],[121.289772,23.720776],[121.290066,23.720779],[121.290357,23.721053],[121.290352,23.721414],[121.290154,23.721593],[121.289861,23.721499]],[[121.29388,23.721634],[121.293782,23.721633],[121.293785,23.721452],[121.293883,23.721453],[121.29388,23.721634]],[[121.292903,23.721352],[121.292804,23.721441],[121.292805,23.721351],[121.292903,23.721352]],[[121.293492,23.721359],[121.293393,23.721357],[121.293396,23.721177],[121.293494,23.721178],[121.293492,23.721359]],[[121.29869,23.721326],[121.298592,23.721324],[121.298594,23.721144],[121.298692,23.721145],[121.29869,23.721326]],[[121.286436,23.720919],[121.286041,23.721096],[121.285847,23.720913],[121.28585,23.720732],[121.286048,23.720554],[121.286437,23.720829],[121.286436,23.720919]],[[121.286534,23.72092],[121.286533,23.721011],[121.286434,23.72101],[121.286436,23.720919],[121.286534,23.72092]],[[121.293302,23.720815],[121.292905,23.721171],[121.292908,23.720991],[121.293207,23.720633],[121.293302,23.720815]],[[121.293202,23.720994],[121.293299,23.721086],[121.293201,23.721084],[121.293202,23.720994]],[[121.293594,23.720998],[121.293495,23.721088],[121.293496,23.720997],[121.293594,23.720998]],[[121.292617,23.720717],[121.292518,23.720806],[121.292519,23.720716],[121.292617,23.720717]],[[121.292621,23.720446],[121.292521,23.720535],[121.292422,23.720624],[121.292425,23.720444],[121.292621,23.720446]],[[121.284873,23.72045],[121.284676,23.720448],[121.284678,23.720358],[121.284973,23.720271],[121.284873,23.72045]],[[121.284974,23.720181],[121.28517,23.720183],[121.285169,23.720273],[121.284973,23.720271],[121.284974,23.720181]],[[121.288041,23.718138],[121.288236,23.71823],[121.288338,23.717961],[121.288535,23.717872],[121.288722,23.718597],[121.288424,23.718864],[121.288032,23.71886],[121.287936,23.718678],[121.287445,23.718763],[121.287154,23.718489],[121.286761,23.718575],[121.286665,23.718393],[121.286469,23.718391],[121.286369,23.718481],[121.286464,23.718752],[121.285968,23.719198],[121.286257,23.719563],[121.286651,23.719477],[121.287038,23.719842],[121.287035,23.720113],[121.28723,23.720206],[121.287128,23.720475],[121.286834,23.720472],[121.28664,23.720289],[121.286743,23.719929],[121.28645,23.719836],[121.286354,23.719654],[121.286158,23.719652],[121.285958,23.719921],[121.285765,23.719738],[121.285568,23.719736],[121.285468,23.719915],[121.285272,23.719913],[121.285078,23.71973],[121.285277,23.719552],[121.285083,23.719369],[121.285085,23.719189],[121.285282,23.719101],[121.285186,23.719009],[121.285287,23.718739],[121.284994,23.718646],[121.284901,23.718284],[121.285197,23.718106],[121.2852,23.717926],[121.285398,23.717747],[121.285885,23.718024],[121.285886,23.717933],[121.28618,23.717937],[121.286182,23.717846],[121.286867,23.717944],[121.286868,23.717854],[121.287358,23.717859],[121.287459,23.71768],[121.287652,23.717863],[121.287851,23.717684],[121.288047,23.717686],[121.288144,23.717778],[121.288041,23.718138]],[[121.285468,23.719915],[121.285565,23.720007],[121.285467,23.720006],[121.285468,23.719915]],[[121.288145,23.717687],[121.288341,23.71769],[121.28834,23.71778],[121.288144,23.717778],[121.288145,23.717687]],[[121.293405,23.720455],[121.293306,23.720544],[121.293307,23.720454],[121.293405,23.720455]],[[121.292228,23.720442],[121.29213,23.720441],[121.292133,23.72026],[121.292231,23.720261],[121.292228,23.720442]],[[121.291937,23.720258],[121.291837,23.720347],[121.291839,23.720257],[121.291937,23.720258]],[[121.292525,23.720264],[121.292428,23.720173],[121.29243,23.719992],[121.292624,23.720175],[121.292822,23.720087],[121.292819,23.720268],[121.292525,23.720264]],[[121.292825,23.719816],[121.292923,23.719817],[121.29292,23.720088],[121.292822,23.720087],[121.292825,23.719816]],[[121.298214,23.720237],[121.298115,23.720326],[121.298116,23.720236],[121.298214,23.720237]],[[121.301554,23.719822],[121.301849,23.719735],[121.301848,23.719825],[121.30175,23.719824],[121.301646,23.720274],[121.301548,23.720273],[121.301554,23.719822]],[[121.301159,23.719998],[121.30106,23.720087],[121.301061,23.719997],[121.301159,23.719998]],[[121.292337,23.71963],[121.292533,23.719632],[121.292732,23.719454],[121.293123,23.719548],[121.292924,23.719727],[121.292631,23.719633],[121.292531,23.719813],[121.292235,23.7199],[121.292337,23.71963]],[[121.289886,23.719603],[121.289984,23.719604],[121.289981,23.719785],[121.289883,23.719784],[121.289886,23.719603]],[[121.289984,23.719604],[121.290083,23.719515],[121.290082,23.719605],[121.289984,23.719604]],[[121.289593,23.719509],[121.289493,23.719599],[121.289494,23.719508],[121.289593,23.719509]],[[121.299514,23.718264],[121.299806,23.718448],[121.300092,23.719083],[121.299699,23.719169],[121.299597,23.719439],[121.299205,23.719435],[121.299105,23.719614],[121.298711,23.7197],[121.298714,23.71952],[121.29852,23.719337],[121.29921,23.719074],[121.299212,23.718893],[121.299409,23.718805],[121.299315,23.718533],[121.299512,23.718445],[121.299514,23.718264]],[[121.299612,23.718265],[121.299714,23.717996],[121.29991,23.717998],[121.299908,23.718178],[121.299712,23.718176],[121.299711,23.718267],[121.299612,23.718265]],[[121.301362,23.719459],[121.301264,23.719458],[121.301262,23.719638],[121.301066,23.719636],[121.301068,23.719455],[121.301464,23.719189],[121.301362,23.719459]],[[121.301466,23.719008],[121.301564,23.719009],[121.301562,23.71919],[121.301464,23.719189],[121.301466,23.719008]],[[121.290287,23.718885],[121.289989,23.719153],[121.289987,23.719333],[121.289791,23.719331],[121.289893,23.719061],[121.289991,23.719062],[121.289798,23.718789],[121.290287,23.718885]],[[121.290287,23.718885],[121.290386,23.718796],[121.290385,23.718886],[121.290287,23.718885]],[[121.290386,23.718796],[121.290486,23.718707],[121.290484,23.718797],[121.290386,23.718796]],[[121.300681,23.71909],[121.300779,23.719091],[121.300775,23.719362],[121.300579,23.71936],[121.300681,23.71909]],[[121.30078,23.719001],[121.300488,23.718817],[121.300393,23.718545],[121.30069,23.718368],[121.300693,23.718097],[121.300887,23.718279],[121.301085,23.718191],[121.301375,23.718465],[121.301371,23.718827],[121.301174,23.718824],[121.301173,23.718915],[121.30088,23.718821],[121.30078,23.719001]],[[121.290692,23.717896],[121.290295,23.718253],[121.290292,23.718524],[121.29,23.71834],[121.2898,23.718609],[121.289702,23.718608],[121.289806,23.718157],[121.289415,23.718063],[121.289418,23.717882],[121.28981,23.717887],[121.289906,23.718068],[121.290202,23.717891],[121.290106,23.717709],[121.289812,23.717706],[121.289915,23.717346],[121.289818,23.717255],[121.289621,23.717343],[121.289623,23.717162],[121.289921,23.716894],[121.290215,23.716898],[121.290513,23.71663],[121.29061,23.716721],[121.291101,23.716637],[121.2911,23.716727],[121.29051,23.716811],[121.290312,23.716989],[121.290505,23.717262],[121.290308,23.71726],[121.290208,23.717439],[121.290794,23.717626],[121.290692,23.717896]],[[121.290505,23.717262],[121.290601,23.717353],[121.290503,23.717352],[121.290505,23.717262]],[[121.290794,23.717626],[121.290893,23.717537],[121.290892,23.717628],[121.290794,23.717626]],[[121.283923,23.718092],[121.28412,23.718004],[121.284122,23.717824],[121.283829,23.71773],[121.283832,23.717549],[121.284223,23.717644],[121.284115,23.718365],[121.284017,23.718364],[121.283923,23.718092]],[[121.300892,23.717918],[121.300597,23.718005],[121.300696,23.717916],[121.300702,23.717465],[121.300605,23.717373],[121.301002,23.717017],[121.300994,23.717649],[121.301188,23.717741],[121.301186,23.717922],[121.301088,23.717921],[121.301086,23.718101],[121.300892,23.717918]],[[121.300109,23.717819],[121.300009,23.717909],[121.300011,23.717818],[121.300109,23.717819]],[[121.28658,23.717399],[121.286777,23.717311],[121.286779,23.717131],[121.287075,23.717044],[121.287077,23.716863],[121.286882,23.716771],[121.287082,23.716502],[121.287374,23.716686],[121.287274,23.716775],[121.28737,23.716957],[121.287667,23.716779],[121.28766,23.717321],[121.287362,23.717589],[121.287166,23.717586],[121.286875,23.717312],[121.286677,23.717491],[121.286772,23.717672],[121.286478,23.717669],[121.28658,23.717399]],[[121.285304,23.717475],[121.285205,23.717565],[121.285206,23.717474],[121.285304,23.717475]],[[121.284718,23.717288],[121.284619,23.717378],[121.28462,23.717287],[121.284718,23.717288]],[[121.29992,23.717276],[121.300117,23.717187],[121.300227,23.716286],[121.300722,23.71593],[121.300818,23.716021],[121.300814,23.716382],[121.300716,23.716381],[121.300811,23.716563],[121.300713,23.716562],[121.300609,23.717012],[121.300314,23.717099],[121.300014,23.717548],[121.299818,23.717545],[121.29992,23.717276]],[[121.289628,23.716801],[121.289529,23.71689],[121.28953,23.7168],[121.289628,23.716801]],[[121.301201,23.716748],[121.301397,23.71675],[121.301395,23.716931],[121.301297,23.71693],[121.301201,23.716748]],[[121.289041,23.716704],[121.288944,23.716613],[121.289042,23.716614],[121.289041,23.716704]],[[121.288944,23.716613],[121.288847,23.716521],[121.288945,23.716522],[121.288944,23.716613]],[[121.289729,23.716531],[121.289828,23.716532],[121.289831,23.716261],[121.290222,23.716356],[121.289923,23.716714],[121.289729,23.716531]],[[121.286495,23.716405],[121.286302,23.716132],[121.286597,23.716045],[121.28679,23.716318],[121.286495,23.716405]],[[121.294246,23.71613],[121.294442,23.716132],[121.294441,23.716222],[121.294145,23.716399],[121.294246,23.71613]],[[121.294929,23.716408],[121.294832,23.716317],[121.294635,23.716405],[121.294738,23.716045],[121.294445,23.715951],[121.294447,23.715771],[121.294741,23.715774],[121.295032,23.716048],[121.294929,23.716408]],[[121.295032,23.716048],[121.295131,23.715959],[121.29513,23.716049],[121.295032,23.716048]],[[121.285614,23.716215],[121.285516,23.716214],[121.285519,23.716033],[121.285617,23.716034],[121.285614,23.716215]],[[121.286991,23.715959],[121.286892,23.716048],[121.286893,23.715958],[121.286991,23.715959]],[[121.290618,23.716089],[121.289931,23.716082],[121.289933,23.715992],[121.290619,23.715999],[121.290618,23.716089]],[[121.290815,23.716001],[121.290716,23.716091],[121.290717,23.716],[121.290815,23.716001]],[[121.291701,23.71574],[121.291705,23.715469],[121.291415,23.715105],[121.291611,23.715107],[121.291805,23.71529],[121.291802,23.715561],[121.2919,23.715562],[121.291797,23.715922],[121.291402,23.716098],[121.291406,23.715827],[121.291701,23.71574]],[[121.291406,23.715827],[121.291309,23.715736],[121.291407,23.715737],[121.291406,23.715827]],[[121.29131,23.715646],[121.291012,23.715913],[121.291015,23.715733],[121.291113,23.715734],[121.290919,23.715551],[121.29102,23.715372],[121.291214,23.715464],[121.291212,23.715645],[121.29131,23.715646]],[[121.28974,23.715719],[121.289643,23.715627],[121.289741,23.715628],[121.28974,23.715719]],[[121.289643,23.715627],[121.289546,23.715536],[121.289644,23.715537],[121.289643,23.715627]],[[121.292585,23.71566],[121.292095,23.715654],[121.292096,23.715564],[121.292586,23.715569],[121.292585,23.71566]],[[121.289745,23.715357],[121.289941,23.71536],[121.290037,23.715541],[121.28984,23.715539],[121.289745,23.715357]],[[121.290529,23.715366],[121.29043,23.715455],[121.290431,23.715365],[121.290529,23.715366]],[[121.294157,23.715406],[121.294058,23.715495],[121.294059,23.715405],[121.294157,23.715406]],[[121.293766,23.715312],[121.293667,23.715401],[121.293668,23.71531],[121.293766,23.715312]],[[121.294062,23.715224],[121.293962,23.715314],[121.293964,23.715223],[121.294062,23.715224]],[[121.289553,23.714994],[121.289752,23.714816],[121.289947,23.714908],[121.289747,23.715177],[121.289553,23.714994]],[[121.290927,23.714919],[121.291122,23.715011],[121.29112,23.715192],[121.290728,23.715188],[121.29073,23.715007],[121.290926,23.715009],[121.290927,23.714919]],[[121.291038,23.713927],[121.29094,23.713926],[121.291034,23.714288],[121.29054,23.714554],[121.290634,23.714825],[121.290436,23.715004],[121.290142,23.715001],[121.290144,23.71482],[121.290341,23.714732],[121.290246,23.71455],[121.289852,23.714636],[121.289851,23.714727],[121.289363,23.714541],[121.289365,23.71436],[121.28966,23.714363],[121.289661,23.714273],[121.289954,23.714366],[121.290253,23.714009],[121.290543,23.714283],[121.290742,23.714104],[121.290548,23.713922],[121.29055,23.713741],[121.290848,23.713473],[121.290946,23.713474],[121.291038,23.713927]],[[121.290153,23.714098],[121.290057,23.714006],[121.290155,23.714007],[121.290153,23.714098]],[[121.290949,23.713294],[121.291145,23.713296],[121.291143,23.713386],[121.290946,23.713474],[121.290949,23.713294]],[[121.29623,23.714436],[121.29613,23.714525],[121.296132,23.714435],[121.29623,23.714436]],[[121.303195,23.714241],[121.302999,23.714239],[121.303,23.714149],[121.303196,23.714151],[121.303195,23.714241]],[[121.290158,23.713737],[121.290357,23.713558],[121.290354,23.713739],[121.290158,23.713737]],[[121.290752,23.713292],[121.290556,23.71329],[121.290557,23.713199],[121.290754,23.713201],[121.290752,23.713292]],[[121.304587,23.712812],[121.304488,23.712901],[121.304489,23.712811],[121.304587,23.712812]],[[121.306155,23.712919],[121.306354,23.712651],[121.30655,23.712653],[121.306351,23.712921],[121.306155,23.712919]],[[121.297137,23.712549],[121.296941,23.712547],[121.296942,23.712457],[121.297138,23.712459],[121.297137,23.712549]],[[121.307928,23.712307],[121.308027,23.712217],[121.308026,23.712308],[121.307928,23.712307]],[[121.308028,23.712127],[121.308224,23.712129],[121.308223,23.71222],[121.308027,23.712217],[121.308028,23.712127]],[[121.29607,23.711635],[121.295876,23.711452],[121.295982,23.710821],[121.29677,23.710559],[121.297167,23.710202],[121.29717,23.710021],[121.297465,23.709934],[121.297659,23.710117],[121.297655,23.710388],[121.29785,23.71048],[121.297739,23.711472],[121.297542,23.711561],[121.297636,23.711833],[121.297342,23.711829],[121.297441,23.71174],[121.297346,23.711558],[121.29715,23.711556],[121.297049,23.711736],[121.296855,23.711553],[121.296659,23.711551],[121.296555,23.712001],[121.296162,23.712087],[121.29607,23.711635]],[[121.300792,23.710513],[121.300891,23.710424],[121.30089,23.710514],[121.300792,23.710513]],[[121.300891,23.710424],[121.300794,23.710332],[121.300698,23.71015],[121.300894,23.710153],[121.301087,23.710426],[121.300891,23.710424]],[[121.300697,23.710241],[121.300598,23.71033],[121.300599,23.71024],[121.300697,23.710241]],[[121.30296,23.709724],[121.302861,23.709723],[121.302864,23.709542],[121.302962,23.709543],[121.30296,23.709724]],[[121.30316,23.709365],[121.303061,23.709454],[121.303062,23.709364],[121.30316,23.709365]],[[121.305326,23.708756],[121.305226,23.708846],[121.305228,23.708755],[121.305326,23.708756]],[[121.304444,23.708657],[121.304345,23.708746],[121.304346,23.708655],[121.304444,23.708657]],[[121.307881,23.708333],[121.307883,23.708152],[121.307981,23.708153],[121.307979,23.708334],[121.307881,23.708333]],[[121.307883,23.708152],[121.307786,23.708061],[121.307884,23.708062],[121.307883,23.708152]],[[121.307786,23.708061],[121.307689,23.70797],[121.307788,23.707971],[121.307786,23.708061]],[[121.301807,23.707815],[121.301708,23.707904],[121.301709,23.707814],[121.301807,23.707815]],[[121.308477,23.707707],[121.308378,23.707797],[121.308379,23.707706],[121.308477,23.707707]],[[121.304268,23.707119],[121.304462,23.707302],[121.304265,23.70739],[121.304268,23.707119]],[[121.305249,23.70713],[121.305151,23.707129],[121.305153,23.706949],[121.305251,23.70695],[121.305249,23.70713]],[[121.305058,23.706677],[121.304961,23.706585],[121.304865,23.706494],[121.305061,23.706496],[121.305058,23.706677]],[[121.304865,23.706494],[121.304768,23.706403],[121.304866,23.706404],[121.304865,23.706494]],[[121.304672,23.706221],[121.304573,23.70631],[121.304574,23.70622],[121.304672,23.706221]],[[121.30801,23.705896],[121.307911,23.705985],[121.307912,23.705895],[121.30801,23.705896]],[[121.302327,23.705563],[121.302228,23.705652],[121.302229,23.705562],[121.302327,23.705563]],[[121.306644,23.70543],[121.306544,23.705519],[121.306545,23.705429],[121.306644,23.70543]],[[121.307428,23.705438],[121.30733,23.705437],[121.307332,23.705257],[121.30743,23.705258],[121.307428,23.705438]],[[121.301941,23.705107],[121.30165,23.704833],[121.301847,23.704745],[121.301849,23.704565],[121.301751,23.704564],[121.301852,23.704384],[121.301561,23.70411],[121.301957,23.703843],[121.302151,23.704026],[121.302048,23.704386],[121.302242,23.704569],[121.302044,23.704657],[121.302139,23.704929],[121.301941,23.705107]],[[121.298805,23.704892],[121.298706,23.704982],[121.298707,23.704891],[121.298805,23.704892]],[[121.301259,23.704739],[121.301454,23.704831],[121.301453,23.704921],[121.301256,23.704919],[121.301259,23.704739]],[[121.304806,23.703423],[121.304708,23.703422],[121.30471,23.703241],[121.304809,23.703243],[121.304806,23.703423]],[[121.304518,23.702968],[121.304227,23.702694],[121.304426,23.702516],[121.304619,23.702699],[121.304816,23.702701],[121.304518,23.702968]],[[121.30099,23.702749],[121.300892,23.702748],[121.300896,23.702477],[121.300994,23.702478],[121.30099,23.702749]],[[121.304916,23.702521],[121.304818,23.70252],[121.30482,23.70234],[121.304918,23.702341],[121.304916,23.702521]],[[121.305703,23.702349],[121.305507,23.702347],[121.305508,23.702257],[121.305704,23.702259],[121.305703,23.702349]],[[121.300802,23.702115],[121.300703,23.702204],[121.300704,23.702114],[121.300802,23.702115]],[[121.304626,23.702157],[121.304726,23.702068],[121.304724,23.702158],[121.304626,23.702157]],[[121.304728,23.701887],[121.304437,23.701613],[121.304735,23.701345],[121.305128,23.701259],[121.305322,23.701442],[121.305216,23.702073],[121.304921,23.70216],[121.304922,23.70207],[121.304726,23.702068],[121.304728,23.701887]],[[121.306988,23.701551],[121.306889,23.70164],[121.30689,23.70155],[121.306988,23.701551]],[[121.307674,23.701558],[121.307575,23.701647],[121.307576,23.701557],[121.307674,23.701558]],[[121.30787,23.70156],[121.307771,23.70165],[121.307772,23.701559],[121.30787,23.70156]],[[121.307981,23.700568],[121.307882,23.700657],[121.307883,23.700567],[121.307981,23.700568]],[[121.303478,23.699977],[121.303676,23.699799],[121.304167,23.699804],[121.303867,23.700252],[121.303476,23.700158],[121.303478,23.699977]],[[121.304361,23.699897],[121.30417,23.699533],[121.304464,23.699536],[121.304666,23.699087],[121.305058,23.699091],[121.305154,23.699273],[121.30535,23.699275],[121.30545,23.699096],[121.305942,23.699011],[121.306136,23.699194],[121.306132,23.699464],[121.30574,23.69946],[121.30564,23.69964],[121.305345,23.699636],[121.305245,23.699816],[121.304361,23.699897]],[[121.308974,23.699586],[121.308877,23.699494],[121.308976,23.699496],[121.308974,23.699586]],[[121.308877,23.699494],[121.308781,23.699403],[121.308879,23.699404],[121.308877,23.699494]],[[121.308684,23.699312],[121.308585,23.699401],[121.308586,23.699311],[121.308684,23.699312]],[[121.306723,23.69929],[121.306625,23.699289],[121.306627,23.699109],[121.306725,23.69911],[121.306723,23.69929]]],[[[121.283662,23.715561],[121.283958,23.715384],[121.283962,23.715113],[121.284257,23.715026],[121.284252,23.715387],[121.284446,23.71557],[121.284741,23.715483],[121.284647,23.715211],[121.284452,23.715118],[121.284454,23.714938],[121.284067,23.714572],[121.284171,23.714122],[121.284467,23.713945],[121.284471,23.713674],[121.284569,23.713675],[121.284473,23.713493],[121.284175,23.713761],[121.283979,23.713758],[121.283285,23.714383],[121.283378,23.714745],[121.282983,23.714921],[121.282981,23.715102],[121.283274,23.715195],[121.283272,23.715376],[121.283465,23.715559],[121.283662,23.715561]]],[[[121.290499,23.717714],[121.290304,23.717621],[121.290203,23.717801],[121.290398,23.717893],[121.290499,23.717714]]],[[[121.292937,23.726319],[121.292837,23.726408],[121.292935,23.726409],[121.292937,23.726319]]],[[[121.30846,23.701477],[121.308756,23.701299],[121.30866,23.701117],[121.308365,23.701205],[121.30846,23.701477]]],[[[121.297595,23.714993],[121.2974,23.7149],[121.2973,23.71508],[121.297495,23.715172],[121.297595,23.714993]]],[[[121.305524,23.716163],[121.305528,23.715892],[121.305725,23.715804],[121.305727,23.715624],[121.305532,23.715531],[121.305439,23.715169],[121.305047,23.715165],[121.304948,23.715254],[121.304936,23.716157],[121.305033,23.716248],[121.305524,23.716163]]],[[[121.304029,23.718043],[121.304326,23.717775],[121.304336,23.717053],[121.303851,23.716596],[121.303655,23.716594],[121.303159,23.71704],[121.303152,23.717582],[121.303637,23.718039],[121.304029,23.718043]]],[[[121.303314,23.727788],[121.302728,23.727601],[121.30283,23.727331],[121.302928,23.727332],[121.302833,23.72706],[121.302637,23.727058],[121.302437,23.727326],[121.302144,23.727233],[121.302049,23.727051],[121.301851,23.727139],[121.301946,23.727411],[121.302044,23.727412],[121.301746,23.72768],[121.301842,23.727862],[121.302234,23.727866],[121.302233,23.727956],[121.302527,23.72796],[121.302526,23.72805],[121.303213,23.728057],[121.303314,23.727788]]]]}},{"type":"Feature","properties":{"kind":"bare_dam","month":"2025-07","area_ha":68.11},"geometry":{"type":"MultiPolygon","coordinates":[[[[121.298321,23.69685],[121.298231,23.696217],[121.297939,23.696033],[121.297942,23.695853],[121.29814,23.695675],[121.298335,23.695767],[121.298438,23.695407],[121.298732,23.69541],[121.298733,23.69532],[121.299026,23.695413],[121.299127,23.695234],[121.298738,23.694959],[121.298839,23.694689],[121.298646,23.694506],[121.298448,23.694594],[121.298446,23.694775],[121.29825,23.694773],[121.298157,23.69441],[121.298553,23.694054],[121.298263,23.69378],[121.298161,23.694049],[121.297866,23.694136],[121.297959,23.694499],[121.297666,23.694405],[121.297565,23.694675],[121.297467,23.694674],[121.297462,23.695035],[121.297657,23.695127],[121.297655,23.695308],[121.297557,23.695307],[121.29765,23.695669],[121.297352,23.695937],[121.297449,23.696028],[121.297745,23.695941],[121.297742,23.696122],[121.29784,23.696123],[121.297838,23.696303],[121.297644,23.696121],[121.297447,23.696209],[121.297539,23.696661],[121.297734,23.696754],[121.297932,23.696575],[121.298124,23.696939],[121.298321,23.69685]]],[[[121.299708,23.695782],[121.299905,23.695694],[121.299907,23.695513],[121.299809,23.695512],[121.299715,23.69524],[121.299519,23.695238],[121.299325,23.695055],[121.299223,23.695325],[121.299321,23.695326],[121.299314,23.695868],[121.299412,23.695869],[121.299507,23.696141],[121.299704,23.696053],[121.299708,23.695782]]],[[[121.299024,23.695594],[121.298829,23.695501],[121.298629,23.69577],[121.298921,23.695954],[121.299024,23.695594]]],[[[121.299208,23.696499],[121.299013,23.696406],[121.298823,23.695953],[121.298626,23.696041],[121.298621,23.696402],[121.298326,23.696489],[121.298421,23.696671],[121.298521,23.696582],[121.298716,23.696674],[121.298616,23.696763],[121.298711,23.697035],[121.298217,23.697301],[121.298411,23.697483],[121.298504,23.697846],[121.298802,23.697578],[121.299488,23.697586],[121.299587,23.697496],[121.299492,23.697315],[121.299296,23.697313],[121.299498,23.696863],[121.299206,23.69668],[121.299208,23.696499]],[[121.299303,23.696771],[121.299203,23.69686],[121.299205,23.69677],[121.299303,23.696771]],[[121.298607,23.697486],[121.298706,23.697396],[121.298705,23.697487],[121.298607,23.697486]],[[121.298706,23.697396],[121.298805,23.697307],[121.298804,23.697397],[121.298706,23.697396]]],[[[121.298296,23.698746],[121.298195,23.699016],[121.298097,23.699015],[121.298091,23.699467],[121.298482,23.699561],[121.298676,23.699744],[121.298671,23.700105],[121.298375,23.700282],[121.298372,23.700463],[121.299255,23.700473],[121.299257,23.700292],[121.299159,23.700291],[121.299262,23.699931],[121.298874,23.699565],[121.298982,23.698844],[121.298884,23.698843],[121.298887,23.698572],[121.298789,23.698571],[121.299088,23.698213],[121.298894,23.698031],[121.298501,23.698117],[121.298302,23.698295],[121.2983,23.698476],[121.298494,23.698658],[121.298296,23.698746]],[[121.298495,23.698568],[121.298594,23.698479],[121.298593,23.698569],[121.298495,23.698568]]],[[[121.295228,23.70097],[121.294937,23.700696],[121.294544,23.700782],[121.294833,23.701146],[121.295127,23.70115],[121.295228,23.70097]]],[[[121.31207,23.68761],[121.312459,23.687885],[121.312455,23.688156],[121.312258,23.688244],[121.312451,23.688517],[121.312843,23.688521],[121.312939,23.688703],[121.313234,23.688616],[121.313235,23.688525],[121.313529,23.688529],[121.313534,23.688168],[121.313435,23.688257],[121.312846,23.68825],[121.312849,23.68807],[121.312751,23.688069],[121.312953,23.687619],[121.312855,23.687618],[121.312862,23.687077],[121.312571,23.686803],[121.312866,23.686715],[121.312967,23.686536],[121.312477,23.68644],[121.312383,23.686168],[121.312087,23.686346],[121.312084,23.686526],[121.311888,23.686524],[121.311502,23.686068],[121.311206,23.686156],[121.311209,23.685975],[121.311014,23.685883],[121.311017,23.685612],[121.310919,23.685611],[121.311019,23.685521],[121.311024,23.68507],[121.310829,23.684978],[121.310631,23.685156],[121.310622,23.685878],[121.31072,23.685879],[121.310814,23.686151],[121.31101,23.686153],[121.311204,23.686336],[121.3112,23.686697],[121.311298,23.686698],[121.311186,23.687781],[121.310987,23.687959],[121.310791,23.687957],[121.310592,23.688226],[121.310395,23.688224],[121.310196,23.688492],[121.309804,23.688488],[121.309803,23.688578],[121.309508,23.688575],[121.309507,23.688665],[121.309116,23.688571],[121.309016,23.68875],[121.308628,23.688385],[121.308431,23.688473],[121.308525,23.688835],[121.308427,23.688834],[121.308325,23.689104],[121.30852,23.689196],[121.308515,23.689558],[121.308219,23.689735],[121.308216,23.689915],[121.308411,23.690008],[121.308408,23.690279],[121.308699,23.690553],[121.308402,23.69073],[121.308399,23.691001],[121.308103,23.691088],[121.307706,23.691445],[121.307802,23.691627],[121.307998,23.691629],[121.308289,23.691903],[121.308487,23.691724],[121.308294,23.691542],[121.308296,23.691361],[121.308491,23.691454],[121.308888,23.691097],[121.309083,23.691189],[121.309183,23.69101],[121.308989,23.690827],[121.309188,23.690649],[121.309482,23.690652],[121.309674,23.690925],[121.309971,23.690747],[121.310065,23.691019],[121.31085,23.691028],[121.310848,23.691118],[121.311144,23.691031],[121.310951,23.690758],[121.310657,23.690755],[121.310658,23.690665],[121.310167,23.690749],[121.310071,23.690568],[121.30968,23.690473],[121.309584,23.690292],[121.308995,23.690375],[121.308997,23.690195],[121.308706,23.690011],[121.308612,23.689649],[121.309009,23.689292],[121.308815,23.689109],[121.308917,23.68884],[121.309209,23.689023],[121.30921,23.688933],[121.309504,23.688936],[121.309505,23.688846],[121.310093,23.688852],[121.310094,23.688762],[121.310388,23.688765],[121.31039,23.688675],[121.310585,23.688767],[121.310685,23.688588],[121.310979,23.688591],[121.311376,23.688234],[121.311281,23.687962],[121.311775,23.687697],[121.311777,23.687516],[121.311484,23.687423],[121.311586,23.687153],[121.31188,23.687156],[121.311976,23.687338],[121.312173,23.68725],[121.31207,23.68761]],[[121.308988,23.690917],[121.308889,23.691006],[121.30889,23.690916],[121.308988,23.690917]],[[121.312271,23.687251],[121.311979,23.687067],[121.311982,23.686886],[121.312274,23.68698],[121.312271,23.687251]]],[[[121.310833,23.692292],[121.311032,23.692113],[121.31094,23.691661],[121.31084,23.69175],[121.310743,23.691659],[121.310644,23.691748],[121.309567,23.691646],[121.309767,23.691377],[121.309863,23.691469],[121.310061,23.69138],[121.309965,23.691199],[121.30967,23.691286],[121.309575,23.691014],[121.309281,23.691011],[121.309182,23.6911],[121.309277,23.691282],[121.308983,23.691278],[121.308985,23.691188],[121.308787,23.691276],[121.309174,23.691732],[121.309565,23.691827],[121.30966,23.692008],[121.310542,23.692108],[121.310637,23.69229],[121.310833,23.692292]],[[121.30947,23.691555],[121.309373,23.691463],[121.309471,23.691464],[121.30947,23.691555]]],[[[121.300507,23.694617],[121.300705,23.694529],[121.300511,23.694346],[121.300513,23.694165],[121.300807,23.694169],[121.300806,23.694259],[121.301392,23.694446],[121.301489,23.694537],[121.301387,23.694807],[121.301582,23.6949],[121.301677,23.695172],[121.30109,23.695075],[121.300891,23.695253],[121.300889,23.695434],[121.301181,23.695618],[121.301282,23.695348],[121.301676,23.695262],[121.301869,23.695445],[121.301866,23.695715],[121.302256,23.6959],[121.302253,23.696081],[121.302056,23.696169],[121.302041,23.697343],[121.302236,23.697435],[121.302232,23.697706],[121.30233,23.697707],[121.302229,23.697977],[121.302131,23.697976],[121.302225,23.698248],[121.302028,23.698336],[121.302026,23.698516],[121.301827,23.698695],[121.30173,23.698604],[121.301533,23.698692],[121.301627,23.699054],[121.301231,23.69932],[121.301227,23.699591],[121.30103,23.699679],[121.301027,23.69995],[121.30122,23.700133],[121.301515,23.700136],[121.30161,23.700318],[121.3021,23.700323],[121.302202,23.700053],[121.3023,23.700055],[121.302298,23.700235],[121.302686,23.70051],[121.303579,23.699707],[121.303584,23.699346],[121.303781,23.699258],[121.303785,23.698987],[121.303982,23.698899],[121.303988,23.698448],[121.304185,23.69836],[121.304191,23.697908],[121.304686,23.697552],[121.304688,23.697372],[121.304884,23.697374],[121.305579,23.696749],[121.305288,23.696475],[121.305092,23.696473],[121.304893,23.696742],[121.304601,23.696558],[121.304605,23.696197],[121.305001,23.69593],[121.304905,23.695749],[121.304709,23.695747],[121.304608,23.696016],[121.304019,23.69601],[121.304318,23.695652],[121.304611,23.695746],[121.30481,23.695567],[121.304813,23.695296],[121.30501,23.695208],[121.305019,23.694576],[121.305512,23.694311],[121.305419,23.693948],[121.306113,23.693324],[121.306018,23.693142],[121.305918,23.693231],[121.305625,23.693138],[121.305531,23.692866],[121.305729,23.692688],[121.30612,23.692782],[121.306221,23.692603],[121.306612,23.692697],[121.306811,23.692429],[121.307105,23.692432],[121.307107,23.692341],[121.3075,23.692255],[121.3076,23.692076],[121.307407,23.691893],[121.307704,23.691626],[121.307411,23.691532],[121.307213,23.691711],[121.307018,23.691618],[121.306819,23.691797],[121.306328,23.691881],[121.306329,23.691791],[121.306035,23.691788],[121.30604,23.691427],[121.306138,23.691428],[121.306044,23.691066],[121.305553,23.691151],[121.305552,23.691241],[121.305257,23.691328],[121.305163,23.690966],[121.304966,23.691054],[121.30429,23.690234],[121.303996,23.690231],[121.303705,23.689956],[121.303711,23.689505],[121.303809,23.689506],[121.303812,23.689325],[121.304107,23.689238],[121.304011,23.689057],[121.303619,23.689052],[121.303517,23.689322],[121.303225,23.689229],[121.303124,23.689408],[121.30283,23.689405],[121.302632,23.689583],[121.302727,23.689765],[121.302335,23.689761],[121.302137,23.689939],[121.30145,23.689932],[121.301355,23.68975],[121.301256,23.689839],[121.301159,23.689748],[121.29959,23.689731],[121.299682,23.690183],[121.299386,23.690361],[121.299383,23.690541],[121.299871,23.690727],[121.300162,23.691001],[121.300161,23.691091],[121.299867,23.691088],[121.299865,23.691178],[121.299376,23.691083],[121.299086,23.690809],[121.298792,23.690806],[121.298599,23.690532],[121.298304,23.69062],[121.298111,23.690347],[121.29831,23.690168],[121.298601,23.690352],[121.298702,23.690172],[121.298507,23.69008],[121.298607,23.6899],[121.298117,23.689895],[121.297522,23.69043],[121.297521,23.690521],[121.297717,23.690523],[121.298105,23.690798],[121.297808,23.691066],[121.297805,23.691246],[121.297607,23.691425],[121.297603,23.691695],[121.297798,23.691788],[121.297987,23.692332],[121.298378,23.692426],[121.298375,23.692697],[121.29857,23.69279],[121.298565,23.693151],[121.298467,23.69315],[121.298464,23.693421],[121.298366,23.693419],[121.298461,23.693601],[121.298657,23.693603],[121.298555,23.693963],[121.298748,23.694146],[121.299043,23.694149],[121.299233,23.694603],[121.299332,23.694514],[121.299429,23.694605],[121.299822,23.694519],[121.300015,23.694792],[121.300212,23.694704],[121.300117,23.694432],[121.300412,23.694435],[121.300507,23.694617]],[[121.306221,23.692603],[121.306124,23.692511],[121.306222,23.692512],[121.306221,23.692603]],[[121.306224,23.692332],[121.30642,23.692334],[121.306419,23.692424],[121.306222,23.692512],[121.306224,23.692332]],[[121.300117,23.694432],[121.300021,23.694341],[121.300119,23.694342],[121.300117,23.694432]],[[121.302888,23.700061],[121.302891,23.69988],[121.302989,23.699882],[121.302986,23.700062],[121.302888,23.700061]],[[121.303789,23.698626],[121.303787,23.698807],[121.30359,23.698895],[121.303592,23.698714],[121.303789,23.698626]],[[121.302613,23.698613],[121.302516,23.698522],[121.302614,23.698523],[121.302613,23.698613]],[[121.302811,23.698435],[121.30252,23.698251],[121.302522,23.69807],[121.302716,23.698253],[121.302912,23.698255],[121.302811,23.698435]],[[121.302911,23.698346],[121.303007,23.698437],[121.302909,23.698436],[121.302911,23.698346]],[[121.30272,23.697892],[121.302621,23.697981],[121.302429,23.697708],[121.302824,23.697442],[121.303018,23.697624],[121.302919,23.697714],[121.303012,23.698076],[121.30272,23.697892]],[[121.303704,23.697632],[121.303702,23.697812],[121.303506,23.69781],[121.303507,23.69772],[121.303704,23.697632]],[[121.303805,23.697452],[121.303708,23.697361],[121.303806,23.697362],[121.303805,23.697452]],[[121.302827,23.697261],[121.302829,23.69708],[121.303025,23.697083],[121.303023,23.697263],[121.302827,23.697261]],[[121.30322,23.697175],[121.303123,23.697084],[121.303221,23.697085],[121.30322,23.697175]],[[121.304209,23.696554],[121.304112,23.696462],[121.30421,23.696464],[121.304209,23.696554]],[[121.303137,23.696],[121.30304,23.695909],[121.303138,23.69591],[121.303137,23.696]],[[121.302553,23.695633],[121.302167,23.695177],[121.302852,23.695275],[121.302749,23.695635],[121.302553,23.695633]],[[121.303437,23.695552],[121.30334,23.695461],[121.303438,23.695462],[121.303437,23.695552]],[[121.303831,23.695376],[121.304325,23.69511],[121.304323,23.695291],[121.303829,23.695556],[121.303831,23.695376]],[[121.303644,23.694742],[121.303547,23.69465],[121.303645,23.694651],[121.303644,23.694742]],[[121.302375,23.694276],[121.302374,23.694367],[121.302471,23.694458],[121.302178,23.694364],[121.302179,23.694274],[121.302375,23.694276]],[[121.304045,23.694024],[121.30404,23.694385],[121.303745,23.694472],[121.303849,23.694021],[121.304045,23.694024]],[[121.299923,23.69434],[121.299826,23.694248],[121.299924,23.694249],[121.299923,23.69434]],[[121.303158,23.694375],[121.30316,23.694195],[121.303258,23.694196],[121.303256,23.694376],[121.303158,23.694375]],[[121.30169,23.694178],[121.301593,23.694087],[121.301691,23.694088],[121.30169,23.694178]],[[121.303366,23.693474],[121.303269,23.693383],[121.302976,23.69329],[121.302884,23.692837],[121.302398,23.69247],[121.302404,23.692019],[121.302697,23.692113],[121.302793,23.692294],[121.303088,23.692207],[121.30289,23.692386],[121.303082,23.692659],[121.30338,23.692391],[121.303661,23.693387],[121.303856,23.69348],[121.303854,23.69366],[121.304047,23.693843],[121.303851,23.693841],[121.303658,23.693658],[121.303558,23.693747],[121.303654,23.693929],[121.303458,23.693927],[121.303366,23.693474]],[[121.304438,23.693938],[121.304342,23.693846],[121.30444,23.693847],[121.304438,23.693938]],[[121.302284,23.693733],[121.302187,23.693642],[121.302285,23.693643],[121.302284,23.693733]],[[121.301795,23.693638],[121.301698,23.693546],[121.301796,23.693547],[121.301795,23.693638]],[[121.305229,23.693495],[121.305226,23.693675],[121.30503,23.693673],[121.305034,23.693402],[121.305229,23.693495]],[[121.304053,23.693392],[121.303956,23.6933],[121.304054,23.693301],[121.304053,23.693392]],[[121.300329,23.69326],[121.300232,23.693169],[121.30033,23.69317],[121.300329,23.69326]],[[121.300235,23.692898],[121.300233,23.693079],[121.300135,23.693078],[121.300039,23.692896],[121.300235,23.692898]],[[121.302102,23.692648],[121.301908,23.692465],[121.301711,23.692553],[121.301714,23.692282],[121.30191,23.692285],[121.302297,23.69274],[121.302493,23.692742],[121.30239,23.693102],[121.302097,23.693009],[121.302102,23.692648]],[[121.29955,23.6928],[121.299553,23.69262],[121.299651,23.692621],[121.299648,23.692801],[121.29955,23.6928]],[[121.299844,23.692804],[121.299748,23.692712],[121.299846,23.692713],[121.299844,23.692804]],[[121.300239,23.692627],[121.300142,23.692536],[121.30024,23.692537],[121.300239,23.692627]],[[121.299166,23.692164],[121.299458,23.692348],[121.299358,23.692527],[121.299164,23.692345],[121.299166,23.692164]],[[121.30083,23.692453],[121.300733,23.692362],[121.300831,23.692363],[121.30083,23.692453]],[[121.306519,23.692245],[121.306718,23.692066],[121.306914,23.692068],[121.306517,23.692425],[121.306519,23.692245]],[[121.299856,23.691901],[121.299759,23.691809],[121.299857,23.691811],[121.299856,23.691901]],[[121.30221,23.691836],[121.302213,23.691656],[121.302311,23.691657],[121.302308,23.691837],[121.30221,23.691836]],[[121.302897,23.691844],[121.3028,23.691752],[121.302898,23.691754],[121.302897,23.691844]],[[121.304964,23.691234],[121.305157,23.691417],[121.305154,23.691688],[121.304857,23.691865],[121.304864,23.691324],[121.304768,23.691232],[121.304964,23.691234]],[[121.30721,23.691891],[121.307114,23.6918],[121.307212,23.691801],[121.30721,23.691891]],[[121.303782,23.691583],[121.303786,23.691312],[121.303884,23.691313],[121.303887,23.691042],[121.303986,23.691043],[121.304079,23.691405],[121.304372,23.691499],[121.30437,23.691679],[121.304074,23.691766],[121.303979,23.691585],[121.303782,23.691583]],[[121.301041,23.691282],[121.300944,23.69119],[121.301042,23.691191],[121.301041,23.691282]],[[121.301927,23.691021],[121.301925,23.691111],[121.301629,23.691288],[121.301631,23.691108],[121.301927,23.691021]],[[121.300454,23.691185],[121.300357,23.691094],[121.300455,23.691095],[121.300454,23.691185]],[[121.301534,23.691016],[121.301438,23.690925],[121.301536,23.690926],[121.301534,23.691016]],[[121.303206,23.690673],[121.303596,23.690858],[121.303691,23.69104],[121.303105,23.690853],[121.303206,23.690673]],[[121.303107,23.690763],[121.30301,23.690671],[121.303108,23.690672],[121.303107,23.690763]],[[121.30438,23.690867],[121.304574,23.69105],[121.304378,23.691047],[121.30438,23.690867]],[[121.302032,23.69048],[121.302127,23.690662],[121.301736,23.690567],[121.301738,23.690477],[121.302032,23.69048]],[[121.30164,23.690476],[121.301543,23.690384],[121.301641,23.690385],[121.30164,23.690476]],[[121.301544,23.690294],[121.301447,23.690203],[121.301545,23.690204],[121.301544,23.690294]]],[[[121.299384,23.698036],[121.299681,23.697859],[121.299875,23.698041],[121.299975,23.697862],[121.299684,23.697588],[121.299488,23.697586],[121.299288,23.697945],[121.299384,23.698036]]],[[[121.300953,23.698053],[121.30066,23.69796],[121.300468,23.697687],[121.30027,23.697775],[121.300268,23.697955],[121.300559,23.698229],[121.300853,23.698233],[121.300953,23.698053]]],[[[121.300233,23.700664],[121.30063,23.700307],[121.300534,23.700125],[121.300338,23.700123],[121.299841,23.70066],[121.300233,23.700664]]]]}},{"type":"Feature","properties":{"kind":"water","month":"2025-07","area_ha":10.11},"geometry":{"type":"MultiPolygon","coordinates":[[[[121.284065,23.692178],[121.284161,23.69236],[121.284357,23.692362],[121.284263,23.69209],[121.283485,23.69154],[121.283393,23.691087],[121.283198,23.690995],[121.283202,23.690724],[121.282911,23.69045],[121.282812,23.690539],[121.282322,23.690533],[121.28232,23.690714],[121.282615,23.690627],[121.282709,23.690899],[121.283004,23.690902],[121.283001,23.691083],[121.283294,23.691176],[121.283292,23.691357],[121.283194,23.691356],[121.283286,23.691808],[121.283677,23.691903],[121.28377,23.692265],[121.284065,23.692178]],[[121.283289,23.691537],[121.283389,23.691448],[121.283387,23.691538],[121.283289,23.691537]],[[121.283774,23.691994],[121.283873,23.691905],[121.283872,23.691995],[121.283774,23.691994]]],[[[121.285122,23.693905],[121.285023,23.693904],[121.285027,23.693633],[121.284929,23.693632],[121.28484,23.692909],[121.28455,23.692635],[121.284546,23.692906],[121.284644,23.692907],[121.284542,23.693267],[121.284831,23.693631],[121.284728,23.693991],[121.285021,23.694085],[121.285018,23.694356],[121.285309,23.69454],[121.285313,23.694269],[121.285117,23.694267],[121.285122,23.693905]]],[[[121.285692,23.695266],[121.285598,23.694994],[121.285401,23.694992],[121.285406,23.694631],[121.285308,23.69463],[121.285202,23.695261],[121.285885,23.695539],[121.285887,23.695359],[121.285692,23.695266]]],[[[121.285983,23.69554],[121.285883,23.69563],[121.285982,23.695631],[121.285983,23.69554]]],[[[121.287636,23.696552],[121.287933,23.696375],[121.287937,23.696104],[121.287646,23.69583],[121.287157,23.695734],[121.287056,23.695913],[121.28686,23.695911],[121.286765,23.69573],[121.286276,23.695634],[121.286373,23.695725],[121.286272,23.695905],[121.286466,23.696087],[121.286662,23.69609],[121.286856,23.696272],[121.287152,23.696095],[121.287636,23.696552]]],[[[121.29009,23.696398],[121.290188,23.6964],[121.29019,23.696219],[121.290092,23.696218],[121.29009,23.696398]]],[[[121.292313,23.698861],[121.29261,23.698684],[121.292616,23.698232],[121.292223,23.698228],[121.291933,23.697954],[121.291736,23.698042],[121.291542,23.697859],[121.29115,23.697855],[121.291152,23.697674],[121.290958,23.697492],[121.290663,23.697579],[121.290572,23.697036],[121.290086,23.696669],[121.29009,23.696398],[121.289894,23.696396],[121.289798,23.696215],[121.289503,23.696302],[121.289411,23.695849],[121.28902,23.695755],[121.28912,23.695575],[121.288926,23.695392],[121.288729,23.69548],[121.288626,23.69584],[121.288919,23.695934],[121.288917,23.696115],[121.289401,23.696571],[121.289597,23.696574],[121.289593,23.696935],[121.289887,23.696938],[121.289884,23.697119],[121.290081,23.697121],[121.289978,23.697481],[121.290172,23.697664],[121.290467,23.697577],[121.290365,23.697846],[121.290559,23.698029],[121.290756,23.697941],[121.290852,23.698123],[121.291244,23.698127],[121.291437,23.6984],[121.291634,23.698312],[121.292117,23.698859],[121.292313,23.698861]]],[[[121.296141,23.698632],[121.296139,23.698723],[121.296334,23.698815],[121.296337,23.698635],[121.296141,23.698632]]],[[[121.295453,23.698715],[121.295548,23.698987],[121.295744,23.698989],[121.295844,23.69881],[121.296138,23.698813],[121.295945,23.69863],[121.295453,23.698715]]],[[[121.295522,23.700973],[121.295721,23.700705],[121.296309,23.700801],[121.296311,23.700621],[121.296508,23.700533],[121.296513,23.700172],[121.296318,23.700079],[121.296225,23.699717],[121.295927,23.699985],[121.295731,23.699982],[121.295733,23.699802],[121.295539,23.699619],[121.295343,23.699617],[121.294548,23.700421],[121.294254,23.700418],[121.294545,23.700692],[121.294937,23.700696],[121.29513,23.700969],[121.295522,23.700973]]],[[[121.305704,23.694674],[121.305802,23.694675],[121.305608,23.694492],[121.305708,23.694313],[121.305513,23.69422],[121.30551,23.694491],[121.305215,23.694578],[121.305213,23.694669],[121.30541,23.694671],[121.305407,23.694851],[121.305798,23.694946],[121.305704,23.694674]],[[121.305606,23.694673],[121.305509,23.694581],[121.305607,23.694583],[121.305606,23.694673]]],[[[121.298425,23.6964],[121.298621,23.696402],[121.298626,23.696041],[121.298724,23.696042],[121.29863,23.69568],[121.298828,23.695592],[121.298831,23.695321],[121.298339,23.695496],[121.298529,23.69595],[121.298232,23.696127],[121.298227,23.696578],[121.298325,23.69658],[121.298329,23.696218],[121.298427,23.696219],[121.298425,23.6964]]],[[[121.30037,23.697686],[121.30066,23.69796],[121.30115,23.697965],[121.301351,23.697606],[121.301942,23.697432],[121.302044,23.697072],[121.301649,23.697338],[121.300964,23.697241],[121.300962,23.697331],[121.300569,23.697417],[121.30037,23.697686]],[[121.300957,23.697782],[121.301056,23.697693],[121.301055,23.697783],[121.300957,23.697782]]],[[[121.299879,23.69768],[121.300073,23.697863],[121.300368,23.697776],[121.300175,23.697593],[121.299879,23.69768]]],[[[121.299387,23.697855],[121.299488,23.697586],[121.298802,23.697578],[121.298602,23.697847],[121.298307,23.697934],[121.298304,23.698205],[121.2985,23.698207],[121.298698,23.698028],[121.299284,23.698215],[121.299386,23.697946],[121.299189,23.697944],[121.299191,23.697853],[121.299387,23.697855]]],[[[121.299777,23.69804],[121.299583,23.697858],[121.299383,23.698126],[121.299677,23.698129],[121.299777,23.69804]]],[[[121.300462,23.698138],[121.300269,23.697865],[121.300072,23.697953],[121.300166,23.698225],[121.300462,23.698138]]],[[[121.296528,23.698998],[121.29653,23.698817],[121.296334,23.698815],[121.296332,23.698996],[121.296528,23.698998]]],[[[121.298671,23.700105],[121.298676,23.699744],[121.298482,23.699561],[121.298091,23.699467],[121.298097,23.699015],[121.298395,23.698747],[121.298302,23.698295],[121.298106,23.698293],[121.298002,23.698743],[121.297904,23.698742],[121.297898,23.699194],[121.297601,23.699461],[121.297894,23.699555],[121.297888,23.700006],[121.298183,23.699919],[121.298181,23.7001],[121.298375,23.700282],[121.298671,23.700105]]]]}}]}