{"type":"FeatureCollection","features":[{"type":"Feature","properties":{"kind":"bare_slide","month":"2025-01","area_ha":192.69},"geometry":{"type":"MultiPolygon","coordinates":[[[[121.299098,23.704986],[121.299297,23.704807],[121.299299,23.704627],[121.299496,23.704539],[121.2995,23.704268],[121.299598,23.704269],[121.299601,23.703998],[121.299503,23.703997],[121.299606,23.703637],[121.298734,23.702815],[121.298736,23.702634],[121.298931,23.702727],[121.299034,23.702366],[121.299132,23.702368],[121.299035,23.702276],[121.299145,23.701374],[121.298753,23.70137],[121.298657,23.701188],[121.297971,23.701181],[121.29787,23.70136],[121.298065,23.701453],[121.298055,23.702265],[121.298248,23.702448],[121.298432,23.703443],[121.298819,23.703809],[121.299015,23.703811],[121.299012,23.704082],[121.29911,23.704083],[121.298903,23.704893],[121.299098,23.704986]],[[121.299309,23.703814],[121.299408,23.703815],[121.299405,23.703996],[121.299307,23.703995],[121.299309,23.703814]],[[121.299309,23.703814],[121.299213,23.703723],[121.299311,23.703724],[121.299309,23.703814]],[[121.298824,23.703448],[121.298825,23.703357],[121.299021,23.70336],[121.29902,23.70345],[121.298824,23.703448]],[[121.298839,23.702274],[121.298742,23.702183],[121.29884,23.702184],[121.298839,23.702274]],[[121.298652,23.70155],[121.298556,23.701458],[121.298654,23.701459],[121.298652,23.70155]]],[[[121.298788,23.706247],[121.298985,23.706159],[121.298988,23.705888],[121.299086,23.705889],[121.298896,23.705435],[121.298993,23.705526],[121.29919,23.705438],[121.298999,23.705075],[121.298802,23.705163],[121.298799,23.705344],[121.297917,23.705334],[121.297422,23.70569],[121.297906,23.706147],[121.298006,23.706057],[121.298496,23.706063],[121.29849,23.706514],[121.298587,23.706606],[121.298784,23.706517],[121.298788,23.706247]],[[121.298693,23.705975],[121.298695,23.705794],[121.298793,23.705795],[121.298791,23.705976],[121.298693,23.705975]]],[[[121.296296,23.709289],[121.296098,23.709468],[121.295996,23.709738],[121.296093,23.709829],[121.296193,23.70974],[121.296878,23.709838],[121.296972,23.71011],[121.29717,23.710021],[121.297172,23.709841],[121.297366,23.710024],[121.297564,23.709845],[121.297661,23.709937],[121.297858,23.709848],[121.297765,23.709486],[121.297569,23.709484],[121.297376,23.709211],[121.297179,23.709299],[121.297282,23.708939],[121.296992,23.708575],[121.296795,23.708663],[121.296988,23.708936],[121.296693,23.708933],[121.296589,23.709383],[121.296493,23.709292],[121.296296,23.709289]],[[121.296589,23.709383],[121.296686,23.709474],[121.296588,23.709473],[121.296589,23.709383]],[[121.297369,23.709753],[121.297272,23.709661],[121.29737,23.709662],[121.297369,23.709753]],[[121.297372,23.709572],[121.297275,23.709481],[121.297373,23.709482],[121.297372,23.709572]]],[[[121.297631,23.712284],[121.297927,23.712107],[121.297932,23.711745],[121.298228,23.711568],[121.298134,23.711296],[121.298232,23.711297],[121.298437,23.710577],[121.298535,23.710578],[121.298539,23.710307],[121.298345,23.710125],[121.298051,23.710121],[121.29815,23.710032],[121.298054,23.709851],[121.297561,23.710116],[121.297654,23.710478],[121.297946,23.710662],[121.297747,23.71084],[121.29794,23.711113],[121.297645,23.711201],[121.29764,23.711562],[121.297541,23.711651],[121.297248,23.711557],[121.297147,23.711737],[121.296853,23.711734],[121.296854,23.711643],[121.296657,23.711731],[121.29675,23.712094],[121.29685,23.712004],[121.297242,23.712009],[121.297241,23.712099],[121.297536,23.712012],[121.297534,23.712193],[121.297631,23.712284]],[[121.298051,23.710121],[121.297952,23.710211],[121.297953,23.71012],[121.298051,23.710121]],[[121.297147,23.711737],[121.297244,23.711828],[121.297146,23.711827],[121.297147,23.711737]],[[121.297536,23.712012],[121.297635,23.711923],[121.297634,23.712013],[121.297536,23.712012]],[[121.297537,23.711922],[121.29744,23.71183],[121.297343,23.711739],[121.29754,23.711741],[121.297537,23.711922]],[[121.297935,23.711475],[121.298034,23.711385],[121.298033,23.711476],[121.297935,23.711475]]],[[[121.292119,23.713758],[121.292022,23.713667],[121.291825,23.713755],[121.29192,23.714027],[121.292117,23.713939],[121.292119,23.713758]]],[[[121.283662,23.715561],[121.283958,23.715384],[121.283963,23.715022],[121.284356,23.714937],[121.283969,23.714571],[121.284072,23.714211],[121.284368,23.714034],[121.28437,23.713853],[121.284177,23.71367],[121.282887,23.71483],[121.282884,23.715011],[121.283177,23.715104],[121.283175,23.715285],[121.283465,23.715559],[121.283662,23.715561]]],[[[121.296395,23.716785],[121.296693,23.716518],[121.296698,23.716157],[121.296896,23.715978],[121.296802,23.715706],[121.297198,23.715349],[121.297103,23.715168],[121.296907,23.715166],[121.296805,23.715435],[121.296608,23.715523],[121.2965,23.716245],[121.296402,23.716244],[121.296299,23.716604],[121.296103,23.716601],[121.295904,23.71687],[121.296292,23.717145],[121.296395,23.716785]]],[[[121.303345,23.72544],[121.303443,23.725441],[121.303339,23.725892],[121.303141,23.72598],[121.303038,23.72643],[121.303136,23.726431],[121.303129,23.726973],[121.303419,23.727247],[121.303615,23.727249],[121.303719,23.726799],[121.303817,23.7268],[121.303822,23.726439],[121.304119,23.726261],[121.304022,23.72617],[121.304028,23.725718],[121.303929,23.725717],[121.303935,23.725266],[121.30413,23.725358],[121.304127,23.725629],[121.304419,23.725813],[121.304413,23.726265],[121.30451,23.726356],[121.304707,23.726268],[121.304713,23.725816],[121.304615,23.725815],[121.304521,23.725453],[121.30511,23.725459],[121.30521,23.72528],[121.304819,23.725185],[121.30482,23.725095],[121.304428,23.725091],[121.304138,23.724726],[121.303942,23.724724],[121.30375,23.724451],[121.303554,23.724449],[121.303556,23.724269],[121.303362,23.724086],[121.303166,23.724084],[121.303169,23.723813],[121.303368,23.723634],[121.303959,23.72346],[121.30406,23.72319],[121.304157,23.723282],[121.304453,23.723195],[121.304547,23.723467],[121.304646,23.723378],[121.305235,23.723384],[121.305427,23.723657],[121.305626,23.723479],[121.305821,23.723571],[121.30602,23.723302],[121.305825,23.72321],[121.305731,23.722938],[121.305534,23.723026],[121.305531,23.723207],[121.305139,23.723202],[121.30475,23.722927],[121.304554,23.722925],[121.304553,23.723015],[121.304358,23.722923],[121.304357,23.723013],[121.304061,23.7231],[121.303869,23.722827],[121.30367,23.723006],[121.303376,23.723002],[121.30328,23.722821],[121.303477,23.722823],[121.303676,23.722554],[121.303773,23.722646],[121.304166,23.72256],[121.304165,23.72265],[121.304751,23.722837],[121.305148,23.72248],[121.305151,23.722299],[121.305054,23.722208],[121.304563,23.722203],[121.304562,23.722293],[121.304465,23.722202],[121.303191,23.722188],[121.303095,23.722006],[121.302701,23.722092],[121.302703,23.722002],[121.302409,23.721908],[121.302309,23.722088],[121.302407,23.722089],[121.302501,23.722451],[121.302597,23.722542],[121.302795,23.722454],[121.302986,23.722818],[121.302789,23.722906],[121.302498,23.722632],[121.3023,23.72281],[121.302297,23.722991],[121.301802,23.723346],[121.301898,23.723528],[121.301701,23.723616],[121.301703,23.723436],[121.301605,23.723434],[121.301708,23.723074],[121.30161,23.723073],[121.301613,23.722802],[121.301515,23.722801],[121.30152,23.72244],[121.301618,23.722441],[121.301722,23.721991],[121.301624,23.72199],[121.301529,23.721718],[121.301332,23.721806],[121.301228,23.722256],[121.301033,23.722164],[121.300735,23.722432],[121.300733,23.722612],[121.300435,23.72288],[121.300239,23.722878],[121.300243,23.722607],[121.300738,23.722251],[121.300843,23.72171],[121.300941,23.721711],[121.300847,23.721349],[121.300654,23.721167],[121.301149,23.720811],[121.301151,23.72063],[121.300956,23.720538],[121.300958,23.720357],[121.300668,23.720083],[121.300576,23.719631],[121.300381,23.719538],[121.30039,23.718816],[121.300292,23.718815],[121.300398,23.718184],[121.300795,23.717827],[121.300605,23.717373],[121.301002,23.717017],[121.301004,23.716836],[121.300906,23.716835],[121.30101,23.716385],[121.301108,23.716386],[121.301012,23.716204],[121.301309,23.716027],[121.301214,23.715755],[121.301017,23.715843],[121.301123,23.715212],[121.300929,23.715029],[121.301027,23.71503],[121.30103,23.71485],[121.301127,23.714941],[121.301324,23.714853],[121.301527,23.714313],[121.301724,23.714225],[121.30173,23.713774],[121.301632,23.713773],[121.301831,23.713594],[121.301738,23.713142],[121.301835,23.713233],[121.302033,23.713145],[121.302037,23.712784],[121.301843,23.712601],[121.302335,23.712516],[121.302239,23.712335],[121.302043,23.712332],[121.302047,23.712062],[121.301754,23.711968],[121.301755,23.711878],[121.301459,23.711965],[121.301455,23.712326],[121.301259,23.712324],[121.301065,23.712141],[121.300767,23.712409],[121.300862,23.712681],[121.300765,23.712589],[121.300568,23.712677],[121.300562,23.713129],[121.300854,23.713313],[121.300847,23.713854],[121.30065,23.713852],[121.300555,23.713671],[121.300258,23.713848],[121.300153,23.714389],[121.299956,23.714477],[121.299948,23.715109],[121.29975,23.715197],[121.299648,23.715557],[121.299053,23.716002],[121.299146,23.716454],[121.298851,23.716451],[121.298554,23.716719],[121.298449,23.717259],[121.298252,23.717257],[121.297954,23.717615],[121.297757,23.717613],[121.297559,23.717791],[121.297454,23.718332],[121.297258,23.71833],[121.29696,23.718598],[121.29647,23.718592],[121.296271,23.718771],[121.29628,23.718139],[121.296378,23.71814],[121.296281,23.718048],[121.296288,23.717507],[121.295996,23.717323],[121.295797,23.717501],[121.295795,23.717682],[121.295598,23.71777],[121.29569,23.718222],[121.295884,23.718405],[121.29588,23.718676],[121.295486,23.718852],[121.295578,23.719305],[121.295382,23.719303],[121.295287,23.719031],[121.295091,23.719028],[121.294893,23.719207],[121.29528,23.719572],[121.295179,23.719842],[121.294982,23.71984],[121.295082,23.719751],[121.294986,23.719569],[121.294589,23.719926],[121.294394,23.719833],[121.294498,23.719383],[121.295092,23.718938],[121.294999,23.718576],[121.294802,23.718664],[121.294699,23.719024],[121.294303,23.719291],[121.294201,23.71956],[121.294005,23.719558],[121.294004,23.719649],[121.29381,23.719466],[121.293613,23.719554],[121.293706,23.719916],[121.293997,23.72019],[121.294193,23.720192],[121.294285,23.720645],[121.294581,23.720558],[121.294979,23.720111],[121.295274,23.720024],[121.295268,23.720475],[121.29517,23.720474],[121.295167,23.720745],[121.29497,23.720833],[121.294965,23.721194],[121.294667,23.721462],[121.294274,23.721548],[121.294367,23.72191],[121.294072,23.721997],[121.294069,23.722178],[121.294167,23.722179],[121.294065,23.722539],[121.293871,23.722356],[121.293971,23.722177],[121.293776,23.722084],[121.293876,23.721995],[121.293785,23.721452],[121.293492,23.721359],[121.293201,23.721084],[121.293203,23.720904],[121.29291,23.72081],[121.292913,23.72063],[121.292814,23.720629],[121.293016,23.720179],[121.292625,23.720085],[121.292628,23.719904],[121.292826,23.719726],[121.292631,23.719633],[121.292732,23.719454],[121.292344,23.719088],[121.292346,23.718908],[121.292544,23.71882],[121.292546,23.718639],[121.292448,23.718638],[121.292554,23.718007],[121.292851,23.71783],[121.292853,23.717649],[121.29315,23.717472],[121.293152,23.717291],[121.293448,23.717204],[121.29355,23.716844],[121.293748,23.716756],[121.293654,23.716394],[121.293952,23.716126],[121.294639,23.716044],[121.294741,23.715774],[121.295133,23.715778],[121.29523,23.715869],[121.295223,23.716411],[121.29532,23.716503],[121.295517,23.716414],[121.295515,23.716595],[121.295317,23.716773],[121.295313,23.717044],[121.295508,23.717137],[121.295706,23.716958],[121.296117,23.715518],[121.296214,23.715609],[121.29651,23.715522],[121.296512,23.715342],[121.29671,23.715163],[121.296714,23.714893],[121.296908,23.715075],[121.297104,23.715077],[121.297302,23.714899],[121.297306,23.714628],[121.297502,23.71463],[121.297501,23.714721],[121.297697,23.714723],[121.297693,23.714994],[121.297985,23.715177],[121.29808,23.715449],[121.298277,23.715361],[121.29847,23.715634],[121.298666,23.715636],[121.298766,23.715457],[121.299062,23.71537],[121.298968,23.715008],[121.298288,23.714549],[121.298291,23.714278],[121.298584,23.714371],[121.298685,23.714192],[121.298491,23.714009],[121.298197,23.714006],[121.298101,23.713824],[121.297904,23.713912],[121.297907,23.713641],[121.297809,23.71364],[121.297716,23.713278],[121.297418,23.713546],[121.297312,23.714177],[121.297113,23.714355],[121.296917,23.714353],[121.296817,23.714532],[121.296621,23.71453],[121.296421,23.714799],[121.296225,23.714797],[121.296124,23.714976],[121.296318,23.715159],[121.296023,23.715246],[121.295921,23.715516],[121.295725,23.715514],[121.295625,23.715693],[121.295333,23.715509],[121.295437,23.715059],[121.295243,23.714876],[121.294752,23.714961],[121.294756,23.7146],[121.295149,23.714604],[121.295546,23.714248],[121.295549,23.713977],[121.295843,23.71398],[121.296141,23.713712],[121.296146,23.713351],[121.296343,23.713263],[121.296353,23.71245],[121.296257,23.712359],[121.295863,23.712445],[121.295857,23.712897],[121.295758,23.712986],[121.295464,23.712982],[121.295463,23.713073],[121.29517,23.712979],[121.295069,23.713159],[121.294678,23.713064],[121.294575,23.713424],[121.294182,23.71351],[121.294082,23.71369],[121.29359,23.713775],[121.293293,23.714042],[121.292704,23.714036],[121.29261,23.713764],[121.292315,23.71376],[121.292117,23.713939],[121.292112,23.7143],[121.292307,23.714392],[121.292207,23.714572],[121.292012,23.714479],[121.291919,23.714117],[121.291428,23.714112],[121.291328,23.714291],[121.291522,23.714474],[121.291224,23.714742],[121.29093,23.714738],[121.290929,23.714829],[121.290734,23.714736],[121.290535,23.714915],[121.290826,23.715189],[121.290823,23.715369],[121.290627,23.715367],[121.290434,23.715184],[121.290138,23.715271],[121.289946,23.714998],[121.28965,23.715085],[121.289649,23.715176],[121.289161,23.71499],[121.288961,23.715258],[121.288765,23.715256],[121.289361,23.714721],[121.289264,23.71463],[121.289068,23.714628],[121.289067,23.714718],[121.288576,23.714712],[121.288577,23.714622],[121.288086,23.714707],[121.287993,23.714345],[121.287797,23.714343],[121.287598,23.714521],[121.28769,23.714973],[121.287103,23.714877],[121.286905,23.715055],[121.28661,23.715052],[121.286814,23.714512],[121.286324,23.714417],[121.286223,23.714686],[121.286514,23.71496],[121.286217,23.715138],[121.286215,23.715318],[121.286019,23.715316],[121.285918,23.715496],[121.285723,23.715403],[121.285623,23.715583],[121.285329,23.715579],[121.285129,23.715848],[121.284835,23.715845],[121.284139,23.71656],[121.283943,23.716557],[121.283749,23.716375],[121.283647,23.716644],[121.283253,23.716821],[121.28325,23.717001],[121.283445,23.717094],[121.283343,23.717454],[121.283144,23.717632],[121.283236,23.718085],[121.283038,23.718263],[121.283035,23.718444],[121.28323,23.718536],[121.283227,23.718807],[121.282933,23.718804],[121.282438,23.719159],[121.282533,23.719341],[121.282927,23.719255],[121.282924,23.719436],[121.282428,23.719882],[121.282036,23.719877],[121.282035,23.719968],[121.281641,23.720053],[121.281635,23.720505],[121.281926,23.720779],[121.281924,23.72096],[121.282316,23.720964],[121.282517,23.720605],[121.282808,23.720789],[121.283205,23.720432],[121.283208,23.720251],[121.283602,23.720075],[121.283606,23.719804],[121.283703,23.719896],[121.284685,23.719816],[121.284584,23.719996],[121.28429,23.719993],[121.283991,23.72035],[121.284282,23.720625],[121.284576,23.720628],[121.284577,23.720538],[121.284871,23.720541],[121.28487,23.720631],[121.284477,23.720717],[121.284278,23.720895],[121.284373,23.721167],[121.283782,23.721341],[121.283484,23.721609],[121.283482,23.72179],[121.283775,23.721883],[121.283975,23.721614],[121.284466,23.72153],[121.284264,23.721979],[121.284067,23.722067],[121.284061,23.722518],[121.284448,23.722884],[121.284743,23.722887],[121.284741,23.722977],[121.285134,23.722982],[121.285135,23.722891],[121.285528,23.722806],[121.285722,23.722988],[121.286115,23.722902],[121.286406,23.723176],[121.2867,23.72318],[121.286702,23.723089],[121.286995,23.723183],[121.287096,23.722913],[121.287392,23.722826],[121.28739,23.722916],[121.287685,23.72292],[121.287683,23.72301],[121.287584,23.723099],[121.287389,23.723007],[121.287288,23.723277],[121.287777,23.723372],[121.287979,23.722923],[121.288176,23.722835],[121.28808,23.722653],[121.287884,23.722651],[121.287888,23.72238],[121.288182,23.722383],[121.288382,23.722115],[121.288676,23.722118],[121.288673,23.722299],[121.288378,23.722386],[121.288278,23.722565],[121.288473,23.722658],[121.288474,23.722567],[121.288769,23.72248],[121.288762,23.723022],[121.288566,23.72302],[121.288267,23.723378],[121.287974,23.723284],[121.287871,23.723644],[121.287773,23.723643],[121.28777,23.723914],[121.287963,23.724097],[121.28796,23.724368],[121.288449,23.724463],[121.288542,23.724825],[121.288736,23.725008],[121.288932,23.72501],[121.288931,23.725101],[121.289226,23.725014],[121.289323,23.725105],[121.289222,23.725375],[121.289416,23.725558],[121.290005,23.725474],[121.290003,23.725654],[121.290395,23.725659],[121.290393,23.725839],[121.290785,23.725844],[121.290881,23.726025],[121.291175,23.726028],[121.291172,23.726209],[121.291565,23.726213],[121.291562,23.726394],[121.293525,23.726325],[121.293527,23.726145],[121.29392,23.726149],[121.293922,23.725969],[121.294412,23.725974],[121.294513,23.725794],[121.294905,23.725799],[121.294903,23.725979],[121.295393,23.725985],[121.295298,23.725713],[121.295593,23.725716],[121.295594,23.725626],[121.295886,23.72581],[121.295786,23.725899],[121.295881,23.726171],[121.296468,23.726267],[121.296469,23.726177],[121.296765,23.72609],[121.296767,23.72591],[121.296669,23.725909],[121.296771,23.725639],[121.296576,23.725546],[121.296677,23.725277],[121.296384,23.725183],[121.296486,23.724913],[121.296776,23.725187],[121.296973,23.725189],[121.297173,23.72483],[121.297368,23.724923],[121.297667,23.724565],[121.297862,23.724657],[121.297961,23.724568],[121.297865,23.724477],[121.29797,23.723936],[121.298357,23.724302],[121.298351,23.724753],[121.298546,23.724846],[121.298745,23.724667],[121.298656,23.723944],[121.297876,23.723574],[121.297881,23.723213],[121.297979,23.723214],[121.297884,23.722942],[121.298082,23.722854],[121.298183,23.722584],[121.298967,23.722683],[121.299071,23.722233],[121.29868,23.722138],[121.298584,23.721956],[121.298387,23.722045],[121.298388,23.721954],[121.297899,23.721859],[121.298097,23.72168],[121.298099,23.7215],[121.298293,23.721682],[121.29849,23.721594],[121.298398,23.721142],[121.298597,23.720963],[121.298403,23.720781],[121.298504,23.720511],[121.298408,23.720419],[121.29821,23.720508],[121.29792,23.720233],[121.298214,23.720237],[121.298412,23.720058],[121.298417,23.719697],[121.298614,23.719609],[121.29852,23.719337],[121.298915,23.719071],[121.299321,23.718082],[121.299519,23.717903],[121.299812,23.717997],[121.299914,23.717727],[121.30011,23.717729],[121.300007,23.718089],[121.299909,23.718088],[121.299905,23.718359],[121.300004,23.71836],[121.299902,23.71863],[121.3,23.718631],[121.300091,23.719174],[121.299993,23.719173],[121.299988,23.719534],[121.299693,23.719621],[121.299887,23.719804],[121.299884,23.719984],[121.299487,23.720341],[121.299482,23.720792],[121.299384,23.720791],[121.299278,23.721332],[121.298983,23.721419],[121.299083,23.72124],[121.298889,23.721147],[121.29869,23.721326],[121.298685,23.721687],[121.299267,23.722235],[121.299358,23.722778],[121.299552,23.72296],[121.299944,23.722965],[121.300037,23.723327],[121.300626,23.723333],[121.30072,23.723605],[121.301013,23.723699],[121.301109,23.72388],[121.301403,23.723884],[121.301404,23.723793],[121.301599,23.723886],[121.3017,23.723706],[121.301896,23.723709],[121.301795,23.723888],[121.301989,23.724071],[121.30248,23.724076],[121.302472,23.724618],[121.302374,23.724617],[121.302273,23.724887],[121.301882,23.724792],[121.301683,23.72497],[121.301778,23.725242],[121.301579,23.725421],[121.301383,23.725419],[121.301482,23.725329],[121.301388,23.725057],[121.301093,23.725144],[121.301286,23.725327],[121.301185,23.725597],[121.301087,23.725596],[121.301081,23.726047],[121.301179,23.726048],[121.301077,23.726318],[121.301174,23.72641],[121.30137,23.726412],[121.301569,23.726233],[121.301375,23.726051],[121.301576,23.725692],[121.301772,23.725694],[121.301867,23.725966],[121.302064,23.725878],[121.302069,23.725516],[121.302265,23.725519],[121.302366,23.725249],[121.302762,23.724982],[121.302867,23.724442],[121.303061,23.724624],[121.303258,23.724536],[121.303451,23.724809],[121.303647,23.724811],[121.303543,23.725262],[121.303345,23.72544]],[[121.304453,23.723195],[121.304552,23.723106],[121.304551,23.723196],[121.304453,23.723195]],[[121.303676,23.722554],[121.303579,23.722463],[121.303677,23.722464],[121.303676,23.722554]],[[121.302893,23.722455],[121.302698,23.722363],[121.3027,23.722182],[121.302993,23.722276],[121.302893,23.722455]],[[121.300653,23.721257],[121.300553,23.721346],[121.300554,23.721256],[121.300653,23.721257]],[[121.301013,23.716114],[121.300716,23.716381],[121.300712,23.716652],[121.30081,23.716653],[121.300612,23.716832],[121.300708,23.717013],[121.300314,23.717099],[121.300116,23.717278],[121.300113,23.717458],[121.299917,23.717456],[121.299719,23.717635],[121.299721,23.717454],[121.300118,23.717097],[121.300228,23.716195],[121.300425,23.716107],[121.300427,23.715927],[121.300725,23.715659],[121.30092,23.715751],[121.300821,23.715841],[121.300818,23.716021],[121.301013,23.716114]],[[121.294687,23.719927],[121.294685,23.720108],[121.294489,23.720105],[121.29449,23.720015],[121.294687,23.719927]],[[121.294367,23.72191],[121.294464,23.722001],[121.294366,23.722],[121.294367,23.72191]],[[121.293776,23.722084],[121.293677,23.722173],[121.293678,23.722083],[121.293776,23.722084]],[[121.294752,23.714961],[121.294652,23.71505],[121.294654,23.71496],[121.294752,23.714961]],[[121.292109,23.714571],[121.29201,23.71466],[121.292011,23.71457],[121.292109,23.714571]],[[121.290041,23.71518],[121.289942,23.715269],[121.289943,23.715179],[121.290041,23.71518]],[[121.285918,23.715496],[121.286015,23.715587],[121.285917,23.715586],[121.285918,23.715496]],[[121.284337,23.716381],[121.284434,23.716472],[121.284336,23.716471],[121.284337,23.716381]],[[121.284569,23.72117],[121.284568,23.72126],[121.284372,23.721258],[121.284373,23.721167],[121.284569,23.72117]],[[121.294513,23.725794],[121.294416,23.725703],[121.294514,23.725704],[121.294513,23.725794]],[[121.301375,23.726051],[121.301276,23.72614],[121.301277,23.72605],[121.301375,23.726051]],[[121.303543,23.725262],[121.30364,23.725353],[121.303542,23.725352],[121.303543,23.725262]],[[121.303638,23.725534],[121.303541,23.725442],[121.303639,23.725443],[121.303638,23.725534]],[[121.290696,23.72512],[121.29099,23.725123],[121.290989,23.725214],[121.290695,23.72521],[121.290696,23.72512]],[[121.2905,23.725118],[121.290501,23.725028],[121.290697,23.72503],[121.290696,23.72512],[121.2905,23.725118]],[[121.290114,23.724662],[121.290116,23.724482],[121.290214,23.724483],[121.290212,23.724663],[121.290114,23.724662]],[[121.296587,23.724643],[121.296293,23.72464],[121.296295,23.72446],[121.296688,23.724464],[121.296587,23.724643]],[[121.296295,23.72446],[121.296199,23.724368],[121.296297,23.724369],[121.296295,23.72446]],[[121.296789,23.724194],[121.296987,23.724106],[121.296992,23.723655],[121.296894,23.723654],[121.296898,23.723383],[121.296703,23.72329],[121.296613,23.722657],[121.296711,23.722658],[121.296917,23.721938],[121.297114,23.72185],[121.297116,23.721669],[121.297414,23.721402],[121.29751,23.721583],[121.297707,23.721495],[121.297704,23.721766],[121.297802,23.721767],[121.297799,23.721948],[121.297602,23.722036],[121.297697,23.722308],[121.297499,23.722396],[121.297489,23.723209],[121.297192,23.723386],[121.297282,23.724019],[121.297476,23.724202],[121.297278,23.72429],[121.297276,23.72447],[121.296787,23.724375],[121.296789,23.724194]],[[121.294925,23.724264],[121.295123,23.724086],[121.295218,23.724357],[121.294925,23.724264]],[[121.296495,23.724191],[121.296398,23.7241],[121.296496,23.724101],[121.296495,23.724191]],[[121.296011,23.723734],[121.296209,23.723556],[121.296505,23.723469],[121.296597,23.723921],[121.296497,23.72401],[121.296303,23.723918],[121.296202,23.724097],[121.296006,23.724095],[121.296011,23.723734]],[[121.296014,23.723463],[121.295917,23.723372],[121.296015,23.723373],[121.296014,23.723463]],[[121.294544,23.723357],[121.294447,23.723265],[121.294546,23.723266],[121.294544,23.723357]],[[121.302684,23.723446],[121.302587,23.723355],[121.302685,23.723356],[121.302684,23.723446]],[[121.295433,23.722915],[121.295537,23.722465],[121.295832,23.722378],[121.296329,23.721841],[121.296526,23.721843],[121.296422,23.722294],[121.296124,23.722561],[121.29612,23.722832],[121.295923,23.72292],[121.295921,23.723101],[121.295429,23.723186],[121.295332,23.723095],[121.295335,23.722914],[121.295433,23.722915]],[[121.29455,23.722905],[121.29445,23.723085],[121.294352,23.723084],[121.294354,23.722903],[121.29455,23.722905]],[[121.30053,23.723152],[121.300532,23.722971],[121.30063,23.722972],[121.300628,23.723153],[121.30053,23.723152]],[[121.295039,23.723001],[121.295042,23.72282],[121.29514,23.722821],[121.295137,23.723002],[121.295039,23.723001]],[[121.293768,23.722716],[121.293671,23.722625],[121.293769,23.722626],[121.293768,23.722716]],[[121.287199,23.722553],[121.287102,23.722462],[121.2872,23.722463],[121.287199,23.722553]],[[121.293377,23.722621],[121.293381,23.722351],[121.293479,23.722352],[121.293475,23.722623],[121.293377,23.722621]],[[121.294359,23.722542],[121.294361,23.722361],[121.294459,23.722362],[121.294457,23.722543],[121.294359,23.722542]],[[121.292204,23.722338],[121.292206,23.722157],[121.292304,23.722158],[121.292302,23.722339],[121.292204,23.722338]],[[121.293382,23.72226],[121.293285,23.722169],[121.293383,23.72217],[121.293382,23.72226]],[[121.294755,23.722275],[121.294757,23.722095],[121.294855,23.722096],[121.294853,23.722277],[121.294755,23.722275]],[[121.287107,23.722101],[121.287109,23.72192],[121.287207,23.721921],[121.287205,23.722102],[121.287107,23.722101]],[[121.289068,23.722122],[121.288971,23.722031],[121.289069,23.722032],[121.289068,23.722122]],[[121.295638,23.722195],[121.295541,23.722104],[121.29564,23.722105],[121.295638,23.722195]],[[121.292992,23.722075],[121.292895,23.721984],[121.292993,23.721985],[121.292992,23.722075]],[[121.293286,23.722079],[121.293288,23.721898],[121.293386,23.721899],[121.293384,23.72208],[121.293286,23.722079]],[[121.2929,23.721623],[121.292902,23.721442],[121.293,23.721443],[121.293194,23.721626],[121.293191,23.721807],[121.2929,23.721623]],[[121.295055,23.721827],[121.295057,23.721647],[121.295155,23.721648],[121.295153,23.721828],[121.295055,23.721827]],[[121.285349,23.721539],[121.285252,23.721448],[121.28535,23.721449],[121.285349,23.721539]],[[121.292413,23.721347],[121.29241,23.721527],[121.292214,23.721525],[121.292217,23.721344],[121.292413,23.721347]],[[121.292413,23.721347],[121.292512,23.721257],[121.292511,23.721348],[121.292413,23.721347]],[[121.29114,23.721152],[121.291339,23.720974],[121.291529,23.721427],[121.291333,23.721425],[121.291335,23.721244],[121.29114,23.721152]],[[121.297709,23.721315],[121.297713,23.721044],[121.297909,23.721046],[121.297906,23.721317],[121.297709,23.721315]],[[121.292513,23.721167],[121.292516,23.720987],[121.292614,23.720988],[121.292611,23.721168],[121.292513,23.721167]],[[121.295847,23.721204],[121.29575,23.721113],[121.295849,23.721114],[121.295847,23.721204]],[[121.296535,23.721121],[121.296537,23.720941],[121.296635,23.720942],[121.296633,23.721122],[121.296535,23.721121]],[[121.292615,23.720897],[121.292518,23.720806],[121.292616,23.720807],[121.292615,23.720897]],[[121.296047,23.720935],[121.29595,23.720844],[121.296048,23.720845],[121.296047,23.720935]],[[121.297915,23.720595],[121.297816,23.720684],[121.29791,23.720956],[121.297714,23.720954],[121.297621,23.720591],[121.297915,23.720595]],[[121.288794,23.720584],[121.288994,23.720316],[121.289285,23.720499],[121.289086,23.720768],[121.288794,23.720584]],[[121.297226,23.720768],[121.29723,23.720497],[121.297328,23.720498],[121.297324,23.720769],[121.297226,23.720768]],[[121.292243,23.719358],[121.29224,23.719539],[121.291746,23.719804],[121.291743,23.720075],[121.291544,23.720253],[121.29125,23.72025],[121.291151,23.720339],[121.291247,23.720521],[121.291049,23.720609],[121.290952,23.720518],[121.290955,23.720337],[121.291053,23.720338],[121.29096,23.719976],[121.291157,23.719888],[121.291159,23.719707],[121.291553,23.719621],[121.291854,23.719083],[121.291952,23.719084],[121.292046,23.719356],[121.292243,23.719358]],[[121.291952,23.719084],[121.292051,23.718995],[121.29205,23.719085],[121.291952,23.719084]],[[121.29203,23.72062],[121.291933,23.720529],[121.292031,23.72053],[121.29203,23.72062]],[[121.292526,23.720174],[121.292523,23.720445],[121.292325,23.720533],[121.292329,23.720262],[121.292526,23.720174]],[[121.284972,23.720361],[121.284973,23.720271],[121.285169,23.720273],[121.285168,23.720363],[121.284972,23.720361]],[[121.291837,23.720347],[121.29174,23.720256],[121.291839,23.720257],[121.291837,23.720347]],[[121.297231,23.720406],[121.297233,23.720226],[121.297331,23.720227],[121.297329,23.720408],[121.297231,23.720406]],[[121.296546,23.720309],[121.296449,23.720217],[121.296547,23.720218],[121.296546,23.720309]],[[121.29684,23.720312],[121.296743,23.72022],[121.296841,23.720222],[121.29684,23.720312]],[[121.292233,23.72008],[121.292235,23.7199],[121.292334,23.719901],[121.292331,23.720082],[121.292233,23.72008]],[[121.297332,23.720137],[121.297236,23.720045],[121.297334,23.720046],[121.297332,23.720137]],[[121.296749,23.719769],[121.296751,23.719588],[121.296849,23.71959],[121.296847,23.71977],[121.296749,23.719769]],[[121.285277,23.719552],[121.284889,23.719187],[121.285286,23.71883],[121.285577,23.719104],[121.285574,23.719284],[121.285277,23.719552]],[[121.292533,23.719632],[121.292436,23.719541],[121.292534,23.719542],[121.292533,23.719632]],[[121.29724,23.719684],[121.297143,23.719593],[121.297241,23.719594],[121.29724,23.719684]],[[121.297928,23.719601],[121.297929,23.719511],[121.298125,23.719513],[121.298124,23.719604],[121.297928,23.719601]],[[121.289201,23.719415],[121.289203,23.719325],[121.289399,23.719327],[121.289398,23.719417],[121.289201,23.719415]],[[121.28979,23.719421],[121.289693,23.71933],[121.289791,23.719331],[121.28979,23.719421]],[[121.296265,23.719222],[121.296263,23.719403],[121.295968,23.71949],[121.29597,23.719309],[121.296265,23.719222]],[[121.28842,23.719135],[121.28862,23.718867],[121.288912,23.71905],[121.288712,23.719319],[121.28842,23.719135]],[[121.284203,23.719179],[121.284204,23.719089],[121.2844,23.719091],[121.284399,23.719181],[121.284203,23.719179]],[[121.287832,23.719129],[121.287929,23.71922],[121.287831,23.719219],[121.287832,23.719129]],[[121.28793,23.71913],[121.288029,23.719041],[121.288028,23.719131],[121.28793,23.71913]],[[121.290285,23.719066],[121.290483,23.718887],[121.290481,23.719068],[121.290282,23.719246],[121.289988,23.719243],[121.290089,23.719063],[121.290285,23.719066]],[[121.298033,23.719061],[121.29823,23.718973],[121.298423,23.719246],[121.298324,23.719335],[121.298031,23.719241],[121.298033,23.719061]],[[121.283619,23.718811],[121.283617,23.718992],[121.283321,23.719079],[121.283324,23.718898],[121.283619,23.718811]],[[121.297739,23.719058],[121.29754,23.719236],[121.29735,23.718782],[121.297739,23.719058]],[[121.297642,23.718966],[121.297741,23.718877],[121.29774,23.718967],[121.297642,23.718966]],[[121.283911,23.718995],[121.283814,23.718904],[121.283912,23.718905],[121.283911,23.718995]],[[121.284107,23.718997],[121.28401,23.718906],[121.284108,23.718907],[121.284107,23.718997]],[[121.287345,23.718853],[121.287545,23.718584],[121.287837,23.718768],[121.287637,23.719036],[121.287345,23.718853]],[[121.297934,23.71915],[121.297837,23.719059],[121.297935,23.71906],[121.297934,23.71915]],[[121.288325,23.718954],[121.288228,23.718862],[121.288326,23.718863],[121.288325,23.718954]],[[121.289307,23.718874],[121.289309,23.718694],[121.289407,23.718695],[121.289405,23.718875],[121.289307,23.718874]],[[121.290778,23.71889],[121.290681,23.718799],[121.290779,23.7188],[121.290778,23.71889]],[[121.292052,23.718905],[121.291955,23.718813],[121.292053,23.718814],[121.292052,23.718905]],[[121.284406,23.718639],[121.284602,23.718642],[121.284601,23.718732],[121.284405,23.71873],[121.284406,23.718639]],[[121.28421,23.718637],[121.284211,23.718547],[121.284407,23.718549],[121.284406,23.718639],[121.28421,23.718637]],[[121.291763,23.71854],[121.291762,23.71863],[121.291465,23.718808],[121.291467,23.718627],[121.291763,23.71854]],[[121.291372,23.718446],[121.291274,23.718444],[121.291271,23.718625],[121.291074,23.718713],[121.291178,23.718263],[121.291372,23.718446]],[[121.291178,23.718263],[121.290984,23.71808],[121.29128,23.717993],[121.291178,23.718263]],[[121.29784,23.718788],[121.297743,23.718696],[121.297841,23.718698],[121.29784,23.718788]],[[121.298429,23.718794],[121.298332,23.718703],[121.29843,23.718704],[121.298429,23.718794]],[[121.297547,23.718694],[121.29745,23.718603],[121.297548,23.718604],[121.297547,23.718694]],[[121.283823,23.718181],[121.284018,23.718274],[121.284016,23.718454],[121.283822,23.718272],[121.283625,23.71836],[121.283728,23.718],[121.283925,23.717912],[121.283823,23.718181]],[[121.283827,23.717911],[121.28373,23.717819],[121.283633,23.717728],[121.283829,23.71773],[121.283827,23.717911]],[[121.292351,23.718547],[121.292254,23.718455],[121.292352,23.718456],[121.292351,23.718547]],[[121.287844,23.718226],[121.288044,23.717957],[121.288335,23.718141],[121.288136,23.71841],[121.287844,23.718226]],[[121.291764,23.71845],[121.291667,23.718359],[121.291765,23.71836],[121.291764,23.71845]],[[121.286378,23.717849],[121.286577,23.71758],[121.286869,23.717764],[121.28667,23.718032],[121.286378,23.717849]],[[121.291772,23.717818],[121.291771,23.717908],[121.291378,23.717994],[121.291478,23.717815],[121.291772,23.717818]],[[121.28422,23.717825],[121.284123,23.717733],[121.284222,23.717734],[121.28422,23.717825]],[[121.285691,23.717841],[121.285594,23.71775],[121.285692,23.717751],[121.285691,23.717841]],[[121.289516,23.717883],[121.289519,23.717612],[121.289617,23.717613],[121.289614,23.717884],[121.289516,23.717883]],[[121.284126,23.717553],[121.284223,23.717644],[121.284125,23.717643],[121.284126,23.717553]],[[121.284224,23.717554],[121.284323,23.717465],[121.284322,23.717555],[121.284224,23.717554]],[[121.288933,23.717425],[121.288833,23.717605],[121.288537,23.717692],[121.28854,23.717511],[121.288933,23.717425]],[[121.298245,23.717799],[121.298149,23.717708],[121.298247,23.717709],[121.298245,23.717799]],[[121.290994,23.717358],[121.291489,23.717002],[121.291491,23.716822],[121.291786,23.716734],[121.291484,23.717363],[121.291189,23.71745],[121.291088,23.71763],[121.290892,23.717628],[121.290994,23.717358]],[[121.283735,23.717458],[121.283737,23.717277],[121.283835,23.717279],[121.283833,23.717459],[121.283735,23.717458]],[[121.289621,23.717343],[121.289524,23.717251],[121.289622,23.717252],[121.289621,23.717343]],[[121.283841,23.716827],[121.283838,23.717098],[121.283542,23.717185],[121.283645,23.716825],[121.283841,23.716827]],[[121.285995,23.717122],[121.285898,23.717031],[121.285996,23.717032],[121.285995,23.717122]],[[121.286193,23.716943],[121.286096,23.716852],[121.286195,23.716853],[121.286193,23.716943]],[[121.289627,23.716891],[121.28953,23.7168],[121.289628,23.716801],[121.289627,23.716891]],[[121.284529,23.716744],[121.284432,23.716653],[121.28453,23.716654],[121.284529,23.716744]],[[121.287671,23.716418],[121.287372,23.716776],[121.287081,23.716592],[121.287083,23.716412],[121.287281,23.716233],[121.287478,23.716235],[121.287476,23.716326],[121.287671,23.716418]],[[121.287574,23.716327],[121.287674,23.716237],[121.287673,23.716328],[121.287574,23.716327]],[[121.290025,23.716444],[121.289924,23.716624],[121.289728,23.716621],[121.289829,23.716442],[121.290025,23.716444]],[[121.285911,23.716037],[121.286105,23.71622],[121.286302,23.716132],[121.286108,23.715949],[121.286309,23.71559],[121.286601,23.715774],[121.286398,23.716314],[121.285808,23.716397],[121.285911,23.716037]],[[121.290028,23.716173],[121.290031,23.715993],[121.290816,23.715911],[121.291115,23.715553],[121.291407,23.715737],[121.291108,23.716095],[121.290913,23.716002],[121.290812,23.716272],[121.290616,23.71627],[121.290614,23.71636],[121.290421,23.716178],[121.290028,23.716173]],[[121.285418,23.716213],[121.285321,23.716121],[121.28542,23.716122],[121.285418,23.716213]],[[121.28787,23.71624],[121.287773,23.716148],[121.287871,23.716149],[121.28787,23.71624]],[[121.292287,23.715927],[121.291992,23.716014],[121.291994,23.715834],[121.292288,23.715837],[121.292287,23.715927]],[[121.292483,23.715929],[121.292386,23.715838],[121.292485,23.715839],[121.292483,23.715929]],[[121.287582,23.715785],[121.287584,23.715604],[121.287682,23.715605],[121.28768,23.715786],[121.287582,23.715785]],[[121.291603,23.715739],[121.2917,23.715831],[121.291602,23.715829],[121.291603,23.715739]],[[121.291704,23.71556],[121.2919,23.715562],[121.291899,23.715652],[121.291701,23.71574],[121.291704,23.71556]],[[121.288368,23.715613],[121.288272,23.715522],[121.28837,23.715523],[121.288368,23.715613]],[[121.29033,23.715635],[121.290233,23.715543],[121.290331,23.715545],[121.29033,23.715635]],[[121.292291,23.715656],[121.292292,23.715566],[121.292488,23.715568],[121.292487,23.715659],[121.292291,23.715656]],[[121.286604,23.715503],[121.286508,23.715412],[121.286606,23.715413],[121.286604,23.715503]],[[121.288468,23.715524],[121.288469,23.715434],[121.288665,23.715436],[121.288664,23.715526],[121.288468,23.715524]],[[121.292298,23.715115],[121.292101,23.715203],[121.292195,23.715475],[121.292001,23.715292],[121.291803,23.71547],[121.291511,23.715287],[121.292007,23.714841],[121.292104,23.714932],[121.292399,23.714845],[121.292298,23.715115]],[[121.292399,23.714845],[121.292499,23.714756],[121.292497,23.714846],[121.292399,23.714845]],[[121.288277,23.71507],[121.288279,23.71498],[121.288475,23.714982],[121.288474,23.715072],[121.288277,23.71507]],[[121.294357,23.715137],[121.294358,23.715047],[121.294554,23.715049],[121.294553,23.71514],[121.294357,23.715137]],[[121.291714,23.714747],[121.291617,23.714656],[121.291715,23.714657],[121.291714,23.714747]],[[121.292597,23.714757],[121.292598,23.714667],[121.292794,23.714669],[121.292793,23.714759],[121.292597,23.714757]],[[121.294362,23.714776],[121.294265,23.714685],[121.294363,23.714686],[121.294362,23.714776]],[[121.296813,23.714803],[121.296716,23.714712],[121.296814,23.714713],[121.296813,23.714803]],[[121.294559,23.714688],[121.294462,23.714597],[121.29456,23.714598],[121.294559,23.714688]],[[121.297999,23.714094],[121.297996,23.714365],[121.2978,23.714363],[121.297901,23.714093],[121.297999,23.714094]],[[121.301039,23.714127],[121.301041,23.713947],[121.30114,23.713948],[121.301137,23.714128],[121.301039,23.714127]],[[121.294176,23.713962],[121.294179,23.713781],[121.294375,23.713783],[121.294374,23.713873],[121.294176,23.713962]],[[121.294375,23.713783],[121.294475,23.713604],[121.294769,23.713607],[121.294571,23.713785],[121.294375,23.713783]],[[121.29536,23.713433],[121.295359,23.713523],[121.295163,23.713521],[121.295164,23.713431],[121.29536,23.713433]],[[121.29536,23.713433],[121.295459,23.713344],[121.295458,23.713434],[121.29536,23.713433]],[[121.301643,23.71296],[121.301742,23.712871],[121.301741,23.712961],[121.301643,23.71296]],[[121.301644,23.71287],[121.301547,23.712778],[121.301645,23.71278],[121.301644,23.71287]],[[121.301846,23.712421],[121.301749,23.712329],[121.301847,23.71233],[121.301846,23.712421]]],[[[121.287773,23.723643],[121.287579,23.72346],[121.287479,23.72364],[121.287674,23.723732],[121.287773,23.723643]]],[[[121.298247,23.725203],[121.298057,23.72475],[121.297862,23.724657],[121.297763,23.724747],[121.297856,23.725109],[121.29805,23.725292],[121.298247,23.725203]]],[[[121.299224,23.70282],[121.299029,23.702728],[121.298929,23.702907],[121.299124,23.703],[121.299224,23.70282]]],[[[121.300055,23.706802],[121.299955,23.706982],[121.30015,23.707074],[121.300147,23.707255],[121.299951,23.707253],[121.299758,23.70707],[121.299463,23.707067],[121.299364,23.707156],[121.299458,23.707518],[121.29926,23.707606],[121.299067,23.707424],[121.298768,23.707782],[121.299058,23.708056],[121.299353,23.708059],[121.299351,23.708149],[121.299745,23.708063],[121.29984,23.708245],[121.300038,23.708157],[121.300041,23.707886],[121.300139,23.707887],[121.300235,23.708069],[121.30092,23.708166],[121.300817,23.708526],[121.301011,23.708709],[121.301207,23.708711],[121.301308,23.708532],[121.301601,23.708625],[121.301701,23.708446],[121.301408,23.708352],[121.301217,23.707989],[121.300532,23.707891],[121.300534,23.707711],[121.300732,23.707532],[121.301025,23.707626],[121.301026,23.707535],[121.301321,23.707539],[121.301421,23.707359],[121.301617,23.707361],[121.301915,23.707094],[121.301918,23.706823],[121.301725,23.70664],[121.301528,23.706638],[121.30113,23.707085],[121.300934,23.707083],[121.30084,23.706811],[121.300644,23.706809],[121.300444,23.707078],[121.300346,23.707076],[121.300251,23.706805],[121.300055,23.706802]],[[121.300346,23.707076],[121.300247,23.707166],[121.300248,23.707075],[121.300346,23.707076]],[[121.299356,23.707788],[121.299259,23.707697],[121.299357,23.707698],[121.299356,23.707788]],[[121.299946,23.707704],[121.300046,23.707525],[121.30034,23.707528],[121.300239,23.707798],[121.300042,23.707796],[121.299946,23.707704]]],[[[121.301468,23.711333],[121.301176,23.711149],[121.301179,23.710878],[121.300597,23.71042],[121.300599,23.71024],[121.300404,23.710147],[121.300505,23.709968],[121.300408,23.709876],[121.30021,23.709965],[121.300312,23.709695],[121.300118,23.709512],[121.299921,23.7096],[121.300114,23.709873],[121.299917,23.709871],[121.299629,23.709416],[121.299433,23.709414],[121.29924,23.709141],[121.299043,23.709229],[121.29894,23.709589],[121.299037,23.709681],[121.299333,23.709594],[121.299623,23.709868],[121.299521,23.710228],[121.299323,23.710316],[121.299417,23.710678],[121.299912,23.710322],[121.300202,23.710597],[121.300496,23.7106],[121.30059,23.710962],[121.301171,23.71151],[121.301367,23.711512],[121.301468,23.711333]]],[[[121.301462,23.711784],[121.301268,23.711602],[121.301071,23.71169],[121.301262,23.712053],[121.301459,23.711965],[121.301462,23.711784]]],[[[121.302422,23.71333],[121.302031,23.713235],[121.301832,23.713504],[121.302122,23.713778],[121.302418,23.713691],[121.302314,23.714141],[121.302801,23.714418],[121.302894,23.71478],[121.303188,23.714783],[121.303284,23.714965],[121.303773,23.71506],[121.303763,23.715873],[121.304345,23.716331],[121.304433,23.717145],[121.304922,23.71724],[121.30512,23.717062],[121.305123,23.716881],[121.304734,23.716606],[121.304838,23.716156],[121.30474,23.716155],[121.304647,23.715702],[121.304454,23.715519],[121.304063,23.715425],[121.304262,23.715156],[121.304164,23.715155],[121.303975,23.714611],[121.30378,23.714519],[121.303882,23.714249],[121.303491,23.714154],[121.303292,23.714333],[121.302998,23.71433],[121.302804,23.714147],[121.302807,23.713966],[121.303004,23.713878],[121.302909,23.713606],[121.302714,23.713514],[121.30262,23.713242],[121.302424,23.71324],[121.302422,23.71333]],[[121.302714,23.713514],[121.302615,23.713603],[121.302616,23.713513],[121.302714,23.713514]],[[121.303682,23.714518],[121.303486,23.714515],[121.303487,23.714425],[121.303684,23.714337],[121.303682,23.714518]]],[[[121.306471,23.718792],[121.306668,23.718704],[121.306671,23.718524],[121.306573,23.718522],[121.306679,23.717892],[121.306485,23.717709],[121.306289,23.717707],[121.30609,23.717885],[121.305895,23.717793],[121.305795,23.717972],[121.305893,23.717973],[121.30589,23.718244],[121.306083,23.718427],[121.30608,23.718698],[121.306177,23.718789],[121.306472,23.718702],[121.306471,23.718792]]],[[[121.302222,23.721274],[121.301931,23.721],[121.301934,23.720729],[121.302233,23.720371],[121.302237,23.7201],[121.302434,23.720012],[121.302343,23.719469],[121.302148,23.719377],[121.30185,23.719645],[121.301748,23.720005],[121.30165,23.720004],[121.301441,23.720995],[121.302021,23.721633],[121.302218,23.721545],[121.302222,23.721274]]],[[[121.306088,23.725651],[121.306284,23.725653],[121.30668,23.725386],[121.306682,23.725206],[121.30688,23.725118],[121.306785,23.724846],[121.306294,23.724931],[121.306295,23.72484],[121.306002,23.724747],[121.306001,23.724837],[121.305706,23.724834],[121.305705,23.724924],[121.305213,23.725099],[121.305308,23.725281],[121.305602,23.725284],[121.305696,23.725646],[121.305892,23.725649],[121.305893,23.725558],[121.306089,23.725561],[121.306088,23.725651]],[[121.305997,23.725108],[121.305998,23.725018],[121.306194,23.72502],[121.306193,23.72511],[121.305997,23.725108]]],[[[121.305863,23.727906],[121.305475,23.72754],[121.305382,23.727178],[121.304994,23.726813],[121.3047,23.726809],[121.304701,23.726719],[121.304504,23.726807],[121.305371,23.727991],[121.305764,23.727995],[121.305863,23.727906]]],[[[121.30341,23.727969],[121.303217,23.727696],[121.302727,23.727691],[121.30263,23.727599],[121.302632,23.727419],[121.302729,23.72751],[121.302927,23.727422],[121.302929,23.727242],[121.302735,23.727059],[121.302537,23.727237],[121.302242,23.727234],[121.301952,23.72696],[121.301754,23.727048],[121.301948,23.727231],[121.301944,23.727592],[121.301847,23.727501],[121.301649,23.727589],[121.301841,23.727952],[121.302038,23.727864],[121.302232,23.728047],[121.302722,23.728052],[121.302721,23.728142],[121.303015,23.728145],[121.303016,23.728055],[121.30341,23.727969]]]]}},{"type":"Feature","properties":{"kind":"bare_dam","month":"2025-01","area_ha":15.07},"geometry":{"type":"MultiPolygon","coordinates":[[[[121.298189,23.691882],[121.298001,23.691248],[121.2981,23.691249],[121.298103,23.690979],[121.298401,23.690711],[121.298207,23.690528],[121.298011,23.690526],[121.297615,23.690793],[121.297613,23.690973],[121.297903,23.691247],[121.297804,23.691336],[121.2978,23.691698],[121.297898,23.691699],[121.297797,23.691878],[121.297894,23.69197],[121.298189,23.691882]]],[[[121.298471,23.692879],[121.298859,23.693154],[121.298856,23.693425],[121.298659,23.693513],[121.298656,23.693694],[121.298949,23.693787],[121.29905,23.693608],[121.299246,23.69361],[121.299536,23.693884],[121.299337,23.694153],[121.299043,23.694149],[121.298947,23.693968],[121.29875,23.694056],[121.299136,23.694512],[121.299625,23.694607],[121.299728,23.694247],[121.299826,23.694248],[121.299823,23.694429],[121.299921,23.69443],[121.29982,23.6947],[121.300113,23.694793],[121.300213,23.694614],[121.300019,23.694431],[121.300314,23.694434],[121.300415,23.694164],[121.301393,23.694356],[121.301489,23.694537],[121.301686,23.694449],[121.3013,23.693994],[121.301103,23.694082],[121.300716,23.693626],[121.300519,23.693714],[121.300325,23.693531],[121.300527,23.693082],[121.300235,23.692898],[121.300238,23.692718],[121.300336,23.692719],[121.30024,23.692537],[121.300043,23.692625],[121.30004,23.692806],[121.299844,23.692804],[121.299645,23.693072],[121.299449,23.69307],[121.299647,23.692892],[121.299453,23.692709],[121.299456,23.692528],[121.299753,23.692261],[121.299365,23.691986],[121.299264,23.692165],[121.299458,23.692348],[121.29926,23.692526],[121.299064,23.692524],[121.29887,23.692341],[121.299068,23.692163],[121.299071,23.691982],[121.298392,23.691343],[121.298291,23.691613],[121.298678,23.691978],[121.298287,23.691884],[121.297987,23.692332],[121.298084,23.692423],[121.29838,23.692336],[121.298476,23.692427],[121.298471,23.692879]],[[121.300328,23.693351],[121.300231,23.693259],[121.300329,23.69326],[121.300328,23.693351]],[[121.29838,23.692336],[121.298479,23.692247],[121.298478,23.692337],[121.29838,23.692336]],[[121.299444,23.693431],[121.299347,23.69334],[121.299445,23.693341],[121.299444,23.693431]]],[[[121.297756,23.695038],[121.297951,23.695131],[121.298052,23.694951],[121.297955,23.69486],[121.297659,23.694947],[121.297662,23.694766],[121.297467,23.694674],[121.297364,23.695034],[121.297558,23.695217],[121.297756,23.695038]]],[[[121.298821,23.696133],[121.298432,23.695858],[121.298339,23.695496],[121.297945,23.695582],[121.297944,23.695672],[121.297847,23.695581],[121.297552,23.695668],[121.29745,23.695938],[121.297742,23.696122],[121.297639,23.696482],[121.29803,23.696576],[121.298427,23.696219],[121.29872,23.696313],[121.298821,23.696133]],[[121.298626,23.696041],[121.298527,23.69613],[121.298528,23.69604],[121.298626,23.696041]],[[121.298035,23.696215],[121.297937,23.696214],[121.297939,23.696033],[121.298037,23.696035],[121.298035,23.696215]],[[121.298236,23.695856],[121.298137,23.695945],[121.298138,23.695855],[121.298236,23.695856]]],[[[121.298605,23.697666],[121.298801,23.697668],[121.299098,23.697401],[121.299004,23.697129],[121.298906,23.697128],[121.299105,23.696859],[121.298812,23.696765],[121.298912,23.696676],[121.298816,23.696495],[121.29852,23.696672],[121.298809,23.697036],[121.298418,23.696942],[121.29822,23.69712],[121.298217,23.697301],[121.298412,23.697393],[121.298312,23.697573],[121.298409,23.697664],[121.298606,23.697576],[121.298605,23.697666]]],[[[121.300952,23.698143],[121.301247,23.698056],[121.301348,23.697877],[121.301251,23.697786],[121.300857,23.697872],[121.300762,23.69769],[121.300271,23.697685],[121.299973,23.698042],[121.299876,23.697951],[121.299679,23.698039],[121.299773,23.698311],[121.299872,23.698222],[121.300951,23.698234],[121.300952,23.698143]]],[[[121.29819,23.699377],[121.298288,23.699378],[121.298292,23.699108],[121.298389,23.699199],[121.298586,23.699111],[121.298489,23.699019],[121.298591,23.69875],[121.298787,23.698752],[121.298786,23.698842],[121.298983,23.698754],[121.298887,23.698572],[121.298592,23.698659],[121.298304,23.698205],[121.298007,23.698382],[121.297903,23.698832],[121.297805,23.698831],[121.2978,23.699192],[121.297303,23.699729],[121.2974,23.69982],[121.297891,23.699735],[121.297889,23.699916],[121.297791,23.699915],[121.297882,23.700458],[121.298863,23.700468],[121.298965,23.700108],[121.298868,23.700017],[121.298671,23.700105],[121.298284,23.69974],[121.29819,23.699377]],[[121.298284,23.69974],[121.298184,23.699829],[121.298186,23.699738],[121.298284,23.69974]],[[121.298088,23.699737],[121.297988,23.699827],[121.297989,23.699736],[121.298088,23.699737]],[[121.297894,23.699555],[121.297795,23.699644],[121.297796,23.699554],[121.297894,23.699555]]],[[[121.301351,23.690021],[121.301251,23.6902],[121.301544,23.690294],[121.301644,23.690114],[121.301351,23.690021]]],[[[121.301935,23.690389],[121.301936,23.690298],[121.302229,23.690392],[121.302329,23.690212],[121.302232,23.690121],[121.302133,23.69021],[121.301742,23.690116],[121.301642,23.690295],[121.301935,23.690389]]],[[[121.302214,23.691565],[121.302504,23.69184],[121.302996,23.691755],[121.3029,23.691573],[121.303098,23.691395],[121.302904,23.691302],[121.302809,23.69103],[121.30271,23.691119],[121.302514,23.691117],[121.302515,23.691027],[121.302122,23.691113],[121.301928,23.69093],[121.301438,23.690925],[121.301345,23.690472],[121.301148,23.69056],[121.301243,23.690832],[121.301047,23.69083],[121.300858,23.690286],[121.300565,23.690193],[121.300566,23.690103],[121.299878,23.690185],[121.299685,23.690003],[121.299087,23.690718],[121.298891,23.690716],[121.298892,23.690626],[121.298499,23.690712],[121.29898,23.69144],[121.299471,23.691355],[121.299567,23.691536],[121.300546,23.691637],[121.300646,23.691458],[121.300259,23.691093],[121.299767,23.691177],[121.299574,23.690995],[121.299576,23.690814],[121.299872,23.690637],[121.299876,23.690366],[121.299974,23.690367],[121.299969,23.690728],[121.30026,23.691002],[121.300653,23.690916],[121.300847,23.691099],[121.300649,23.691277],[121.300744,23.691459],[121.30104,23.691372],[121.300944,23.69119],[121.301238,23.691194],[121.301138,23.691373],[121.30182,23.691651],[121.301819,23.691742],[121.302213,23.691656],[121.302214,23.691565]],[[121.302312,23.691567],[121.302411,23.691477],[121.30241,23.691568],[121.302312,23.691567]]],[[[121.303831,23.695376],[121.304325,23.69511],[121.304035,23.694836],[121.30394,23.694564],[121.303744,23.694562],[121.303641,23.694922],[121.303543,23.694921],[121.303541,23.695102],[121.303639,23.695103],[121.303539,23.695282],[121.303635,23.695374],[121.303833,23.695285],[121.303831,23.695376]],[[121.303834,23.695195],[121.303737,23.695104],[121.303835,23.695105],[121.303834,23.695195]]],[[[121.304515,23.695564],[121.304814,23.695206],[121.305208,23.69512],[121.305704,23.694674],[121.305607,23.694583],[121.305313,23.694579],[121.305114,23.694758],[121.304821,23.694664],[121.304424,23.695021],[121.304422,23.695202],[121.304225,23.69529],[121.304319,23.695562],[121.304515,23.695564]]],[[[121.302043,23.697162],[121.302342,23.696804],[121.302735,23.696718],[121.302545,23.696265],[121.302152,23.696351],[121.302147,23.696712],[121.301848,23.69707],[121.302043,23.697162]]]]}},{"type":"Feature","properties":{"kind":"water","month":"2025-01","area_ha":2.74},"geometry":{"type":"MultiPolygon","coordinates":[[[[121.302545,23.696265],[121.302642,23.696356],[121.302643,23.696266],[121.302545,23.696265]]],[[[121.302436,23.697166],[121.302636,23.696807],[121.302342,23.696804],[121.302339,23.697075],[121.302144,23.696983],[121.302141,23.697163],[121.302436,23.697166]]],[[[121.29047,23.697306],[121.290181,23.696941],[121.289985,23.696939],[121.290078,23.697301],[121.290274,23.697303],[121.290369,23.697575],[121.290467,23.697577],[121.29047,23.697306]]],[[[121.290174,23.697483],[121.290273,23.697394],[121.290175,23.697393],[121.290174,23.697483]]],[[[121.299283,23.698306],[121.299285,23.698125],[121.299579,23.698128],[121.299778,23.69795],[121.299973,23.698042],[121.299975,23.697862],[121.300171,23.697864],[121.300173,23.697683],[121.300664,23.697689],[121.300666,23.697508],[121.300569,23.697417],[121.300274,23.697504],[121.300275,23.697414],[121.299884,23.697319],[121.299784,23.697499],[121.299291,23.697674],[121.299387,23.697855],[121.298991,23.698122],[121.298988,23.698393],[121.298789,23.698571],[121.298886,23.698663],[121.299181,23.698576],[121.299185,23.698305],[121.299283,23.698306]]],[[[121.291147,23.698036],[121.291244,23.698127],[121.291247,23.697946],[121.290952,23.697943],[121.290955,23.697763],[121.290563,23.697758],[121.290852,23.698123],[121.290951,23.698033],[121.291147,23.698036]]],[[[121.298691,23.69857],[121.298788,23.698662],[121.298789,23.698571],[121.298691,23.69857]]],[[[121.298484,23.699381],[121.298679,23.699473],[121.298779,23.699384],[121.298685,23.699022],[121.298979,23.699025],[121.298787,23.698752],[121.298491,23.698839],[121.298584,23.699291],[121.298292,23.699108],[121.298188,23.699558],[121.298483,23.699471],[121.298484,23.699381]]],[[[121.298284,23.69974],[121.298184,23.699829],[121.298282,23.69983],[121.298284,23.69974]]],[[[121.298285,23.699649],[121.298769,23.700106],[121.298579,23.699652],[121.298285,23.699649]]],[[[121.311783,23.687065],[121.311686,23.686973],[121.311685,23.687064],[121.311783,23.687065]]],[[[121.311486,23.687332],[121.311387,23.687331],[121.311383,23.687693],[121.31158,23.687604],[121.311582,23.687424],[121.31188,23.687156],[121.312076,23.687158],[121.312171,23.68743],[121.312465,23.687433],[121.312565,23.687254],[121.31227,23.687341],[121.312272,23.68716],[121.312468,23.687163],[121.312469,23.687072],[121.312078,23.686978],[121.31208,23.686887],[121.311785,23.686884],[121.311881,23.687066],[121.311783,23.687065],[121.311782,23.687155],[121.311587,23.687063],[121.311486,23.687332]]],[[[121.3086,23.690552],[121.3087,23.690463],[121.308602,23.690462],[121.3086,23.690552]]],[[[121.308699,23.690553],[121.308597,23.690823],[121.308888,23.691097],[121.308892,23.690736],[121.308699,23.690553]]],[[[121.307995,23.6919],[121.308393,23.691453],[121.308589,23.691455],[121.308591,23.691274],[121.308198,23.69136],[121.307998,23.691629],[121.307802,23.691627],[121.307799,23.691898],[121.307995,23.6919]]],[[[121.30662,23.692065],[121.306621,23.691975],[121.306425,23.691973],[121.306424,23.692063],[121.30662,23.692065]]],[[[121.307108,23.692251],[121.307208,23.692072],[121.3076,23.692076],[121.307603,23.691895],[121.307307,23.691982],[121.307308,23.691892],[121.307016,23.691799],[121.307013,23.691979],[121.30662,23.692065],[121.306814,23.692248],[121.307108,23.692251]]],[[[121.306326,23.692062],[121.306423,23.692153],[121.306424,23.692063],[121.306326,23.692062]]],[[[121.30274,23.696357],[121.302642,23.696356],[121.302639,23.696627],[121.302737,23.696628],[121.30274,23.696357]]],[[[121.303033,23.696451],[121.302737,23.696628],[121.302734,23.696809],[121.30303,23.696721],[121.303033,23.696451]]]]}}]}