{"type":"FeatureCollection","features":[{"type":"Feature","properties":{"kind":"bare_slide","month":"2025-10","area_ha":513.95},"geometry":{"type":"MultiPolygon","coordinates":[[[[121.293889,23.705922],[121.294085,23.705924],[121.294283,23.705746],[121.29419,23.705383],[121.293699,23.705378],[121.2936,23.705467],[121.293598,23.705648],[121.2935,23.705647],[121.293593,23.706009],[121.293788,23.706101],[121.293889,23.705922]]],[[[121.293788,23.706101],[121.293489,23.706459],[121.293683,23.706642],[121.294272,23.706558],[121.294173,23.706647],[121.294269,23.706829],[121.294465,23.706831],[121.294763,23.706564],[121.294668,23.706292],[121.294276,23.706287],[121.294082,23.706105],[121.293983,23.706194],[121.293788,23.706101]]],[[[121.283187,23.721877],[121.283383,23.721879],[121.283673,23.722153],[121.283765,23.722605],[121.283962,23.722608],[121.283959,23.722788],[121.284155,23.72279],[121.284153,23.722971],[121.285526,23.722986],[121.285524,23.723167],[121.285818,23.72317],[121.285913,23.723352],[121.286405,23.723267],[121.286696,23.723541],[121.286692,23.723812],[121.286888,23.723814],[121.286886,23.723994],[121.287082,23.723997],[121.287083,23.723906],[121.287277,23.724089],[121.287572,23.724002],[121.287766,23.724185],[121.287666,23.724364],[121.28796,23.724368],[121.288154,23.72455],[121.288051,23.72491],[121.288247,23.724913],[121.288242,23.725274],[121.288635,23.725278],[121.288632,23.725459],[121.288828,23.725461],[121.288826,23.725641],[121.290395,23.725659],[121.290393,23.725839],[121.290785,23.725844],[121.290783,23.726024],[121.291175,23.726028],[121.291172,23.726209],[121.291468,23.726122],[121.291562,23.726394],[121.293525,23.726325],[121.293527,23.726145],[121.29392,23.726149],[121.293922,23.725969],[121.29451,23.725975],[121.294513,23.725794],[121.294905,23.725799],[121.294903,23.725979],[121.295491,23.725986],[121.295489,23.726166],[121.295881,23.726171],[121.295879,23.726351],[121.296075,23.726353],[121.296072,23.726534],[121.296465,23.726538],[121.296462,23.726719],[121.296658,23.726721],[121.296656,23.726902],[121.297146,23.726907],[121.297247,23.726728],[121.297541,23.726731],[121.297542,23.726641],[121.297639,23.726732],[121.29862,23.726743],[121.298619,23.726833],[121.299012,23.726747],[121.299206,23.72693],[121.299305,23.726841],[121.299311,23.726389],[121.299507,23.726391],[121.299508,23.726301],[121.30039,23.726401],[121.30068,23.726675],[121.300879,23.726497],[121.301369,23.726502],[121.301568,23.726324],[121.301572,23.725962],[121.301963,23.726057],[121.302165,23.725608],[121.302457,23.725792],[121.302557,23.725702],[121.30246,23.725611],[121.302564,23.725161],[121.302663,23.725071],[121.302858,23.725164],[121.302962,23.724714],[121.303355,23.724628],[121.303353,23.724808],[121.303645,23.724992],[121.303638,23.725534],[121.303735,23.725625],[121.30304,23.726249],[121.303036,23.72652],[121.30323,23.726703],[121.303225,23.727064],[121.303516,23.727338],[121.303812,23.727251],[121.303715,23.72716],[121.303718,23.726889],[121.303816,23.72689],[121.303723,23.726528],[121.304018,23.726441],[121.303834,23.725536],[121.303932,23.725537],[121.303934,23.725356],[121.30413,23.725358],[121.304127,23.725629],[121.304419,23.725813],[121.304412,23.726355],[121.304214,23.726443],[121.304212,23.726624],[121.304504,23.726807],[121.304598,23.727079],[121.304795,23.727081],[121.304792,23.727262],[121.304987,23.727354],[121.304983,23.727716],[121.305176,23.727898],[121.305372,23.7279],[121.305468,23.728082],[121.30596,23.727997],[121.305475,23.72754],[121.305382,23.727178],[121.305089,23.727085],[121.304896,23.726812],[121.3047,23.726809],[121.304605,23.726538],[121.304507,23.726536],[121.304805,23.726269],[121.30481,23.725908],[121.304712,23.725907],[121.304715,23.725636],[121.304521,23.725453],[121.304912,23.725548],[121.30521,23.72528],[121.305016,23.725097],[121.304917,23.725186],[121.304623,23.725183],[121.304624,23.725093],[121.304427,23.725181],[121.304429,23.725001],[121.304138,23.724726],[121.303941,23.724815],[121.303943,23.724634],[121.303652,23.72445],[121.303655,23.724179],[121.303364,23.723905],[121.303761,23.723548],[121.303958,23.723551],[121.304059,23.723281],[121.304353,23.723284],[121.304449,23.723466],[121.304645,23.723468],[121.304646,23.723378],[121.305135,23.723473],[121.305235,23.723384],[121.305329,23.723656],[121.30562,23.72393],[121.305816,23.723932],[121.30602,23.723302],[121.306413,23.723307],[121.306605,23.72358],[121.306803,23.723491],[121.306898,23.723673],[121.307094,23.723675],[121.307482,23.724041],[121.307879,23.723684],[121.307787,23.723231],[121.308277,23.723237],[121.308377,23.723057],[121.307989,23.722782],[121.30769,23.72314],[121.307394,23.723227],[121.307397,23.723046],[121.306813,23.722679],[121.306815,23.722498],[121.307113,23.722231],[121.307408,23.722144],[121.307411,23.721963],[121.306926,23.721506],[121.30673,23.721504],[121.306728,23.721685],[121.306432,23.721772],[121.30643,23.721952],[121.306132,23.72222],[121.306129,23.722491],[121.30593,23.722669],[121.305636,23.722666],[121.305536,23.722845],[121.305342,23.722663],[121.305146,23.722661],[121.305054,23.722208],[121.304858,23.722206],[121.304856,23.722296],[121.304661,23.722204],[121.30486,23.722025],[121.304667,23.721752],[121.304372,23.721839],[121.304467,23.722111],[121.304565,23.722112],[121.304464,23.722292],[121.304072,23.722288],[121.304073,23.722197],[121.303974,23.722287],[121.303385,23.72228],[121.303095,23.722006],[121.302801,23.722003],[121.302803,23.721822],[121.302608,23.72173],[121.302534,23.719833],[121.302436,23.719832],[121.302439,23.719651],[121.302735,23.719474],[121.302739,23.719203],[121.303131,23.719207],[121.304025,23.718314],[121.304518,23.718139],[121.304611,23.718501],[121.304709,23.718502],[121.304705,23.718863],[121.3049,23.718956],[121.304896,23.719226],[121.304993,23.719318],[121.305386,23.719232],[121.305677,23.719506],[121.306069,23.71951],[121.306162,23.719963],[121.30626,23.719964],[121.306268,23.719332],[121.306465,23.719244],[121.306372,23.718881],[121.306568,23.718884],[121.306567,23.718974],[121.306764,23.718886],[121.306575,23.718342],[121.307269,23.717717],[121.307858,23.717724],[121.307955,23.717815],[121.308252,23.717548],[121.308059,23.717365],[121.307568,23.717359],[121.307375,23.717177],[121.306982,23.717172],[121.306887,23.716991],[121.306299,23.716894],[121.306303,23.716623],[121.306598,23.716536],[121.306602,23.716265],[121.307093,23.71618],[121.307292,23.716002],[121.307295,23.715731],[121.307691,23.715465],[121.307794,23.715104],[121.307696,23.715103],[121.307699,23.714833],[121.30731,23.714557],[121.307315,23.714196],[121.307708,23.71411],[121.307709,23.71402],[121.308004,23.714023],[121.308202,23.713845],[121.308496,23.713848],[121.308696,23.713579],[121.308305,23.713485],[121.308115,23.713031],[121.30851,23.712764],[121.308713,23.712225],[121.309109,23.711958],[121.309498,23.712233],[121.309597,23.712144],[121.309501,23.711963],[121.309892,23.712057],[121.309995,23.711697],[121.310192,23.711609],[121.310197,23.711248],[121.310099,23.711247],[121.310199,23.711067],[121.309812,23.710702],[121.309615,23.71079],[121.30952,23.710518],[121.309422,23.710517],[121.309424,23.710336],[121.30992,23.70989],[121.309543,23.708712],[121.309839,23.708625],[121.309842,23.708354],[121.30994,23.708355],[121.310143,23.707816],[121.309948,23.707723],[121.309855,23.707361],[121.309659,23.707359],[121.30946,23.707538],[121.309457,23.707808],[121.30887,23.707712],[121.308974,23.707261],[121.309171,23.707173],[121.309174,23.706902],[121.309272,23.706903],[121.309277,23.706542],[121.309083,23.706359],[121.308886,23.706448],[121.308796,23.705815],[121.308505,23.70554],[121.308509,23.70527],[121.308314,23.705177],[121.308317,23.704906],[121.30793,23.704541],[121.308035,23.704],[121.308133,23.704001],[121.308136,23.70373],[121.308234,23.703732],[121.308238,23.703461],[121.30814,23.70346],[121.308246,23.702829],[121.308052,23.702646],[121.308062,23.701924],[121.30816,23.701925],[121.308162,23.701744],[121.308064,23.701743],[121.308066,23.701563],[121.308164,23.701564],[121.308067,23.701472],[121.308078,23.70066],[121.308176,23.700661],[121.308282,23.70003],[121.30838,23.700031],[121.308283,23.699939],[121.308289,23.699488],[121.308386,23.699579],[121.30868,23.699583],[121.308681,23.699492],[121.308974,23.699586],[121.309074,23.699497],[121.308979,23.699225],[121.308687,23.699041],[121.308792,23.6985],[121.30889,23.698501],[121.308698,23.698228],[121.309092,23.698052],[121.308996,23.69787],[121.3088,23.697868],[121.308803,23.697688],[121.308901,23.697689],[121.308804,23.697597],[121.308809,23.697236],[121.308907,23.697237],[121.308814,23.696785],[121.308717,23.696693],[121.308324,23.696779],[121.308228,23.696598],[121.308032,23.696596],[121.30843,23.696149],[121.308726,23.696061],[121.308729,23.695791],[121.308926,23.695702],[121.308833,23.69534],[121.30903,23.695252],[121.309033,23.695071],[121.30874,23.694978],[121.308742,23.694797],[121.308354,23.694432],[121.307962,23.694428],[121.307866,23.694246],[121.307377,23.69415],[121.306981,23.694507],[121.306968,23.6955],[121.307163,23.695593],[121.306964,23.695771],[121.306955,23.696494],[121.306856,23.696583],[121.306267,23.696576],[121.306167,23.696756],[121.305481,23.696748],[121.304191,23.697908],[121.304185,23.69836],[121.303988,23.698448],[121.303982,23.698899],[121.303785,23.698987],[121.303781,23.699258],[121.303584,23.699346],[121.303677,23.699708],[121.303481,23.699706],[121.302985,23.700152],[121.302972,23.701146],[121.302675,23.701413],[121.302086,23.701407],[121.301986,23.701586],[121.299633,23.70156],[121.299632,23.701651],[121.299436,23.701648],[121.29934,23.701467],[121.299045,23.701554],[121.299046,23.701464],[121.29885,23.701461],[121.298754,23.70128],[121.29846,23.701277],[121.298461,23.701186],[121.297873,23.70118],[121.297575,23.701447],[121.297379,23.701445],[121.297279,23.701625],[121.296688,23.701799],[121.296588,23.701978],[121.296391,23.701976],[121.295996,23.702243],[121.296189,23.702425],[121.296181,23.703057],[121.295882,23.703415],[121.295879,23.703686],[121.296268,23.703961],[121.296265,23.704142],[121.296167,23.704141],[121.296164,23.704412],[121.295867,23.704589],[121.295764,23.704949],[121.295371,23.705035],[121.295269,23.705305],[121.295072,23.705393],[121.29546,23.705759],[121.295457,23.705939],[121.295164,23.705846],[121.294966,23.706024],[121.294856,23.706926],[121.294659,23.707014],[121.294752,23.707376],[121.294158,23.707821],[121.294154,23.708092],[121.294253,23.708093],[121.294146,23.708724],[121.293948,23.708902],[121.293752,23.7089],[121.293055,23.709705],[121.292759,23.709792],[121.292756,23.710063],[121.292268,23.709877],[121.292168,23.710057],[121.291774,23.710143],[121.29187,23.710324],[121.292657,23.710152],[121.292654,23.710333],[121.292556,23.710332],[121.292353,23.710871],[121.292057,23.711049],[121.291954,23.711409],[121.291757,23.711497],[121.291654,23.711857],[121.291357,23.712034],[121.291256,23.712304],[121.29096,23.712391],[121.290758,23.71284],[121.290462,23.713018],[121.290557,23.713199],[121.290263,23.713196],[121.289767,23.713642],[121.289473,23.713639],[121.289271,23.714088],[121.288676,23.714623],[121.288482,23.71444],[121.288186,23.714527],[121.288091,23.714346],[121.287797,23.714343],[121.287597,23.714611],[121.287401,23.714609],[121.287402,23.714519],[121.287009,23.714605],[121.286913,23.714423],[121.286029,23.714504],[121.285928,23.714773],[121.286417,23.714869],[121.286415,23.714959],[121.285919,23.715405],[121.28543,23.71531],[121.285433,23.715129],[121.285141,23.714945],[121.285038,23.715305],[121.285232,23.715488],[121.284937,23.715485],[121.28494,23.715304],[121.284549,23.71521],[121.284455,23.714847],[121.284066,23.714662],[121.28417,23.714212],[121.284567,23.713855],[121.284473,23.713493],[121.284175,23.713761],[121.283979,23.713758],[121.282987,23.71465],[121.282981,23.715102],[121.283274,23.715195],[121.283272,23.715376],[121.283562,23.71565],[121.283958,23.715384],[121.28406,23.715114],[121.284256,23.715116],[121.284251,23.715477],[121.28464,23.715752],[121.284934,23.715756],[121.284933,23.715846],[121.284834,23.715935],[121.284541,23.715842],[121.284441,23.715931],[121.284536,23.716203],[121.284238,23.71647],[121.283945,23.716377],[121.283944,23.716467],[121.283649,23.716554],[121.283646,23.716735],[121.283157,23.716639],[121.283156,23.716729],[121.282762,23.716815],[121.282859,23.716907],[121.282758,23.717176],[121.282953,23.717269],[121.282949,23.71754],[121.283047,23.717541],[121.28304,23.718082],[121.282742,23.71835],[121.282449,23.718256],[121.282347,23.718616],[121.282054,23.718523],[121.281854,23.718792],[121.280774,23.71887],[121.280378,23.719136],[121.280473,23.719408],[121.280277,23.719406],[121.280182,23.719134],[121.280083,23.719223],[121.279496,23.719127],[121.279395,23.719306],[121.27959,23.719399],[121.279587,23.719669],[121.279979,23.719674],[121.279977,23.719854],[121.280271,23.719858],[121.280273,23.719677],[121.280469,23.719679],[121.280662,23.719952],[121.280858,23.719954],[121.280759,23.720044],[121.280854,23.720225],[121.281247,23.72023],[121.281253,23.719778],[121.281058,23.719686],[121.28106,23.719505],[121.281549,23.719601],[121.281547,23.719781],[121.28184,23.719875],[121.281837,23.720056],[121.281738,23.720145],[121.281445,23.720051],[121.281342,23.720411],[121.281538,23.720413],[121.281536,23.720594],[121.281732,23.720596],[121.281633,23.720685],[121.281727,23.720957],[121.282316,23.720964],[121.282416,23.720784],[121.282612,23.720787],[121.282512,23.720966],[121.282806,23.720969],[121.282803,23.72124],[121.283097,23.721243],[121.283291,23.721426],[121.283187,23.721877]],[[121.306803,23.723491],[121.306902,23.723402],[121.306901,23.723493],[121.306803,23.723491]],[[121.306804,23.723401],[121.306707,23.72331],[121.306805,23.723311],[121.306804,23.723401]],[[121.306902,23.723402],[121.307001,23.723313],[121.306905,23.723131],[121.307198,23.723225],[121.307196,23.723405],[121.306902,23.723402]],[[121.29846,23.701277],[121.298361,23.701366],[121.298362,23.701275],[121.29846,23.701277]],[[121.28691,23.714604],[121.287105,23.714696],[121.287201,23.714878],[121.28681,23.714783],[121.28691,23.714604]],[[121.284934,23.715756],[121.285033,23.715666],[121.285032,23.715757],[121.284934,23.715756]],[[121.280469,23.719679],[121.280568,23.71959],[121.280567,23.71968],[121.280469,23.719679]],[[121.281836,23.720146],[121.281835,23.720236],[121.282031,23.720238],[121.28203,23.720329],[121.281638,23.720324],[121.281836,23.720146]],[[121.283292,23.721336],[121.283391,23.721247],[121.283782,23.721341],[121.283982,23.721073],[121.284175,23.721255],[121.284471,23.721168],[121.284472,23.721078],[121.284668,23.72108],[121.284862,23.721263],[121.28476,23.721533],[121.284563,23.721621],[121.284559,23.721892],[121.284362,23.72198],[121.28436,23.72216],[121.284161,23.722339],[121.28358,23.721791],[121.28378,23.721522],[121.283683,23.721431],[121.283387,23.721518],[121.283292,23.721336]],[[121.28408,23.721074],[121.284179,23.720985],[121.284178,23.721075],[121.28408,23.721074]],[[121.284063,23.722338],[121.283964,23.722427],[121.283965,23.722337],[121.284063,23.722338]],[[121.299014,23.726566],[121.298915,23.726656],[121.298916,23.726565],[121.299014,23.726566]],[[121.297645,23.72628],[121.298135,23.726286],[121.298134,23.726376],[121.297741,23.726462],[121.297645,23.72628]],[[121.298623,23.726472],[121.298331,23.726288],[121.298334,23.726107],[121.29853,23.72611],[121.298629,23.72602],[121.298533,23.725839],[121.29873,23.725841],[121.29892,23.726294],[121.298724,23.726292],[121.298623,23.726472]],[[121.296765,23.72609],[121.296961,23.726092],[121.29696,23.726183],[121.296764,23.72618],[121.296765,23.72609]],[[121.296961,23.726092],[121.29706,23.726003],[121.297159,23.725914],[121.297157,23.726094],[121.296961,23.726092]],[[121.299218,23.726027],[121.299414,23.726029],[121.299411,23.72621],[121.299117,23.726206],[121.299218,23.726027]],[[121.297946,23.725742],[121.297651,23.725829],[121.297559,23.725377],[121.297951,23.725381],[121.298237,23.726016],[121.298041,23.726014],[121.297946,23.725742]],[[121.296768,23.725819],[121.29667,23.725818],[121.296672,23.725638],[121.296771,23.725639],[121.296768,23.725819]],[[121.296867,23.72573],[121.296967,23.725641],[121.296966,23.725731],[121.296867,23.72573]],[[121.296967,23.725641],[121.297066,23.725552],[121.297065,23.725642],[121.296967,23.725641]],[[121.295595,23.725535],[121.295307,23.725081],[121.295601,23.725084],[121.295696,23.725266],[121.295893,23.725268],[121.295889,23.725539],[121.295595,23.725535]],[[121.296576,23.725546],[121.296479,23.725455],[121.296577,23.725456],[121.296576,23.725546]],[[121.296479,23.725455],[121.296382,23.725364],[121.29648,23.725365],[121.296479,23.725455]],[[121.301088,23.725506],[121.300989,23.725595],[121.30099,23.725505],[121.301088,23.725506]],[[121.296873,23.725279],[121.296774,23.725368],[121.296775,23.725278],[121.296873,23.725279]],[[121.301778,23.725242],[121.301679,23.725332],[121.30168,23.725241],[121.301778,23.725242]],[[121.301691,23.724338],[121.30179,23.724339],[121.301792,23.724159],[121.301988,23.724161],[121.301987,23.724251],[121.302478,23.724166],[121.30237,23.724978],[121.301783,23.724881],[121.301584,23.72506],[121.301691,23.724338]],[[121.288349,23.724643],[121.288249,23.724732],[121.288251,23.724642],[121.288349,23.724643]],[[121.295901,23.724636],[121.296195,23.724639],[121.296291,23.724821],[121.296095,23.724819],[121.295901,23.724636]],[[121.296879,23.724827],[121.297078,23.724649],[121.297075,23.724829],[121.296879,23.724827]],[[121.295214,23.724628],[121.295115,23.724718],[121.295116,23.724627],[121.295214,23.724628]],[[121.295411,23.72463],[121.295311,23.72472],[121.295312,23.724629],[121.295411,23.72463]],[[121.294628,23.724441],[121.294529,23.72453],[121.29453,23.72444],[121.294628,23.724441]],[[121.295414,23.72436],[121.295315,23.724449],[121.295316,23.724359],[121.295414,23.72436]],[[121.296786,23.724465],[121.296885,23.724376],[121.296884,23.724466],[121.296786,23.724465]],[[121.296885,23.724376],[121.296984,23.724287],[121.296983,23.724377],[121.296885,23.724376]],[[121.299535,23.724224],[121.299436,23.724314],[121.299437,23.724223],[121.299535,23.724224]],[[121.301303,23.724063],[121.301203,23.724152],[121.301205,23.724062],[121.301303,23.724063]],[[121.295518,23.723909],[121.29542,23.723908],[121.295425,23.723547],[121.295523,23.723548],[121.295518,23.723909]],[[121.296991,23.723745],[121.296892,23.723834],[121.296893,23.723744],[121.296991,23.723745]],[[121.294933,23.723632],[121.294835,23.723631],[121.294839,23.72336],[121.294937,23.723361],[121.294933,23.723632]],[[121.297974,23.723575],[121.297875,23.723664],[121.297876,23.723574],[121.297974,23.723575]],[[121.286507,23.722997],[121.287003,23.722551],[121.287293,23.722825],[121.287291,23.723006],[121.286995,23.723183],[121.286899,23.723001],[121.2868,23.723091],[121.286507,23.722997]],[[121.286508,23.722907],[121.286411,23.722815],[121.286509,23.722816],[121.286508,23.722907]],[[121.286313,23.722814],[121.286315,23.722634],[121.286612,23.722456],[121.286609,23.722637],[121.286313,23.722814]],[[121.286612,23.722456],[121.286711,23.722367],[121.28671,23.722457],[121.286612,23.722456]],[[121.29494,23.72309],[121.294841,23.723179],[121.294842,23.723089],[121.29494,23.72309]],[[121.305144,23.722841],[121.305142,23.722931],[121.305436,23.723025],[121.305236,23.723294],[121.304945,23.72302],[121.304651,23.723016],[121.304849,23.722838],[121.305144,23.722841]],[[121.304653,23.722836],[121.304553,23.723015],[121.303963,23.723099],[121.303966,23.722919],[121.303673,23.722825],[121.303674,23.722735],[121.304263,23.722651],[121.304262,23.722741],[121.304653,23.722836]],[[121.301909,23.722715],[121.301812,23.722624],[121.302209,23.722267],[121.302405,23.722269],[121.302596,23.722633],[121.302892,23.722546],[121.302984,23.722998],[121.302497,23.722722],[121.302198,23.72308],[121.301805,23.723166],[121.301909,23.722715]],[[121.294844,23.722909],[121.294748,23.722817],[121.294846,23.722818],[121.294844,23.722909]],[[121.294748,23.722817],[121.294651,23.722726],[121.294749,23.722727],[121.294748,23.722817]],[[121.294065,23.722539],[121.293965,23.722628],[121.293967,23.722538],[121.294065,23.722539]],[[121.294456,23.722633],[121.29426,23.722631],[121.294261,23.722541],[121.294457,23.722543],[121.294456,23.722633]],[[121.285929,23.722178],[121.28583,23.722267],[121.285831,23.722177],[121.285929,23.722178]],[[121.294269,23.721909],[121.294666,23.721552],[121.294756,23.722185],[121.294561,23.722093],[121.294459,23.722362],[121.294361,23.722361],[121.294269,23.721909]],[[121.294755,23.722275],[121.294655,23.722365],[121.294657,23.722274],[121.294755,23.722275]],[[121.302894,23.722365],[121.302795,23.722454],[121.302796,23.722364],[121.302894,23.722365]],[[121.286321,23.722182],[121.286125,23.72218],[121.286127,23.721999],[121.286323,23.722002],[121.286321,23.722182]],[[121.288411,23.719858],[121.288412,23.719767],[121.288608,23.719769],[121.288802,23.719952],[121.2888,23.720133],[121.288604,23.720131],[121.288605,23.72004],[121.288408,23.720128],[121.2886,23.720401],[121.288992,23.720406],[121.289093,23.720226],[121.289387,23.72023],[121.289585,23.720051],[121.289684,23.720052],[121.289681,23.720233],[121.28909,23.720407],[121.289177,23.721311],[121.288979,23.721399],[121.288973,23.72185],[121.288775,23.722029],[121.288285,23.722023],[121.288184,23.722203],[121.287988,23.722201],[121.287892,23.722019],[121.287402,23.722014],[121.287208,23.721831],[121.28722,23.720928],[121.287616,23.720661],[121.287521,23.72039],[121.287719,23.720301],[121.287721,23.720121],[121.287819,23.720122],[121.287912,23.720484],[121.288107,23.720577],[121.288306,23.720398],[121.288216,23.719765],[121.288411,23.719858]],[[121.287819,23.720122],[121.287918,23.720033],[121.287917,23.720123],[121.287819,23.720122]],[[121.288216,23.719765],[121.288119,23.719674],[121.288217,23.719675],[121.288216,23.719765]],[[121.292895,23.721984],[121.292796,23.722073],[121.292797,23.721983],[121.292895,23.721984]],[[121.29407,23.722087],[121.293972,23.722086],[121.293975,23.721906],[121.294073,23.721907],[121.29407,23.722087]],[[121.295641,23.722014],[121.295541,23.722104],[121.295543,23.722013],[121.295641,23.722014]],[[121.29584,23.721746],[121.295741,23.721835],[121.295742,23.721745],[121.29584,23.721746]],[[121.293099,23.721354],[121.293395,23.721267],[121.293291,23.721718],[121.293193,23.721716],[121.293099,23.721354]],[[121.286036,23.721457],[121.285937,23.721546],[121.285938,23.721456],[121.286036,23.721457]],[[121.295449,23.721651],[121.295351,23.72165],[121.295354,23.721469],[121.295452,23.72147],[121.295449,23.721651]],[[121.285157,23.721176],[121.285353,23.721178],[121.285351,23.721359],[121.285253,23.721358],[121.285157,23.721176]],[[121.285939,23.721365],[121.285843,23.721274],[121.285941,23.721275],[121.285939,23.721365]],[[121.285843,23.721274],[121.285746,23.721183],[121.28555,23.72118],[121.285649,23.721091],[121.285552,23.721],[121.285655,23.72064],[121.28546,23.720547],[121.285358,23.720817],[121.285163,23.720725],[121.285266,23.720365],[121.285852,23.720552],[121.285752,23.720731],[121.285945,23.720914],[121.285847,23.720913],[121.285843,23.721274]],[[121.28555,23.72118],[121.28545,23.72127],[121.285451,23.721179],[121.28555,23.72118]],[[121.285456,23.720818],[121.285454,23.720999],[121.285258,23.720997],[121.285259,23.720906],[121.285456,23.720818]],[[121.285948,23.720733],[121.286046,23.720734],[121.285951,23.720462],[121.286343,23.720467],[121.286145,23.720645],[121.28624,23.720917],[121.286043,23.720915],[121.285948,23.720733]],[[121.283495,23.720796],[121.283299,23.720794],[121.283302,23.720523],[121.283107,23.720431],[121.28311,23.72025],[121.283306,23.720253],[121.283307,23.720162],[121.283503,23.720164],[121.283403,23.720344],[121.28379,23.720709],[121.283689,23.720979],[121.283495,23.720796]],[[121.285062,23.720994],[121.284965,23.720903],[121.285063,23.720904],[121.285062,23.720994]],[[121.284965,23.720903],[121.284868,23.720812],[121.284966,23.720813],[121.284965,23.720903]],[[121.293404,23.720545],[121.293504,23.720365],[121.29429,23.720284],[121.293992,23.720551],[121.293699,23.720458],[121.293302,23.720815],[121.2933,23.720995],[121.293106,23.720812],[121.29291,23.72081],[121.292809,23.72108],[121.292711,23.721079],[121.292519,23.720716],[121.29242,23.720805],[121.292224,23.720803],[121.292225,23.720712],[121.29193,23.720799],[121.29203,23.72062],[121.292913,23.72063],[121.293013,23.72045],[121.293404,23.720545]],[[121.291928,23.72089],[121.29134,23.720883],[121.291341,23.720793],[121.29193,23.720799],[121.291928,23.72089]],[[121.293013,23.72045],[121.292916,23.720359],[121.293014,23.72036],[121.293013,23.72045]],[[121.29085,23.720878],[121.290754,23.720696],[121.291244,23.720702],[121.291143,23.720971],[121.29085,23.720878]],[[121.293794,23.72073],[121.29399,23.720732],[121.293987,23.721003],[121.293792,23.72091],[121.293794,23.72073]],[[121.283986,23.720712],[121.283887,23.720801],[121.283888,23.72071],[121.283986,23.720712]],[[121.284674,23.720629],[121.284575,23.720718],[121.284576,23.720628],[121.284674,23.720629]],[[121.282136,23.719698],[121.282524,23.720063],[121.282425,23.720152],[121.282422,23.720333],[121.28252,23.720334],[121.282419,23.720604],[121.282222,23.720602],[121.282226,23.720331],[121.282128,23.72033],[121.282227,23.720241],[121.282136,23.719698]],[[121.282038,23.719697],[121.281945,23.719334],[121.281847,23.719333],[121.281946,23.719244],[121.281852,23.718972],[121.282048,23.718974],[121.282044,23.719245],[121.282142,23.719246],[121.282136,23.719698],[121.282038,23.719697]],[[121.286537,23.72065],[121.286439,23.720648],[121.286442,23.720468],[121.28654,23.720469],[121.286537,23.72065]],[[121.286638,23.72047],[121.286834,23.720472],[121.286831,23.720653],[121.286733,23.720652],[121.286638,23.72047]],[[121.287128,23.720475],[121.287325,23.720387],[121.287421,23.720569],[121.287224,23.720657],[121.287128,23.720475]],[[121.290068,23.720689],[121.289871,23.720686],[121.289873,23.720596],[121.290069,23.720598],[121.290068,23.720689]],[[121.289776,23.720505],[121.289676,23.720594],[121.289678,23.720504],[121.289776,23.720505]],[[121.282911,23.720429],[121.282617,23.720425],[121.282618,23.720335],[121.282912,23.720338],[121.282911,23.720429]],[[121.284288,23.720173],[121.284188,23.720262],[121.284089,23.720352],[121.284092,23.720171],[121.284288,23.720173]],[[121.284973,23.720271],[121.284874,23.72036],[121.284875,23.72027],[121.284973,23.720271]],[[121.285175,23.719822],[121.284977,23.72],[121.28478,23.719998],[121.284785,23.719637],[121.284884,23.719548],[121.28508,23.71955],[121.285176,23.719731],[121.28557,23.719646],[121.285566,23.719916],[121.285369,23.720005],[121.285365,23.720275],[121.285267,23.720274],[121.285175,23.719822]],[[121.285757,23.72028],[121.285561,23.720278],[121.285563,23.720187],[121.285759,23.720189],[121.285757,23.72028]],[[121.290268,23.72033],[121.290072,23.720327],[121.290073,23.720237],[121.29027,23.720239],[121.290268,23.72033]],[[121.283015,23.719978],[121.283114,23.719889],[121.283112,23.72007],[121.282817,23.720157],[121.282819,23.719976],[121.283015,23.719978]],[[121.286152,23.720103],[121.286053,23.720193],[121.286054,23.720102],[121.286152,23.720103]],[[121.283408,23.719983],[121.283308,23.720072],[121.283309,23.719982],[121.283408,23.719983]],[[121.283997,23.719899],[121.283898,23.719988],[121.283799,23.720077],[121.283801,23.719897],[121.283997,23.719899]],[[121.286938,23.720022],[121.286839,23.720111],[121.28684,23.720021],[121.286938,23.720022]],[[121.29488,23.7202],[121.295078,23.720022],[121.295076,23.720202],[121.29488,23.7202]],[[121.28577,23.719287],[121.286061,23.719561],[121.286356,23.719474],[121.286158,23.719652],[121.286255,23.719743],[121.286153,23.720013],[121.285958,23.719921],[121.286059,23.719741],[121.28567,23.719466],[121.28577,23.719287]],[[121.285672,23.719285],[121.285674,23.719195],[121.285378,23.719282],[121.285282,23.719101],[121.284989,23.719007],[121.284992,23.718826],[121.28529,23.718559],[121.285485,23.718651],[121.285585,23.718472],[121.285878,23.718565],[121.285877,23.718656],[121.286171,23.718659],[121.286365,23.718842],[121.286165,23.71911],[121.285871,23.719107],[121.285672,23.719285]],[[121.285086,23.719098],[121.284987,23.719188],[121.284988,23.719097],[121.285086,23.719098]],[[121.285585,23.718472],[121.285488,23.71838],[121.285586,23.718382],[121.285585,23.718472]],[[121.287135,23.719934],[121.287036,23.720023],[121.287037,23.719933],[121.287135,23.719934]],[[121.294096,23.720101],[121.294196,23.720012],[121.294194,23.720102],[121.294096,23.720101]],[[121.294196,23.720012],[121.294003,23.719739],[121.294298,23.719652],[121.294392,23.720014],[121.294196,23.720012]],[[121.301653,23.719733],[121.30185,23.719645],[121.301847,23.719915],[121.301549,23.720183],[121.301653,23.719733]],[[121.283416,23.719351],[121.283418,23.71917],[121.28371,23.719354],[121.283511,23.719532],[121.283509,23.719713],[121.283607,23.719714],[121.283507,23.719894],[121.283215,23.71971],[121.283314,23.719621],[121.283218,23.719439],[121.283416,23.719351]],[[121.283218,23.719439],[121.283122,23.719347],[121.28322,23.719349],[121.283218,23.719439]],[[121.284194,23.719811],[121.284095,23.7199],[121.284096,23.71981],[121.284194,23.719811]],[[121.289292,23.719958],[121.288998,23.719954],[121.288999,23.719864],[121.289197,23.719776],[121.289292,23.719958]],[[121.289295,23.719777],[121.289003,23.719593],[121.289102,23.719504],[121.289008,23.719232],[121.289204,23.719234],[121.289398,23.719417],[121.28979,23.719421],[121.289789,23.719512],[121.289494,23.719508],[121.289295,23.719777]],[[121.287531,23.719667],[121.287727,23.719669],[121.287726,23.71976],[121.28743,23.719847],[121.287531,23.719667]],[[121.296354,23.719945],[121.296256,23.719944],[121.296258,23.719764],[121.296356,23.719765],[121.296354,23.719945]],[[121.282628,23.719613],[121.282528,23.719702],[121.28253,23.719612],[121.282628,23.719613]],[[121.286849,23.719299],[121.287044,23.719391],[121.287041,23.719662],[121.286844,23.71966],[121.286849,23.719299]],[[121.295083,23.71966],[121.294984,23.71975],[121.294985,23.719659],[121.295083,23.71966]],[[121.28812,23.719583],[121.288022,23.719582],[121.288026,23.719312],[121.288124,23.719313],[121.28812,23.719583]],[[121.285475,23.719374],[121.285376,23.719463],[121.285377,23.719373],[121.285475,23.719374]],[[121.288613,23.719408],[121.288514,23.719498],[121.288515,23.719407],[121.288613,23.719408]],[[121.294106,23.719379],[121.294498,23.719383],[121.294497,23.719473],[121.294201,23.71956],[121.294106,23.719379]],[[121.296164,23.719492],[121.296066,23.719491],[121.296068,23.71931],[121.296166,23.719311],[121.296164,23.719492]],[[121.28283,23.719164],[121.283027,23.719076],[121.28293,23.718984],[121.283033,23.718624],[121.283229,23.718626],[121.283224,23.718987],[121.283126,23.718986],[121.283221,23.719258],[121.283124,23.719167],[121.282731,23.719253],[121.282733,23.719072],[121.28283,23.719164]],[[121.296263,23.719403],[121.296362,23.719313],[121.296361,23.719404],[121.296263,23.719403]],[[121.296362,23.719313],[121.296462,23.719224],[121.29646,23.719314],[121.296362,23.719313]],[[121.281654,23.71906],[121.281555,23.719149],[121.281556,23.719059],[121.281654,23.71906]],[[121.287733,23.719218],[121.287439,23.719215],[121.28744,23.719124],[121.287734,23.719128],[121.287733,23.719218]],[[121.295486,23.718852],[121.295189,23.719029],[121.295284,23.719301],[121.294796,23.719115],[121.294797,23.719025],[121.29519,23.718939],[121.295193,23.718759],[121.294998,23.718666],[121.295196,23.718488],[121.295099,23.718396],[121.2952,23.718217],[121.295006,23.718034],[121.295496,23.71804],[121.295593,23.718131],[121.295588,23.718492],[121.295686,23.718493],[121.295584,23.718853],[121.295779,23.718946],[121.295776,23.719126],[121.295486,23.718852]],[[121.294803,23.718574],[121.294804,23.718483],[121.295,23.718486],[121.294999,23.718576],[121.294803,23.718574]],[[121.289695,23.719149],[121.289597,23.719148],[121.2896,23.718968],[121.289698,23.718969],[121.289695,23.719149]],[[121.294403,23.719111],[121.294405,23.719021],[121.294601,23.719023],[121.2946,23.719113],[121.294403,23.719111]],[[121.294405,23.719021],[121.294308,23.718929],[121.294406,23.718931],[121.294405,23.719021]],[[121.296463,23.719134],[121.296267,23.719132],[121.296268,23.719041],[121.296464,23.719044],[121.296463,23.719134]],[[121.283815,23.718813],[121.283716,23.718903],[121.283717,23.718812],[121.283815,23.718813]],[[121.305585,23.719053],[121.305486,23.719143],[121.305487,23.719052],[121.305585,23.719053]],[[121.28715,23.71876],[121.287055,23.718578],[121.286857,23.718667],[121.286664,23.718484],[121.286666,23.718303],[121.286864,23.718125],[121.287258,23.718039],[121.287166,23.717586],[121.287462,23.717409],[121.287554,23.717862],[121.287652,23.717863],[121.287547,23.718403],[121.28784,23.718497],[121.287839,23.718587],[121.287643,23.718585],[121.287443,23.718854],[121.28715,23.71876]],[[121.305688,23.718693],[121.30559,23.718692],[121.305689,23.718603],[121.305593,23.718421],[121.30589,23.718244],[121.305886,23.718515],[121.30608,23.718698],[121.305881,23.718876],[121.305879,23.719057],[121.305781,23.719056],[121.305688,23.718693]],[[121.283719,23.718632],[121.28362,23.718721],[121.283621,23.718631],[121.283719,23.718632]],[[121.289995,23.718701],[121.289896,23.71879],[121.289897,23.7187],[121.289995,23.718701]],[[121.288819,23.718688],[121.288524,23.718685],[121.288526,23.718595],[121.288919,23.718509],[121.288819,23.718688]],[[121.28892,23.718418],[121.289609,23.718245],[121.289907,23.717978],[121.289909,23.717797],[121.290106,23.717709],[121.290104,23.71789],[121.290006,23.717889],[121.2901,23.718161],[121.289906,23.718068],[121.289707,23.718247],[121.289705,23.718427],[121.289411,23.718424],[121.289212,23.718602],[121.288919,23.718509],[121.28892,23.718418]],[[121.296271,23.718771],[121.296173,23.718769],[121.296176,23.718589],[121.296274,23.71859],[121.296271,23.718771]],[[121.28539,23.718379],[121.285291,23.718469],[121.285292,23.718378],[121.28539,23.718379]],[[121.290292,23.718524],[121.290096,23.718522],[121.290097,23.718431],[121.290293,23.718434],[121.290292,23.718524]],[[121.285983,23.718025],[121.286277,23.718028],[121.286178,23.718117],[121.286273,23.718389],[121.28588,23.718385],[121.285983,23.718025]],[[121.285099,23.718105],[121.285,23.718194],[121.285001,23.718104],[121.285099,23.718105]],[[121.285588,23.718201],[121.285492,23.71811],[121.28559,23.718111],[121.285588,23.718201]],[[121.285394,23.718109],[121.285396,23.717928],[121.285494,23.717929],[121.285492,23.71811],[121.285394,23.718109]],[[121.294121,23.718205],[121.294022,23.718294],[121.294023,23.718204],[121.294121,23.718205]],[[121.296082,23.718227],[121.29579,23.718043],[121.295695,23.717861],[121.295891,23.717863],[121.296085,23.718046],[121.296082,23.718227]],[[121.283435,23.717906],[121.283335,23.717995],[121.283337,23.717905],[121.283435,23.717906]],[[121.286671,23.717942],[121.286571,23.718031],[121.286573,23.717941],[121.286671,23.717942]],[[121.296281,23.718048],[121.296181,23.718137],[121.296183,23.718047],[121.296281,23.718048]],[[121.297163,23.718058],[121.297262,23.717969],[121.297261,23.718059],[121.297163,23.718058]],[[121.297262,23.717969],[121.297362,23.71788],[121.297361,23.71797],[121.297262,23.717969]],[[121.290497,23.717804],[121.290401,23.717712],[121.290499,23.717714],[121.290497,23.717804]],[[121.290401,23.717712],[121.290304,23.717621],[121.290402,23.717622],[121.290401,23.717712]],[[121.294325,23.717575],[121.294521,23.717577],[121.294518,23.717848],[121.29442,23.717847],[121.294325,23.717575]],[[121.285603,23.717118],[121.285799,23.71712],[121.285792,23.717661],[121.285694,23.71766],[121.285603,23.717118]],[[121.285205,23.717565],[121.285008,23.717562],[121.28501,23.717472],[121.285206,23.717474],[121.285205,23.717565]],[[121.289324,23.71752],[121.289225,23.717609],[121.289226,23.717519],[121.289324,23.71752]],[[121.297658,23.717702],[121.297462,23.7177],[121.297463,23.71761],[121.297659,23.717612],[121.297658,23.717702]],[[121.289917,23.717165],[121.290015,23.717166],[121.290013,23.717347],[121.290207,23.71753],[121.289914,23.717436],[121.289917,23.717165]],[[121.306878,23.717623],[121.306779,23.717712],[121.30678,23.717622],[121.306878,23.717623]],[[121.288346,23.717329],[121.288247,23.717418],[121.288248,23.717327],[121.288346,23.717329]],[[121.294822,23.717129],[121.295116,23.717132],[121.29521,23.717404],[121.294917,23.717311],[121.294719,23.717489],[121.294822,23.717129]],[[121.295602,23.717409],[121.295503,23.717498],[121.295504,23.717408],[121.295602,23.717409]],[[121.289525,23.717161],[121.289426,23.71725],[121.289427,23.71716],[121.289525,23.717161]],[[121.290506,23.717172],[121.290406,23.717261],[121.290408,23.717171],[121.290506,23.717172]],[[121.296193,23.717235],[121.296094,23.717324],[121.296095,23.717233],[121.296193,23.717235]],[[121.296585,23.717239],[121.296486,23.717328],[121.296487,23.717238],[121.296585,23.717239]],[[121.298055,23.717345],[121.297859,23.717343],[121.29786,23.717253],[121.298056,23.717255],[121.298055,23.717345]],[[121.285114,23.717022],[121.285014,23.717111],[121.285015,23.717021],[121.285114,23.717022]],[[121.288546,23.71706],[121.288446,23.717149],[121.288448,23.717059],[121.288546,23.71706]],[[121.290703,23.717084],[121.290604,23.717173],[121.290605,23.717083],[121.290703,23.717084]],[[121.295508,23.717137],[121.295409,23.717226],[121.29541,23.717136],[121.295508,23.717137]],[[121.294331,23.717124],[121.294135,23.717122],[121.294136,23.717031],[121.294332,23.717033],[121.294331,23.717124]],[[121.296982,23.716882],[121.29718,23.716794],[121.297175,23.717155],[121.297077,23.717154],[121.296982,23.716882]],[[121.284724,23.716837],[121.284624,23.716926],[121.284626,23.716836],[121.284724,23.716837]],[[121.29453,23.716945],[121.29443,23.717035],[121.294432,23.716944],[121.29453,23.716945]],[[121.289432,23.716799],[121.289332,23.716888],[121.289334,23.716798],[121.289432,23.716799]],[[121.296689,23.716789],[121.296884,23.716881],[121.296883,23.716971],[121.296687,23.716969],[121.296689,23.716789]],[[121.289139,23.716705],[121.289039,23.716794],[121.289041,23.716704],[121.289139,23.716705]],[[121.290414,23.716719],[121.290314,23.716809],[121.290315,23.716718],[121.290414,23.716719]],[[121.284237,23.716561],[121.284138,23.71665],[121.284139,23.71656],[121.284237,23.716561]],[[121.287668,23.716689],[121.287571,23.716598],[121.287669,23.716599],[121.287668,23.716689]],[[121.287473,23.716596],[121.287474,23.716506],[121.287277,23.716594],[121.287181,23.716413],[121.287673,23.716328],[121.28767,23.716508],[121.287473,23.716596]],[[121.298553,23.716809],[121.298557,23.716448],[121.298655,23.716449],[121.298651,23.71681],[121.298553,23.716809]],[[121.298557,23.716448],[121.29846,23.716357],[121.298558,23.716358],[121.298557,23.716448]],[[121.296106,23.716421],[121.295906,23.71669],[121.29571,23.716687],[121.29591,23.716419],[121.296106,23.716421]],[[121.296106,23.716421],[121.296206,23.716241],[121.296402,23.716244],[121.296302,23.716423],[121.296106,23.716421]],[[121.296403,23.716153],[121.296698,23.716157],[121.296696,23.716247],[121.296402,23.716244],[121.296403,23.716153]],[[121.288357,23.716516],[121.28816,23.716514],[121.288162,23.716423],[121.288358,23.716426],[121.288357,23.716516]],[[121.286301,23.716222],[121.286496,23.716315],[121.286495,23.716405],[121.286299,23.716403],[121.286301,23.716222]],[[121.289928,23.716353],[121.289829,23.716442],[121.28983,23.716352],[121.289928,23.716353]],[[121.291888,23.716465],[121.291987,23.716375],[121.291986,23.716466],[121.291888,23.716465]],[[121.291991,23.716105],[121.292187,23.716107],[121.292085,23.716377],[121.291987,23.716375],[121.291991,23.716105]],[[121.296694,23.716427],[121.296595,23.716517],[121.296596,23.716426],[121.296694,23.716427]],[[121.295223,23.716411],[121.295422,23.716233],[121.295326,23.716051],[121.29562,23.716054],[121.295617,23.716325],[121.295223,23.716411]],[[121.296989,23.71634],[121.29689,23.71643],[121.296891,23.716339],[121.296989,23.71634]],[[121.297578,23.716347],[121.297774,23.716349],[121.297773,23.716439],[121.297577,23.716437],[121.297578,23.716347]],[[121.297774,23.716349],[121.297873,23.71626],[121.297872,23.71635],[121.297774,23.716349]],[[121.299636,23.71646],[121.299538,23.716459],[121.299541,23.716188],[121.299639,23.716189],[121.299636,23.71646]],[[121.288066,23.716242],[121.28787,23.71624],[121.287871,23.716149],[121.288067,23.716152],[121.288066,23.716242]],[[121.291205,23.716186],[121.291401,23.716188],[121.2914,23.716279],[121.291204,23.716277],[121.291205,23.716186]],[[121.291401,23.716188],[121.2916,23.71601],[121.291504,23.715828],[121.2917,23.715831],[121.291701,23.71574],[121.291896,23.715833],[121.291894,23.716013],[121.291698,23.716011],[121.291597,23.716191],[121.291401,23.716188]],[[121.298167,23.716263],[121.29807,23.716172],[121.298168,23.716173],[121.298167,23.716263]],[[121.29807,23.716172],[121.297974,23.71608],[121.298072,23.716081],[121.29807,23.716172]],[[121.297287,23.716073],[121.297386,23.715984],[121.297385,23.716074],[121.297287,23.716073]],[[121.297386,23.715984],[121.297586,23.715715],[121.297782,23.715717],[121.297582,23.715986],[121.297386,23.715984]],[[121.297586,23.715715],[121.297489,23.715623],[121.297587,23.715625],[121.297586,23.715715]],[[121.297293,23.715621],[121.297294,23.715531],[121.29749,23.715533],[121.297489,23.715623],[121.297293,23.715621]],[[121.297293,23.715621],[121.297194,23.715711],[121.297195,23.71562],[121.297293,23.715621]],[[121.29749,23.715533],[121.29759,23.715444],[121.297588,23.715534],[121.29749,23.715533]],[[121.29759,23.715444],[121.297689,23.715355],[121.297688,23.715445],[121.29759,23.715444]],[[121.297877,23.715989],[121.297777,23.716078],[121.297779,23.715988],[121.297877,23.715989]],[[121.302292,23.715857],[121.302487,23.715949],[121.302484,23.71613],[121.302289,23.716037],[121.302292,23.715857]],[[121.28964,23.715898],[121.289345,23.715895],[121.289347,23.715805],[121.289641,23.715808],[121.28964,23.715898]],[[121.29013,23.715903],[121.290033,23.715812],[121.290131,23.715813],[121.29013,23.715903]],[[121.290033,23.715812],[121.289936,23.715721],[121.290034,23.715722],[121.290033,23.715812]],[[121.297092,23.71598],[121.296896,23.715978],[121.296897,23.715888],[121.297093,23.71589],[121.297092,23.71598]],[[121.293172,23.715756],[121.292976,23.715754],[121.292977,23.715664],[121.293173,23.715666],[121.293172,23.715756]],[[121.294937,23.715776],[121.294839,23.715775],[121.294841,23.715594],[121.29494,23.715595],[121.294937,23.715776]],[[121.295822,23.715605],[121.295626,23.715603],[121.295428,23.715781],[121.295138,23.715417],[121.294942,23.715415],[121.295041,23.715326],[121.294945,23.715144],[121.29455,23.71541],[121.294452,23.715409],[121.294454,23.715229],[121.29485,23.714962],[121.295046,23.714964],[121.295043,23.715145],[121.295238,23.715237],[121.295339,23.715058],[121.296028,23.714885],[121.295927,23.715064],[121.295633,23.715061],[121.295632,23.715152],[121.295336,23.715239],[121.295432,23.71542],[121.295924,23.715335],[121.295822,23.715605]],[[121.294452,23.715409],[121.294352,23.715499],[121.294354,23.715408],[121.294452,23.715409]],[[121.294352,23.715499],[121.294253,23.715588],[121.294254,23.715498],[121.294352,23.715499]],[[121.296028,23.714885],[121.296128,23.714705],[121.296324,23.714708],[121.296322,23.714888],[121.296028,23.714885]],[[121.296324,23.714708],[121.296423,23.714618],[121.296422,23.714709],[121.296324,23.714708]],[[121.295924,23.715335],[121.296023,23.715246],[121.296022,23.715336],[121.295924,23.715335]],[[121.296023,23.715246],[121.296122,23.715157],[121.296121,23.715247],[121.296023,23.715246]],[[121.288566,23.715525],[121.288466,23.715614],[121.288468,23.715524],[121.288566,23.715525]],[[121.288958,23.715529],[121.288859,23.715619],[121.28886,23.715528],[121.288958,23.715529]],[[121.293567,23.71558],[121.293467,23.715669],[121.293469,23.715579],[121.293567,23.71558]],[[121.289158,23.715261],[121.288961,23.715258],[121.288963,23.715168],[121.289258,23.715081],[121.289158,23.715261]],[[121.289259,23.714991],[121.289751,23.714906],[121.289749,23.714996],[121.289946,23.714998],[121.289943,23.715179],[121.289846,23.715088],[121.289258,23.715081],[121.289259,23.714991]],[[121.289943,23.715179],[121.29004,23.71527],[121.289942,23.715269],[121.289943,23.715179]],[[121.28857,23.715164],[121.288374,23.715162],[121.288375,23.715071],[121.288572,23.715074],[121.28857,23.715164]],[[121.288181,23.714979],[121.288081,23.715068],[121.288082,23.714978],[121.288181,23.714979]],[[121.294162,23.715045],[121.294063,23.715134],[121.294064,23.715044],[121.294162,23.715045]],[[121.291318,23.715014],[121.291122,23.715011],[121.291123,23.714921],[121.29132,23.714923],[121.291318,23.715014]],[[121.29377,23.715041],[121.293672,23.71504],[121.293674,23.714859],[121.293772,23.71486],[121.29377,23.715041]],[[121.290145,23.71473],[121.290046,23.714819],[121.290047,23.714729],[121.290145,23.71473]],[[121.293381,23.714765],[121.293283,23.714764],[121.293287,23.714494],[121.293483,23.714496],[121.293381,23.714765]],[[121.293484,23.714405],[121.293778,23.714409],[121.293972,23.714591],[121.293775,23.71468],[121.293484,23.714405]],[[121.305348,23.714626],[121.305446,23.714627],[121.305442,23.714898],[121.305344,23.714897],[121.305348,23.714626]],[[121.305448,23.714447],[121.305644,23.714449],[121.305643,23.714539],[121.305446,23.714627],[121.305448,23.714447]],[[121.290638,23.714555],[121.290539,23.714644],[121.29054,23.714554],[121.290638,23.714555]],[[121.299169,23.714649],[121.29907,23.714738],[121.299071,23.714648],[121.299169,23.714649]],[[121.294169,23.714503],[121.29407,23.714592],[121.294071,23.714502],[121.294169,23.714503]],[[121.294858,23.71433],[121.294759,23.714419],[121.29476,23.714329],[121.294858,23.71433]],[[121.296624,23.714259],[121.29633,23.714256],[121.29623,23.714436],[121.296033,23.714434],[121.296036,23.714253],[121.296232,23.714255],[121.296332,23.714076],[121.296528,23.714078],[121.296624,23.714259]],[[121.296528,23.714078],[121.296628,23.713989],[121.296627,23.714079],[121.296528,23.714078]],[[121.304762,23.714439],[121.304663,23.714528],[121.304664,23.714438],[121.304762,23.714439]],[[121.294073,23.714322],[121.293977,23.71423],[121.294075,23.714231],[121.294073,23.714322]],[[121.293879,23.714229],[121.293881,23.714049],[121.293784,23.713957],[121.29398,23.713959],[121.293977,23.71423],[121.293879,23.714229]],[[121.29682,23.714262],[121.296721,23.714351],[121.296722,23.714261],[121.29682,23.714262]],[[121.304372,23.714254],[121.304567,23.714347],[121.304566,23.714437],[121.30437,23.714435],[121.304372,23.714254]],[[121.295251,23.714244],[121.295055,23.714242],[121.295058,23.714062],[121.295254,23.714064],[121.295251,23.714244]],[[121.298587,23.714191],[121.298487,23.71428],[121.298488,23.71419],[121.298587,23.714191]],[[121.294275,23.713872],[121.294469,23.714055],[121.294272,23.714143],[121.294275,23.713872]],[[121.303489,23.714245],[121.303293,23.714242],[121.303295,23.714152],[121.303491,23.714154],[121.303489,23.714245]],[[121.305159,23.714082],[121.305649,23.714088],[121.305647,23.714268],[121.305158,23.714173],[121.305159,23.714082]],[[121.296921,23.714082],[121.29702,23.713993],[121.297019,23.714083],[121.296921,23.714082]],[[121.297022,23.713812],[121.29712,23.713813],[121.297118,23.713994],[121.29702,23.713993],[121.297022,23.713812]],[[121.304962,23.71417],[121.304765,23.714168],[121.304767,23.714078],[121.304963,23.71408],[121.304962,23.71417]],[[121.295647,23.713978],[121.295451,23.713976],[121.295453,23.713795],[121.295649,23.713797],[121.295647,23.713978]],[[121.298785,23.714012],[121.298687,23.714011],[121.298692,23.71365],[121.29879,23.713651],[121.298785,23.714012]],[[121.299767,23.713933],[121.299667,23.714022],[121.299669,23.713932],[121.299767,23.713933]],[[121.292905,23.713677],[121.292806,23.713766],[121.292807,23.713676],[121.292905,23.713677]],[[121.294867,23.713608],[121.295065,23.71352],[121.295061,23.713791],[121.294963,23.71379],[121.294867,23.713608]],[[121.290553,23.71356],[121.290454,23.71365],[121.290455,23.713559],[121.290553,23.71356]],[[121.294474,23.713694],[121.294672,23.713516],[121.29467,23.713696],[121.294474,23.713694]],[[121.291142,23.713477],[121.291043,23.713566],[121.291044,23.713476],[121.291142,23.713477]],[[121.305165,23.713631],[121.305065,23.71372],[121.305067,23.71363],[121.305165,23.713631]],[[121.305362,23.713543],[121.305263,23.713632],[121.305264,23.713542],[121.305362,23.713543]],[[121.294972,23.713067],[121.29507,23.713068],[121.295067,23.713339],[121.294871,23.713337],[121.294972,23.713067]],[[121.298989,23.713382],[121.299089,23.713293],[121.299087,23.713384],[121.298989,23.713382]],[[121.299092,23.713022],[121.29919,23.713023],[121.299187,23.713294],[121.299089,23.713293],[121.299092,23.713022]],[[121.306247,23.713372],[121.306148,23.713461],[121.306149,23.713371],[121.306247,23.713372]],[[121.290951,23.713113],[121.290852,23.713202],[121.290853,23.713112],[121.290951,23.713113]],[[121.305168,23.71336],[121.304874,23.713357],[121.304875,23.713266],[121.305169,23.71327],[121.305168,23.71336]],[[121.295268,23.71298],[121.295463,23.713073],[121.295462,23.713163],[121.295265,23.713161],[121.295268,23.71298]],[[121.29409,23.713058],[121.293993,23.712966],[121.294091,23.712967],[121.29409,23.713058]],[[121.293993,23.712966],[121.293896,23.712875],[121.293994,23.712876],[121.293993,23.712966]],[[121.293798,23.712874],[121.2938,23.712693],[121.293898,23.712694],[121.293896,23.712875],[121.293798,23.712874]],[[121.295954,23.712988],[121.295856,23.712987],[121.295858,23.712806],[121.295957,23.712807],[121.295954,23.712988]],[[121.300857,23.713042],[121.300661,23.71304],[121.300662,23.712949],[121.300959,23.712772],[121.300857,23.713042]],[[121.300959,23.712772],[121.301058,23.712683],[121.301057,23.712773],[121.300959,23.712772]],[[121.295173,23.712708],[121.295369,23.712711],[121.295367,23.712891],[121.295269,23.71289],[121.295173,23.712708]],[[121.295564,23.712803],[121.295465,23.712892],[121.295466,23.712802],[121.295564,23.712803]],[[121.298408,23.712834],[121.298309,23.712924],[121.29831,23.712833],[121.298408,23.712834]],[[121.299389,23.712845],[121.299289,23.712934],[121.29929,23.712844],[121.299389,23.712845]],[[121.301742,23.712871],[121.301643,23.71296],[121.301644,23.71287],[121.301742,23.712871]],[[121.29488,23.712615],[121.294781,23.712704],[121.294682,23.712793],[121.294684,23.712613],[121.29488,23.712615]],[[121.300371,23.712675],[121.300568,23.712677],[121.300565,23.712858],[121.300467,23.712857],[121.300371,23.712675]],[[121.301261,23.712143],[121.300863,23.71259],[121.300766,23.712499],[121.300471,23.712586],[121.300473,23.712406],[121.30067,23.712317],[121.300675,23.711956],[121.300773,23.711957],[121.300868,23.712229],[121.301065,23.712141],[121.301067,23.711961],[121.301261,23.712143]],[[121.301067,23.711961],[121.30097,23.711869],[121.301068,23.71187],[121.301067,23.711961]],[[121.300083,23.712221],[121.300178,23.712493],[121.299982,23.71249],[121.299985,23.71222],[121.300083,23.712221]],[[121.292237,23.712225],[121.292138,23.712314],[121.292139,23.712223],[121.292237,23.712225]],[[121.304985,23.712365],[121.304886,23.712454],[121.304887,23.712364],[121.304985,23.712365]],[[121.293709,23.71215],[121.29361,23.71224],[121.293611,23.712149],[121.293709,23.71215]],[[121.293615,23.711879],[121.293516,23.711968],[121.293416,23.712057],[121.293419,23.711876],[121.293615,23.711879]],[[121.294104,23.711974],[121.294005,23.712063],[121.294006,23.711973],[121.294104,23.711974]],[[121.295379,23.711988],[121.295478,23.711899],[121.295477,23.711989],[121.295379,23.711988]],[[121.29548,23.711718],[121.295578,23.71172],[121.295576,23.7119],[121.295478,23.711899],[121.29548,23.711718]],[[121.296067,23.711815],[121.295968,23.711904],[121.295969,23.711814],[121.296067,23.711815]],[[121.301365,23.711693],[121.30156,23.711785],[121.301558,23.711966],[121.301363,23.711873],[121.301365,23.711693]],[[121.3046,23.711819],[121.304404,23.711817],[121.304405,23.711726],[121.304601,23.711728],[121.3046,23.711819]],[[121.295581,23.711539],[121.295481,23.711628],[121.295483,23.711538],[121.295581,23.711539]],[[121.302641,23.711617],[121.302542,23.711706],[121.302543,23.711616],[121.302641,23.711617]],[[121.304308,23.711635],[121.304307,23.711725],[121.30411,23.711723],[121.304015,23.711541],[121.304308,23.711635]],[[121.304015,23.711541],[121.303918,23.71145],[121.304016,23.711451],[121.304015,23.711541]],[[121.302054,23.71152],[121.301954,23.711609],[121.301956,23.711519],[121.302054,23.71152]],[[121.295584,23.711268],[121.295485,23.711357],[121.295486,23.711267],[121.295584,23.711268]],[[121.30863,23.71105],[121.308828,23.710962],[121.308825,23.711143],[121.308923,23.711144],[121.308822,23.711413],[121.308627,23.711321],[121.30863,23.71105]],[[121.295683,23.711179],[121.295585,23.711178],[121.295588,23.710997],[121.295686,23.710998],[121.295683,23.711179]],[[121.309706,23.711333],[121.309415,23.711059],[121.309613,23.71088],[121.309905,23.711064],[121.309706,23.711333]],[[121.305,23.711191],[121.304903,23.7111],[121.305001,23.711101],[121.305,23.711191]],[[121.304903,23.7111],[121.304806,23.711008],[121.304904,23.711009],[121.304903,23.7111]],[[121.295884,23.71082],[121.295785,23.710909],[121.295786,23.710819],[121.295884,23.71082]],[[121.304121,23.71091],[121.304022,23.711],[121.304023,23.710909],[121.304121,23.71091]],[[121.307162,23.710853],[121.307063,23.710943],[121.307064,23.710852],[121.307162,23.710853]],[[121.306483,23.710304],[121.306773,23.710578],[121.306969,23.71058],[121.306967,23.710761],[121.306771,23.710759],[121.30648,23.710485],[121.306483,23.710304]],[[121.306483,23.710304],[121.306386,23.710213],[121.306484,23.710214],[121.306483,23.710304]],[[121.301085,23.710606],[121.300697,23.710241],[121.300991,23.710244],[121.301281,23.710608],[121.301085,23.710606]],[[121.301575,23.710612],[121.301379,23.710609],[121.30138,23.710519],[121.301576,23.710521],[121.301575,23.710612]],[[121.29815,23.710032],[121.298248,23.710033],[121.298252,23.709762],[121.29835,23.709763],[121.298444,23.710035],[121.298542,23.710037],[121.298539,23.710307],[121.298245,23.710304],[121.29815,23.710032]],[[121.306187,23.710391],[121.305991,23.710389],[121.305992,23.710299],[121.306188,23.710301],[121.306187,23.710391]],[[121.307477,23.709232],[121.307475,23.709412],[121.307573,23.709413],[121.30747,23.709773],[121.307861,23.709868],[121.307858,23.710139],[121.307956,23.71014],[121.30805,23.710412],[121.307562,23.710226],[121.307566,23.709955],[121.307274,23.709771],[121.307376,23.709501],[121.307182,23.709319],[121.307477,23.709232]],[[121.306986,23.709316],[121.306404,23.708768],[121.306208,23.708766],[121.306112,23.708584],[121.305719,23.70867],[121.305818,23.708581],[121.305723,23.7084],[121.306312,23.708316],[121.306407,23.708588],[121.3067,23.708681],[121.306696,23.708952],[121.307087,23.709047],[121.307182,23.709319],[121.306986,23.709316]],[[121.298051,23.710121],[121.297952,23.710211],[121.297953,23.71012],[121.298051,23.710121]],[[121.305307,23.710201],[121.305208,23.71029],[121.305209,23.7102],[121.305307,23.710201]],[[121.305702,23.710025],[121.305897,23.710117],[121.305895,23.710207],[121.305699,23.710205],[121.305702,23.710025]],[[121.305604,23.710024],[121.305504,23.710113],[121.305505,23.710023],[121.305604,23.710024]],[[121.306095,23.709939],[121.305804,23.709665],[121.306,23.709667],[121.306095,23.709939]],[[121.301294,23.709615],[121.301195,23.709704],[121.301196,23.709614],[121.301294,23.709615]],[[121.308258,23.709511],[121.308454,23.709513],[121.308452,23.709694],[121.308354,23.709693],[121.308258,23.709511]],[[121.306394,23.709581],[121.306296,23.70958],[121.306298,23.709399],[121.306396,23.7094],[121.306394,23.709581]],[[121.308846,23.709517],[121.308747,23.709607],[121.308748,23.709516],[121.308846,23.709517]],[[121.309237,23.709612],[121.309041,23.70961],[121.309042,23.70952],[121.309239,23.709522],[121.309237,23.709612]],[[121.302477,23.709086],[121.302378,23.709176],[121.302379,23.709085],[121.302477,23.709086]],[[121.306009,23.709035],[121.305812,23.709033],[121.305814,23.708942],[121.30601,23.708945],[121.306009,23.709035]],[[121.302774,23.708909],[121.302677,23.708818],[121.302581,23.708636],[121.302777,23.708638],[121.30297,23.708911],[121.302774,23.708909]],[[121.302971,23.708821],[121.30307,23.708732],[121.303069,23.708822],[121.302971,23.708821]],[[121.303267,23.708734],[121.303167,23.708823],[121.303168,23.708733],[121.303267,23.708734]],[[121.303463,23.708736],[121.303363,23.708825],[121.303365,23.708735],[121.303463,23.708736]],[[121.303952,23.708832],[121.303855,23.70874],[121.303953,23.708741],[121.303952,23.708832]],[[121.303855,23.70874],[121.303758,23.708649],[121.303856,23.70865],[121.303855,23.70874]],[[121.309054,23.708617],[121.309249,23.708709],[121.309248,23.708799],[121.309052,23.708797],[121.309054,23.708617]],[[121.304248,23.708654],[121.304151,23.708563],[121.304249,23.708564],[121.304248,23.708654]],[[121.304151,23.708563],[121.304054,23.708472],[121.304153,23.708473],[121.304151,23.708563]],[[121.302392,23.708092],[121.302393,23.708002],[121.302589,23.708004],[121.302782,23.708277],[121.303076,23.70828],[121.303171,23.708552],[121.302977,23.70837],[121.302683,23.708366],[121.302587,23.708185],[121.302097,23.708179],[121.302001,23.707998],[121.302392,23.708092]],[[121.302001,23.707998],[121.301904,23.707906],[121.302002,23.707907],[121.302001,23.707998]],[[121.308074,23.708606],[121.307977,23.708515],[121.308075,23.708516],[121.308074,23.708606]],[[121.307977,23.708515],[121.307685,23.708331],[121.307687,23.70815],[121.307981,23.708153],[121.307977,23.708515]],[[121.303567,23.708286],[121.303467,23.708375],[121.303468,23.708285],[121.303567,23.708286]],[[121.304942,23.70812],[121.304842,23.708209],[121.304844,23.708119],[121.304942,23.70812]],[[121.301022,23.707897],[121.300923,23.707986],[121.300924,23.707895],[121.301022,23.707897]],[[121.306611,23.707958],[121.306512,23.708047],[121.306513,23.707957],[121.306611,23.707958]],[[121.302201,23.707729],[121.302595,23.707553],[121.302886,23.707827],[121.302592,23.707824],[121.302591,23.707914],[121.3022,23.707819],[121.302201,23.707729]],[[121.302201,23.707729],[121.302104,23.707638],[121.302202,23.707639],[121.302201,23.707729]],[[121.305533,23.707856],[121.305828,23.707859],[121.305826,23.707949],[121.305532,23.707946],[121.305533,23.707856]],[[121.305828,23.707859],[121.305927,23.70777],[121.305926,23.70786],[121.305828,23.707859]],[[121.301318,23.707719],[121.301219,23.707808],[121.30122,23.707718],[121.301318,23.707719]],[[121.301614,23.707632],[121.301514,23.707721],[121.301516,23.707631],[121.301614,23.707632]],[[121.301235,23.706544],[121.301527,23.706728],[121.301525,23.706909],[121.301427,23.706908],[121.30152,23.70727],[121.301226,23.707267],[121.301126,23.707446],[121.300832,23.707443],[121.300735,23.707352],[121.300835,23.707172],[121.301031,23.707174],[121.30103,23.707265],[121.301227,23.707176],[121.301132,23.706995],[121.301032,23.707084],[121.300836,23.707082],[121.300837,23.706992],[121.301134,23.706814],[121.301235,23.706544]],[[121.301136,23.706634],[121.301039,23.706542],[121.301137,23.706543],[121.301136,23.706634]],[[121.301336,23.706365],[121.301434,23.706366],[121.301432,23.706547],[121.301333,23.706546],[121.301336,23.706365]],[[121.305252,23.706859],[121.305154,23.706858],[121.305156,23.706678],[121.305453,23.7065],[121.30555,23.706592],[121.305449,23.706771],[121.305837,23.707137],[121.305639,23.707315],[121.305344,23.707312],[121.305252,23.706859]],[[121.301816,23.707183],[121.301619,23.707181],[121.301621,23.70709],[121.301817,23.707093],[121.301816,23.707183]],[[121.303189,23.707108],[121.30309,23.707197],[121.303091,23.707107],[121.303189,23.707108]],[[121.300842,23.70663],[121.300743,23.70672],[121.300744,23.706629],[121.300842,23.70663]],[[121.305843,23.706685],[121.305745,23.706684],[121.305747,23.706504],[121.305845,23.706505],[121.305843,23.706685]],[[121.300849,23.706089],[121.301046,23.706001],[121.301045,23.706091],[121.301339,23.706094],[121.301338,23.706184],[121.300945,23.70627],[121.300849,23.706089]],[[121.301441,23.705824],[121.301342,23.705913],[121.301343,23.705823],[121.301441,23.705824]],[[121.301644,23.705285],[121.301545,23.705374],[121.301546,23.705284],[121.301644,23.705285]],[[121.301939,23.705198],[121.30184,23.705287],[121.301841,23.705197],[121.301939,23.705198]],[[121.301941,23.705107],[121.301747,23.704925],[121.301848,23.704655],[121.301655,23.704472],[121.301851,23.704474],[121.301849,23.704565],[121.302341,23.70448],[121.302337,23.704751],[121.30214,23.704839],[121.302138,23.705019],[121.301941,23.705107]],[[121.302725,23.705116],[121.302627,23.705115],[121.302629,23.704934],[121.302727,23.704935],[121.302725,23.705116]],[[121.297828,23.704611],[121.297632,23.704609],[121.297633,23.704518],[121.297829,23.70452],[121.297828,23.704611]],[[121.296854,23.704148],[121.296754,23.704238],[121.296755,23.704147],[121.296854,23.704148]],[[121.297148,23.704152],[121.297048,23.704241],[121.29705,23.704151],[121.297148,23.704152]],[[121.300092,23.704003],[121.299992,23.704093],[121.299994,23.704002],[121.300092,23.704003]],[[121.297053,23.70388],[121.296954,23.703969],[121.296955,23.703879],[121.297053,23.70388]],[[121.299895,23.704001],[121.299799,23.70391],[121.299897,23.703911],[121.299895,23.704001]],[[121.299701,23.703909],[121.299704,23.703638],[121.299802,23.703639],[121.299799,23.70391],[121.299701,23.703909]],[[121.297263,23.702798],[121.297164,23.702888],[121.297165,23.702797],[121.297263,23.702798]],[[121.29923,23.702369],[121.299425,23.702461],[121.299424,23.702551],[121.299228,23.702549],[121.29923,23.702369]],[[121.297857,23.702354],[121.297567,23.702079],[121.297763,23.702082],[121.297857,23.702354]],[[121.297178,23.701804],[121.297273,23.702076],[121.297077,23.702074],[121.29708,23.701803],[121.297178,23.701804]],[[121.298551,23.701819],[121.298454,23.701728],[121.298552,23.701729],[121.298551,23.701819]],[[121.298258,23.701726],[121.298259,23.701636],[121.298455,23.701638],[121.298454,23.701728],[121.298258,23.701726]],[[121.306694,23.701547],[121.306398,23.701635],[121.306399,23.701544],[121.306105,23.701541],[121.306106,23.701451],[121.306305,23.701272],[121.306499,23.701455],[121.306793,23.701458],[121.306893,23.701279],[121.307185,23.701463],[121.307183,23.701643],[121.306987,23.701641],[121.306985,23.701731],[121.306789,23.701729],[121.306694,23.701547]],[[121.304174,23.699262],[121.304074,23.699352],[121.304075,23.699261],[121.304174,23.699262]],[[121.308393,23.699038],[121.308294,23.699127],[121.308295,23.699037],[121.308393,23.699038]]],[[[121.309968,23.713774],[121.310363,23.713597],[121.310273,23.712964],[121.310079,23.712782],[121.309882,23.71287],[121.309878,23.713141],[121.310072,23.713323],[121.309873,23.713592],[121.309776,23.713501],[121.309187,23.713494],[121.309088,23.713584],[121.309184,23.713765],[121.309772,23.713772],[121.309773,23.713681],[121.30997,23.713683],[121.309968,23.713774]]],[[[121.295388,23.718851],[121.295587,23.718582],[121.295295,23.718399],[121.295193,23.718759],[121.295388,23.718851]]],[[[121.280662,23.719952],[121.280563,23.720041],[121.280661,23.720043],[121.280662,23.719952]]],[[[121.284665,23.721351],[121.284569,23.72117],[121.284372,23.721258],[121.284467,23.721439],[121.284665,23.721351]]],[[[121.306297,23.72466],[121.306295,23.72484],[121.305806,23.724745],[121.305508,23.725012],[121.305312,23.72501],[121.305313,23.72492],[121.305116,23.725008],[121.305598,23.725645],[121.306186,23.725652],[121.306283,23.725743],[121.306679,23.725477],[121.306682,23.725206],[121.307077,23.72503],[121.306982,23.724758],[121.306884,23.724757],[121.306988,23.724306],[121.3065,23.72412],[121.306501,23.72403],[121.306304,23.724118],[121.306301,23.724389],[121.306496,23.724481],[121.306297,23.72466]],[[121.306494,23.724572],[121.306591,23.724663],[121.306493,23.724662],[121.306494,23.724572]]],[[[121.305685,23.726459],[121.306372,23.726467],[121.306469,23.726558],[121.30657,23.726288],[121.306472,23.726287],[121.306378,23.726015],[121.305987,23.725921],[121.305985,23.726011],[121.305691,23.726008],[121.305295,23.726274],[121.305389,23.726636],[121.305585,23.726639],[121.305685,23.726459]]],[[[121.303313,23.727878],[121.30263,23.727599],[121.302631,23.727509],[121.302927,23.727422],[121.302929,23.727242],[121.302735,23.727059],[121.302538,23.727147],[121.302535,23.727328],[121.302339,23.727325],[121.301951,23.72705],[121.301851,23.727139],[121.301944,23.727592],[121.301847,23.727501],[121.301649,23.727589],[121.301841,23.727952],[121.302135,23.727955],[121.302134,23.728045],[121.302428,23.728049],[121.302427,23.728139],[121.303211,23.728148],[121.303313,23.727878]]]]}},{"type":"Feature","properties":{"kind":"bare_dam","month":"2025-10","area_ha":156.19},"geometry":{"type":"MultiPolygon","coordinates":[[[[121.313557,23.686362],[121.31346,23.68627],[121.313459,23.686361],[121.313557,23.686362]]],[[[121.310971,23.689223],[121.311266,23.689136],[121.311267,23.689046],[121.311465,23.688958],[121.31137,23.688686],[121.311174,23.688684],[121.311075,23.688773],[121.31117,23.688954],[121.310875,23.689042],[121.310971,23.689223]]],[[[121.297168,23.695032],[121.296771,23.695389],[121.295984,23.69556],[121.295884,23.69574],[121.295002,23.69573],[121.294901,23.69591],[121.294215,23.695902],[121.294115,23.696082],[121.293624,23.696076],[121.293524,23.696256],[121.292838,23.696248],[121.29254,23.696516],[121.292536,23.696787],[121.292339,23.696875],[121.292326,23.697868],[121.292521,23.69796],[121.292518,23.698231],[121.292616,23.698232],[121.292514,23.698502],[121.293,23.698869],[121.293085,23.699863],[121.292987,23.699862],[121.292983,23.700133],[121.292885,23.700132],[121.292877,23.700764],[121.293458,23.701312],[121.293948,23.701317],[121.294044,23.701499],[121.295809,23.701518],[121.295909,23.701339],[121.296302,23.701343],[121.2966,23.700985],[121.296796,23.700987],[121.296897,23.700808],[121.297191,23.700811],[121.297293,23.700541],[121.297,23.700448],[121.297001,23.700358],[121.296804,23.700446],[121.2968,23.700717],[121.296606,23.700534],[121.296312,23.700531],[121.296313,23.70044],[121.296018,23.700527],[121.295824,23.700345],[121.294253,23.700508],[121.294159,23.700236],[121.294748,23.700152],[121.294749,23.700062],[121.294945,23.700064],[121.295144,23.699886],[121.295438,23.699889],[121.295439,23.699799],[121.295732,23.699892],[121.295731,23.699982],[121.295928,23.699894],[121.296024,23.700076],[121.296319,23.699989],[121.296415,23.70017],[121.296611,23.700173],[121.296811,23.699904],[121.297105,23.699907],[121.297205,23.699728],[121.297499,23.699731],[121.2975,23.699641],[121.298872,23.699746],[121.298971,23.699657],[121.298875,23.699475],[121.299168,23.699569],[121.299566,23.699122],[121.299858,23.699305],[121.300059,23.698946],[121.300552,23.698771],[121.300652,23.698592],[121.300554,23.698591],[121.300461,23.698228],[121.300654,23.698411],[121.300853,23.698233],[121.301147,23.698236],[121.301246,23.698147],[121.301152,23.697875],[121.30135,23.697696],[121.301743,23.69761],[121.302041,23.697343],[121.302043,23.697162],[121.302239,23.697164],[121.30214,23.697254],[121.302236,23.697435],[121.302039,23.697523],[121.302036,23.697704],[121.301937,23.697793],[121.301742,23.697701],[121.301641,23.69797],[121.300848,23.698594],[121.300943,23.698866],[121.300744,23.699044],[121.300548,23.699042],[121.300448,23.699222],[121.300252,23.699219],[121.30015,23.699489],[121.299854,23.699667],[121.299949,23.699848],[121.299458,23.699933],[121.29906,23.70038],[121.29935,23.700654],[121.301998,23.700683],[121.301999,23.700593],[121.302194,23.700685],[121.302294,23.700506],[121.302686,23.70051],[121.303579,23.699707],[121.303584,23.699346],[121.303781,23.699258],[121.303785,23.698987],[121.303982,23.698899],[121.303988,23.698448],[121.304185,23.69836],[121.304191,23.697908],[121.305182,23.697106],[121.304891,23.696832],[121.304994,23.696472],[121.305287,23.696566],[121.305382,23.696838],[121.305481,23.696748],[121.306167,23.696756],[121.306267,23.696576],[121.306856,23.696583],[121.306955,23.696494],[121.306964,23.695771],[121.307162,23.695683],[121.306968,23.6955],[121.306983,23.694327],[121.307975,23.693435],[121.308269,23.693438],[121.30837,23.693258],[121.308664,23.693261],[121.308764,23.693082],[121.30896,23.693084],[121.308962,23.692904],[121.309454,23.692819],[121.309455,23.692728],[121.309946,23.692643],[121.309947,23.692553],[121.310242,23.692556],[121.310342,23.692377],[121.310734,23.692381],[121.311528,23.691667],[121.311535,23.691126],[121.311732,23.691037],[121.311736,23.690767],[121.311933,23.690678],[121.311936,23.690408],[121.312133,23.690319],[121.312137,23.690049],[121.312334,23.68996],[121.312338,23.68969],[121.313527,23.688709],[121.313535,23.688077],[121.312947,23.688071],[121.312948,23.687981],[121.312459,23.687885],[121.312458,23.687975],[121.312162,23.688062],[121.31216,23.688243],[121.311865,23.68833],[121.312059,23.688513],[121.312055,23.688784],[121.311859,23.688781],[121.311861,23.688601],[121.311666,23.688508],[121.311567,23.688598],[121.31166,23.68905],[121.311365,23.689047],[121.310967,23.689494],[121.310774,23.689311],[121.310478,23.689398],[121.310481,23.689218],[121.310876,23.688951],[121.310782,23.688679],[121.311078,23.688502],[121.310981,23.688411],[121.311083,23.688141],[121.311378,23.688054],[121.311479,23.687874],[121.311771,23.687968],[121.311874,23.687608],[121.312168,23.687611],[121.312068,23.68779],[121.312361,23.687884],[121.312462,23.687614],[121.31256,23.687615],[121.312466,23.687343],[121.312859,23.687257],[121.312862,23.687077],[121.312474,23.686711],[121.312278,23.686709],[121.312182,23.686527],[121.311888,23.686524],[121.311887,23.686614],[121.311693,23.686432],[121.311202,23.686517],[121.311016,23.685702],[121.311404,23.686067],[121.3116,23.68607],[121.311696,23.686251],[121.312188,23.686076],[121.312187,23.686166],[121.312773,23.686353],[121.312965,23.686626],[121.313259,23.686629],[121.313452,23.686902],[121.313156,23.68708],[121.313153,23.68726],[121.313347,23.687443],[121.313544,23.687355],[121.313738,23.687538],[121.313749,23.686725],[121.313361,23.68636],[121.313461,23.68618],[121.312783,23.685541],[121.312391,23.685536],[121.312295,23.685355],[121.312001,23.685352],[121.311906,23.68517],[121.311611,23.685167],[121.311516,23.684985],[121.310829,23.684978],[121.310531,23.685335],[121.310335,23.685333],[121.310141,23.685151],[121.309749,23.685146],[121.309647,23.685416],[121.309549,23.685415],[121.309543,23.685867],[121.309347,23.685864],[121.309253,23.685592],[121.308762,23.685587],[121.308365,23.686034],[121.30826,23.686575],[121.307466,23.687289],[121.307172,23.687285],[121.306675,23.687822],[121.30638,23.687819],[121.30618,23.688178],[121.305984,23.688175],[121.305587,23.688532],[121.305195,23.688528],[121.305092,23.688888],[121.304896,23.688886],[121.304895,23.688976],[121.304014,23.688876],[121.303913,23.689056],[121.30352,23.689142],[121.30332,23.68941],[121.303125,23.689318],[121.303025,23.689497],[121.303219,23.68968],[121.302529,23.689944],[121.302429,23.690123],[121.30194,23.690027],[121.301941,23.689937],[121.30145,23.689932],[121.301351,23.690021],[121.301061,23.689747],[121.30057,23.689741],[121.300764,23.689924],[121.300565,23.690193],[121.300272,23.690099],[121.300171,23.690279],[121.299877,23.690276],[121.299876,23.690366],[121.299681,23.690273],[121.299581,23.690453],[121.29909,23.690448],[121.298898,23.690175],[121.299196,23.689907],[121.299783,23.690004],[121.299784,23.689913],[121.300078,23.689917],[121.300079,23.689826],[121.300274,23.689919],[121.300472,23.68974],[121.299394,23.689729],[121.299393,23.689819],[121.298708,23.689721],[121.298607,23.6899],[121.298117,23.689895],[121.297522,23.69043],[121.297514,23.691062],[121.297709,23.691155],[121.2977,23.691787],[121.297798,23.691788],[121.297889,23.692331],[121.298083,23.692513],[121.298377,23.692517],[121.298374,23.692787],[121.298569,23.69288],[121.298566,23.693061],[121.29827,23.693238],[121.298363,23.6936],[121.29767,23.694134],[121.297666,23.694405],[121.29747,23.694403],[121.297366,23.694853],[121.297561,23.694946],[121.297663,23.694676],[121.29776,23.694767],[121.298153,23.694681],[121.298343,23.695135],[121.298443,23.695046],[121.299031,23.695052],[121.29903,23.695142],[121.299324,23.695146],[121.299518,23.695328],[121.299812,23.695332],[121.299904,23.695784],[121.300003,23.695695],[121.300394,23.69579],[121.300593,23.695611],[121.300595,23.695431],[121.300401,23.695248],[121.3005,23.695159],[121.300695,23.695251],[121.300796,23.695072],[121.30109,23.695075],[121.300991,23.695164],[121.301084,23.695526],[121.30079,23.695523],[121.300492,23.695791],[121.30088,23.696156],[121.300772,23.696877],[121.300574,23.697056],[121.300668,23.697328],[121.300374,23.697324],[121.300278,23.697143],[121.300082,23.697141],[121.299695,23.696775],[121.299595,23.696955],[121.299693,23.696956],[121.299786,23.697318],[121.299687,23.697407],[121.299491,23.697405],[121.299492,23.697315],[121.299196,23.697402],[121.299487,23.697676],[121.299485,23.697856],[121.299386,23.697946],[121.298895,23.69794],[121.298702,23.697758],[121.298705,23.697487],[121.29851,23.697394],[121.298515,23.697033],[121.297833,23.696664],[121.298032,23.696486],[121.298034,23.696305],[121.297936,23.696304],[121.298039,23.695944],[121.29765,23.695669],[121.29785,23.6954],[121.297753,23.695309],[121.297555,23.695397],[121.297363,23.695124],[121.297166,23.695212],[121.297168,23.695032]],[[121.296811,23.699904],[121.296714,23.699813],[121.296812,23.699814],[121.296811,23.699904]],[[121.299566,23.699122],[121.29947,23.69903],[121.299568,23.699031],[121.299566,23.699122]],[[121.302239,23.697164],[121.302339,23.697075],[121.302342,23.696804],[121.302832,23.69681],[121.302436,23.697166],[121.302239,23.697164]],[[121.301937,23.697793],[121.302034,23.697884],[121.301936,23.697883],[121.301937,23.697793]],[[121.301999,23.700593],[121.301902,23.700502],[121.302,23.700503],[121.301999,23.700593]],[[121.310679,23.689039],[121.310582,23.688948],[121.31068,23.688949],[121.310679,23.689039]],[[121.310782,23.688679],[121.310685,23.688588],[121.310783,23.688589],[121.310782,23.688679]],[[121.311182,23.688052],[121.311085,23.68796],[121.311183,23.687961],[121.311182,23.688052]],[[121.297166,23.695212],[121.297066,23.695301],[121.297068,23.695211],[121.297166,23.695212]],[[121.293172,23.700677],[121.293269,23.700768],[121.293171,23.700767],[121.293172,23.700677]],[[121.292978,23.700494],[121.293075,23.700585],[121.292977,23.700584],[121.292978,23.700494]],[[121.293959,23.700505],[121.294056,23.700596],[121.293958,23.700595],[121.293959,23.700505]],[[121.300627,23.700488],[121.300827,23.700219],[121.301119,23.700403],[121.30092,23.700581],[121.300627,23.700488]],[[121.300138,23.700392],[121.299848,23.700118],[121.300144,23.699941],[121.300337,23.700214],[121.300138,23.700392]],[[121.3021,23.700323],[121.302197,23.700415],[121.302099,23.700414],[121.3021,23.700323]],[[121.302395,23.700326],[121.302492,23.700418],[121.302393,23.700417],[121.302395,23.700326]],[[121.3022,23.700234],[121.302103,23.700143],[121.302201,23.700144],[121.3022,23.700234]],[[121.302201,23.700144],[121.3023,23.700055],[121.302299,23.700145],[121.302201,23.700144]],[[121.296421,23.699719],[121.29642,23.699809],[121.296222,23.699897],[121.296225,23.699717],[121.296421,23.699719]],[[121.294656,23.6997],[121.294753,23.699791],[121.294655,23.69979],[121.294656,23.6997]],[[121.295934,23.699443],[121.295933,23.699533],[121.295737,23.699531],[121.295738,23.699441],[121.295934,23.699443]],[[121.3029,23.699158],[121.302997,23.69925],[121.302899,23.699248],[121.3029,23.699158]],[[121.302705,23.699066],[121.302802,23.699157],[121.302704,23.699156],[121.302705,23.699066]],[[121.301335,23.69887],[121.301332,23.699051],[121.301234,23.69905],[121.30114,23.698778],[121.301335,23.69887]],[[121.301241,23.698508],[121.301438,23.69851],[121.301336,23.69878],[121.301238,23.698779],[121.301241,23.698508]],[[121.303297,23.698801],[121.303394,23.698893],[121.303296,23.698892],[121.303297,23.698801]],[[121.293791,23.698336],[121.294188,23.697979],[121.294384,23.697981],[121.294673,23.698345],[121.294475,23.698524],[121.293985,23.698518],[121.293791,23.698336]],[[121.293792,23.698245],[121.293695,23.698154],[121.293793,23.698155],[121.293792,23.698245]],[[121.296241,23.698453],[121.29595,23.698179],[121.296247,23.698001],[121.296439,23.698274],[121.296241,23.698453]],[[121.301833,23.698243],[121.301832,23.698334],[121.301538,23.698331],[121.301539,23.69824],[121.301833,23.698243]],[[121.300073,23.697863],[121.300071,23.698044],[121.299973,23.698042],[121.299975,23.697862],[121.300073,23.697863]],[[121.296152,23.69773],[121.295666,23.697453],[121.295672,23.697002],[121.296068,23.696645],[121.296264,23.696647],[121.296365,23.696468],[121.297346,23.696388],[121.297637,23.696662],[121.297439,23.696841],[121.297434,23.697202],[121.297336,23.697201],[121.297332,23.697472],[121.297134,23.69765],[121.296938,23.697648],[121.296939,23.697558],[121.296351,23.697551],[121.296152,23.69773]],[[121.304107,23.696824],[121.304105,23.697004],[121.304007,23.697003],[121.304009,23.696823],[121.304107,23.696824]],[[121.302742,23.696177],[121.302839,23.696268],[121.302741,23.696267],[121.302742,23.696177]],[[121.303528,23.696095],[121.303428,23.696274],[121.303232,23.696272],[121.303332,23.696093],[121.303528,23.696095]],[[121.303528,23.696095],[121.303627,23.696006],[121.303626,23.696096],[121.303528,23.696095]],[[121.303038,23.696089],[121.303135,23.696181],[121.303037,23.69618],[121.303038,23.696089]],[[121.296374,23.695745],[121.296471,23.695837],[121.296373,23.695836],[121.296374,23.695745]],[[121.305692,23.695577],[121.305401,23.695303],[121.305698,23.695125],[121.30589,23.695398],[121.305692,23.695577]],[[121.304517,23.695474],[121.30442,23.695382],[121.304518,23.695383],[121.304517,23.695474]],[[121.304518,23.695383],[121.304617,23.695294],[121.304616,23.695384],[121.304518,23.695383]],[[121.304715,23.695295],[121.30452,23.695203],[121.304622,23.694933],[121.304818,23.694935],[121.305017,23.694666],[121.305114,23.694758],[121.305508,23.694672],[121.305406,23.694942],[121.305112,23.694938],[121.304715,23.695295]],[[121.305508,23.694672],[121.305607,23.694583],[121.305606,23.694673],[121.305508,23.694672]],[[121.30413,23.695018],[121.304227,23.695109],[121.304129,23.695108],[121.30413,23.695018]],[[121.306594,23.694052],[121.306396,23.69423],[121.306881,23.694596],[121.306682,23.694865],[121.306101,23.694317],[121.305808,23.694224],[121.305714,23.693861],[121.305812,23.693862],[121.305819,23.693321],[121.305917,23.693322],[121.305823,23.69305],[121.306914,23.692068],[121.307107,23.692341],[121.30691,23.692339],[121.306515,23.692606],[121.306707,23.692879],[121.30641,23.693147],[121.306506,23.693328],[121.306308,23.693416],[121.306305,23.693687],[121.306109,23.693685],[121.30611,23.693595],[121.305913,23.693683],[121.306008,23.693865],[121.306108,23.693775],[121.306597,23.693871],[121.306594,23.694052]],[[121.306121,23.692692],[121.306025,23.692601],[121.306123,23.692602],[121.306121,23.692692]],[[121.306914,23.692068],[121.307013,23.691979],[121.307012,23.69207],[121.306914,23.692068]],[[121.307013,23.691979],[121.307112,23.69189],[121.307111,23.69198],[121.307013,23.691979]],[[121.306597,23.693871],[121.306696,23.693782],[121.306695,23.693872],[121.306597,23.693871]],[[121.299039,23.69442],[121.299136,23.694512],[121.299038,23.69451],[121.299039,23.69442]],[[121.305217,23.694398],[121.305117,23.694577],[121.30492,23.694575],[121.305021,23.694396],[121.305217,23.694398]],[[121.305217,23.694398],[121.305316,23.694308],[121.305315,23.694399],[121.305217,23.694398]],[[121.305316,23.694308],[121.305415,23.694219],[121.305414,23.69431],[121.305316,23.694308]],[[121.297962,23.694318],[121.298059,23.694409],[121.297961,23.694408],[121.297962,23.694318]],[[121.299141,23.69415],[121.299045,23.693969],[121.299341,23.693791],[121.299535,23.693974],[121.299533,23.694155],[121.299434,23.694244],[121.299141,23.69415]],[[121.304735,23.69376],[121.304734,23.693851],[121.304538,23.693848],[121.304539,23.693758],[121.304735,23.69376]],[[121.299541,23.693523],[121.29925,23.693249],[121.299546,23.693162],[121.29964,23.693434],[121.299541,23.693523]],[[121.304836,23.693491],[121.304933,23.693582],[121.304835,23.693581],[121.304836,23.693491]],[[121.305429,23.693136],[121.305624,23.693228],[121.305622,23.693409],[121.305426,23.693407],[121.305429,23.693136]],[[121.300136,23.692987],[121.300039,23.692896],[121.299646,23.692982],[121.299452,23.692799],[121.299455,23.692619],[121.299653,23.69244],[121.299849,23.692443],[121.30043,23.692991],[121.300428,23.693171],[121.300134,23.693168],[121.300136,23.692987]],[[121.303473,23.692753],[121.303379,23.692481],[121.303575,23.692483],[121.303576,23.692393],[121.303772,23.692395],[121.303868,23.692577],[121.303967,23.692488],[121.304162,23.69258],[121.303864,23.692848],[121.303473,23.692753]],[[121.301907,23.692555],[121.302004,23.692647],[121.301906,23.692646],[121.301907,23.692555]],[[121.299067,23.692253],[121.299167,23.692074],[121.299364,23.692076],[121.299556,23.692349],[121.299358,23.692527],[121.299162,23.692525],[121.299165,23.692254],[121.299067,23.692253]],[[121.307306,23.692073],[121.307403,23.692164],[121.307305,23.692163],[121.307306,23.692073]],[[121.299759,23.691809],[121.299856,23.691901],[121.299953,23.691992],[121.299757,23.69199],[121.299759,23.691809]],[[121.299466,23.691716],[121.299563,23.691807],[121.299465,23.691806],[121.299466,23.691716]],[[121.302021,23.691292],[121.302319,23.691025],[121.302803,23.691482],[121.302507,23.691659],[121.302411,23.691477],[121.302215,23.691475],[121.302021,23.691292]],[[121.301826,23.6912],[121.301726,23.69138],[121.301434,23.691196],[121.301438,23.690925],[121.301146,23.690741],[121.301345,23.690472],[121.302024,23.691112],[121.302022,23.691202],[121.301826,23.6912]],[[121.308096,23.69163],[121.308193,23.691721],[121.308095,23.69172],[121.308096,23.69163]],[[121.30839,23.691633],[121.308393,23.691453],[121.308491,23.691454],[121.308488,23.691634],[121.30839,23.691633]],[[121.308491,23.691454],[121.30859,23.691364],[121.308589,23.691455],[121.308491,23.691454]],[[121.308591,23.691274],[121.308886,23.691187],[121.308982,23.691369],[121.30859,23.691364],[121.308591,23.691274]],[[121.298687,23.691346],[121.298587,23.691435],[121.298589,23.691345],[121.298687,23.691346]],[[121.298589,23.691345],[121.298492,23.691254],[121.29859,23.691255],[121.298589,23.691345]],[[121.298493,23.691163],[121.298392,23.691343],[121.298294,23.691342],[121.298297,23.691161],[121.298493,23.691163]],[[121.305946,23.691065],[121.30555,23.691421],[121.305161,23.691146],[121.30566,23.690429],[121.305952,23.690613],[121.305949,23.690884],[121.306047,23.690885],[121.306044,23.691066],[121.305946,23.691065]],[[121.305846,23.691244],[121.305943,23.691335],[121.305845,23.691334],[121.305846,23.691244]],[[121.309476,23.691103],[121.309478,23.690923],[121.309576,23.690924],[121.309574,23.691104],[121.309476,23.691103]],[[121.309579,23.690743],[121.309677,23.690744],[121.309674,23.690925],[121.309576,23.690924],[121.309579,23.690743]],[[121.309185,23.690829],[121.309282,23.69092],[121.309184,23.690919],[121.309185,23.690829]],[[121.306837,23.690442],[121.30684,23.690171],[121.307039,23.689993],[121.307235,23.689995],[121.307233,23.690176],[121.307426,23.690358],[121.307228,23.690537],[121.306837,23.690442]],[[121.309875,23.690566],[121.309778,23.690474],[121.309876,23.690475],[121.309875,23.690566]],[[121.309876,23.690475],[121.309975,23.690386],[121.309974,23.690476],[121.309876,23.690475]],[[121.309975,23.690386],[121.310075,23.690297],[121.310073,23.690387],[121.309975,23.690386]],[[121.301154,23.690109],[121.301251,23.6902],[121.301153,23.690199],[121.301154,23.690109]],[[121.30998,23.690025],[121.310077,23.690116],[121.309979,23.690115],[121.30998,23.690025]],[[121.310278,23.689757],[121.310275,23.689938],[121.310177,23.689937],[121.31018,23.689756],[121.310278,23.689757]],[[121.310471,23.68994],[121.310474,23.68976],[121.310572,23.689761],[121.310569,23.689941],[121.310471,23.68994]],[[121.310572,23.689761],[121.310671,23.689671],[121.31067,23.689762],[121.310572,23.689761]],[[121.306553,23.689626],[121.30665,23.689718],[121.306552,23.689717],[121.306553,23.689626]],[[121.310085,23.689484],[121.310182,23.689576],[121.310084,23.689575],[121.310085,23.689484]],[[121.308029,23.689281],[121.307738,23.689007],[121.308034,23.68883],[121.308227,23.689103],[121.308029,23.689281]],[[121.308917,23.68884],[121.308725,23.688476],[121.308528,23.688564],[121.308334,23.688382],[121.308435,23.688202],[121.308924,23.688298],[121.309019,23.688479],[121.309312,23.688573],[121.30921,23.688933],[121.308917,23.68884]],[[121.313333,23.688527],[121.31343,23.688618],[121.313332,23.688617],[121.313333,23.688527]],[[121.309903,23.688399],[121.309902,23.688489],[121.309706,23.688487],[121.309707,23.688397],[121.309903,23.688399]],[[121.309416,23.688123],[121.309513,23.688214],[121.309415,23.688213],[121.309416,23.688123]],[[121.308835,23.687574],[121.308836,23.687484],[121.309032,23.687486],[121.309128,23.687668],[121.308835,23.687574]],[[121.310894,23.687597],[121.310991,23.687688],[121.310893,23.687687],[121.310894,23.687597]],[[121.310824,23.685429],[121.31092,23.68552],[121.310822,23.685519],[121.310824,23.685429]]],[[[121.297488,23.700634],[121.297686,23.700455],[121.298372,23.700463],[121.298373,23.700373],[121.298568,23.700465],[121.298767,23.700287],[121.298769,23.700106],[121.298476,23.700013],[121.298477,23.699922],[121.298378,23.700011],[121.297888,23.700006],[121.297689,23.700185],[121.297687,23.700365],[121.29749,23.700453],[121.297488,23.700634]]]]}},{"type":"Feature","properties":{"kind":"water","month":"2025-10","area_ha":20.27},"geometry":{"type":"MultiPolygon","coordinates":[[[[121.300763,23.690014],[121.300667,23.689833],[121.300568,23.689922],[121.300078,23.689917],[121.300369,23.690191],[121.300565,23.690193],[121.300763,23.690014]]],[[[121.283198,23.690995],[121.283201,23.690814],[121.283006,23.690722],[121.283009,23.690451],[121.282517,23.690626],[121.282711,23.690809],[121.282708,23.690989],[121.283001,23.691083],[121.283096,23.691355],[121.28339,23.691358],[121.283392,23.691177],[121.283198,23.690995]]],[[[121.278198,23.690939],[121.278195,23.69121],[121.278489,23.691213],[121.278491,23.691033],[121.278198,23.690939]]],[[[121.279567,23.691225],[121.27967,23.690865],[121.279372,23.691133],[121.278685,23.691215],[121.278585,23.691395],[121.279173,23.691401],[121.279174,23.691311],[121.279567,23.691225]]],[[[121.278488,23.691303],[121.278587,23.691214],[121.278489,23.691213],[121.278488,23.691303]]],[[[121.284644,23.692907],[121.284648,23.692636],[121.284259,23.692361],[121.284262,23.69218],[121.283584,23.691541],[121.283289,23.691537],[121.283869,23.692176],[121.284065,23.692178],[121.284061,23.692539],[121.284449,23.692814],[121.284542,23.693267],[121.284735,23.69345],[121.28484,23.692909],[121.284644,23.692907]]],[[[121.285116,23.694357],[121.285019,23.694265],[121.285018,23.694356],[121.285116,23.694357]]],[[[121.285301,23.695172],[121.285497,23.695174],[121.285495,23.695354],[121.28569,23.695447],[121.285693,23.695176],[121.285403,23.694902],[121.285407,23.694541],[121.285309,23.69454],[121.285311,23.694449],[121.285212,23.694448],[121.285214,23.694358],[121.285116,23.694357],[121.285301,23.695172]]],[[[121.299909,23.695423],[121.299812,23.695332],[121.299027,23.695323],[121.299127,23.695234],[121.299031,23.695052],[121.298443,23.695046],[121.298343,23.695135],[121.298249,23.694863],[121.298053,23.694861],[121.298153,23.694681],[121.297562,23.694855],[121.297559,23.695126],[121.297852,23.69522],[121.297848,23.695491],[121.297946,23.695492],[121.297845,23.695762],[121.298138,23.695855],[121.298141,23.695584],[121.298239,23.695585],[121.298235,23.695946],[121.298333,23.695948],[121.298336,23.695677],[121.298535,23.695498],[121.298828,23.695592],[121.298827,23.695682],[121.299121,23.695685],[121.299314,23.695868],[121.299803,23.695964],[121.299909,23.695423]],[[121.299515,23.695509],[121.299613,23.69551],[121.299611,23.695691],[121.299513,23.69569],[121.299515,23.695509]],[[121.298928,23.695412],[121.29883,23.695411],[121.298734,23.69523],[121.29893,23.695232],[121.298928,23.695412]]],[[[121.2998,23.696235],[121.299604,23.696232],[121.299603,23.696323],[121.300094,23.696238],[121.300092,23.696418],[121.30019,23.696419],[121.300388,23.696241],[121.300199,23.695697],[121.299904,23.695784],[121.299998,23.696056],[121.299802,23.696054],[121.2998,23.696235]]],[[[121.299403,23.696591],[121.299603,23.696323],[121.299309,23.696319],[121.299312,23.696049],[121.298921,23.695954],[121.299017,23.696136],[121.299213,23.696138],[121.299209,23.696409],[121.299111,23.696408],[121.299207,23.696589],[121.299403,23.696591]]],[[[121.299993,23.696508],[121.300092,23.696418],[121.299994,23.696417],[121.299993,23.696508]]],[[[121.293085,23.699863],[121.293,23.698869],[121.292806,23.698686],[121.29261,23.698684],[121.292612,23.698503],[121.292514,23.698502],[121.292616,23.698232],[121.292037,23.697504],[121.292046,23.696781],[121.292341,23.696694],[121.292344,23.696514],[121.292442,23.696515],[121.292346,23.696333],[121.291659,23.696416],[121.29176,23.696146],[121.291562,23.696324],[121.290974,23.696318],[121.290878,23.696136],[121.290585,23.696043],[121.29049,23.695771],[121.290097,23.695857],[121.290003,23.695585],[121.289513,23.695489],[121.28942,23.695127],[121.289126,23.695124],[121.289022,23.695574],[121.288824,23.695752],[121.288529,23.695749],[121.288625,23.695931],[121.288429,23.695929],[121.288428,23.696019],[121.288037,23.695924],[121.287938,23.696013],[121.288033,23.696195],[121.288917,23.696115],[121.289111,23.696297],[121.289301,23.696751],[121.289495,23.696934],[121.289691,23.696936],[121.289881,23.697389],[121.290076,23.697482],[121.290073,23.697662],[121.290267,23.697845],[121.290357,23.698478],[121.290553,23.69848],[121.290843,23.698845],[121.291039,23.698847],[121.291231,23.69912],[121.291427,23.699122],[121.291717,23.699487],[121.292404,23.699404],[121.292501,23.699495],[121.292401,23.699675],[121.292597,23.699677],[121.292591,23.700128],[121.292688,23.70022],[121.292983,23.700133],[121.292987,23.699862],[121.293085,23.699863]]],[[[121.30015,23.699489],[121.300152,23.699309],[121.300448,23.699222],[121.30045,23.699041],[121.300744,23.699044],[121.300943,23.698866],[121.30085,23.698413],[121.300654,23.698411],[121.300559,23.698229],[121.300461,23.698228],[121.300458,23.698409],[121.300749,23.698683],[121.300355,23.698769],[121.300353,23.69895],[121.300059,23.698946],[121.299659,23.699574],[121.299952,23.699668],[121.30015,23.699489]]],[[[121.297689,23.700185],[121.297888,23.700006],[121.298378,23.700011],[121.298379,23.699921],[121.298867,23.700107],[121.299068,23.699748],[121.297793,23.699734],[121.297795,23.699644],[121.2975,23.699641],[121.297499,23.699731],[121.297205,23.699728],[121.297105,23.699907],[121.296711,23.699993],[121.296611,23.700173],[121.296415,23.70017],[121.296319,23.699989],[121.296024,23.700076],[121.295928,23.699894],[121.29573,23.700073],[121.295732,23.699892],[121.295439,23.699799],[121.295438,23.699889],[121.295144,23.699886],[121.294748,23.700152],[121.294159,23.700236],[121.294156,23.700416],[121.294449,23.70051],[121.29445,23.70042],[121.295824,23.700345],[121.296018,23.700527],[121.296313,23.70044],[121.296312,23.700531],[121.296606,23.700534],[121.2968,23.700717],[121.296903,23.700356],[121.297196,23.70045],[121.297198,23.700269],[121.297394,23.700272],[121.297295,23.700361],[121.297291,23.700632],[121.297389,23.700633],[121.297491,23.700363],[121.297687,23.700365],[121.297689,23.700185]]],[[[121.297488,23.700634],[121.297388,23.700723],[121.297486,23.700724],[121.297488,23.700634]]],[[[121.297584,23.700725],[121.297485,23.700814],[121.29729,23.700722],[121.297288,23.700902],[121.29768,23.700907],[121.297584,23.700725]]],[[[121.312087,23.686346],[121.312188,23.686076],[121.311795,23.686162],[121.311794,23.686252],[121.311499,23.686249],[121.3116,23.68607],[121.311306,23.686066],[121.311308,23.685886],[121.311016,23.685702],[121.311202,23.686517],[121.311693,23.686432],[121.311887,23.686614],[121.311988,23.686345],[121.312087,23.686346]]],[[[121.312948,23.687981],[121.312949,23.68789],[121.312655,23.687887],[121.312654,23.687977],[121.312948,23.687981]]],[[[121.310674,23.689401],[121.310873,23.689222],[121.310974,23.688952],[121.31117,23.688954],[121.311074,23.688863],[121.311174,23.688684],[121.311663,23.688779],[121.311566,23.688688],[121.311668,23.688418],[121.31216,23.688243],[121.312161,23.688153],[121.311867,23.688149],[121.311868,23.688059],[121.312261,23.688063],[121.312656,23.687797],[121.313048,23.687801],[121.313046,23.687982],[121.312948,23.687981],[121.312947,23.688071],[121.313535,23.688077],[121.313738,23.687538],[121.313446,23.687354],[121.313443,23.687625],[121.313345,23.687624],[121.313348,23.687353],[121.31286,23.687167],[121.31276,23.687346],[121.312466,23.687343],[121.312465,23.687433],[121.312661,23.687436],[121.312462,23.687614],[121.312558,23.687796],[121.311871,23.687878],[121.31187,23.687969],[121.311479,23.687874],[121.311279,23.688143],[121.311083,23.688141],[121.311081,23.688321],[121.310983,23.68832],[121.311078,23.688502],[121.310881,23.68859],[121.310876,23.688951],[121.310679,23.689039],[121.310677,23.68922],[121.310481,23.689218],[121.310478,23.689398],[121.310674,23.689401]],[[121.311275,23.688414],[121.311374,23.688415],[121.311371,23.688595],[121.311273,23.688594],[121.311275,23.688414]],[[121.311769,23.688148],[121.311669,23.688328],[121.311473,23.688326],[121.311573,23.688146],[121.311769,23.688148]]],[[[121.310679,23.689039],[121.310582,23.688948],[121.310581,23.689038],[121.310679,23.689039]]],[[[121.306912,23.692249],[121.306913,23.692159],[121.306717,23.692157],[121.306615,23.692426],[121.307107,23.692341],[121.307108,23.692251],[121.306912,23.692249]]],[[[121.306319,23.692604],[121.306512,23.692786],[121.306615,23.692426],[121.306517,23.692425],[121.306319,23.692604]]],[[[121.306023,23.692691],[121.306123,23.692602],[121.306025,23.692601],[121.306023,23.692691]]],[[[121.306609,23.692878],[121.306709,23.692789],[121.306611,23.692788],[121.306609,23.692878]]],[[[121.30611,23.693595],[121.306109,23.693685],[121.306305,23.693687],[121.306211,23.693325],[121.306506,23.693328],[121.306312,23.693145],[121.306508,23.693148],[121.30651,23.692967],[121.306608,23.692968],[121.306609,23.692878],[121.306315,23.692875],[121.306318,23.692694],[121.306121,23.692692],[121.306119,23.692872],[121.305823,23.69305],[121.30592,23.693141],[121.305812,23.693862],[121.30611,23.693595]],[[121.306114,23.693234],[121.306015,23.693323],[121.306016,23.693233],[121.306114,23.693234]],[[121.306117,23.693053],[121.306215,23.693054],[121.306213,23.693235],[121.306114,23.693234],[121.306117,23.693053]]],[[[121.305812,23.693862],[121.305713,23.693952],[121.305811,23.693953],[121.305812,23.693862]]],[[[121.305016,23.694757],[121.305115,23.694667],[121.305017,23.694666],[121.305016,23.694757]]],[[[121.304622,23.694933],[121.304619,23.695114],[121.304521,23.695112],[121.304617,23.695294],[121.305111,23.695029],[121.305016,23.694757],[121.304818,23.694935],[121.304622,23.694933]]],[[[121.30089,23.695344],[121.300892,23.695163],[121.301089,23.695165],[121.30109,23.695075],[121.300796,23.695072],[121.300793,23.695252],[121.300597,23.69525],[121.300497,23.695429],[121.300692,23.695522],[121.30089,23.695344]]],[[[121.304518,23.695383],[121.304617,23.695294],[121.304519,23.695293],[121.304518,23.695383]]],[[[121.304419,23.695473],[121.304518,23.695383],[121.30442,23.695382],[121.304419,23.695473]]],[[[121.302635,23.696898],[121.302831,23.6969],[121.302832,23.69681],[121.302342,23.696804],[121.302337,23.697165],[121.302635,23.696898]]],[[[121.301643,23.69779],[121.302036,23.697704],[121.302041,23.697343],[121.301943,23.697342],[121.301941,23.697522],[121.301745,23.69752],[121.301743,23.69761],[121.301547,23.697608],[121.301152,23.697875],[121.301245,23.698237],[121.301343,23.698238],[121.301345,23.698057],[121.301641,23.69797],[121.301643,23.69779]]]]}}]}