{"type":"FeatureCollection","features":[{"type":"Feature","properties":{"kind":"bare_slide","month":"2025-05","area_ha":33.64},"geometry":{"type":"MultiPolygon","coordinates":[[[[121.298839,23.702274],[121.299036,23.702186],[121.299141,23.701645],[121.298657,23.701188],[121.298461,23.701186],[121.298554,23.701549],[121.298652,23.70155],[121.298649,23.70182],[121.298747,23.701822],[121.298742,23.702183],[121.298839,23.702274]]],[[[121.298548,23.702],[121.298351,23.702088],[121.298541,23.702542],[121.298246,23.702629],[121.298337,23.703172],[121.298627,23.703536],[121.298924,23.703268],[121.299216,23.703452],[121.299317,23.703273],[121.299123,23.70309],[121.299321,23.702911],[121.299029,23.702728],[121.298927,23.703088],[121.298829,23.703087],[121.298833,23.702725],[121.298638,23.702633],[121.298742,23.702183],[121.298548,23.702]],[[121.298927,23.703088],[121.299024,23.703179],[121.298925,23.703178],[121.298927,23.703088]]],[[[121.299211,23.703813],[121.299017,23.703721],[121.298916,23.7039],[121.299111,23.703993],[121.299211,23.703813]]],[[[121.298078,23.708045],[121.29798,23.708044],[121.298083,23.707684],[121.297694,23.707408],[121.2973,23.707494],[121.297003,23.707762],[121.297098,23.707944],[121.297786,23.707861],[121.297878,23.708314],[121.298075,23.708225],[121.298078,23.708045]]],[[[121.297477,23.709031],[121.297774,23.708764],[121.297582,23.708491],[121.297284,23.708758],[121.297088,23.708756],[121.296988,23.708936],[121.296693,23.708933],[121.296594,23.709022],[121.296689,23.709294],[121.296295,23.70938],[121.296097,23.709558],[121.296094,23.709739],[121.296191,23.70983],[121.296682,23.709835],[121.296875,23.710018],[121.297171,23.709931],[121.29717,23.710021],[121.297463,23.710115],[121.297662,23.709846],[121.297565,23.709755],[121.29727,23.709842],[121.297272,23.709661],[121.297174,23.70966],[121.297276,23.70939],[121.297473,23.709302],[121.297477,23.709031]],[[121.297276,23.70939],[121.297179,23.709299],[121.297277,23.7093],[121.297276,23.70939]]],[[[121.2981,23.713914],[121.297602,23.714451],[121.297406,23.714449],[121.297405,23.714539],[121.297211,23.714356],[121.297014,23.714444],[121.297207,23.714717],[121.297404,23.714629],[121.2975,23.714811],[121.297696,23.714813],[121.29779,23.715085],[121.297985,23.715177],[121.298076,23.71572],[121.297781,23.715807],[121.29778,23.715898],[121.297487,23.715804],[121.297288,23.715982],[121.297285,23.716253],[121.297578,23.716347],[121.297674,23.716528],[121.29817,23.716082],[121.298366,23.716085],[121.29856,23.716267],[121.298659,23.716178],[121.298564,23.715906],[121.298958,23.71582],[121.298864,23.715458],[121.299062,23.71537],[121.299065,23.715099],[121.298385,23.71464],[121.298387,23.714459],[121.298583,23.714462],[121.298685,23.714192],[121.298491,23.714009],[121.298294,23.714097],[121.2981,23.713914]],[[121.298291,23.714278],[121.298193,23.714277],[121.298094,23.714366],[121.298195,23.714096],[121.298294,23.714097],[121.298291,23.714278]],[[121.297993,23.714545],[121.297897,23.714454],[121.297995,23.714455],[121.297993,23.714545]]],[[[121.2965,23.716245],[121.296695,23.716337],[121.296796,23.716158],[121.296893,23.716249],[121.29709,23.716161],[121.297092,23.71598],[121.296898,23.715798],[121.296996,23.715799],[121.297,23.715528],[121.297295,23.715441],[121.297102,23.715258],[121.2973,23.71508],[121.297207,23.714717],[121.29691,23.714895],[121.296619,23.714621],[121.296518,23.71489],[121.296122,23.715157],[121.296215,23.715519],[121.296409,23.715702],[121.296607,23.715614],[121.296601,23.716065],[121.296503,23.716064],[121.2965,23.716245]],[[121.29661,23.715343],[121.296512,23.715342],[121.296514,23.715161],[121.29671,23.715163],[121.296909,23.714985],[121.297003,23.715257],[121.296705,23.715615],[121.296607,23.715614],[121.29661,23.715343]]],[[[121.286796,23.723361],[121.287193,23.723005],[121.287296,23.722645],[121.286807,23.722549],[121.286613,23.722366],[121.286615,23.722185],[121.287011,23.721919],[121.287016,23.721558],[121.286821,23.721465],[121.286823,23.721285],[121.28702,23.721197],[121.287024,23.720926],[121.287221,23.720838],[121.287228,23.720296],[121.286837,23.720201],[121.28645,23.719836],[121.286452,23.719655],[121.286946,23.71939],[121.286851,23.719118],[121.287644,23.718495],[121.287649,23.718133],[121.287454,23.718041],[121.287458,23.71777],[121.287069,23.717495],[121.287071,23.717314],[121.28727,23.717136],[121.287663,23.71705],[121.287667,23.716779],[121.287864,23.716691],[121.287872,23.716059],[121.287775,23.715968],[121.28748,23.716055],[121.287286,23.715872],[121.287289,23.715691],[121.287487,23.715513],[121.287683,23.715515],[121.287974,23.715789],[121.288078,23.715339],[121.288176,23.71534],[121.288085,23.714797],[121.287891,23.714615],[121.287499,23.71461],[121.287403,23.714429],[121.287011,23.714424],[121.286712,23.714782],[121.286319,23.714868],[121.286315,23.715139],[121.286118,23.715227],[121.286112,23.715678],[121.285915,23.715767],[121.285906,23.716399],[121.285709,23.716487],[121.285705,23.716757],[121.285111,23.717202],[121.285109,23.717383],[121.285691,23.717841],[121.285688,23.718112],[121.285883,23.718204],[121.285873,23.718927],[121.285676,23.719015],[121.285672,23.719285],[121.285475,23.719374],[121.28547,23.719735],[121.285859,23.72001],[121.285856,23.720281],[121.28605,23.720373],[121.286047,23.720644],[121.286242,23.720737],[121.28623,23.721639],[121.286033,23.721728],[121.286029,23.721998],[121.285832,23.722087],[121.285928,23.722268],[121.28583,23.722267],[121.285826,23.722538],[121.285629,23.722626],[121.285624,23.722987],[121.285721,23.723079],[121.286211,23.723084],[121.28621,23.723174],[121.286407,23.723086],[121.2866,23.723359],[121.286796,23.723361]],[[121.286222,23.722271],[121.286026,23.722269],[121.286027,23.722179],[121.286224,23.722091],[121.286222,23.722271]],[[121.286094,23.717033],[121.286193,23.716943],[121.286192,23.717034],[121.286094,23.717033]],[[121.286589,23.716677],[121.286785,23.716679],[121.286784,23.716769],[121.286588,23.716767],[121.286589,23.716677]],[[121.287784,23.715336],[121.287587,23.715334],[121.28759,23.715153],[121.287688,23.715154],[121.287784,23.715336]]],[[[121.298243,23.725565],[121.298246,23.725294],[121.298344,23.725295],[121.298347,23.725114],[121.298153,23.724932],[121.298253,23.724752],[121.297865,23.724477],[121.297765,23.724566],[121.297763,23.724747],[121.297861,23.724748],[121.297757,23.725198],[121.297855,23.725199],[121.29785,23.72556],[121.297949,23.725561],[121.298042,23.725924],[121.298337,23.725837],[121.298341,23.725566],[121.298243,23.725565]]],[[[121.299508,23.703636],[121.299314,23.703453],[121.299117,23.703541],[121.299211,23.703813],[121.299408,23.703815],[121.299508,23.703636]]],[[[121.30142,23.707449],[121.301813,23.707363],[121.302012,23.707185],[121.302015,23.706914],[121.301821,23.706731],[121.301625,23.706729],[121.301725,23.70664],[121.301629,23.706458],[121.301432,23.706547],[121.301329,23.706907],[121.300932,23.707263],[121.301123,23.707627],[121.301319,23.707629],[121.30142,23.707449]]],[[[121.300598,23.71033],[121.300698,23.71015],[121.300503,23.710058],[121.300506,23.709877],[121.300802,23.7097],[121.300613,23.709156],[121.300416,23.709244],[121.300313,23.709604],[121.300216,23.709513],[121.300117,23.709602],[121.29953,23.709506],[121.299144,23.70905],[121.298946,23.709138],[121.299043,23.709229],[121.298939,23.70968],[121.299036,23.709771],[121.299331,23.709684],[121.299525,23.709867],[121.299523,23.710047],[121.299816,23.710141],[121.299909,23.710503],[121.300203,23.710506],[121.300304,23.710327],[121.300598,23.71033]]],[[[121.300104,23.710595],[121.3002,23.710777],[121.300299,23.710688],[121.30069,23.710783],[121.300791,23.710603],[121.300694,23.710512],[121.300498,23.710509],[121.300496,23.7106],[121.300203,23.710506],[121.300104,23.710595]]],[[[121.30126,23.712234],[121.300864,23.7125],[121.300959,23.712772],[121.300661,23.71304],[121.300659,23.71322],[121.300949,23.713494],[121.300945,23.713855],[121.301238,23.713949],[121.301234,23.71422],[121.301428,23.714403],[121.301625,23.714314],[121.301528,23.714223],[121.301531,23.714043],[121.301629,23.714044],[121.301536,23.713591],[121.301735,23.713413],[121.301541,23.71323],[121.301836,23.713143],[121.301933,23.713234],[121.301831,23.713594],[121.302124,23.713688],[121.302219,23.713869],[121.302515,23.713782],[121.302411,23.714233],[121.302898,23.714509],[121.302795,23.714869],[121.30299,23.714962],[121.303189,23.714693],[121.303484,23.714696],[121.303284,23.714965],[121.303675,23.715059],[121.303673,23.71524],[121.303868,23.715332],[121.304165,23.715065],[121.304072,23.714702],[121.303877,23.71461],[121.303882,23.714249],[121.303589,23.714155],[121.303588,23.714246],[121.303096,23.714331],[121.303001,23.714059],[121.3032,23.71388],[121.303005,23.713788],[121.302913,23.713335],[121.302816,23.713244],[121.302128,23.713327],[121.302131,23.713146],[121.301936,23.713054],[121.302036,23.712874],[121.301842,23.712691],[121.302334,23.712607],[121.302043,23.712332],[121.302144,23.712153],[121.301851,23.712059],[121.301852,23.711969],[121.301558,23.711966],[121.301454,23.712416],[121.30126,23.712234]],[[121.301454,23.712416],[121.30155,23.712508],[121.301452,23.712507],[121.301454,23.712416]],[[121.301742,23.712871],[121.301741,23.712961],[121.301838,23.713053],[121.301545,23.712959],[121.301546,23.712869],[121.301742,23.712871]],[[121.301747,23.71251],[121.301749,23.712329],[121.301847,23.71233],[121.301845,23.712511],[121.301747,23.71251]]],[[[121.299935,23.716102],[121.300225,23.716376],[121.300424,23.716198],[121.300426,23.716017],[121.300822,23.71575],[121.300725,23.715659],[121.300727,23.715478],[121.300925,23.71539],[121.30083,23.715118],[121.301027,23.71503],[121.301031,23.714759],[121.301326,23.714672],[121.301233,23.71431],[121.301038,23.714218],[121.300943,23.713946],[121.300648,23.714033],[121.300454,23.71385],[121.300256,23.714029],[121.300151,23.714569],[121.299953,23.714657],[121.299946,23.715199],[121.299848,23.715198],[121.299645,23.715737],[121.299743,23.715739],[121.299838,23.71601],[121.300034,23.716013],[121.299935,23.716102]],[[121.300034,23.716013],[121.300133,23.715923],[121.300132,23.716014],[121.300034,23.716013]],[[121.300433,23.715475],[121.300432,23.715566],[121.300628,23.715568],[121.300528,23.715747],[121.300234,23.715744],[121.300235,23.715654],[121.300037,23.715742],[121.300139,23.715472],[121.300433,23.715475]],[[121.300436,23.715295],[121.300438,23.715114],[121.300536,23.715115],[121.300534,23.715296],[121.300436,23.715295]],[[121.300539,23.714844],[121.300537,23.715025],[121.300439,23.715024],[121.300343,23.714842],[121.300539,23.714844]],[[121.300446,23.714482],[121.300448,23.714302],[121.300547,23.714303],[121.300544,23.714483],[121.300446,23.714482]],[[121.300741,23.714395],[121.300645,23.714304],[121.300743,23.714305],[121.300741,23.714395]]],[[[121.299443,23.716187],[121.299837,23.716101],[121.299547,23.715736],[121.299052,23.716092],[121.29905,23.716273],[121.299343,23.716366],[121.299443,23.716187]]],[[[121.305139,23.723202],[121.304847,23.723019],[121.304851,23.722748],[121.305047,23.72275],[121.305046,23.72284],[121.305243,23.722752],[121.305146,23.722661],[121.305249,23.722301],[121.30476,23.722205],[121.304861,23.721935],[121.304667,23.721752],[121.304274,23.721838],[121.304367,23.722201],[121.303681,23.722193],[121.303682,23.722103],[121.303289,23.722189],[121.303095,23.722006],[121.302897,23.722094],[121.302794,23.722544],[121.302987,23.722727],[121.303674,23.722735],[121.303771,23.722826],[121.303772,23.722736],[121.304165,23.72265],[121.304261,23.722831],[121.304555,23.722835],[121.304356,23.723103],[121.303965,23.723009],[121.303865,23.723098],[121.30396,23.72337],[121.304255,23.723283],[121.304449,23.723466],[121.305037,23.723472],[121.305137,23.723383],[121.305139,23.723202]]],[[[121.306879,23.725208],[121.306784,23.724936],[121.306292,23.725021],[121.306197,23.724839],[121.305804,23.724835],[121.305308,23.725281],[121.305601,23.725375],[121.305696,23.725646],[121.306186,23.725652],[121.306283,23.725743],[121.306284,23.725653],[121.306578,23.725656],[121.306678,23.725567],[121.306582,23.725385],[121.306879,23.725208]],[[121.306582,23.725385],[121.306485,23.725294],[121.306583,23.725295],[121.306582,23.725385]]]]}},{"type":"Feature","properties":{"kind":"bare_dam","month":"2025-05","area_ha":16.28},"geometry":{"type":"MultiPolygon","coordinates":[[[[121.302224,23.690753],[121.302915,23.690399],[121.302721,23.690217],[121.302821,23.690127],[121.302725,23.689946],[121.302528,23.690034],[121.302623,23.690215],[121.302329,23.690212],[121.302136,23.69003],[121.301837,23.690387],[121.302224,23.690753]]],[[[121.301731,23.691018],[121.301827,23.69111],[121.302318,23.691115],[121.302413,23.691297],[121.302709,23.69121],[121.302712,23.690939],[121.302615,23.690847],[121.30232,23.690935],[121.302224,23.690753],[121.301832,23.690749],[121.301731,23.691018]]],[[[121.298957,23.693155],[121.299354,23.692798],[121.299162,23.692525],[121.298963,23.692704],[121.298767,23.692702],[121.298671,23.69252],[121.298474,23.692608],[121.298472,23.692789],[121.298761,23.693153],[121.298957,23.693155]]],[[[121.299647,23.692892],[121.299449,23.69307],[121.299644,23.693163],[121.299744,23.692983],[121.299647,23.692892]]],[[[121.299934,23.693437],[121.299638,23.693614],[121.299445,23.693341],[121.299151,23.693338],[121.299152,23.693248],[121.299054,23.693246],[121.299055,23.693156],[121.298957,23.693155],[121.298855,23.693515],[121.298657,23.693603],[121.298553,23.694054],[121.298747,23.694236],[121.298943,23.694239],[121.299232,23.694693],[121.299331,23.694604],[121.299428,23.694695],[121.299821,23.694609],[121.299916,23.694881],[121.30021,23.694885],[121.30031,23.694705],[121.300116,23.694522],[121.30041,23.694526],[121.300895,23.694982],[121.300995,23.694803],[121.30051,23.694436],[121.300512,23.694256],[121.30071,23.694077],[121.300226,23.693621],[121.300624,23.693173],[121.300527,23.693082],[121.300134,23.693168],[121.300135,23.693078],[121.299842,23.692984],[121.299742,23.693164],[121.299937,23.693256],[121.299934,23.693437]],[[121.30003,23.693618],[121.300129,23.693529],[121.300128,23.693619],[121.30003,23.693618]]],[[[121.30169,23.694178],[121.301301,23.693903],[121.300904,23.69426],[121.301098,23.694443],[121.301587,23.694538],[121.30169,23.694178]]],[[[121.301184,23.695347],[121.301283,23.695258],[121.301188,23.695076],[121.300992,23.695074],[121.300793,23.695252],[121.300887,23.695614],[121.30108,23.695797],[121.301278,23.695709],[121.301282,23.695348],[121.301184,23.695347]]],[[[121.299803,23.695964],[121.299806,23.695783],[121.299904,23.695784],[121.29981,23.695422],[121.299324,23.695146],[121.29922,23.695596],[121.299318,23.695597],[121.299409,23.69614],[121.299604,23.696232],[121.299705,23.695963],[121.299803,23.695964]]],[[[121.299021,23.695774],[121.298827,23.695682],[121.298725,23.695952],[121.29892,23.696044],[121.299021,23.695774]]],[[[121.299487,23.697676],[121.299587,23.697496],[121.299295,23.697403],[121.299495,23.697044],[121.299203,23.69686],[121.299207,23.696589],[121.299012,23.696497],[121.298919,23.696135],[121.298724,23.696042],[121.29862,23.696492],[121.298522,23.696491],[121.298808,23.697127],[121.298711,23.697035],[121.298416,23.697122],[121.298418,23.696942],[121.298224,23.696759],[121.29823,23.696308],[121.297938,23.696124],[121.298138,23.695855],[121.298235,23.695946],[121.298432,23.695858],[121.298434,23.695678],[121.298336,23.695677],[121.298437,23.695497],[121.298731,23.6955],[121.298732,23.69541],[121.298927,23.695503],[121.299026,23.695413],[121.299028,23.695233],[121.298834,23.69514],[121.298741,23.694688],[121.298249,23.694863],[121.298255,23.694412],[121.298452,23.694323],[121.298457,23.693962],[121.298262,23.69387],[121.29816,23.69414],[121.297865,23.694227],[121.297958,23.694589],[121.297665,23.694495],[121.297564,23.694765],[121.297466,23.694764],[121.297461,23.695125],[121.297655,23.695308],[121.297951,23.695131],[121.298239,23.695585],[121.298041,23.695764],[121.297749,23.69558],[121.297449,23.696028],[121.297546,23.696119],[121.297743,23.696031],[121.297838,23.696303],[121.297639,23.696482],[121.298028,23.696757],[121.298025,23.697028],[121.29822,23.69712],[121.298217,23.697301],[121.298315,23.697302],[121.298215,23.697481],[121.29841,23.697574],[121.298503,23.697936],[121.2987,23.697848],[121.298703,23.697667],[121.2988,23.697759],[121.299487,23.697676]],[[121.298605,23.697666],[121.298607,23.697486],[121.298805,23.697307],[121.298802,23.697578],[121.298605,23.697666]]],[[[121.299883,23.697409],[121.300277,23.697233],[121.300184,23.696871],[121.299891,23.696777],[121.299796,23.696505],[121.299602,23.696413],[121.299502,23.696502],[121.299593,23.697045],[121.299691,23.697046],[121.299589,23.697406],[121.299882,23.6975],[121.299883,23.697409]]],[[[121.298176,23.700461],[121.299157,23.700472],[121.299062,23.7002],[121.298964,23.700199],[121.298968,23.699928],[121.298774,23.699745],[121.298776,23.699564],[121.298874,23.699565],[121.298779,23.699384],[121.298581,23.699472],[121.29848,23.699742],[121.298286,23.699559],[121.298089,23.699647],[121.298282,23.69983],[121.29828,23.70001],[121.298086,23.699828],[121.297791,23.699915],[121.297786,23.700276],[121.29798,23.700459],[121.298079,23.700369],[121.298176,23.700461]],[[121.29808,23.700279],[121.298083,23.700099],[121.298181,23.7001],[121.298179,23.70028],[121.29808,23.700279]],[[121.298574,23.700014],[121.298577,23.699833],[121.298675,23.699834],[121.298672,23.700015],[121.298574,23.700014]]],[[[121.311586,23.687153],[121.311683,23.687244],[121.311879,23.687246],[121.31198,23.686977],[121.311689,23.686793],[121.311692,23.686522],[121.3114,23.686338],[121.311404,23.686067],[121.311306,23.686066],[121.311212,23.685704],[121.311115,23.685613],[121.31082,23.6857],[121.310822,23.685519],[121.311021,23.685341],[121.310728,23.685247],[121.310629,23.685337],[121.310716,23.68615],[121.311203,23.686426],[121.311296,23.686789],[121.311492,23.686791],[121.311289,23.68733],[121.311484,23.687423],[121.311586,23.687153]]],[[[121.312665,23.687074],[121.312572,23.686712],[121.312376,23.68671],[121.312377,23.68662],[121.311984,23.686706],[121.311982,23.686886],[121.312369,23.687252],[121.312665,23.687074]]],[[[121.310782,23.688679],[121.311179,23.688322],[121.310985,23.68814],[121.310789,23.688138],[121.31059,23.688316],[121.310588,23.688497],[121.310782,23.688679]]],[[[121.309504,23.688936],[121.309408,23.688755],[121.308917,23.68884],[121.309012,23.689021],[121.309504,23.688936]]],[[[121.308624,23.688746],[121.308522,23.689016],[121.308424,23.689015],[121.308421,23.689286],[121.308712,23.689469],[121.308812,23.68938],[121.308717,23.689108],[121.308916,23.68893],[121.308624,23.688746]]],[[[121.308611,23.689739],[121.308416,23.689647],[121.308218,23.689825],[121.308215,23.690006],[121.308603,23.690371],[121.308706,23.690011],[121.308607,23.69001],[121.308611,23.689739]]],[[[121.308893,23.690645],[121.308897,23.690374],[121.308702,23.690282],[121.308701,23.690372],[121.308504,23.69046],[121.3085,23.690731],[121.308695,23.690824],[121.308893,23.690645]]],[[[121.304664,23.691683],[121.304666,23.691502],[121.30418,23.691136],[121.30408,23.691315],[121.304372,23.691499],[121.304562,23.691952],[121.304759,23.691864],[121.304762,23.691684],[121.304664,23.691683]]],[[[121.310836,23.692111],[121.310054,23.691922],[121.310055,23.691832],[121.30976,23.691919],[121.309855,23.692101],[121.310442,23.692197],[121.310636,23.69238],[121.310833,23.692292],[121.310836,23.692111]]],[[[121.30464,23.693488],[121.304839,23.69331],[121.304742,23.693219],[121.304842,23.693039],[121.305431,23.693046],[121.305432,23.692955],[121.305627,23.693048],[121.305726,23.692958],[121.30563,23.692777],[121.305433,23.692865],[121.305239,23.692682],[121.305639,23.692054],[121.305836,23.692057],[121.305931,23.692238],[121.306227,23.692151],[121.306131,23.69197],[121.305838,23.691876],[121.305939,23.691606],[121.305746,23.691424],[121.305452,23.69142],[121.304954,23.691957],[121.30466,23.691953],[121.304557,23.692314],[121.304459,23.692312],[121.304456,23.692583],[121.30426,23.692581],[121.304259,23.692671],[121.304161,23.69267],[121.304163,23.69249],[121.304261,23.692491],[121.304165,23.692309],[121.303871,23.692306],[121.303872,23.692216],[121.303479,23.692302],[121.303663,23.693207],[121.304054,23.693301],[121.30415,23.693483],[121.304346,23.693485],[121.304347,23.693395],[121.30464,23.693488]],[[121.304652,23.692585],[121.304848,23.692588],[121.304846,23.692768],[121.30465,23.692766],[121.304652,23.692585]]],[[[121.303537,23.695373],[121.303345,23.6951],[121.303051,23.695096],[121.303052,23.695006],[121.30266,23.695002],[121.302661,23.694911],[121.302464,23.695],[121.302656,23.695273],[121.30295,23.695276],[121.303046,23.695457],[121.303438,23.695462],[121.303537,23.695373]]]]}},{"type":"Feature","properties":{"kind":"water","month":"2025-05","area_ha":3.58},"geometry":{"type":"MultiPolygon","coordinates":[[[[121.282711,23.690809],[121.282614,23.690717],[121.282613,23.690807],[121.282711,23.690809]]],[[[121.282712,23.690718],[121.2831,23.690993],[121.283,23.691173],[121.283196,23.691175],[121.283202,23.690724],[121.282812,23.690539],[121.282712,23.690718]]],[[[121.28368,23.691632],[121.283389,23.691448],[121.283289,23.691537],[121.283383,23.6919],[121.283579,23.691902],[121.28368,23.691632]]],[[[121.283775,23.691904],[121.283873,23.691905],[121.283875,23.691724],[121.283777,23.691723],[121.283775,23.691904]]],[[[121.283873,23.691905],[121.283869,23.692176],[121.284065,23.692178],[121.284068,23.691997],[121.283873,23.691905]]],[[[121.283966,23.692267],[121.28416,23.69245],[121.284164,23.692179],[121.283966,23.692267]]],[[[121.284742,23.692908],[121.284644,23.692907],[121.284551,23.692545],[121.284258,23.692451],[121.284254,23.692722],[121.284547,23.692815],[121.28454,23.693357],[121.284637,23.693449],[121.284833,23.693451],[121.284742,23.692908]]],[[[121.285026,23.693724],[121.284831,23.693631],[121.284825,23.694083],[121.285021,23.694085],[121.285019,23.694265],[121.285117,23.694267],[121.28512,23.693996],[121.284924,23.693994],[121.285026,23.693724]]],[[[121.285117,23.694267],[121.285214,23.694358],[121.285215,23.694268],[121.285117,23.694267]]],[[[121.285214,23.694358],[121.285311,23.694449],[121.285312,23.694359],[121.285214,23.694358]]],[[[121.304365,23.692041],[121.304659,23.692044],[121.30466,23.691953],[121.304366,23.69195],[121.304365,23.692041]]],[[[121.304067,23.692308],[121.304365,23.692041],[121.303973,23.692036],[121.303974,23.691946],[121.303679,23.692033],[121.303583,23.691851],[121.303387,23.691849],[121.303386,23.69194],[121.303093,23.691846],[121.30348,23.692211],[121.304067,23.692308]]],[[[121.285789,23.695358],[121.285692,23.695266],[121.285301,23.695172],[121.285396,23.695444],[121.285883,23.69563],[121.285789,23.695358]]],[[[121.29852,23.696672],[121.298625,23.696131],[121.298723,23.696132],[121.298629,23.69577],[121.298825,23.695772],[121.29883,23.695411],[121.298732,23.69541],[121.29873,23.695591],[121.298633,23.695499],[121.298337,23.695586],[121.298431,23.695949],[121.298529,23.69595],[121.29833,23.696128],[121.298427,23.696219],[121.298419,23.696851],[121.298321,23.69685],[121.298416,23.697122],[121.298614,23.696944],[121.298618,23.696673],[121.29852,23.696672]]],[[[121.299883,23.697409],[121.29998,23.697501],[121.299981,23.69741],[121.299883,23.697409]]],[[[121.298601,23.697937],[121.298698,23.698028],[121.298699,23.697938],[121.298601,23.697937]]],[[[121.299182,23.698485],[121.299579,23.698128],[121.299774,23.698221],[121.299777,23.69804],[121.299971,23.698133],[121.299974,23.697952],[121.30017,23.697954],[121.300172,23.697774],[121.300368,23.697776],[121.30037,23.697686],[121.300173,23.697683],[121.300078,23.697502],[121.299979,23.697591],[121.299784,23.697499],[121.299585,23.697677],[121.298702,23.697758],[121.298699,23.697938],[121.298991,23.698122],[121.298989,23.698303],[121.29879,23.698481],[121.298787,23.698752],[121.298588,23.69893],[121.298393,23.698838],[121.298391,23.699018],[121.297895,23.699464],[121.297699,23.699462],[121.297792,23.699824],[121.298086,23.699828],[121.298091,23.699467],[121.298384,23.69956],[121.298385,23.69947],[121.298679,23.699473],[121.298682,23.699292],[121.298878,23.699295],[121.298983,23.698754],[121.299179,23.698756],[121.299182,23.698485]],[[121.299182,23.698485],[121.299086,23.698394],[121.299184,23.698395],[121.299182,23.698485]],[[121.299681,23.697859],[121.299584,23.697767],[121.299682,23.697768],[121.299681,23.697859]]],[[[121.298086,23.699828],[121.298182,23.700009],[121.29828,23.70001],[121.298282,23.69983],[121.298086,23.699828]]],[[[121.298464,23.700915],[121.298371,23.700553],[121.29798,23.700459],[121.298271,23.700733],[121.298268,23.700913],[121.29817,23.700912],[121.298265,23.701184],[121.298363,23.701185],[121.298366,23.700914],[121.298464,23.700915]]]]}}]}