{"type":"FeatureCollection","features":[{"type":"Feature","properties":{"kind":"bare_slide","month":"2025-08","area_ha":437.99},"geometry":{"type":"MultiPolygon","coordinates":[[[[121.29128,23.725488],[121.291861,23.726036],[121.291857,23.726397],[121.293525,23.726325],[121.293443,23.72506],[121.293541,23.725061],[121.293643,23.724792],[121.293448,23.724699],[121.29325,23.724878],[121.292959,23.724603],[121.293555,23.723978],[121.293749,23.724161],[121.293945,23.724163],[121.294144,23.723984],[121.295115,23.724718],[121.295607,23.724633],[121.295805,23.724454],[121.296099,23.724457],[121.2962,23.724278],[121.296494,23.724281],[121.296394,23.724461],[121.297266,23.725283],[121.297561,23.725196],[121.297371,23.724742],[121.297569,23.724564],[121.297765,23.724566],[121.297959,23.724749],[121.297957,23.724929],[121.298152,23.725022],[121.298051,23.725201],[121.29844,23.725477],[121.298242,23.725655],[121.298135,23.726286],[121.297739,23.726552],[121.297835,23.726734],[121.298523,23.726651],[121.298522,23.726742],[121.299012,23.726747],[121.299108,23.726929],[121.299402,23.726932],[121.299504,23.726662],[121.299701,23.726574],[121.299703,23.726393],[121.300292,23.7264],[121.30029,23.72649],[121.300585,23.726493],[121.300583,23.726584],[121.300683,23.726494],[121.301369,23.726502],[121.301471,23.726232],[121.301569,23.726233],[121.301673,23.725783],[121.301771,23.725784],[121.301767,23.726055],[121.301962,23.726147],[121.302164,23.725698],[121.30236,23.7257],[121.302359,23.72579],[121.302557,23.725702],[121.302463,23.72534],[121.30286,23.724983],[121.302963,23.724623],[121.303159,23.724625],[121.303457,23.724358],[121.303464,23.723816],[121.303954,23.723821],[121.304058,23.723371],[121.304548,23.723376],[121.304547,23.723467],[121.304841,23.72347],[121.30484,23.72356],[121.305135,23.723473],[121.304651,23.723016],[121.303963,23.723099],[121.303868,23.722917],[121.303575,23.722824],[121.303576,23.722734],[121.30387,23.722737],[121.304068,23.722558],[121.304359,23.722833],[121.30475,23.722927],[121.304851,23.722748],[121.305146,23.722661],[121.305149,23.72239],[121.304956,23.722207],[121.304856,23.722296],[121.304661,23.722204],[121.304561,23.722383],[121.30417,23.722289],[121.30407,23.722468],[121.303873,23.722466],[121.303584,23.722102],[121.303289,23.722189],[121.303095,23.722006],[121.302604,23.722001],[121.302706,23.721731],[121.302608,23.72173],[121.302614,23.721278],[121.302516,23.721277],[121.302525,23.720555],[121.302427,23.720554],[121.302533,23.719923],[121.302435,23.719922],[121.302439,23.719651],[121.302735,23.719474],[121.302738,23.719293],[121.30313,23.719297],[121.303231,23.719028],[121.303428,23.71903],[121.303529,23.71876],[121.303926,23.718403],[121.30422,23.718406],[121.304419,23.718228],[121.30433,23.717505],[121.304232,23.717504],[121.304235,23.717233],[121.30404,23.71714],[121.304142,23.71687],[121.303947,23.716778],[121.304147,23.716509],[121.304636,23.716605],[121.304835,23.716336],[121.305029,23.716519],[121.305128,23.71643],[121.306599,23.716446],[121.3067,23.716266],[121.307191,23.716181],[121.307295,23.715731],[121.307491,23.715733],[121.30769,23.715555],[121.307792,23.715195],[121.307694,23.715194],[121.307601,23.714831],[121.307111,23.714826],[121.307015,23.714644],[121.306525,23.714639],[121.306529,23.714278],[121.306727,23.71419],[121.30673,23.713919],[121.307126,23.713652],[121.307128,23.713472],[121.306933,23.713379],[121.306938,23.713018],[121.307135,23.71293],[121.307139,23.712659],[121.307336,23.712571],[121.307342,23.71212],[121.30744,23.712121],[121.307442,23.71194],[121.306956,23.711574],[121.306962,23.711122],[121.306767,23.71103],[121.306776,23.710398],[121.306677,23.710397],[121.306779,23.710127],[121.307176,23.70977],[121.30747,23.709773],[121.307572,23.709503],[121.30767,23.709505],[121.307667,23.709685],[121.308154,23.709961],[121.307952,23.710411],[121.308437,23.710867],[121.308927,23.710873],[121.309121,23.711055],[121.309116,23.711417],[121.309311,23.711509],[121.309509,23.711331],[121.309513,23.71106],[121.30971,23.710972],[121.309714,23.710701],[121.310109,23.710434],[121.309919,23.709981],[121.309723,23.709978],[121.309623,23.710158],[121.309331,23.709974],[121.309435,23.709524],[121.309633,23.709345],[121.309829,23.709348],[121.310408,23.710076],[121.310902,23.709811],[121.310611,23.709537],[121.31081,23.709358],[121.310812,23.709178],[121.310327,23.708811],[121.31033,23.70854],[121.310038,23.708357],[121.310042,23.708086],[121.31014,23.708087],[121.310343,23.707547],[121.310148,23.707455],[121.310151,23.707184],[121.309958,23.707001],[121.309761,23.706999],[121.309373,23.706724],[121.309375,23.706543],[121.309572,23.706455],[121.309576,23.706184],[121.309187,23.705909],[121.309093,23.705637],[121.308896,23.705635],[121.308899,23.705454],[121.308801,23.705453],[121.308903,23.705093],[121.308708,23.705001],[121.308615,23.704639],[121.308033,23.704181],[121.308048,23.703007],[121.307659,23.702732],[121.307769,23.70183],[121.307574,23.701738],[121.307576,23.701557],[121.307775,23.701379],[121.307871,23.70147],[121.308069,23.701382],[121.308078,23.70066],[121.308176,23.700661],[121.30828,23.70021],[121.308378,23.700211],[121.308288,23.699578],[121.308581,23.699672],[121.308681,23.699492],[121.308877,23.699494],[121.308876,23.699585],[121.309074,23.699497],[121.309076,23.699316],[121.308688,23.698951],[121.308786,23.698952],[121.308889,23.698592],[121.309381,23.698507],[121.309287,23.698144],[121.309482,23.698237],[121.30978,23.697969],[121.309782,23.697789],[121.309394,23.697423],[121.309003,23.697329],[121.309106,23.696969],[121.308816,23.696695],[121.308326,23.696599],[121.308329,23.696418],[121.309222,23.695615],[121.309226,23.695254],[121.308354,23.694432],[121.307962,23.694428],[121.307866,23.694246],[121.307377,23.69415],[121.307179,23.694329],[121.307177,23.694509],[121.307564,23.694875],[121.307561,23.695146],[121.307853,23.695329],[121.307746,23.69596],[121.307647,23.69605],[121.307452,23.695957],[121.307352,23.696137],[121.307058,23.696133],[121.306856,23.696583],[121.306267,23.696576],[121.306167,23.696756],[121.305481,23.696748],[121.304191,23.697908],[121.304185,23.69836],[121.303988,23.698448],[121.303982,23.698899],[121.303785,23.698987],[121.303781,23.699258],[121.303584,23.699346],[121.303579,23.699707],[121.302985,23.700152],[121.302972,23.701146],[121.302675,23.701413],[121.302086,23.701407],[121.301986,23.701586],[121.300711,23.701572],[121.300903,23.701936],[121.301199,23.701758],[121.30149,23.702032],[121.301292,23.702211],[121.301386,23.702483],[121.301188,23.702661],[121.300896,23.702477],[121.300802,23.702115],[121.300508,23.702112],[121.300315,23.701929],[121.300417,23.701569],[121.299438,23.701468],[121.29924,23.701646],[121.299144,23.701465],[121.298753,23.70137],[121.298657,23.701188],[121.298363,23.701185],[121.298359,23.701456],[121.298062,23.701724],[121.297956,23.702355],[121.297857,23.702354],[121.297947,23.702987],[121.298045,23.702988],[121.297939,23.703619],[121.297841,23.703618],[121.297839,23.703798],[121.297643,23.703796],[121.297546,23.703705],[121.297645,23.703615],[121.297552,23.703253],[121.297749,23.703165],[121.297755,23.702714],[121.297658,23.702622],[121.297459,23.702801],[121.296578,23.702701],[121.296679,23.702521],[121.296388,23.702247],[121.296191,23.702335],[121.29618,23.703148],[121.295982,23.703326],[121.295976,23.703778],[121.296268,23.703961],[121.296164,23.704412],[121.295768,23.704678],[121.295764,23.704949],[121.294782,23.705119],[121.294778,23.70539],[121.295069,23.705664],[121.295266,23.705576],[121.29536,23.705848],[121.294771,23.705932],[121.294668,23.706292],[121.293787,23.706192],[121.293588,23.70637],[121.293683,23.706642],[121.294272,23.706558],[121.294271,23.706648],[121.294762,23.706654],[121.294858,23.706745],[121.294652,23.707556],[121.294456,23.707553],[121.294158,23.707821],[121.294154,23.708092],[121.294253,23.708093],[121.294146,23.708724],[121.293355,23.709257],[121.293352,23.709438],[121.292758,23.709882],[121.292756,23.710063],[121.292268,23.709877],[121.292168,23.710057],[121.291872,23.710144],[121.291968,23.710325],[121.292067,23.710236],[121.292458,23.710331],[121.292657,23.710152],[121.292654,23.710333],[121.292556,23.710332],[121.292353,23.710871],[121.292156,23.710959],[121.292053,23.711319],[121.291757,23.711497],[121.291454,23.712126],[121.29096,23.712391],[121.290958,23.712572],[121.290761,23.71266],[121.290659,23.712929],[121.290267,23.712925],[121.290164,23.713285],[121.289866,23.713553],[121.289473,23.713639],[121.289271,23.714088],[121.288874,23.714445],[121.288777,23.714353],[121.288678,23.714443],[121.2876,23.71434],[121.287499,23.71461],[121.287203,23.714697],[121.287299,23.714879],[121.286906,23.714965],[121.286889,23.716229],[121.286791,23.716228],[121.286789,23.716408],[121.286886,23.7165],[121.287181,23.716413],[121.287375,23.716595],[121.287077,23.716863],[121.287075,23.717044],[121.287172,23.717135],[121.287369,23.717047],[121.287563,23.71723],[121.287558,23.717591],[121.287656,23.717592],[121.287552,23.718042],[121.287842,23.718407],[121.287742,23.718496],[121.287833,23.719039],[121.287635,23.719217],[121.287925,23.719491],[121.28753,23.719758],[121.287038,23.719842],[121.286942,23.719661],[121.286353,23.719745],[121.286159,23.719562],[121.286359,23.719293],[121.286068,23.719019],[121.285872,23.719017],[121.285674,23.719195],[121.285665,23.719827],[121.285468,23.719915],[121.285459,23.720638],[121.285555,23.720729],[121.285851,23.720642],[121.28585,23.720732],[121.286242,23.720737],[121.286241,23.720827],[121.286536,23.72074],[121.286827,23.721014],[121.286727,23.721103],[121.286821,23.721465],[121.286622,23.721644],[121.286426,23.721642],[121.286028,23.722089],[121.286609,23.722637],[121.286905,23.72255],[121.287,23.722732],[121.287197,23.722734],[121.287396,23.722465],[121.28769,23.722468],[121.287988,23.722201],[121.287895,23.721838],[121.288292,23.721482],[121.288584,23.721665],[121.288581,23.721846],[121.288185,23.722113],[121.288281,23.722294],[121.28848,23.722116],[121.288676,23.722118],[121.288975,23.72176],[121.289171,23.721762],[121.289365,23.721945],[121.289067,23.722213],[121.289063,23.722483],[121.288965,23.722482],[121.289155,23.722936],[121.288957,23.723114],[121.288663,23.723111],[121.288364,23.723469],[121.287874,23.723464],[121.287773,23.723643],[121.287283,23.723638],[121.287181,23.723907],[121.287472,23.724182],[121.287668,23.724184],[121.287666,23.724364],[121.287862,23.724366],[121.287857,23.724728],[121.288053,23.72473],[121.288051,23.72491],[121.288247,23.724913],[121.288242,23.725274],[121.288538,23.725187],[121.288828,23.725461],[121.288826,23.725641],[121.289218,23.725646],[121.289219,23.725555],[121.288637,23.725097],[121.288639,23.724917],[121.288937,23.724649],[121.28923,23.724743],[121.289428,23.724564],[121.289913,23.725021],[121.289615,23.725289],[121.289711,23.725471],[121.289908,23.725382],[121.290004,23.725564],[121.290395,23.725659],[121.290491,23.72584],[121.290785,23.725844],[121.290783,23.726024],[121.291079,23.725847],[121.291081,23.725666],[121.29128,23.725488]],[[121.30949,23.697605],[121.309391,23.697694],[121.309392,23.697604],[121.30949,23.697605]],[[121.297643,23.703796],[121.297543,23.703885],[121.297545,23.703795],[121.297643,23.703796]],[[121.291378,23.725489],[121.291477,23.7254],[121.291476,23.72549],[121.291378,23.725489]],[[121.291477,23.7254],[121.291577,23.725311],[121.291575,23.725401],[121.291477,23.7254]],[[121.298921,23.726204],[121.299017,23.726386],[121.298723,23.726383],[121.298724,23.726292],[121.298921,23.726204]],[[121.299223,23.725575],[121.299326,23.725215],[121.299715,23.725491],[121.299515,23.725759],[121.299223,23.725575]],[[121.300888,23.725774],[121.300891,23.725594],[121.301185,23.725597],[121.301182,23.725778],[121.300888,23.725774]],[[121.290304,23.725116],[121.290306,23.724935],[121.290505,23.724757],[121.290797,23.724941],[121.290794,23.725121],[121.290596,23.7253],[121.290304,23.725116]],[[121.301481,23.72542],[121.301482,23.725329],[121.301679,23.725332],[121.301677,23.725422],[121.301481,23.72542]],[[121.292267,23.725047],[121.292466,23.724779],[121.292759,23.724872],[121.292658,23.725142],[121.292363,23.725139],[121.292267,23.725047]],[[121.300213,23.724864],[121.300309,23.725046],[121.300013,23.725223],[121.300016,23.724952],[121.300213,23.724864]],[[121.301591,23.724518],[121.301593,23.724337],[121.301886,23.724431],[121.301888,23.724341],[121.302182,23.724344],[121.302183,23.724253],[121.302478,23.724166],[121.30237,23.724978],[121.301684,23.72488],[121.301689,23.724519],[121.301591,23.724518]],[[121.288161,23.724009],[121.28836,23.72374],[121.288652,23.723924],[121.288453,23.724192],[121.288161,23.724009]],[[121.291398,23.723954],[121.2914,23.723774],[121.291599,23.723595],[121.291988,23.72387],[121.291788,23.724139],[121.291592,23.724137],[121.291398,23.723954]],[[121.301302,23.724153],[121.301205,23.724062],[121.301303,23.724063],[121.301302,23.724153]],[[121.302008,23.722626],[121.30221,23.722177],[121.302308,23.722178],[121.302502,23.722361],[121.302595,23.722723],[121.302694,23.722634],[121.302987,23.722727],[121.302984,23.722998],[121.302496,23.722812],[121.302197,23.72317],[121.301804,23.723256],[121.301811,23.722714],[121.302008,23.722626]],[[121.2921,23.722788],[121.292197,23.722879],[121.292099,23.722878],[121.2921,23.722788]],[[121.292201,23.722518],[121.292299,23.722519],[121.292296,23.72279],[121.292198,23.722789],[121.292201,23.722518]],[[121.286614,23.722276],[121.287113,23.721649],[121.287602,23.721745],[121.287796,23.721928],[121.287596,23.722196],[121.2874,23.722194],[121.287399,23.722284],[121.287106,23.722191],[121.286906,23.72246],[121.286614,23.722276]],[[121.289958,23.72159],[121.289765,23.721317],[121.289569,23.721315],[121.289669,23.721136],[121.289962,23.721229],[121.290161,23.721051],[121.290355,23.721234],[121.290352,23.721414],[121.290154,23.721593],[121.289958,23.72159]],[[121.290941,23.721421],[121.290552,23.721145],[121.290651,23.721056],[121.290558,23.720694],[121.291142,23.721062],[121.290941,23.721421]],[[121.286147,23.720465],[121.28615,23.720284],[121.286348,23.720106],[121.286737,23.720381],[121.286537,23.72065],[121.286341,23.720647],[121.286147,23.720465]],[[121.289198,23.719686],[121.289297,23.719597],[121.289493,23.719599],[121.289692,23.71942],[121.289689,23.719601],[121.289393,23.719778],[121.28939,23.719959],[121.289196,23.719866],[121.289198,23.719686]],[[121.288217,23.719675],[121.28812,23.719583],[121.288218,23.719585],[121.288217,23.719675]],[[121.301948,23.719646],[121.301848,23.719825],[121.301652,23.719823],[121.301752,23.719643],[121.301948,23.719646]],[[121.2893,23.719416],[121.289005,23.719413],[121.288906,23.719502],[121.288908,23.719321],[121.289107,23.719143],[121.289302,23.719235],[121.2893,23.719416]],[[121.289107,23.719143],[121.28901,23.719052],[121.289108,23.719053],[121.289107,23.719143]],[[121.288418,23.719316],[121.288321,23.719225],[121.288419,23.719226],[121.288418,23.719316]],[[121.290281,23.719337],[121.289992,23.718972],[121.290188,23.718974],[121.290575,23.71934],[121.290281,23.719337]],[[121.289698,23.718969],[121.289694,23.71924],[121.289498,23.719238],[121.2895,23.719057],[121.289698,23.718969]],[[121.291753,23.719262],[121.291657,23.719171],[121.291755,23.719172],[121.291753,23.719262]],[[121.288721,23.718687],[121.288814,23.719049],[121.288519,23.719136],[121.288325,23.718954],[121.288424,23.718864],[121.288332,23.718412],[121.288526,23.718595],[121.288822,23.718417],[121.288918,23.718599],[121.288721,23.718687]],[[121.288919,23.718509],[121.289018,23.71842],[121.289017,23.71851],[121.288919,23.718509]],[[121.288226,23.719043],[121.288129,23.718951],[121.288227,23.718953],[121.288226,23.719043]],[[121.291268,23.718896],[121.291174,23.718534],[121.291076,23.718533],[121.29108,23.718262],[121.291277,23.718174],[121.291379,23.717904],[121.291185,23.717721],[121.291384,23.717543],[121.29158,23.717545],[121.291578,23.717635],[121.291873,23.717638],[121.291376,23.718084],[121.291369,23.718626],[121.291563,23.718809],[121.29156,23.71908],[121.291268,23.718896]],[[121.294114,23.718747],[121.294412,23.718479],[121.294318,23.718117],[121.294418,23.718028],[121.294711,23.718121],[121.294509,23.71857],[121.294112,23.718927],[121.294114,23.718747]],[[121.294701,23.718844],[121.294604,23.718752],[121.294702,23.718753],[121.294701,23.718844]],[[121.29549,23.718491],[121.295389,23.718761],[121.295291,23.71876],[121.295294,23.718489],[121.29549,23.718491]],[[121.295881,23.718586],[121.295785,23.718494],[121.295883,23.718495],[121.295881,23.718586]],[[121.294021,23.718385],[121.294023,23.718204],[121.294121,23.718205],[121.294119,23.718386],[121.294021,23.718385]],[[121.295393,23.7184],[121.295297,23.718308],[121.295395,23.718309],[121.295393,23.7184]],[[121.28804,23.718228],[121.287943,23.718137],[121.288041,23.718138],[121.28804,23.718228]],[[121.288334,23.718231],[121.288237,23.71814],[121.288335,23.718141],[121.288334,23.718231]],[[121.295495,23.71813],[121.295398,23.718039],[121.295496,23.71804],[121.295495,23.71813]],[[121.295593,23.718131],[121.295594,23.718041],[121.29579,23.718043],[121.295789,23.718133],[121.295593,23.718131]],[[121.296383,23.717688],[121.296479,23.71787],[121.296381,23.717869],[121.296379,23.718049],[121.296183,23.718047],[121.296186,23.717776],[121.296383,23.717688]],[[121.297261,23.718059],[121.297164,23.717968],[121.297262,23.717969],[121.297261,23.718059]],[[121.294419,23.717937],[121.294421,23.717757],[121.294519,23.717758],[121.294517,23.717938],[121.294419,23.717937]],[[121.294552,23.71523],[121.294851,23.714872],[121.295047,23.714874],[121.295042,23.715235],[121.295528,23.715602],[121.295426,23.715872],[121.295914,23.716058],[121.296008,23.71642],[121.29542,23.716323],[121.294924,23.716769],[121.294922,23.71695],[121.294824,23.716949],[121.294918,23.717221],[121.294819,23.71731],[121.294428,23.717215],[121.294329,23.717304],[121.294425,23.717486],[121.294226,23.717664],[121.29403,23.717662],[121.294032,23.717482],[121.293837,23.717389],[121.293341,23.717835],[121.293342,23.717745],[121.293146,23.717743],[121.293052,23.717471],[121.292854,23.717559],[121.292858,23.717288],[121.293255,23.716931],[121.293647,23.716936],[121.293748,23.716756],[121.294042,23.716759],[121.294142,23.71658],[121.294338,23.716582],[121.294537,23.716404],[121.294539,23.716223],[121.294345,23.71604],[121.294643,23.715773],[121.295132,23.715868],[121.295331,23.71569],[121.294943,23.715325],[121.294552,23.71523]],[[121.294545,23.715772],[121.294351,23.715589],[121.294745,23.715503],[121.294742,23.715683],[121.294545,23.715772]],[[121.294552,23.71523],[121.294453,23.715319],[121.294454,23.715229],[121.294552,23.71523]],[[121.296577,23.717871],[121.29658,23.71769],[121.296678,23.717691],[121.296675,23.717872],[121.296577,23.717871]],[[121.287949,23.717685],[121.287852,23.717594],[121.28795,23.717595],[121.287949,23.717685]],[[121.288832,23.717695],[121.288735,23.717604],[121.288833,23.717605],[121.288832,23.717695]],[[121.291087,23.71772],[121.29099,23.717629],[121.291088,23.71763],[121.291087,23.71772]],[[121.292069,23.717641],[121.291972,23.717549],[121.29207,23.71755],[121.292069,23.717641]],[[121.292564,23.717285],[121.292462,23.717555],[121.292266,23.717552],[121.292368,23.717283],[121.292564,23.717285]],[[121.288345,23.717419],[121.288248,23.717327],[121.288346,23.717329],[121.288345,23.717419]],[[121.29668,23.717511],[121.296682,23.71733],[121.29678,23.717331],[121.296778,23.717512],[121.29668,23.717511]],[[121.290798,23.717356],[121.2908,23.717175],[121.290898,23.717176],[121.290896,23.717357],[121.290798,23.717356]],[[121.297173,23.717336],[121.297076,23.717244],[121.297174,23.717245],[121.297173,23.717336]],[[121.298942,23.716994],[121.298938,23.717355],[121.29884,23.717354],[121.298746,23.716992],[121.298942,23.716994]],[[121.295019,23.717041],[121.295315,23.716864],[121.295313,23.717044],[121.295016,23.717222],[121.295019,23.717041]],[[121.292077,23.717009],[121.292174,23.7171],[121.292076,23.717099],[121.292077,23.717009]],[[121.292273,23.717011],[121.292079,23.716828],[121.29198,23.716917],[121.291196,23.716909],[121.291203,23.716367],[121.291301,23.716368],[121.291394,23.71673],[121.291786,23.716734],[121.291788,23.716644],[121.292279,23.716559],[121.292578,23.716201],[121.292774,23.716204],[121.292671,23.716564],[121.292278,23.71665],[121.292179,23.716739],[121.292273,23.717011]],[[121.291301,23.716368],[121.291402,23.716098],[121.291598,23.7161],[121.291399,23.716369],[121.291301,23.716368]],[[121.290116,23.716987],[121.290117,23.716897],[121.290414,23.716719],[121.290411,23.7169],[121.290116,23.716987]],[[121.290414,23.716719],[121.290513,23.71663],[121.290512,23.71672],[121.290414,23.716719]],[[121.292864,23.716837],[121.292767,23.716745],[121.292865,23.716746],[121.292864,23.716837]],[[121.298551,23.716899],[121.298555,23.716628],[121.298653,23.71663],[121.298649,23.7169],[121.298551,23.716899]],[[121.297674,23.716528],[121.297572,23.716798],[121.297474,23.716797],[121.297477,23.716526],[121.297674,23.716528]],[[121.290613,23.716451],[121.290516,23.716359],[121.290614,23.71636],[121.290613,23.716451]],[[121.298458,23.716537],[121.298361,23.716446],[121.298459,23.716447],[121.298458,23.716537]],[[121.29885,23.716541],[121.298853,23.716361],[121.298951,23.716362],[121.298948,23.716543],[121.29885,23.716541]],[[121.296694,23.716427],[121.296597,23.716336],[121.296695,23.716337],[121.296694,23.716427]],[[121.296989,23.71634],[121.296992,23.71616],[121.29719,23.715981],[121.297187,23.716252],[121.296989,23.71634]],[[121.29719,23.715981],[121.297289,23.715892],[121.297288,23.715982],[121.29719,23.715981]],[[121.29797,23.716351],[121.297972,23.716171],[121.29807,23.716172],[121.298068,23.716352],[121.29797,23.716351]],[[121.28993,23.716172],[121.289833,23.716081],[121.289931,23.716082],[121.28993,23.716172]],[[121.292384,23.716019],[121.292284,23.716198],[121.292088,23.716196],[121.292188,23.716017],[121.292384,23.716019]],[[121.294049,23.716218],[121.293952,23.716126],[121.29405,23.716127],[121.294049,23.716218]],[[121.296797,23.716067],[121.296799,23.715887],[121.296897,23.715888],[121.296895,23.716068],[121.296797,23.716067]],[[121.301995,23.716034],[121.302096,23.715855],[121.302291,23.715947],[121.302288,23.716128],[121.301995,23.716034]],[[121.302291,23.715947],[121.30239,23.715858],[121.302389,23.715948],[121.302291,23.715947]],[[121.30239,23.715858],[121.302489,23.715769],[121.302488,23.715859],[121.30239,23.715858]],[[121.302489,23.715769],[121.302588,23.715679],[121.302587,23.71577],[121.302489,23.715769]],[[121.292192,23.715746],[121.292288,23.715837],[121.29219,23.715836],[121.292192,23.715746]],[[121.292291,23.715656],[121.292487,23.715659],[121.292486,23.715749],[121.29229,23.715747],[121.292291,23.715656]],[[121.293857,23.715854],[121.29376,23.715763],[121.293859,23.715764],[121.293857,23.715854]],[[121.29298,23.715483],[121.292978,23.715574],[121.292682,23.715751],[121.292684,23.71557],[121.29298,23.715483]],[[121.2969,23.715707],[121.296803,23.715616],[121.296901,23.715617],[121.2969,23.715707]],[[121.298076,23.71572],[121.297979,23.715629],[121.298077,23.71563],[121.298076,23.71572]],[[121.291805,23.71529],[121.291904,23.715201],[121.292101,23.715203],[121.292196,23.715385],[121.2919,23.715562],[121.291803,23.71547],[121.291805,23.71529]],[[121.29347,23.715489],[121.293765,23.715402],[121.293763,23.715582],[121.293469,23.715579],[121.29347,23.715489]],[[121.293765,23.715402],[121.293864,23.715313],[121.293863,23.715403],[121.293765,23.715402]],[[121.293668,23.71531],[121.293669,23.71522],[121.293473,23.715218],[121.293574,23.715039],[121.293379,23.714946],[121.293381,23.714765],[121.29358,23.714587],[121.293972,23.714591],[121.294073,23.714322],[121.294271,23.714234],[121.294273,23.714053],[121.294766,23.713878],[121.295263,23.713341],[121.295159,23.713792],[121.294961,23.71397],[121.294567,23.714056],[121.294368,23.714325],[121.294563,23.714417],[121.294663,23.714238],[121.294859,23.71424],[121.295058,23.714062],[121.295154,23.714153],[121.295548,23.714067],[121.295349,23.714245],[121.295445,23.714427],[121.295147,23.714695],[121.294659,23.714509],[121.294459,23.714868],[121.294168,23.714594],[121.29397,23.714772],[121.293966,23.715043],[121.293668,23.71531]],[[121.293473,23.715218],[121.293374,23.715307],[121.293375,23.715217],[121.293473,23.715218]],[[121.293374,23.715307],[121.293275,23.715396],[121.293276,23.715306],[121.293374,23.715307]],[[121.296022,23.715336],[121.296021,23.715427],[121.295724,23.715604],[121.295726,23.715423],[121.296024,23.715156],[121.296318,23.715159],[121.296218,23.715339],[121.296022,23.715336]],[[121.296318,23.715159],[121.296417,23.71507],[121.296416,23.71516],[121.296318,23.715159]],[[121.297982,23.715448],[121.297885,23.715357],[121.297983,23.715358],[121.297982,23.715448]],[[121.293178,23.715305],[121.293081,23.715214],[121.293179,23.715215],[121.293178,23.715305]],[[121.295928,23.714974],[121.295828,23.715154],[121.295533,23.715241],[121.295535,23.71506],[121.295928,23.714974]],[[121.297398,23.715081],[121.297794,23.714814],[121.297797,23.714543],[121.297895,23.714544],[121.297999,23.714094],[121.298097,23.714095],[121.298192,23.714367],[121.297995,23.714455],[121.297989,23.714907],[121.297592,23.715263],[121.297396,23.715261],[121.297398,23.715081]],[[121.298376,23.715272],[121.298282,23.715],[121.298577,23.714913],[121.298574,23.715184],[121.298376,23.715272]],[[121.298579,23.714732],[121.298678,23.714734],[121.298584,23.714371],[121.298883,23.714013],[121.298689,23.713831],[121.298788,23.713741],[121.298695,23.713379],[121.298992,23.713202],[121.298995,23.712931],[121.299292,23.712754],[121.299001,23.71248],[121.299005,23.712209],[121.299403,23.711762],[121.299294,23.712573],[121.299585,23.712847],[121.299879,23.71285],[121.299878,23.712941],[121.299778,23.71303],[121.299485,23.712936],[121.299287,23.713115],[121.299285,23.713295],[121.299383,23.713297],[121.299477,23.713568],[121.299871,23.713482],[121.299965,23.713754],[121.299672,23.713661],[121.299275,23.714018],[121.299178,23.713926],[121.298981,23.714014],[121.298978,23.714285],[121.298779,23.714464],[121.298973,23.714646],[121.29917,23.714558],[121.299067,23.714918],[121.298773,23.714915],[121.298774,23.714825],[121.298577,23.714913],[121.298579,23.714732]],[[121.298688,23.713921],[121.29859,23.71392],[121.298487,23.71428],[121.2981,23.713914],[121.298304,23.713285],[121.297913,23.71319],[121.298211,23.712922],[121.298118,23.71247],[121.29802,23.712469],[121.297926,23.712197],[121.298123,23.712109],[121.298029,23.711837],[121.298222,23.71202],[121.298419,23.712022],[121.298518,23.711933],[121.298423,23.711661],[121.298717,23.711664],[121.298916,23.711485],[121.298808,23.712207],[121.298709,23.712296],[121.298514,23.712203],[121.298316,23.712382],[121.29851,23.712565],[121.298308,23.713014],[121.298503,23.713106],[121.298499,23.713377],[121.298597,23.713378],[121.298494,23.713738],[121.298688,23.713921]],[[121.299403,23.711762],[121.299308,23.71149],[121.299406,23.711491],[121.29941,23.71122],[121.299508,23.711221],[121.299501,23.711763],[121.299403,23.711762]],[[121.298978,23.714285],[121.299074,23.714377],[121.298976,23.714376],[121.298978,23.714285]],[[121.291808,23.715109],[121.291711,23.715018],[121.291809,23.715019],[121.291808,23.715109]],[[121.303379,23.715237],[121.303282,23.715145],[121.30338,23.715146],[121.303379,23.715237]],[[121.305144,23.715256],[121.305146,23.715075],[121.305244,23.715077],[121.305242,23.715257],[121.305144,23.715256]],[[121.287691,23.714883],[121.28769,23.714973],[121.287396,23.71497],[121.287398,23.71479],[121.287691,23.714883]],[[121.293085,23.714943],[121.292988,23.714851],[121.293086,23.714853],[121.293085,23.714943]],[[121.296028,23.714885],[121.296124,23.714976],[121.296026,23.714975],[121.296028,23.714885]],[[121.296126,23.714886],[121.296225,23.714797],[121.296224,23.714887],[121.296126,23.714886]],[[121.291913,23.714569],[121.291812,23.714748],[121.291714,23.714747],[121.291717,23.714567],[121.291913,23.714569]],[[121.303972,23.714882],[121.303875,23.714791],[121.303973,23.714792],[121.303972,23.714882]],[[121.305444,23.714808],[121.305742,23.71445],[121.305939,23.714452],[121.306132,23.714635],[121.30613,23.714815],[121.305738,23.714811],[121.305737,23.714901],[121.305444,23.714808]],[[121.290148,23.714549],[121.290051,23.714458],[121.290149,23.714459],[121.290148,23.714549]],[[121.30417,23.714704],[121.304172,23.714523],[121.30427,23.714524],[121.304268,23.714705],[121.30417,23.714704]],[[121.293191,23.714312],[121.293486,23.714225],[121.293484,23.714405],[121.293091,23.714491],[121.293191,23.714312]],[[121.299955,23.714567],[121.299957,23.714386],[121.300055,23.714387],[121.300053,23.714568],[121.299955,23.714567]],[[121.304761,23.714529],[121.304664,23.714438],[121.304762,23.714439],[121.304761,23.714529]],[[121.304862,23.71426],[121.304765,23.714168],[121.304863,23.714169],[121.304862,23.71426]],[[121.293194,23.714041],[121.293098,23.71395],[121.293196,23.713951],[121.293194,23.714041]],[[121.299767,23.713933],[121.299764,23.714113],[121.299568,23.714111],[121.299569,23.714021],[121.299767,23.713933]],[[121.304667,23.714167],[121.30457,23.714076],[121.304668,23.714077],[121.304667,23.714167]],[[121.295355,23.713794],[121.295549,23.713977],[121.295353,23.713975],[121.295355,23.713794]],[[121.295745,23.713979],[121.295648,23.713888],[121.295746,23.713889],[121.295745,23.713979]],[[121.293295,23.713862],[121.293198,23.71377],[121.293296,23.713771],[121.293295,23.713862]],[[121.293002,23.713768],[121.292905,23.713677],[121.293003,23.713678],[121.293002,23.713768]],[[121.294181,23.7136],[121.294081,23.71378],[121.293884,23.713778],[121.293985,23.713598],[121.294181,23.7136]],[[121.294574,23.713514],[121.294572,23.713695],[121.294277,23.713782],[121.294279,23.713602],[121.294574,23.713514]],[[121.304279,23.713892],[121.304281,23.713711],[121.304379,23.713713],[121.304377,23.713893],[121.304279,23.713892]],[[121.295855,23.713077],[121.295759,23.712895],[121.295464,23.712982],[121.295466,23.712802],[121.295958,23.712717],[121.29596,23.712536],[121.296356,23.71227],[121.296358,23.712089],[121.296653,23.712002],[121.296462,23.711639],[121.29676,23.711371],[121.296762,23.711191],[121.296961,23.711012],[121.297157,23.711015],[121.297454,23.710747],[121.297457,23.710566],[121.297653,23.710569],[121.29765,23.710749],[121.297552,23.710748],[121.297643,23.711291],[121.297446,23.711379],[121.297737,23.711653],[121.297538,23.711831],[121.297633,23.712103],[121.297534,23.712193],[121.297241,23.712099],[121.29714,23.712279],[121.296847,23.712185],[121.296748,23.712274],[121.296843,23.712546],[121.296645,23.712634],[121.296642,23.712905],[121.296052,23.712989],[121.295953,23.713078],[121.295947,23.71353],[121.295651,23.713707],[121.295757,23.713076],[121.295855,23.713077]],[[121.303987,23.713708],[121.30389,23.713617],[121.303988,23.713618],[121.303987,23.713708]],[[121.29124,23.713478],[121.291143,23.713386],[121.291242,23.713387],[121.29124,23.713478]],[[121.293986,23.713508],[121.293987,23.713418],[121.294183,23.71342],[121.294182,23.71351],[121.293986,23.713508]],[[121.290853,23.713112],[121.291152,23.712754],[121.291442,23.713028],[121.291638,23.713031],[121.291636,23.713211],[121.290951,23.713113],[121.29085,23.713293],[121.290556,23.71329],[121.290557,23.713199],[121.290853,23.713112]],[[121.294282,23.713331],[121.294285,23.71315],[121.294481,23.713152],[121.29448,23.713243],[121.294282,23.713331]],[[121.294481,23.713152],[121.294681,23.712884],[121.294876,23.712976],[121.294775,23.713155],[121.294481,23.713152]],[[121.295264,23.713251],[121.295167,23.71316],[121.295265,23.713161],[121.295264,23.713251]],[[121.299973,23.713122],[121.300167,23.713305],[121.299971,23.713303],[121.299973,23.713122]],[[121.306737,23.713377],[121.30664,23.713286],[121.306738,23.713287],[121.306737,23.713377]],[[121.295462,23.713163],[121.295365,23.713072],[121.295463,23.713073],[121.295462,23.713163]],[[121.305858,23.713097],[121.30576,23.713096],[121.305762,23.712915],[121.306151,23.71319],[121.305856,23.713277],[121.305858,23.713097]],[[121.306151,23.71319],[121.306248,23.713282],[121.30615,23.71328],[121.306151,23.71319]],[[121.294188,23.713059],[121.294091,23.712967],[121.294189,23.712968],[121.294188,23.713059]],[[121.30027,23.712945],[121.300367,23.713036],[121.300269,23.713035],[121.30027,23.712945]],[[121.300466,23.712947],[121.300272,23.712764],[121.300568,23.712677],[121.300565,23.712858],[121.300466,23.712947]],[[121.30223,23.713057],[121.302133,23.712966],[121.302231,23.712967],[121.30223,23.713057]],[[121.295073,23.712888],[121.294976,23.712797],[121.295074,23.712798],[121.295073,23.712888]],[[121.297234,23.712641],[121.297434,23.712282],[121.297532,23.712283],[121.297629,23.712374],[121.297525,23.712825],[121.297329,23.712822],[121.297332,23.712642],[121.297234,23.712641]],[[121.301157,23.712594],[121.301155,23.712774],[121.300957,23.712862],[121.30096,23.712682],[121.301157,23.712594]],[[121.302036,23.712874],[121.302037,23.712784],[121.302233,23.712786],[121.302232,23.712876],[121.302036,23.712874]],[[121.294585,23.712702],[121.294488,23.712611],[121.294586,23.712612],[121.294585,23.712702]],[[121.295173,23.712708],[121.295076,23.712617],[121.295174,23.712618],[121.295173,23.712708]],[[121.299983,23.7124],[121.300178,23.712493],[121.300077,23.712672],[121.299784,23.712579],[121.299983,23.7124]],[[121.299785,23.712488],[121.299689,23.712397],[121.299787,23.712398],[121.299785,23.712488]],[[121.299689,23.712397],[121.299592,23.712306],[121.29969,23.712307],[121.299689,23.712397]],[[121.301352,23.712686],[121.301353,23.712596],[121.301549,23.712598],[121.301548,23.712688],[121.301352,23.712686]],[[121.304392,23.712719],[121.304295,23.712628],[121.304393,23.712629],[121.304392,23.712719]],[[121.294885,23.712254],[121.294587,23.712521],[121.294591,23.71225],[121.294885,23.712254]],[[121.294885,23.712254],[121.294984,23.712165],[121.294983,23.712255],[121.294885,23.712254]],[[121.300569,23.712587],[121.300472,23.712496],[121.30057,23.712497],[121.300569,23.712587]],[[121.305962,23.712646],[121.306061,23.712557],[121.30606,23.712647],[121.305962,23.712646]],[[121.305963,23.712556],[121.305866,23.712465],[121.305964,23.712466],[121.305963,23.712556]],[[121.295378,23.712079],[121.295376,23.712169],[121.29518,23.712167],[121.295379,23.711988],[121.295381,23.711808],[121.295283,23.711807],[121.29539,23.711085],[121.295587,23.711088],[121.295584,23.711268],[121.295682,23.711269],[121.295583,23.711358],[121.29568,23.71145],[121.295574,23.712081],[121.295769,23.712173],[121.295766,23.712354],[121.29557,23.712352],[121.295573,23.712171],[121.295378,23.712079]],[[121.300963,23.712411],[121.300767,23.712409],[121.30077,23.712228],[121.300868,23.712229],[121.300963,23.712411]],[[121.300671,23.712227],[121.300674,23.712047],[121.300772,23.712048],[121.30077,23.712228],[121.300671,23.712227]],[[121.30028,23.712132],[121.300378,23.712134],[121.300376,23.712314],[121.300278,23.712313],[121.30028,23.712132]],[[121.30028,23.712132],[121.300184,23.712041],[121.300282,23.712042],[121.30028,23.712132]],[[121.304495,23.712359],[121.304398,23.712268],[121.304496,23.712269],[121.304495,23.712359]],[[121.299789,23.712217],[121.299692,23.712126],[121.29979,23.712127],[121.299789,23.712217]],[[121.301162,23.712232],[121.301164,23.712052],[121.301262,23.712053],[121.301358,23.712235],[121.301162,23.712232]],[[121.30136,23.712054],[121.301165,23.711962],[121.301266,23.711782],[121.301168,23.711781],[121.301074,23.711419],[121.301468,23.711333],[121.301365,23.711693],[121.30156,23.711785],[121.301558,23.711966],[121.301361,23.711964],[121.30136,23.712054]],[[121.304692,23.712271],[121.304595,23.71218],[121.304693,23.712181],[121.304692,23.712271]],[[121.302831,23.71207],[121.302734,23.711979],[121.302832,23.71198],[121.302831,23.71207]],[[121.296169,23.711545],[121.296066,23.711906],[121.29587,23.711903],[121.295973,23.711543],[121.296169,23.711545]],[[121.300969,23.711959],[121.301068,23.71187],[121.301067,23.711961],[121.300969,23.711959]],[[121.30097,23.711869],[121.300873,23.711778],[121.300972,23.711779],[121.30097,23.711869]],[[121.300088,23.711859],[121.30009,23.711679],[121.300188,23.71168],[121.300186,23.711861],[121.300088,23.711859]],[[121.302735,23.711889],[121.302638,23.711797],[121.302737,23.711798],[121.302735,23.711889]],[[121.300583,23.711504],[121.300686,23.711144],[121.300883,23.711056],[121.30078,23.711416],[121.300974,23.711598],[121.300583,23.711504]],[[121.304798,23.71164],[121.304701,23.711549],[121.304799,23.71155],[121.304798,23.71164]],[[121.298131,23.711477],[121.298034,23.711385],[121.298133,23.711386],[121.298131,23.711477]],[[121.305976,23.711563],[121.305879,23.711472],[121.305977,23.711473],[121.305976,23.711563]],[[121.295877,23.711362],[121.29578,23.71127],[121.295878,23.711271],[121.295877,23.711362]],[[121.298527,23.71121],[121.298726,23.711032],[121.298728,23.710851],[121.298925,23.710763],[121.298829,23.710581],[121.298535,23.710578],[121.298536,23.710488],[121.298832,23.710401],[121.298928,23.710583],[121.299124,23.710585],[121.299022,23.710854],[121.298924,23.710853],[121.298922,23.711034],[121.299115,23.711217],[121.299017,23.711216],[121.299015,23.711396],[121.298527,23.71121]],[[121.29608,23.710822],[121.296077,23.711093],[121.295783,23.71109],[121.295785,23.710909],[121.29608,23.710822]],[[121.303823,23.711178],[121.303726,23.711087],[121.303825,23.711088],[121.303823,23.711178]],[[121.304804,23.711189],[121.304903,23.7111],[121.304902,23.71119],[121.304804,23.711189]],[[121.304805,23.711099],[121.304708,23.711007],[121.304806,23.711008],[121.304805,23.711099]],[[121.298434,23.710848],[121.298431,23.711029],[121.298333,23.711027],[121.298238,23.710846],[121.298434,23.710848]],[[121.298044,23.710663],[121.29804,23.710934],[121.297942,23.710933],[121.297848,23.710661],[121.298044,23.710663]],[[121.304414,23.711004],[121.304317,23.710913],[121.304415,23.710914],[121.304414,23.711004]],[[121.301375,23.71088],[121.301279,23.710789],[121.301377,23.71079],[121.301375,23.71088]],[[121.30569,23.710928],[121.305789,23.710838],[121.305788,23.710929],[121.30569,23.710928]],[[121.305691,23.710837],[121.305594,23.710746],[121.305692,23.710747],[121.305691,23.710837]],[[121.305397,23.710834],[121.3053,23.710743],[121.305398,23.710744],[121.305397,23.710834]],[[121.300791,23.710603],[121.300987,23.710605],[121.300986,23.710695],[121.300789,23.710693],[121.300791,23.710603]],[[121.300594,23.710601],[121.300597,23.71042],[121.300499,23.710419],[121.300502,23.710148],[121.300795,23.710242],[121.300696,23.710331],[121.300791,23.710603],[121.300594,23.710601]],[[121.29795,23.710301],[121.298049,23.710302],[121.298046,23.710483],[121.297948,23.710481],[121.29795,23.710301]],[[121.29795,23.710301],[121.297756,23.710208],[121.297557,23.710387],[121.297461,23.710205],[121.297657,23.710207],[121.297857,23.709939],[121.298053,23.709941],[121.29795,23.710301]],[[121.299126,23.710404],[121.299029,23.710313],[121.299127,23.710314],[121.299126,23.710404]],[[121.298833,23.710311],[121.298637,23.710308],[121.298638,23.710218],[121.298343,23.710305],[121.298248,23.710033],[121.298444,23.710035],[121.298443,23.710126],[121.299033,23.710042],[121.298833,23.710311]],[[121.299228,23.710134],[121.299226,23.710225],[121.29903,23.710222],[121.299031,23.710132],[121.299228,23.710134]],[[121.300206,23.710326],[121.300109,23.710234],[121.300207,23.710235],[121.300206,23.710326]],[[121.299719,23.710049],[121.299816,23.710141],[121.299718,23.71014],[121.299719,23.710049]],[[121.299821,23.70978],[121.300017,23.709782],[121.299917,23.709871],[121.300013,23.710053],[121.299817,23.710051],[121.299821,23.70978]],[[121.300017,23.709782],[121.300116,23.709693],[121.300115,23.709783],[121.300017,23.709782]],[[121.305797,23.710206],[121.3057,23.710115],[121.305798,23.710116],[121.305797,23.710206]],[[121.298447,23.709855],[121.298445,23.709945],[121.298249,23.709943],[121.298251,23.709853],[121.298447,23.709855]],[[121.298447,23.709855],[121.298645,23.709676],[121.298741,23.709858],[121.298447,23.709855]],[[121.300407,23.709967],[121.30031,23.709875],[121.300408,23.709876],[121.300407,23.709967]],[[121.297395,23.707766],[121.297684,23.708131],[121.297488,23.708129],[121.297489,23.708038],[121.297194,23.708125],[121.297288,23.708488],[121.29709,23.708576],[121.297182,23.709028],[121.297473,23.709302],[121.297471,23.709483],[121.297177,23.70948],[121.296886,23.709206],[121.296687,23.709384],[121.296683,23.709745],[121.296486,23.709833],[121.296299,23.709109],[121.296497,23.70893],[121.296601,23.70848],[121.296996,23.708304],[121.296805,23.70785],[121.296905,23.707761],[121.297199,23.707764],[121.297198,23.707855],[121.297395,23.707766]],[[121.297493,23.707767],[121.297299,23.707585],[121.297497,23.707497],[121.297499,23.707316],[121.297304,23.707224],[121.297403,23.707134],[121.297307,23.706953],[121.297506,23.706774],[121.297603,23.706866],[121.297502,23.707045],[121.297891,23.70732],[121.297889,23.707501],[121.297694,23.707408],[121.297595,23.707498],[121.29769,23.707679],[121.297494,23.707677],[121.297493,23.707767]],[[121.297889,23.707501],[121.297986,23.707592],[121.297888,23.707591],[121.297889,23.707501]],[[121.29779,23.70759],[121.29808,23.707864],[121.298276,23.707866],[121.298275,23.707957],[121.297883,23.707952],[121.29779,23.70759]],[[121.300314,23.709514],[121.300509,23.709607],[121.300507,23.709787],[121.300312,23.709695],[121.300314,23.709514]],[[121.302566,23.70981],[121.302469,23.709718],[121.302567,23.70972],[121.302566,23.70981]],[[121.299626,23.709687],[121.299628,23.709507],[121.299726,23.709508],[121.299724,23.709688],[121.299626,23.709687]],[[121.300124,23.709061],[121.300217,23.709423],[121.300019,23.709601],[121.299926,23.709239],[121.299731,23.709147],[121.299833,23.708787],[121.300124,23.709061]],[[121.299935,23.708517],[121.299741,23.708334],[121.299846,23.707793],[121.300041,23.707886],[121.300038,23.708157],[121.29994,23.708156],[121.300033,23.708518],[121.300131,23.708519],[121.30003,23.708789],[121.299931,23.708788],[121.299935,23.708517]],[[121.308848,23.709427],[121.308845,23.709608],[121.308747,23.709607],[121.308749,23.709426],[121.308848,23.709427]],[[121.308848,23.709427],[121.308947,23.709338],[121.308946,23.709428],[121.308848,23.709427]],[[121.297767,23.709306],[121.29767,23.709214],[121.297768,23.709215],[121.297767,23.709306]],[[121.302474,23.709357],[121.302475,23.709267],[121.302769,23.70927],[121.302768,23.709361],[121.302474,23.709357]],[[121.30326,23.709276],[121.303163,23.709184],[121.303261,23.709185],[121.30326,23.709276]],[[121.297966,23.709127],[121.297967,23.709037],[121.298163,23.709039],[121.298162,23.709129],[121.297966,23.709127]],[[121.302183,23.709083],[121.302086,23.708992],[121.302184,23.708993],[121.302183,23.709083]],[[121.304148,23.708834],[121.304245,23.708925],[121.304147,23.708924],[121.304148,23.708834]],[[121.304246,23.708835],[121.304345,23.708746],[121.304344,23.708836],[121.304246,23.708835]],[[121.310128,23.70899],[121.310031,23.708898],[121.310129,23.708899],[121.310128,23.70899]],[[121.302678,23.708727],[121.302581,23.708636],[121.302679,23.708637],[121.302678,23.708727]],[[121.305718,23.708761],[121.30572,23.70858],[121.305818,23.708581],[121.305816,23.708762],[121.305718,23.708761]],[[121.306407,23.708588],[121.306408,23.708497],[121.306604,23.7085],[121.306603,23.70859],[121.306407,23.708588]],[[121.297485,23.708399],[121.297487,23.708219],[121.297585,23.70822],[121.297583,23.708401],[121.297485,23.708399]],[[121.301897,23.708448],[121.3018,23.708357],[121.301898,23.708358],[121.301897,23.708448]],[[121.305329,23.708486],[121.305332,23.708305],[121.30543,23.708306],[121.305427,23.708487],[121.305329,23.708486]],[[121.300722,23.708345],[121.300625,23.708253],[121.300723,23.708254],[121.300722,23.708345]],[[121.302195,23.70818],[121.302098,23.708089],[121.302196,23.70809],[121.302195,23.70818]],[[121.306313,23.708225],[121.306216,23.708134],[121.306314,23.708135],[121.306313,23.708225]],[[121.307882,23.708243],[121.307785,23.708151],[121.307883,23.708152],[121.307882,23.708243]],[[121.304746,23.708118],[121.304748,23.707937],[121.304846,23.707939],[121.304844,23.708119],[121.304746,23.708118]],[[121.296412,23.707936],[121.296414,23.707756],[121.296512,23.707757],[121.29651,23.707937],[121.296412,23.707936]],[[121.299354,23.707969],[121.299356,23.707788],[121.299454,23.707789],[121.299452,23.70797],[121.299354,23.707969]],[[121.296707,23.707849],[121.296611,23.707758],[121.296709,23.707759],[121.296707,23.707849]],[[121.305927,23.70777],[121.306126,23.707501],[121.306418,23.707685],[121.306219,23.707954],[121.305927,23.70777]],[[121.302004,23.707817],[121.302005,23.707727],[121.302201,23.707729],[121.3022,23.707819],[121.302004,23.707817]],[[121.304182,23.706216],[121.304084,23.706214],[121.304186,23.705854],[121.304385,23.705676],[121.304581,23.705678],[121.304775,23.705861],[121.304575,23.70613],[121.304672,23.706221],[121.304869,23.706133],[121.305063,23.706316],[121.304963,23.706495],[121.30535,23.70686],[121.30525,23.70704],[121.305445,23.707132],[121.305344,23.707312],[121.305539,23.707404],[121.305537,23.707585],[121.305339,23.707763],[121.304756,23.707305],[121.304954,23.707127],[121.304957,23.706946],[121.304763,23.706764],[121.304863,23.706584],[121.30467,23.706401],[121.304474,23.706399],[121.304472,23.70649],[121.304277,23.706397],[121.304079,23.706576],[121.303983,23.706394],[121.304182,23.706216]],[[121.303983,23.706394],[121.303886,23.706303],[121.303984,23.706304],[121.303983,23.706394]],[[121.303788,23.706302],[121.303687,23.706571],[121.303491,23.706569],[121.303201,23.706205],[121.3034,23.706026],[121.303693,23.70612],[121.303891,23.705941],[121.303986,23.706213],[121.303788,23.706302]],[[121.303891,23.705941],[121.30399,23.705852],[121.303989,23.705943],[121.303891,23.705941]],[[121.29573,23.707567],[121.295634,23.707476],[121.295732,23.707477],[121.29573,23.707567]],[[121.296908,23.70749],[121.297005,23.707582],[121.296907,23.70758],[121.296908,23.70749]],[[121.29701,23.70722],[121.297108,23.707221],[121.297104,23.707492],[121.297006,23.707491],[121.29701,23.70722]],[[121.297108,23.707221],[121.297207,23.707132],[121.297206,23.707223],[121.297108,23.707221]],[[121.300733,23.707442],[121.300641,23.706989],[121.300839,23.706901],[121.300841,23.706721],[121.30055,23.706447],[121.300748,23.706358],[121.300751,23.706088],[121.300849,23.706089],[121.300752,23.705997],[121.300857,23.705457],[121.300374,23.70491],[121.300669,23.704823],[121.300863,23.705005],[121.300965,23.704735],[121.301063,23.704737],[121.30116,23.704828],[121.301056,23.705278],[121.301249,23.705461],[121.301446,23.705463],[121.301546,23.705284],[121.301352,23.705101],[121.301549,23.705013],[121.301552,23.704832],[121.301454,23.704831],[121.301553,23.704742],[121.301559,23.70429],[121.301266,23.704197],[121.301165,23.704376],[121.300969,23.704374],[121.300972,23.704194],[121.300679,23.7041],[121.300479,23.704369],[121.300283,23.704367],[121.300187,23.704185],[121.299891,23.704362],[121.299697,23.70418],[121.299699,23.703999],[121.300197,23.703463],[121.300393,23.703465],[121.300681,23.70392],[121.300979,23.703652],[121.301272,23.703746],[121.301371,23.703656],[121.301275,23.703475],[121.301373,23.703476],[121.301377,23.703205],[121.301475,23.703206],[121.301381,23.702844],[121.301678,23.702666],[121.301872,23.702849],[121.301769,23.703209],[121.301867,23.70321],[121.30196,23.703573],[121.302158,23.703484],[121.302063,23.703212],[121.302262,23.703034],[121.302553,23.703218],[121.302453,23.703397],[121.302648,23.70349],[121.302548,23.703669],[121.302646,23.70367],[121.302642,23.703941],[121.30274,23.703942],[121.302734,23.704394],[121.302537,23.704482],[121.302434,23.704842],[121.301938,23.705288],[121.301834,23.705738],[121.301736,23.705737],[121.301734,23.705918],[121.301832,23.705919],[121.30173,23.706189],[121.301925,23.706281],[121.301923,23.706462],[121.301825,23.706461],[121.30182,23.706822],[121.301722,23.706821],[121.301621,23.70709],[121.301814,23.707273],[121.301618,23.707271],[121.301221,23.707628],[121.300927,23.707625],[121.300733,23.707442]],[[121.296517,23.707396],[121.296716,23.707217],[121.29662,23.707035],[121.297017,23.706679],[121.297111,23.706951],[121.296816,23.707038],[121.296712,23.707488],[121.296517,23.707396]],[[121.297318,23.70614],[121.297316,23.706321],[121.297414,23.706322],[121.297411,23.706502],[121.297216,23.70641],[121.29722,23.706139],[121.297318,23.70614]],[[121.299176,23.706522],[121.299079,23.70643],[121.299177,23.706432],[121.299176,23.706522]],[[121.303,23.706564],[121.302904,23.706472],[121.303002,23.706474],[121.303,23.706564]],[[121.29918,23.706251],[121.299182,23.70607],[121.29928,23.706071],[121.299278,23.706252],[121.29918,23.706251]],[[121.297518,23.705871],[121.297711,23.706054],[121.297515,23.706052],[121.297518,23.705871]],[[121.299675,23.705895],[121.299384,23.705621],[121.299388,23.70535],[121.299486,23.705351],[121.29939,23.70517],[121.299489,23.70508],[121.299685,23.705083],[121.299878,23.705356],[121.300076,23.705177],[121.300368,23.705361],[121.30017,23.705539],[121.300265,23.705721],[121.300067,23.705899],[121.29997,23.705808],[121.299675,23.705895]],[[121.297029,23.705776],[121.297031,23.705595],[121.297129,23.705596],[121.297127,23.705777],[121.297029,23.705776]],[[121.302619,23.705747],[121.302522,23.705656],[121.30262,23.705657],[121.302619,23.705747]],[[121.296934,23.705504],[121.296936,23.705323],[121.297034,23.705324],[121.297032,23.705505],[121.296934,23.705504]],[[121.304,23.70513],[121.304101,23.70486],[121.303907,23.704677],[121.304204,23.7045],[121.304398,23.704683],[121.304297,23.704862],[121.304492,23.704955],[121.30449,23.705135],[121.304291,23.705314],[121.304,23.70513]],[[121.297436,23.704606],[121.297832,23.70434],[121.297827,23.704701],[121.297729,23.7047],[121.297626,23.70506],[121.297431,23.704968],[121.297436,23.704606]],[[121.303321,23.70449],[121.303619,23.704223],[121.303425,23.70404],[121.303625,23.703771],[121.303819,23.703954],[121.304016,23.703866],[121.30421,23.704049],[121.30401,23.704317],[121.303913,23.704226],[121.303716,23.704314],[121.303812,23.704496],[121.303613,23.704674],[121.303321,23.70449]],[[121.308126,23.704543],[121.308029,23.704452],[121.308127,23.704453],[121.308126,23.704543]],[[121.297541,23.704066],[121.297539,23.704246],[121.297343,23.704244],[121.297344,23.704154],[121.297541,23.704066]],[[121.29833,23.703713],[121.298327,23.703984],[121.298129,23.704072],[121.298132,23.703892],[121.29833,23.703713]],[[121.297448,23.703704],[121.297351,23.703612],[121.297449,23.703613],[121.297448,23.703704]],[[121.299416,23.703183],[121.299419,23.702913],[121.299032,23.702547],[121.299034,23.702366],[121.299132,23.702368],[121.299136,23.702097],[121.299531,23.70183],[121.299821,23.702195],[121.299906,23.703189],[121.299808,23.703188],[121.299706,23.703457],[121.299416,23.703183]],[[121.298727,23.703356],[121.29863,23.703265],[121.298728,23.703266],[121.298727,23.703356]],[[121.298729,23.703176],[121.298632,23.703084],[121.298731,23.703086],[121.298729,23.703176]],[[121.298256,23.701906],[121.298455,23.701638],[121.298747,23.701822],[121.298547,23.70209],[121.298256,23.701906]],[[121.304071,23.699622],[121.304168,23.699714],[121.30407,23.699713],[121.304071,23.699622]],[[121.304169,23.699624],[121.304268,23.699534],[121.304267,23.699625],[121.304169,23.699624]],[[121.304682,23.697823],[121.304581,23.698093],[121.304483,23.698092],[121.304486,23.697821],[121.304682,23.697823]]],[[[121.306263,23.719693],[121.306466,23.719153],[121.306368,23.719152],[121.306274,23.71888],[121.306568,23.718884],[121.306667,23.718794],[121.306571,23.718613],[121.306179,23.718608],[121.306078,23.718878],[121.305781,23.719056],[121.305495,23.71842],[121.304711,23.718412],[121.304611,23.718501],[121.304897,23.719136],[121.305483,23.719323],[121.305579,23.719505],[121.306069,23.71951],[121.306263,23.719693]]],[[[121.287043,23.719481],[121.287339,23.719304],[121.287342,23.719123],[121.287147,23.719031],[121.287153,23.718579],[121.28686,23.718486],[121.286462,23.718933],[121.286657,23.719025],[121.286653,23.719296],[121.286847,23.719479],[121.287043,23.719481]]],[[[121.283781,23.721432],[121.284178,23.721075],[121.284082,23.720893],[121.283886,23.720891],[121.283692,23.720708],[121.283695,23.720528],[121.283992,23.72026],[121.283601,23.720165],[121.283501,23.720345],[121.282912,23.720338],[121.282525,23.719973],[121.282528,23.719702],[121.282334,23.71961],[121.282336,23.719429],[121.28293,23.718984],[121.282836,23.718712],[121.282542,23.718709],[121.282543,23.718619],[121.282149,23.718705],[121.282052,23.718613],[121.281853,23.718882],[121.281559,23.718879],[121.281557,23.718969],[121.281361,23.718967],[121.281261,23.719146],[121.281065,23.719144],[121.280866,23.719322],[121.28067,23.71932],[121.280671,23.71923],[121.280376,23.719317],[121.280279,23.719226],[121.280179,23.719405],[121.279982,23.719403],[121.279784,23.719581],[121.279783,23.719672],[121.279979,23.719674],[121.279977,23.719854],[121.280369,23.719859],[121.280366,23.720039],[121.280759,23.720044],[121.280756,23.720224],[121.28105,23.720227],[121.281053,23.720047],[121.281444,23.720142],[121.281146,23.720409],[121.281538,23.720413],[121.281534,23.720775],[121.28173,23.720777],[121.281727,23.720957],[121.282806,23.720969],[121.282801,23.72133],[121.283293,23.721246],[121.283389,23.721427],[121.283781,23.721432]],[[121.282031,23.720238],[121.281931,23.720418],[121.281736,23.720325],[121.281737,23.720235],[121.282031,23.720238]]],[[[121.30452,23.725543],[121.304719,23.725365],[121.304328,23.72527],[121.304234,23.724908],[121.303941,23.724815],[121.303749,23.724542],[121.303552,23.724539],[121.303451,23.724809],[121.303743,23.724993],[121.303739,23.725264],[121.303836,23.725355],[121.304033,23.725267],[121.304127,23.725629],[121.304321,23.725812],[121.304518,23.725724],[121.30452,23.725543]]],[[[121.297148,23.726817],[121.297545,23.72646],[121.297351,23.726277],[121.297055,23.726364],[121.297058,23.726184],[121.297254,23.726186],[121.297355,23.725916],[121.297453,23.725917],[121.29736,23.725555],[121.297164,23.725553],[121.296766,23.726],[121.296374,23.725996],[121.296375,23.725905],[121.296079,23.725992],[121.295887,23.725719],[121.29559,23.725897],[121.2953,23.725623],[121.294906,23.725708],[121.294903,23.725979],[121.295491,23.725986],[121.295489,23.726166],[121.295881,23.726171],[121.295879,23.726351],[121.296075,23.726353],[121.296072,23.726534],[121.296564,23.726449],[121.296951,23.726815],[121.297148,23.726817]],[[121.296663,23.72636],[121.296566,23.726269],[121.296664,23.72627],[121.296663,23.72636]]],[[[121.303229,23.726793],[121.303921,23.726349],[121.303928,23.725808],[121.303831,23.725716],[121.303535,23.725894],[121.303533,23.726074],[121.303338,23.725982],[121.303039,23.72634],[121.303229,23.726793]]],[[[121.305764,23.727995],[121.305473,23.727721],[121.305478,23.72736],[121.30509,23.726994],[121.304699,23.7269],[121.304598,23.727079],[121.304891,23.727173],[121.305081,23.727717],[121.305374,23.72781],[121.305566,23.728083],[121.305764,23.727995]]],[[[121.302436,23.727417],[121.302047,23.727142],[121.301948,23.727231],[121.301753,23.727138],[121.301357,23.727405],[121.301355,23.727585],[121.301453,23.727587],[121.301451,23.727767],[121.301746,23.72768],[121.301841,23.727952],[121.30233,23.728048],[121.302429,23.727958],[121.302436,23.727417]],[[121.302042,23.727593],[121.301845,23.727591],[121.301849,23.72732],[121.301947,23.727321],[121.302042,23.727593]]],[[[121.312961,23.709833],[121.312864,23.709742],[121.313062,23.709654],[121.313066,23.709293],[121.31268,23.708837],[121.31278,23.708657],[121.312683,23.708566],[121.312486,23.708654],[121.312488,23.708474],[121.312198,23.708199],[121.311512,23.708102],[121.311314,23.70828],[121.311312,23.708461],[121.311699,23.708826],[121.311599,23.709006],[121.311697,23.709007],[121.311788,23.70955],[121.312081,23.709643],[121.312177,23.709825],[121.312667,23.70983],[121.312763,23.710012],[121.312961,23.709833]]],[[[121.311297,23.709634],[121.311004,23.709541],[121.310903,23.70972],[121.311196,23.709814],[121.311297,23.709634]]],[[[121.31296,23.709923],[121.313057,23.710015],[121.313058,23.709925],[121.31296,23.709923]]],[[[121.31305,23.710557],[121.312952,23.710556],[121.31295,23.710736],[121.312751,23.710915],[121.313047,23.710827],[121.31305,23.710557]]],[[[121.312268,23.710367],[121.312169,23.710457],[121.312264,23.710638],[121.312067,23.710726],[121.311963,23.711177],[121.311668,23.711264],[121.311765,23.711355],[121.311664,23.711535],[121.311957,23.711628],[121.311956,23.711719],[121.312445,23.711814],[121.312448,23.711634],[121.312645,23.711545],[121.312555,23.710912],[121.312752,23.710824],[121.312756,23.710553],[121.312659,23.710462],[121.312462,23.71055],[121.312268,23.710367]],[[121.312459,23.710731],[121.312361,23.71073],[121.312364,23.710549],[121.312462,23.71055],[121.312459,23.710731]]],[[[121.31265,23.711184],[121.312747,23.711276],[121.312748,23.711185],[121.31265,23.711184]]],[[[121.310957,23.713152],[121.311252,23.713065],[121.31125,23.713246],[121.311348,23.713247],[121.311745,23.71289],[121.311848,23.71253],[121.312145,23.712262],[121.311952,23.71208],[121.311755,23.712078],[121.311655,23.712257],[121.311167,23.712071],[121.311064,23.712431],[121.311259,23.712524],[121.311257,23.712704],[121.310662,23.71324],[121.310368,23.713236],[121.310267,23.713416],[121.310364,23.713507],[121.310854,23.713513],[121.310957,23.713152]]],[[[121.309674,23.713771],[121.309483,23.713407],[121.30968,23.713319],[121.309685,23.712958],[121.309393,23.712774],[121.308989,23.713673],[121.309183,23.713855],[121.309575,23.71386],[121.309674,23.713771]]],[[[121.306486,23.717619],[121.306487,23.717528],[121.306781,23.717531],[121.306883,23.717262],[121.306495,23.716896],[121.306299,23.716894],[121.305902,23.717251],[121.305899,23.717522],[121.305996,23.717613],[121.306095,23.717524],[121.306486,23.717619]]]]}},{"type":"Feature","properties":{"kind":"bare_dam","month":"2025-08","area_ha":133.36},"geometry":{"type":"Polygon","coordinates":[[[121.300037,23.700662],[121.300039,23.700481],[121.300137,23.700482],[121.299943,23.7003],[121.300045,23.70003],[121.299559,23.699663],[121.29966,23.699484],[121.299174,23.699117],[121.299177,23.698937],[121.298884,23.698843],[121.298782,23.699113],[121.298684,23.699112],[121.298878,23.699295],[121.298776,23.699564],[121.299067,23.699838],[121.298968,23.699928],[121.299063,23.700109],[121.298666,23.700466],[121.298477,23.699922],[121.297894,23.699555],[121.297896,23.699374],[121.297994,23.699375],[121.297898,23.699194],[121.298097,23.699015],[121.298488,23.69911],[121.298393,23.698838],[121.297905,23.698652],[121.297608,23.698919],[121.297415,23.698646],[121.297711,23.698559],[121.297712,23.698469],[121.297418,23.698466],[121.297416,23.698556],[121.29722,23.698554],[121.29712,23.698733],[121.296826,23.69873],[121.296825,23.698821],[121.296631,23.698638],[121.296532,23.698727],[121.295747,23.698718],[121.295652,23.698537],[121.29585,23.698358],[121.296438,23.698365],[121.296437,23.698455],[121.296634,23.698367],[121.29673,23.698549],[121.296926,23.698551],[121.296832,23.698279],[121.297029,23.698191],[121.297031,23.69801],[121.297329,23.697742],[121.297426,23.697834],[121.297525,23.697745],[121.298602,23.697847],[121.298801,23.697668],[121.298898,23.69776],[121.298797,23.697939],[121.298993,23.697941],[121.299291,23.697674],[121.299387,23.697855],[121.299486,23.697766],[121.299779,23.69786],[121.299781,23.697679],[121.300079,23.697411],[121.300373,23.697415],[121.300473,23.697235],[121.300766,23.697329],[121.300469,23.697596],[121.300566,23.697688],[121.300465,23.697867],[121.300659,23.69805],[121.301051,23.698054],[121.301349,23.697787],[121.301443,23.698059],[121.301541,23.69806],[121.301537,23.698421],[121.301829,23.698605],[121.302126,23.698337],[121.302033,23.697975],[121.30233,23.697707],[121.302235,23.697525],[121.302531,23.697348],[121.302337,23.697165],[121.302539,23.696716],[121.302242,23.696984],[121.302046,23.696982],[121.301547,23.697608],[121.301257,23.697334],[121.300964,23.697241],[121.301064,23.697061],[121.30087,23.696878],[121.300674,23.696876],[121.300574,23.697056],[121.299889,23.696958],[121.29959,23.697316],[121.299101,23.69722],[121.298803,23.697488],[121.298707,23.697306],[121.298314,23.697392],[121.298217,23.697301],[121.298318,23.697121],[121.298121,23.697119],[121.298021,23.697299],[121.297629,23.697294],[121.297241,23.696929],[121.297245,23.696658],[121.296557,23.696741],[121.296559,23.69665],[121.296264,23.696647],[121.296266,23.696557],[121.295872,23.696643],[121.29587,23.696823],[121.295673,23.696912],[121.295766,23.697274],[121.295369,23.697631],[121.295075,23.697627],[121.294975,23.697807],[121.294682,23.697713],[121.294881,23.697445],[121.294493,23.697169],[121.294692,23.696901],[121.295377,23.696999],[121.29538,23.696818],[121.295087,23.696724],[121.295187,23.696545],[121.294894,23.696451],[121.295194,23.696003],[121.29539,23.696005],[121.295688,23.695738],[121.296276,23.695744],[121.296277,23.695654],[121.296472,23.695746],[121.296868,23.69548],[121.297162,23.695483],[121.297164,23.695303],[121.297363,23.695124],[121.297368,23.694763],[121.297764,23.694406],[121.297768,23.694135],[121.298164,23.693869],[121.298457,23.693962],[121.298562,23.693422],[121.298368,23.693239],[121.298565,23.693151],[121.298569,23.69288],[121.298374,23.692787],[121.298377,23.692517],[121.298083,23.692513],[121.297893,23.69206],[121.297795,23.692059],[121.297807,23.691156],[121.297515,23.690972],[121.297522,23.69043],[121.298018,23.689984],[121.298607,23.6899],[121.298806,23.689722],[121.298998,23.689995],[121.298701,23.690263],[121.29831,23.690168],[121.298111,23.690347],[121.298108,23.690617],[121.298205,23.690709],[121.298304,23.69062],[121.298401,23.690711],[121.298891,23.690716],[121.29889,23.690807],[121.299184,23.69081],[121.29928,23.690991],[121.299476,23.690994],[121.299864,23.691269],[121.300158,23.691272],[121.300358,23.691003],[121.300067,23.690729],[121.299675,23.690725],[121.299481,23.690542],[121.299582,23.690363],[121.300072,23.690368],[121.30037,23.6901],[121.300663,23.690194],[121.300961,23.689836],[121.301254,23.68993],[121.301253,23.69002],[121.301547,23.690023],[121.301549,23.689933],[121.301941,23.689937],[121.30194,23.690027],[121.302235,23.68994],[121.302332,23.690032],[121.302432,23.689852],[121.302726,23.689855],[121.302926,23.689587],[121.303219,23.68968],[121.303026,23.689407],[121.303423,23.68905],[121.303717,23.689054],[121.303817,23.688874],[121.304308,23.688879],[121.304408,23.6887],[121.304897,23.688796],[121.304999,23.688526],[121.305784,23.688444],[121.305984,23.688175],[121.30618,23.688178],[121.306479,23.68782],[121.306675,23.687822],[121.307172,23.687285],[121.307466,23.687289],[121.30826,23.686575],[121.308467,23.685674],[121.308663,23.685676],[121.308764,23.685497],[121.309058,23.6855],[121.309158,23.68532],[121.309354,23.685323],[121.309751,23.684966],[121.309947,23.684968],[121.309946,23.685058],[121.310437,23.684973],[121.310434,23.685244],[121.310532,23.685245],[121.310535,23.684974],[121.310829,23.684978],[121.310826,23.685248],[121.311023,23.68516],[121.311025,23.68498],[121.311516,23.684985],[121.311611,23.685167],[121.311906,23.68517],[121.312001,23.685352],[121.312295,23.685355],[121.312391,23.685536],[121.312783,23.685541],[121.313558,23.686271],[121.313554,23.686633],[121.313749,23.686725],[121.313735,23.687809],[121.313437,23.688076],[121.313241,23.688074],[121.313047,23.687891],[121.313054,23.68735],[121.312956,23.687349],[121.312762,23.687166],[121.312765,23.686985],[121.312667,23.686984],[121.312663,23.687255],[121.312761,23.687256],[121.312758,23.687527],[121.312856,23.687528],[121.31285,23.687979],[121.312751,23.688069],[121.313143,23.688073],[121.313239,23.688255],[121.313533,23.688258],[121.313527,23.688709],[121.312338,23.68969],[121.312334,23.68996],[121.312137,23.690049],[121.312133,23.690319],[121.311936,23.690408],[121.311933,23.690678],[121.311736,23.690767],[121.311732,23.691037],[121.311535,23.691126],[121.311528,23.691667],[121.310734,23.692381],[121.310342,23.692377],[121.310242,23.692556],[121.309947,23.692553],[121.309847,23.692733],[121.309258,23.692816],[121.30896,23.693084],[121.308764,23.693082],[121.308664,23.693261],[121.30837,23.693258],[121.308269,23.693438],[121.307975,23.693435],[121.307081,23.694328],[121.306885,23.694326],[121.306594,23.694052],[121.306494,23.694231],[121.306397,23.69414],[121.305513,23.69422],[121.305413,23.6944],[121.305217,23.694398],[121.305113,23.694848],[121.305211,23.694849],[121.305208,23.69512],[121.305403,23.695212],[121.3054,23.695393],[121.305202,23.695571],[121.305396,23.695754],[121.305593,23.695666],[121.305883,23.69594],[121.305783,23.69612],[121.305979,23.696122],[121.306173,23.696304],[121.306467,23.696308],[121.306466,23.696398],[121.306664,23.696219],[121.30686,23.696222],[121.306955,23.696494],[121.306856,23.696583],[121.306267,23.696576],[121.306167,23.696756],[121.305481,23.696748],[121.304191,23.697908],[121.304185,23.69836],[121.303988,23.698448],[121.303982,23.698899],[121.303785,23.698987],[121.303781,23.699258],[121.303584,23.699346],[121.303579,23.699707],[121.302686,23.70051],[121.302294,23.700506],[121.302194,23.700685],[121.301017,23.700673],[121.301119,23.700403],[121.300827,23.700219],[121.300431,23.700486],[121.300429,23.700666],[121.300037,23.700662]],[[121.299759,23.699395],[121.299856,23.699486],[121.299857,23.699396],[121.299759,23.699395]],[[121.300152,23.699309],[121.300449,23.699131],[121.300256,23.698858],[121.300158,23.698857],[121.29996,23.699036],[121.300152,23.699309]],[[121.302312,23.699152],[121.302411,23.699062],[121.302704,23.699156],[121.302707,23.698885],[121.302513,23.698793],[121.302314,23.698971],[121.302312,23.699152]],[[121.299471,23.69894],[121.299568,23.699031],[121.299569,23.698941],[121.299471,23.69894]],[[121.299669,23.698761],[121.299766,23.698853],[121.299767,23.698763],[121.299669,23.698761]],[[121.300061,23.698766],[121.300158,23.698857],[121.300159,23.698767],[121.300061,23.698766]],[[121.299376,23.698668],[121.299473,23.698759],[121.299474,23.698669],[121.299376,23.698668]],[[121.302221,23.698609],[121.302318,23.6987],[121.302319,23.69861],[121.302221,23.698609]],[[121.302514,23.698702],[121.302907,23.698616],[121.303016,23.697805],[121.302918,23.697804],[121.302816,23.698074],[121.302719,23.697982],[121.302522,23.69807],[121.30252,23.698251],[121.302619,23.698162],[121.302814,23.698254],[121.302516,23.698522],[121.302514,23.698702]],[[121.297907,23.698562],[121.298005,23.698563],[121.298007,23.698382],[121.297909,23.698381],[121.297907,23.698562]],[[121.2983,23.698476],[121.298397,23.698567],[121.298398,23.698477],[121.2983,23.698476]],[[121.302225,23.698248],[121.302322,23.698339],[121.302323,23.698249],[121.302225,23.698248]],[[121.298403,23.698115],[121.2985,23.698207],[121.298501,23.698117],[121.298403,23.698115]],[[121.300364,23.698137],[121.300461,23.698228],[121.300462,23.698138],[121.300364,23.698137]],[[121.303501,23.698171],[121.303598,23.698263],[121.303599,23.698173],[121.303501,23.698171]],[[121.299187,23.698124],[121.299383,23.698126],[121.299384,23.698036],[121.299189,23.697944],[121.299187,23.698124]],[[121.298111,23.697932],[121.298208,23.698023],[121.298209,23.697933],[121.298111,23.697932]],[[121.298993,23.697941],[121.29909,23.698033],[121.299091,23.697942],[121.298993,23.697941]],[[121.303306,23.698079],[121.303404,23.69808],[121.303407,23.6979],[121.303309,23.697898],[121.303306,23.698079]],[[121.299289,23.697854],[121.299386,23.697946],[121.299387,23.697855],[121.299289,23.697854]],[[121.302524,23.69789],[121.302622,23.697891],[121.302625,23.69771],[121.302527,23.697709],[121.302524,23.69789]],[[121.303605,23.697721],[121.303702,23.697812],[121.303703,23.697722],[121.303605,23.697721]],[[121.302626,23.69762],[121.302723,23.697711],[121.302724,23.697621],[121.302626,23.69762]],[[121.303017,23.697715],[121.303115,23.697716],[121.303117,23.697535],[121.303019,23.697534],[121.303017,23.697715]],[[121.303507,23.69772],[121.303704,23.697632],[121.303707,23.697451],[121.303411,23.697538],[121.303507,23.69772]],[[121.302724,23.697621],[121.302822,23.697622],[121.302824,23.697442],[121.302726,23.697441],[121.302724,23.697621]],[[121.303708,23.697361],[121.303805,23.697452],[121.303806,23.697362],[121.303708,23.697361]],[[121.301258,23.697244],[121.301355,23.697335],[121.301356,23.697245],[121.301258,23.697244]],[[121.301356,23.697245],[121.301552,23.697247],[121.301554,23.697066],[121.301358,23.697064],[121.301356,23.697245]],[[121.302828,23.697171],[121.302925,23.697262],[121.302926,23.697172],[121.302828,23.697171]],[[121.303121,23.697264],[121.303219,23.697265],[121.303319,23.697086],[121.303123,23.697084],[121.303121,23.697264]],[[121.30371,23.69718],[121.303807,23.697272],[121.303808,23.697182],[121.30371,23.69718]],[[121.303613,23.697089],[121.30371,23.69718],[121.303711,23.69709],[121.303613,23.697089]],[[121.301555,23.696976],[121.301652,23.697068],[121.301653,23.696977],[121.301555,23.696976]],[[121.298125,23.696848],[121.298222,23.69694],[121.298223,23.696849],[121.298125,23.696848]],[[121.299401,23.696772],[121.299595,23.696955],[121.299597,23.696774],[121.299401,23.696772]],[[121.297734,23.696754],[121.297831,23.696845],[121.297832,23.696755],[121.297734,23.696754]],[[121.298027,23.696847],[121.298125,23.696848],[121.298127,23.696668],[121.298029,23.696667],[121.298027,23.696847]],[[121.299007,23.696858],[121.299302,23.696861],[121.299303,23.696771],[121.29901,23.696677],[121.299007,23.696858]],[[121.298518,23.696762],[121.298714,23.696764],[121.298716,23.696674],[121.298521,23.696582],[121.298518,23.696762]],[[121.299598,23.696684],[121.299695,23.696775],[121.299696,23.696685],[121.299598,23.696684]],[[121.299793,23.696776],[121.299891,23.696777],[121.299991,23.696598],[121.299795,23.696596],[121.299793,23.696776]],[[121.302539,23.696716],[121.302835,23.696629],[121.302937,23.696269],[121.302542,23.696536],[121.302539,23.696716]],[[121.297344,23.696569],[121.29754,23.696571],[121.297541,23.696481],[121.297345,23.696478],[121.297344,23.696569]],[[121.298719,23.696403],[121.298913,23.696586],[121.298915,23.696405],[121.298719,23.696403]],[[121.297739,23.696392],[121.297836,23.696484],[121.297837,23.696394],[121.297739,23.696392]],[[121.298424,23.69649],[121.29862,23.696492],[121.29872,23.696313],[121.298622,23.696312],[121.298623,23.696222],[121.298525,23.696221],[121.298424,23.69649]],[[121.305287,23.696566],[121.305782,23.69621],[121.305492,23.695845],[121.305195,23.696113],[121.304801,23.696199],[121.304798,23.69647],[121.305093,23.696383],[121.305287,23.696566]],[[121.297937,23.696214],[121.298034,23.696305],[121.298035,23.696215],[121.297937,23.696214]],[[121.299701,23.696324],[121.300387,23.696331],[121.300882,23.695976],[121.300588,23.695972],[121.300487,23.696152],[121.300096,23.696057],[121.300098,23.695967],[121.299801,23.696144],[121.299705,23.695963],[121.299509,23.69596],[121.29931,23.696229],[121.299702,23.696233],[121.299701,23.696324]],[[121.302446,23.696354],[121.302744,23.696086],[121.302648,23.695905],[121.30245,23.696083],[121.302253,23.696081],[121.302251,23.696261],[121.302447,23.696264],[121.302446,23.696354]],[[121.298428,23.696129],[121.298525,23.696221],[121.298527,23.69613],[121.298428,23.696129]],[[121.298232,23.696127],[121.298528,23.69604],[121.298531,23.695769],[121.298928,23.695412],[121.298347,23.694864],[121.29805,23.695041],[121.298145,23.695313],[121.297948,23.695401],[121.297944,23.695672],[121.297846,23.695671],[121.298232,23.696127]],[[121.302746,23.695906],[121.302843,23.695997],[121.302844,23.695907],[121.302746,23.695906]],[[121.300394,23.69579],[121.30059,23.695792],[121.300591,23.695701],[121.300298,23.695608],[121.300394,23.69579]],[[121.302845,23.695816],[121.302943,23.695818],[121.302946,23.695637],[121.302848,23.695636],[121.302845,23.695816]],[[121.299416,23.695598],[121.299513,23.69569],[121.299514,23.695599],[121.299416,23.695598]],[[121.299514,23.695599],[121.29971,23.695601],[121.299711,23.695511],[121.299515,23.695509],[121.299514,23.695599]],[[121.302947,23.695547],[121.303044,23.695638],[121.303045,23.695548],[121.302947,23.695547]],[[121.300007,23.695424],[121.300105,23.695425],[121.300107,23.695245],[121.300009,23.695244],[121.300007,23.695424]],[[121.3004,23.695338],[121.300497,23.695429],[121.300498,23.695339],[121.3004,23.695338]],[[121.300791,23.695433],[121.300987,23.695435],[121.300991,23.695164],[121.300797,23.694981],[121.300601,23.694979],[121.300507,23.694617],[121.300409,23.694616],[121.300309,23.694795],[121.300407,23.694796],[121.300501,23.695068],[121.300794,23.695162],[121.300791,23.695433]],[[121.303047,23.695367],[121.303144,23.695459],[121.303145,23.695368],[121.303047,23.695367]],[[121.300204,23.695336],[121.3004,23.695338],[121.300401,23.695248],[121.300205,23.695246],[121.300204,23.695336]],[[121.301969,23.695355],[121.302165,23.695358],[121.302166,23.695267],[121.30197,23.695265],[121.301969,23.695355]],[[121.303145,23.695368],[121.303341,23.69537],[121.303342,23.69528],[121.303146,23.695278],[121.303145,23.695368]],[[121.301482,23.695079],[121.301579,23.69517],[121.30158,23.69508],[121.301482,23.695079]],[[121.30511,23.695119],[121.305206,23.69521],[121.305208,23.69512],[121.30511,23.695119]],[[121.301385,23.694988],[121.301482,23.695079],[121.301483,23.694989],[121.301385,23.694988]],[[121.301091,23.694985],[121.301385,23.694988],[121.301386,23.694897],[121.301191,23.694805],[121.30119,23.694895],[121.301092,23.694894],[121.301091,23.694985]],[[121.30168,23.694901],[121.301777,23.694992],[121.301778,23.694902],[121.30168,23.694901]],[[121.30364,23.695012],[121.303738,23.695014],[121.30374,23.694833],[121.303642,23.694832],[121.30364,23.695012]],[[121.300896,23.694892],[121.301092,23.694894],[121.301093,23.694804],[121.300897,23.694802],[121.300896,23.694892]],[[121.301583,23.694809],[121.30168,23.694901],[121.301682,23.69481],[121.301583,23.694809]],[[121.301487,23.694718],[121.301583,23.694809],[121.301585,23.694719],[121.301487,23.694718]],[[121.301977,23.694723],[121.302074,23.694815],[121.302075,23.694724],[121.301977,23.694723]],[[121.299038,23.69451],[121.299135,23.694602],[121.299136,23.694512],[121.299038,23.69451]],[[121.29943,23.694515],[121.299527,23.694606],[121.299528,23.694516],[121.29943,23.694515]],[[121.300017,23.694612],[121.300214,23.694523],[121.300218,23.694253],[121.299825,23.694339],[121.300017,23.694612]],[[121.301294,23.694445],[121.301488,23.694628],[121.30149,23.694447],[121.301294,23.694445]],[[121.303841,23.694653],[121.303939,23.694655],[121.304039,23.694475],[121.303843,23.694473],[121.303841,23.694653]],[[121.300607,23.694528],[121.300705,23.694529],[121.300707,23.694348],[121.300609,23.694347],[121.300607,23.694528]],[[121.302274,23.694456],[121.302371,23.694547],[121.302372,23.694457],[121.302274,23.694456]],[[121.300611,23.694167],[121.300708,23.694258],[121.300709,23.694168],[121.300611,23.694167]],[[121.300806,23.694259],[121.301002,23.694261],[121.301201,23.694083],[121.301104,23.693991],[121.301203,23.693902],[121.301111,23.69345],[121.300915,23.693448],[121.30101,23.693629],[121.300813,23.693717],[121.300811,23.693898],[121.300909,23.693899],[121.30071,23.694077],[121.300806,23.694259]],[[121.301593,23.694087],[121.30169,23.694178],[121.301691,23.694088],[121.301593,23.694087]],[[121.303358,23.694106],[121.303454,23.694198],[121.303456,23.694107],[121.303358,23.694106]],[[121.3013,23.693994],[121.301397,23.694085],[121.301398,23.693995],[121.3013,23.693994]],[[121.30228,23.694004],[121.302377,23.694096],[121.302378,23.694005],[121.30228,23.694004]],[[121.303457,23.694017],[121.303554,23.694109],[121.303555,23.694018],[121.303457,23.694017]],[[121.299731,23.693976],[121.299927,23.693978],[121.299928,23.693888],[121.299732,23.693886],[121.299731,23.693976]],[[121.301302,23.693813],[121.301496,23.693996],[121.301499,23.693725],[121.301302,23.693813]],[[121.301888,23.694],[121.302382,23.693734],[121.302189,23.693461],[121.301796,23.693547],[121.301888,23.694]],[[121.29993,23.693798],[121.300026,23.693889],[121.300028,23.693799],[121.29993,23.693798]],[[121.299638,23.693614],[121.299735,23.693705],[121.299736,23.693615],[121.299638,23.693614]],[[121.299737,23.693525],[121.300029,23.693709],[121.300032,23.693438],[121.299737,23.693525]],[[121.300422,23.693623],[121.300915,23.693448],[121.300822,23.692995],[121.300525,23.693263],[121.300422,23.693623]],[[121.298563,23.693331],[121.29866,23.693423],[121.298661,23.693332],[121.298563,23.693331]],[[121.30121,23.69336],[121.301308,23.693362],[121.30131,23.693181],[121.301115,23.693089],[121.30121,23.69336]],[[121.30327,23.693293],[121.303367,23.693384],[121.303368,23.693294],[121.30327,23.693293]],[[121.304543,23.693397],[121.304642,23.693398],[121.304644,23.693217],[121.304546,23.693216],[121.304543,23.693397]],[[121.300232,23.693169],[121.30033,23.69317],[121.30043,23.692991],[121.300234,23.692989],[121.300232,23.693169]],[[121.301704,23.693095],[121.301801,23.693186],[121.301802,23.693096],[121.301704,23.693095]],[[121.304645,23.693127],[121.304742,23.693219],[121.304743,23.693128],[121.304645,23.693127]],[[121.303176,23.693021],[121.303272,23.693112],[121.303274,23.693022],[121.303176,23.693021]],[[121.299646,23.692982],[121.299842,23.692984],[121.300042,23.692716],[121.299557,23.692259],[121.299853,23.692172],[121.30015,23.691904],[121.300154,23.691633],[121.299467,23.691626],[121.299469,23.691535],[121.299075,23.691621],[121.298688,23.691256],[121.298691,23.690985],[121.2983,23.69089],[121.298098,23.69134],[121.298782,23.691528],[121.29917,23.691893],[121.299166,23.692164],[121.298969,23.692252],[121.298967,23.692433],[121.29926,23.692526],[121.299646,23.692982]],[[121.304647,23.692947],[121.304744,23.693038],[121.304745,23.692948],[121.304647,23.692947]],[[121.30004,23.692806],[121.300137,23.692897],[121.300139,23.692807],[121.30004,23.692806]],[[121.301217,23.692819],[121.301314,23.69291],[121.301315,23.69282],[121.301217,23.692819]],[[121.302686,23.692925],[121.302883,23.692927],[121.302884,23.692837],[121.302688,23.692835],[121.302686,23.692925]],[[121.300631,23.692632],[121.300728,23.692723],[121.300729,23.692633],[121.300631,23.692632]],[[121.300826,23.692724],[121.301022,23.692726],[121.301125,23.692366],[121.30142,23.692279],[121.301422,23.692099],[121.301621,23.69192],[121.301425,23.691918],[121.301324,23.692098],[121.301128,23.692095],[121.301126,23.692276],[121.300928,23.692454],[121.300731,23.692452],[121.300826,23.692724]],[[121.302298,23.69265],[121.302494,23.692652],[121.302495,23.692562],[121.302299,23.69256],[121.302298,23.69265]],[[121.301516,23.692461],[121.301613,23.692552],[121.301614,23.692462],[121.301516,23.692461]],[[121.309754,23.69237],[121.310343,23.692287],[121.310445,23.692017],[121.309954,23.692011],[121.309756,23.69219],[121.309754,23.69237]],[[121.300834,23.692092],[121.300931,23.692183],[121.300932,23.692093],[121.300834,23.692092]],[[121.302109,23.692106],[121.302206,23.692197],[121.302207,23.692107],[121.302109,23.692106]],[[121.304071,23.692037],[121.304168,23.692129],[121.304169,23.692038],[121.304071,23.692037]],[[121.298484,23.691886],[121.29858,23.691977],[121.298582,23.691887],[121.298484,23.691886]],[[121.298387,23.691794],[121.298484,23.691886],[121.298485,23.691795],[121.298387,23.691794]],[[121.302112,23.691835],[121.302308,23.691837],[121.302309,23.691747],[121.302113,23.691745],[121.302112,23.691835]],[[121.300643,23.691729],[121.300937,23.691732],[121.300939,23.691551],[121.300646,23.691458],[121.300643,23.691729]],[[121.304274,23.691498],[121.304371,23.691589],[121.304372,23.691499],[121.304274,23.691498]],[[121.306138,23.691428],[121.306235,23.691519],[121.306236,23.691429],[121.306138,23.691428]],[[121.301041,23.691282],[121.301138,23.691373],[121.301139,23.691283],[121.301041,23.691282]],[[121.300551,23.691276],[121.300649,23.691277],[121.300651,23.691097],[121.300553,23.691096],[121.300551,23.691276]],[[121.300845,23.69128],[121.301041,23.691282],[121.301042,23.691191],[121.300846,23.691189],[121.300845,23.69128]],[[121.302218,23.691204],[121.302315,23.691296],[121.302316,23.691205],[121.302218,23.691204]],[[121.302711,23.691029],[121.302808,23.69112],[121.302809,23.69103],[121.302711,23.691029]],[[121.305161,23.691146],[121.305456,23.691059],[121.305457,23.690969],[121.305848,23.691063],[121.306047,23.690885],[121.30595,23.690794],[121.30605,23.690614],[121.305658,23.69061],[121.305558,23.690789],[121.305164,23.690875],[121.305065,23.690965],[121.305161,23.691146]],[[121.306337,23.691159],[121.306533,23.691161],[121.306634,23.690982],[121.30634,23.690979],[121.306337,23.691159]],[[121.306828,23.691165],[121.307024,23.691167],[121.307025,23.691076],[121.306829,23.691074],[121.306828,23.691165]],[[121.306929,23.690895],[121.307125,23.690897],[121.307423,23.690629],[121.307425,23.690449],[121.307228,23.690537],[121.307034,23.690354],[121.306934,23.690534],[121.306738,23.690531],[121.306539,23.69071],[121.306538,23.6908],[121.306833,23.690713],[121.306929,23.690895]],[[121.307618,23.690722],[121.307716,23.690723],[121.307816,23.690543],[121.30762,23.690541],[121.307618,23.690722]],[[121.307815,23.690634],[121.307912,23.690725],[121.307913,23.690635],[121.307815,23.690634]],[[121.301442,23.690564],[121.301834,23.690568],[121.301837,23.690387],[121.301738,23.690477],[121.301445,23.690383],[121.301442,23.690564]],[[121.305168,23.690605],[121.305365,23.690516],[121.305367,23.690336],[121.30517,23.690424],[121.305168,23.690605]],[[121.307914,23.690544],[121.308011,23.690636],[121.308012,23.690545],[121.307914,23.690544]],[[121.303208,23.690493],[121.303701,23.690318],[121.303903,23.689868],[121.303707,23.689866],[121.303708,23.689776],[121.303412,23.689863],[121.303316,23.689772],[121.303117,23.68995],[121.303114,23.690221],[121.303016,23.69022],[121.303208,23.690493]],[[121.305464,23.690427],[121.305561,23.690519],[121.305562,23.690428],[121.305464,23.690427]],[[121.306247,23.690526],[121.306444,23.690528],[121.306544,23.690349],[121.306348,23.690347],[121.306247,23.690526]],[[121.308012,23.690545],[121.308208,23.690548],[121.308407,23.690369],[121.308509,23.690009],[121.308313,23.690007],[121.30831,23.690278],[121.308012,23.690545]],[[121.301838,23.690297],[121.301935,23.690389],[121.301936,23.690298],[121.301838,23.690297]],[[121.307425,23.690449],[121.307524,23.690359],[121.307817,23.690453],[121.307918,23.690273],[121.307624,23.69027],[121.30743,23.690087],[121.307331,23.690177],[121.307425,23.690449]],[[121.3038,23.690228],[121.303897,23.69032],[121.303898,23.690229],[121.3038,23.690228]],[[121.307919,23.690183],[121.308016,23.690274],[121.308017,23.690184],[121.307919,23.690183]],[[121.311842,23.690136],[121.311939,23.690227],[121.31194,23.690137],[121.311842,23.690136]],[[121.307038,23.690083],[121.307234,23.690085],[121.307236,23.689905],[121.30704,23.689903],[121.307038,23.690083]],[[121.307431,23.689997],[121.307824,23.689911],[121.307928,23.689461],[121.308226,23.689193],[121.30803,23.689191],[121.307831,23.689369],[121.307729,23.68973],[121.307431,23.689997]],[[121.30802,23.689913],[121.308216,23.689915],[121.308218,23.689825],[121.308022,23.689823],[121.30802,23.689913]],[[121.307438,23.689455],[121.307535,23.689547],[121.307536,23.689457],[121.307438,23.689455]],[[121.306065,23.68944],[121.306163,23.689442],[121.306166,23.689261],[121.306068,23.68926],[121.306065,23.68944]],[[121.308326,23.689014],[121.308423,23.689105],[121.308424,23.689015],[121.308326,23.689014]],[[121.308425,23.688924],[121.308522,23.689016],[121.308523,23.688926],[121.308425,23.688924]],[[121.308523,23.688926],[121.308819,23.688838],[121.30882,23.688748],[121.308526,23.688745],[121.308523,23.688926]],[[121.304997,23.688616],[121.305094,23.688707],[121.305095,23.688617],[121.304997,23.688616]],[[121.307937,23.688739],[121.308134,23.688741],[121.308136,23.68856],[121.308038,23.688559],[121.307937,23.688739]],[[121.308821,23.688658],[121.308918,23.688749],[121.308919,23.688659],[121.308821,23.688658]],[[121.30804,23.688378],[121.308234,23.688561],[121.308335,23.688291],[121.308432,23.688383],[121.308628,23.688385],[121.30863,23.688295],[121.308435,23.688202],[121.308438,23.687931],[121.308148,23.687657],[121.308151,23.687386],[121.307956,23.687294],[121.307857,23.687383],[121.30795,23.687745],[121.307753,23.687834],[121.30785,23.687925],[121.30775,23.688104],[121.307848,23.688105],[121.307844,23.688376],[121.30804,23.688378]],[[121.313041,23.688343],[121.313138,23.688434],[121.313139,23.688344],[121.313041,23.688343]],[[121.312569,23.686983],[121.312667,23.686984],[121.312576,23.686441],[121.312378,23.68653],[121.312283,23.686348],[121.312087,23.686346],[121.312084,23.686526],[121.312377,23.68662],[121.312571,23.686803],[121.312569,23.686983]],[[121.311301,23.686427],[121.311791,23.686433],[121.311792,23.686343],[121.311306,23.686066],[121.311212,23.685704],[121.311016,23.685702],[121.311107,23.686245],[121.311301,23.686427]]]}},{"type":"Feature","properties":{"kind":"water","month":"2025-08","area_ha":68.39},"geometry":{"type":"MultiPolygon","coordinates":[[[[121.303708,23.689776],[121.303512,23.689774],[121.30351,23.689864],[121.303316,23.689772],[121.303117,23.68995],[121.303212,23.690222],[121.303016,23.69022],[121.303014,23.69031],[121.303208,23.690493],[121.303404,23.690495],[121.303309,23.690313],[121.3038,23.690228],[121.303903,23.689868],[121.303707,23.689866],[121.303708,23.689776]]],[[[121.3038,23.690228],[121.303897,23.69032],[121.303898,23.690229],[121.3038,23.690228]]],[[[121.280064,23.690779],[121.279967,23.690688],[121.279965,23.690778],[121.280064,23.690779]]],[[[121.280064,23.690779],[121.280062,23.690869],[121.28016,23.690871],[121.280162,23.69078],[121.280064,23.690779]]],[[[121.280159,23.690961],[121.280258,23.690872],[121.28016,23.690871],[121.280159,23.690961]]],[[[121.280257,23.690962],[121.280352,23.691234],[121.280646,23.691237],[121.280648,23.691057],[121.280257,23.690962]]],[[[121.279567,23.691225],[121.279472,23.691043],[121.279078,23.691129],[121.279173,23.691401],[121.279567,23.691225]]],[[[121.301122,23.692547],[121.301125,23.692366],[121.300731,23.692452],[121.300826,23.692724],[121.301022,23.692726],[121.301024,23.692546],[121.301122,23.692547]]],[[[121.300728,23.692723],[121.300631,23.692632],[121.30063,23.692722],[121.300728,23.692723]]],[[[121.300915,23.693448],[121.300818,23.693356],[121.300918,23.693177],[121.300724,23.692994],[121.300422,23.693623],[121.300915,23.693448]]],[[[121.300911,23.693718],[121.300813,23.693717],[121.300811,23.693898],[121.301106,23.693811],[121.301111,23.69345],[121.301013,23.693449],[121.300911,23.693718]]],[[[121.301106,23.693811],[121.301203,23.693902],[121.301204,23.693812],[121.301106,23.693811]]],[[[121.300389,23.696151],[121.300391,23.69606],[121.300096,23.696057],[121.300098,23.695967],[121.3,23.695966],[121.299997,23.696146],[121.299509,23.69596],[121.29931,23.696229],[121.299702,23.696233],[121.299701,23.696324],[121.300584,23.696243],[121.300585,23.696153],[121.300389,23.696151]]],[[[121.295093,23.696273],[121.294996,23.696182],[121.294995,23.696272],[121.295093,23.696273]]],[[[121.302937,23.696269],[121.302542,23.696536],[121.302539,23.696716],[121.302835,23.696629],[121.302937,23.696269]]],[[[121.302537,23.696897],[121.302539,23.696716],[121.302441,23.696715],[121.302439,23.696896],[121.302537,23.696897]]],[[[121.291573,23.703007],[121.29207,23.70247],[121.292464,23.702384],[121.292569,23.701844],[121.292767,23.701665],[121.29306,23.701759],[121.293058,23.701939],[121.293254,23.701942],[121.293651,23.701585],[121.293847,23.701587],[121.293947,23.701407],[121.29424,23.701501],[121.294539,23.701143],[121.294931,23.701147],[121.294929,23.701328],[121.295316,23.701693],[121.295611,23.701697],[121.295803,23.70197],[121.295999,23.701972],[121.296193,23.702155],[121.296194,23.702064],[121.296588,23.701978],[121.296688,23.701799],[121.297081,23.701713],[121.297182,23.701533],[121.297575,23.701447],[121.297675,23.701268],[121.297872,23.70127],[121.297875,23.700999],[121.297973,23.701],[121.297971,23.701181],[121.298658,23.701098],[121.298857,23.70092],[121.298864,23.700378],[121.298568,23.700465],[121.298477,23.699922],[121.298284,23.69974],[121.298088,23.699737],[121.297992,23.699556],[121.297795,23.699644],[121.297797,23.699463],[121.297699,23.699462],[121.2977,23.699372],[121.297994,23.699375],[121.297995,23.699285],[121.297603,23.699281],[121.297605,23.6991],[121.298096,23.699105],[121.298097,23.699015],[121.298488,23.69911],[121.29849,23.698929],[121.298197,23.698836],[121.298102,23.698654],[121.297806,23.698741],[121.297901,23.699013],[121.297608,23.698919],[121.297415,23.698646],[121.297711,23.698559],[121.297712,23.698469],[121.297418,23.698466],[121.297416,23.698556],[121.29722,23.698554],[121.297218,23.698735],[121.296826,23.69873],[121.296825,23.698821],[121.296631,23.698638],[121.296533,23.698637],[121.29653,23.698817],[121.296434,23.698726],[121.295355,23.698714],[121.295259,23.698532],[121.29477,23.698437],[121.29448,23.698163],[121.294483,23.697892],[121.294288,23.697799],[121.294294,23.697348],[121.294791,23.696812],[121.294889,23.696813],[121.294887,23.696993],[121.295377,23.696999],[121.29538,23.696818],[121.295182,23.696906],[121.295185,23.696726],[121.295087,23.696724],[121.295187,23.696545],[121.294894,23.696451],[121.294993,23.696362],[121.294898,23.696181],[121.294504,23.696267],[121.294506,23.696176],[121.294015,23.696171],[121.294016,23.696081],[121.293722,23.696077],[121.293723,23.695987],[121.293037,23.69598],[121.293038,23.695889],[121.292744,23.695886],[121.292552,23.695613],[121.292061,23.695608],[121.291868,23.695425],[121.291574,23.695422],[121.290895,23.694782],[121.290699,23.69478],[121.290701,23.69469],[121.290115,23.694502],[121.290019,23.694321],[121.289823,23.694319],[121.289922,23.694229],[121.289826,23.694048],[121.288943,23.694128],[121.288938,23.694489],[121.28874,23.694668],[121.288735,23.695029],[121.288833,23.69503],[121.28873,23.69539],[121.28824,23.695385],[121.287949,23.695111],[121.287857,23.694658],[121.286877,23.694647],[121.286776,23.694827],[121.28609,23.694819],[121.285703,23.694454],[121.285705,23.694273],[121.285904,23.694095],[121.285613,23.693821],[121.285618,23.693459],[121.285424,23.693277],[121.285525,23.693007],[121.285427,23.693006],[121.285431,23.692735],[121.285236,23.692643],[121.285238,23.692462],[121.285044,23.692369],[121.285046,23.692189],[121.284459,23.692092],[121.283975,23.691635],[121.283778,23.691633],[121.283684,23.691361],[121.283489,23.691269],[121.283491,23.691088],[121.283296,23.690996],[121.283203,23.690633],[121.283008,23.690541],[121.283011,23.69036],[121.282815,23.690358],[121.282812,23.690539],[121.282616,23.690537],[121.282516,23.690716],[121.282321,23.690624],[121.282318,23.690804],[121.282711,23.690809],[121.282708,23.690989],[121.282903,23.691082],[121.282994,23.691624],[121.283092,23.691625],[121.283185,23.691988],[121.283477,23.692172],[121.283475,23.692352],[121.283669,23.692535],[121.283665,23.692806],[121.283859,23.692988],[121.28425,23.693083],[121.284435,23.693898],[121.28492,23.694355],[121.284915,23.694716],[121.284716,23.694894],[121.28471,23.695346],[121.285296,23.695533],[121.285683,23.695989],[121.286075,23.695993],[121.286462,23.696358],[121.286459,23.696629],[121.286851,23.696634],[121.287045,23.696816],[121.287042,23.696997],[121.288121,23.697009],[121.28832,23.69674],[121.288811,23.696746],[121.288908,23.696837],[121.288882,23.698823],[121.289079,23.698735],[121.28937,23.699009],[121.289763,23.698923],[121.289762,23.699014],[121.290056,23.699017],[121.290055,23.699107],[121.290546,23.699022],[121.290544,23.699203],[121.290737,23.699385],[121.290734,23.699656],[121.290928,23.699839],[121.291418,23.699844],[121.291515,23.699936],[121.291512,23.700116],[121.291706,23.700299],[121.291701,23.70066],[121.2918,23.700661],[121.291797,23.700842],[121.2916,23.70093],[121.291488,23.702012],[121.29139,23.702011],[121.291288,23.702281],[121.290797,23.702366],[121.290694,23.702726],[121.290791,23.702817],[121.291281,23.702823],[121.29128,23.702913],[121.291574,23.702916],[121.291573,23.703007]],[[121.298468,23.700645],[121.298567,23.700555],[121.298566,23.700646],[121.298468,23.700645]],[[121.285609,23.694091],[121.285709,23.694002],[121.285707,23.694093],[121.285609,23.694091]]],[[[121.302243,23.696893],[121.302239,23.697164],[121.302337,23.697165],[121.302439,23.696896],[121.302243,23.696893]]],[[[121.302813,23.698344],[121.302714,23.698343],[121.302711,23.698614],[121.302907,23.698616],[121.303011,23.698166],[121.302815,23.698164],[121.302813,23.698344]]],[[[121.300034,23.700842],[121.300132,23.700843],[121.300036,23.700752],[121.300039,23.700481],[121.300137,23.700482],[121.300041,23.700301],[121.299746,23.700388],[121.299552,23.700205],[121.299452,23.700384],[121.299256,23.700382],[121.299252,23.700653],[121.299549,23.700476],[121.299736,23.7012],[121.300032,23.701023],[121.300034,23.700842]],[[121.299745,23.700478],[121.299842,23.700569],[121.299744,23.700568],[121.299745,23.700478]]],[[[121.311401,23.686248],[121.311212,23.685704],[121.311016,23.685702],[121.311107,23.686245],[121.311301,23.686427],[121.311791,23.686433],[121.311696,23.686251],[121.311401,23.686248]]],[[[121.312576,23.686441],[121.312378,23.68653],[121.312283,23.686348],[121.312087,23.686346],[121.312084,23.686526],[121.312377,23.68662],[121.312376,23.68671],[121.312573,23.686622],[121.312576,23.686441]]],[[[121.312569,23.686983],[121.312667,23.686984],[121.31267,23.686713],[121.312474,23.686711],[121.312569,23.686983]]],[[[121.312957,23.687258],[121.312667,23.686984],[121.312851,23.687889],[121.312949,23.68789],[121.312751,23.688069],[121.313143,23.688073],[121.312957,23.687258]]],[[[121.308335,23.688291],[121.308628,23.688385],[121.30863,23.688295],[121.308435,23.688202],[121.308438,23.687931],[121.308148,23.687657],[121.308151,23.687386],[121.307956,23.687294],[121.307857,23.687383],[121.30795,23.687745],[121.307753,23.687834],[121.30785,23.687925],[121.307751,23.688014],[121.307844,23.688376],[121.30804,23.688378],[121.308136,23.68856],[121.308234,23.688561],[121.308335,23.688291]],[[121.30824,23.68811],[121.308337,23.688201],[121.308239,23.6882],[121.30824,23.68811]]],[[[121.308225,23.689283],[121.308226,23.689193],[121.30803,23.689191],[121.308029,23.689281],[121.308225,23.689283]]],[[[121.307731,23.689549],[121.307729,23.68973],[121.307431,23.689997],[121.307824,23.689911],[121.308029,23.689281],[121.307731,23.689549]]],[[[121.307918,23.690273],[121.308017,23.690184],[121.307919,23.690183],[121.307918,23.690273]]],[[[121.307331,23.690177],[121.307328,23.690357],[121.307622,23.69036],[121.307625,23.69018],[121.307331,23.690177]]],[[[121.307722,23.690271],[121.30772,23.690362],[121.307621,23.690451],[121.307917,23.690364],[121.307918,23.690273],[121.307722,23.690271]]],[[[121.30713,23.690536],[121.307132,23.690355],[121.307034,23.690354],[121.307032,23.690535],[121.30713,23.690536]]],[[[121.306931,23.690714],[121.306929,23.690895],[121.307125,23.690897],[121.307128,23.690716],[121.307324,23.690718],[121.307425,23.690449],[121.307227,23.690627],[121.306738,23.690531],[121.306931,23.690714]]],[[[121.306737,23.690622],[121.306538,23.6908],[121.306734,23.690802],[121.306737,23.690622]]],[[[121.305555,23.69097],[121.305655,23.690881],[121.305557,23.69088],[121.305555,23.69097]]],[[[121.305065,23.690965],[121.305259,23.691147],[121.305261,23.690967],[121.305456,23.691059],[121.305558,23.690789],[121.305065,23.690965]]],[[[121.310442,23.692197],[121.310445,23.692017],[121.309954,23.692011],[121.309756,23.69219],[121.309754,23.69237],[121.310146,23.692375],[121.310147,23.692284],[121.310442,23.692197]]],[[[121.305108,23.695209],[121.305208,23.69512],[121.30511,23.695119],[121.305108,23.695209]]],[[[121.306565,23.696309],[121.306664,23.696219],[121.306957,23.696313],[121.306964,23.695771],[121.307162,23.695683],[121.306968,23.6955],[121.306983,23.694327],[121.30669,23.694233],[121.306692,23.694053],[121.306494,23.694231],[121.306397,23.69414],[121.305513,23.69422],[121.305117,23.694577],[121.305208,23.69512],[121.305596,23.695395],[121.305785,23.695939],[121.306373,23.696036],[121.306173,23.696304],[121.306467,23.696308],[121.306468,23.696217],[121.306565,23.696309]]],[[[121.306175,23.696124],[121.305979,23.696122],[121.305978,23.696212],[121.306174,23.696214],[121.306175,23.696124]]],[[[121.306564,23.696399],[121.306467,23.696308],[121.306466,23.696398],[121.306564,23.696399]]]]}}]}