{"type":"FeatureCollection","features":[{"type":"Feature","properties":{"kind":"bare_slide","month":"2025-04","area_ha":192.11},"geometry":{"type":"MultiPolygon","coordinates":[[[[121.298936,23.702365],[121.298837,23.702455],[121.299032,23.702547],[121.299131,23.702458],[121.299038,23.702096],[121.299136,23.702097],[121.29924,23.701646],[121.299045,23.701554],[121.299047,23.701373],[121.298753,23.70137],[121.298657,23.701188],[121.298461,23.701186],[121.298556,23.701458],[121.298654,23.701459],[121.29865,23.70173],[121.298748,23.701731],[121.298742,23.702183],[121.298936,23.702365]]],[[[121.298735,23.702724],[121.29854,23.702632],[121.298742,23.702183],[121.298644,23.702182],[121.298648,23.701911],[121.298356,23.701727],[121.298457,23.701457],[121.298263,23.701365],[121.298265,23.701184],[121.297971,23.701181],[121.297966,23.701542],[121.298064,23.701543],[121.297954,23.702445],[121.298246,23.702629],[121.298243,23.7029],[121.298341,23.702901],[121.298337,23.703172],[121.298435,23.703173],[121.298529,23.703535],[121.299014,23.703901],[121.299108,23.704264],[121.299302,23.704356],[121.299301,23.704446],[121.299006,23.704533],[121.299102,23.704715],[121.298904,23.704803],[121.298897,23.705345],[121.298798,23.705434],[121.297916,23.705424],[121.297815,23.705604],[121.297422,23.70569],[121.29742,23.70587],[121.297713,23.705964],[121.297905,23.706237],[121.298004,23.706148],[121.29869,23.706246],[121.298791,23.705976],[121.298988,23.705888],[121.298895,23.705525],[121.299288,23.705439],[121.299196,23.704987],[121.299294,23.704988],[121.299298,23.704717],[121.299495,23.704629],[121.299497,23.704448],[121.299695,23.70436],[121.299698,23.704089],[121.2996,23.704088],[121.299702,23.703819],[121.29941,23.703635],[121.299221,23.703091],[121.299417,23.703093],[121.299513,23.703275],[121.299709,23.703277],[121.29971,23.703187],[121.300003,23.70328],[121.300102,23.703191],[121.300008,23.702919],[121.299516,23.703004],[121.299422,23.702732],[121.299225,23.70273],[121.298927,23.703088],[121.298735,23.702724]],[[121.299298,23.704717],[121.299201,23.704626],[121.299299,23.704627],[121.299298,23.704717]],[[121.298927,23.703088],[121.298827,23.703177],[121.298829,23.703087],[121.298927,23.703088]],[[121.299213,23.703723],[121.299504,23.703907],[121.299502,23.704087],[121.29921,23.703904],[121.299213,23.703723]],[[121.298923,23.703359],[121.299021,23.70336],[121.299019,23.70354],[121.298921,23.703539],[121.298923,23.703359]]],[[[121.297461,23.710205],[121.297849,23.710571],[121.297741,23.711292],[121.298034,23.711385],[121.298033,23.711476],[121.297935,23.711475],[121.297733,23.711924],[121.298026,23.712017],[121.298424,23.71157],[121.298332,23.711118],[121.29843,23.711119],[121.298633,23.710579],[121.298535,23.710578],[121.298539,23.710307],[121.297955,23.70994],[121.297862,23.709578],[121.297472,23.709393],[121.297478,23.708941],[121.297774,23.708764],[121.297679,23.708582],[121.29748,23.708761],[121.297383,23.708669],[121.297088,23.708756],[121.296986,23.709026],[121.29679,23.709024],[121.296589,23.709383],[121.296295,23.70938],[121.296097,23.709558],[121.296191,23.70983],[121.296682,23.709835],[121.29668,23.709926],[121.297171,23.709931],[121.29727,23.709842],[121.297464,23.710025],[121.297461,23.710205]],[[121.297955,23.70994],[121.297856,23.710029],[121.297857,23.709939],[121.297955,23.70994]],[[121.297478,23.708941],[121.297381,23.70885],[121.297479,23.708851],[121.297478,23.708941]],[[121.29727,23.709842],[121.297369,23.709753],[121.297368,23.709843],[121.29727,23.709842]]],[[[121.283562,23.71565],[121.283958,23.715384],[121.28406,23.715114],[121.284256,23.715116],[121.284251,23.715477],[121.284544,23.715571],[121.284543,23.715661],[121.28474,23.715573],[121.284743,23.715392],[121.284451,23.715208],[121.284454,23.714938],[121.284066,23.714662],[121.28417,23.714212],[121.284466,23.714035],[121.28447,23.713764],[121.284568,23.713765],[121.284472,23.713583],[121.283979,23.713758],[121.282987,23.71465],[121.282981,23.715102],[121.283562,23.71565]]],[[[121.295535,23.71506],[121.295834,23.714702],[121.295639,23.71461],[121.29534,23.714968],[121.295535,23.71506]]],[[[121.296525,23.714349],[121.296227,23.714616],[121.296322,23.714888],[121.296126,23.714886],[121.295729,23.715243],[121.295726,23.715423],[121.295529,23.715512],[121.295625,23.715693],[121.295429,23.715691],[121.295428,23.715781],[121.295134,23.715688],[121.295035,23.715777],[121.295229,23.71596],[121.295223,23.716411],[121.295516,23.716505],[121.295514,23.716685],[121.295315,23.716864],[121.295408,23.717316],[121.295804,23.716959],[121.29581,23.716508],[121.296009,23.71633],[121.295914,23.716058],[121.296112,23.715969],[121.296115,23.715699],[121.296214,23.715609],[121.296409,23.715702],[121.296608,23.715523],[121.296514,23.715161],[121.29671,23.715163],[121.296811,23.714984],[121.296909,23.714985],[121.297003,23.715257],[121.296605,23.715704],[121.2965,23.716245],[121.296695,23.716337],[121.296797,23.716067],[121.296994,23.715979],[121.2969,23.715707],[121.297197,23.71544],[121.297103,23.715168],[121.297301,23.714989],[121.297306,23.714628],[121.297695,23.714903],[121.297592,23.715263],[121.297689,23.715355],[121.297984,23.715268],[121.297982,23.715448],[121.297783,23.715627],[121.29788,23.715718],[121.298077,23.71563],[121.298173,23.715812],[121.298467,23.715815],[121.298466,23.715905],[121.298956,23.71591],[121.299255,23.715553],[121.299258,23.715372],[121.299064,23.715189],[121.29926,23.715191],[121.299454,23.715374],[121.299555,23.715104],[121.299653,23.715105],[121.29956,23.714743],[121.298882,23.714104],[121.298686,23.714102],[121.29859,23.71392],[121.298295,23.714007],[121.298201,23.713645],[121.297908,23.713551],[121.297816,23.713099],[121.297619,23.713187],[121.297615,23.713458],[121.297417,23.713636],[121.297707,23.71391],[121.297905,23.713822],[121.297999,23.714094],[121.297706,23.714],[121.297605,23.71427],[121.297309,23.714357],[121.297412,23.713997],[121.296923,23.713902],[121.296824,23.713991],[121.29692,23.714172],[121.296722,23.714261],[121.296817,23.714532],[121.296525,23.714349]],[[121.296817,23.714532],[121.296914,23.714624],[121.29711,23.714626],[121.297009,23.714805],[121.296814,23.714713],[121.296817,23.714532]],[[121.298966,23.715188],[121.298667,23.715546],[121.298471,23.715544],[121.298473,23.715363],[121.298669,23.715366],[121.298771,23.715096],[121.298966,23.715188]],[[121.298771,23.715096],[121.298674,23.715004],[121.298772,23.715005],[121.298771,23.715096]],[[121.299065,23.715099],[121.299164,23.71501],[121.299163,23.7151],[121.299065,23.715099]],[[121.29789,23.714996],[121.297989,23.714907],[121.297988,23.714997],[121.29789,23.714996]],[[121.298088,23.714817],[121.297893,23.714725],[121.297996,23.714365],[121.29819,23.714548],[121.298088,23.714817]],[[121.298094,23.714366],[121.298193,23.714277],[121.298192,23.714367],[121.298094,23.714366]],[[121.298193,23.714277],[121.298292,23.714188],[121.298291,23.714278],[121.298193,23.714277]],[[121.298483,23.714641],[121.298582,23.714552],[121.298581,23.714642],[121.298483,23.714641]],[[121.297018,23.714173],[121.297117,23.714084],[121.297116,23.714175],[121.297018,23.714173]]],[[[121.283068,23.715916],[121.283365,23.715738],[121.283367,23.715558],[121.282879,23.715372],[121.282687,23.715099],[121.282491,23.715096],[121.28229,23.715455],[121.282779,23.715551],[121.282772,23.716093],[121.282869,23.716184],[121.283066,23.716096],[121.283068,23.715916]]],[[[121.296492,23.716877],[121.296594,23.716607],[121.296692,23.716608],[121.296597,23.716336],[121.2964,23.716424],[121.296398,23.716605],[121.296201,23.716603],[121.296003,23.716781],[121.295999,23.717052],[121.296291,23.717236],[121.296394,23.716876],[121.296492,23.716877]]],[[[121.288969,23.714717],[121.28897,23.714626],[121.288577,23.714622],[121.288579,23.714532],[121.28838,23.71471],[121.288184,23.714708],[121.288186,23.714527],[121.287895,23.714344],[121.287597,23.714611],[121.287791,23.714794],[121.28769,23.714973],[121.286906,23.714965],[121.286814,23.714512],[121.286127,23.714505],[121.286027,23.714684],[121.28632,23.714778],[121.286414,23.71505],[121.286017,23.715406],[121.285821,23.715404],[121.285522,23.715762],[121.285327,23.71567],[121.285128,23.715938],[121.284734,23.716024],[121.284238,23.71647],[121.284141,23.716379],[121.283748,23.716465],[121.283646,23.716735],[121.283157,23.716639],[121.283055,23.716909],[121.282759,23.717086],[121.282951,23.717359],[121.282654,23.717627],[121.282748,23.717899],[121.282946,23.71781],[121.282948,23.71763],[121.283144,23.717632],[121.28304,23.718082],[121.282843,23.718171],[121.282937,23.718442],[121.282642,23.718529],[121.282734,23.718982],[121.282537,23.71907],[121.282533,23.719341],[121.282826,23.719435],[121.282824,23.719615],[121.282329,23.719971],[121.281739,23.720055],[121.28164,23.720144],[121.281634,23.720595],[121.281926,23.720779],[121.281924,23.72096],[121.282512,23.720966],[121.282513,23.720876],[121.283005,23.720791],[121.283106,23.720521],[121.283702,23.719986],[121.284191,23.720082],[121.284089,23.720352],[121.283991,23.72035],[121.284086,23.720622],[121.283192,23.721425],[121.283291,23.721426],[121.283288,23.721607],[121.283483,23.721699],[121.283578,23.721971],[121.283971,23.721885],[121.284171,23.721617],[121.284465,23.72162],[121.284361,23.72207],[121.284164,23.722158],[121.284157,23.7227],[121.284545,23.722975],[121.285526,23.722986],[121.285527,23.722896],[121.285723,23.722898],[121.285722,23.722988],[121.286212,23.722994],[121.286308,23.723175],[121.286896,23.723182],[121.286993,23.723273],[121.287193,23.723005],[121.286998,23.722912],[121.2871,23.722642],[121.286809,23.722368],[121.287206,23.722011],[121.287304,23.722013],[121.287302,23.722193],[121.287204,23.722192],[121.287201,23.722373],[121.287299,23.722374],[121.287197,23.722734],[121.287293,23.722825],[121.28769,23.722468],[121.287884,23.722651],[121.28808,23.722653],[121.288379,23.722295],[121.288673,23.722299],[121.288675,23.722208],[121.288773,23.722209],[121.288867,23.722481],[121.289063,23.722483],[121.289164,23.722304],[121.28897,23.722121],[121.289167,23.722033],[121.28936,23.722306],[121.289556,23.722308],[121.289554,23.722489],[121.289358,23.722487],[121.288365,23.723379],[121.288072,23.723285],[121.287774,23.723553],[121.287578,23.723551],[121.28738,23.723729],[121.287477,23.72382],[121.287376,23.724],[121.287473,23.724091],[121.287572,23.724002],[121.287963,23.724097],[121.28796,23.724368],[121.288154,23.72455],[121.288449,23.724463],[121.288445,23.724734],[121.288544,23.724735],[121.288443,23.724915],[121.288736,23.725008],[121.289027,23.725282],[121.289322,23.725195],[121.289414,23.725648],[121.289709,23.725651],[121.28971,23.725561],[121.289807,23.725652],[121.290395,23.725659],[121.290393,23.725839],[121.290785,23.725844],[121.290783,23.726024],[121.291175,23.726028],[121.291172,23.726209],[121.291565,23.726213],[121.291564,23.726304],[121.291861,23.726036],[121.292449,23.726133],[121.292549,23.725953],[121.292745,23.725956],[121.292744,23.726046],[121.293039,23.725959],[121.292937,23.726319],[121.293525,23.726325],[121.293527,23.726145],[121.29392,23.726149],[121.293922,23.725969],[121.294412,23.725974],[121.294514,23.725704],[121.295003,23.7258],[121.295099,23.725982],[121.295393,23.725985],[121.295298,23.725713],[121.295493,23.725805],[121.295692,23.725627],[121.295886,23.72581],[121.295978,23.726262],[121.296174,23.726264],[121.296173,23.726355],[121.296664,23.72627],[121.296764,23.72618],[121.296771,23.725639],[121.296672,23.725638],[121.296676,23.725367],[121.296383,23.725273],[121.296485,23.725003],[121.296779,23.725007],[121.296973,23.725189],[121.297271,23.724832],[121.297466,23.724924],[121.297568,23.724654],[121.297963,23.724478],[121.297866,23.724387],[121.298064,23.724208],[121.29797,23.723936],[121.298165,23.724029],[121.298162,23.724209],[121.298453,23.724483],[121.298351,23.724753],[121.298546,23.724846],[121.298745,23.724667],[121.298749,23.724306],[121.298651,23.724305],[121.298753,23.724035],[121.298362,23.723941],[121.298266,23.723759],[121.29807,23.723757],[121.297876,23.723574],[121.297879,23.723393],[121.297977,23.723395],[121.297883,23.723032],[121.298081,23.722944],[121.298084,23.722673],[121.298576,23.722588],[121.298574,23.722679],[121.298967,23.722683],[121.299061,23.722955],[121.299259,23.722867],[121.299165,23.722505],[121.298778,23.722139],[121.298581,23.722137],[121.298583,23.722047],[121.298091,23.722132],[121.297897,23.721949],[121.297699,23.722127],[121.297795,23.722309],[121.297597,23.722397],[121.297587,23.72321],[121.297191,23.723476],[121.297286,23.723748],[121.297384,23.723749],[121.29738,23.72402],[121.297574,23.724203],[121.297277,23.72438],[121.297275,23.724561],[121.296786,23.724465],[121.296587,23.724643],[121.29659,23.724463],[121.297085,23.724107],[121.297089,23.723746],[121.296991,23.723745],[121.296898,23.723383],[121.296703,23.72329],[121.296708,23.722929],[121.29661,23.722928],[121.296712,23.722568],[121.296911,23.72239],[121.297015,23.721939],[121.297412,23.721582],[121.297315,23.721491],[121.297415,23.721311],[121.297804,23.721587],[121.297899,23.721859],[121.298292,23.721773],[121.29849,23.721594],[121.298396,23.721322],[121.298494,23.721323],[121.298597,23.720963],[121.298209,23.720598],[121.298013,23.720596],[121.297914,23.720685],[121.298002,23.721408],[121.297806,23.721406],[121.297613,23.721223],[121.297712,23.721134],[121.29762,23.720682],[121.297816,23.720684],[121.297918,23.720324],[121.298412,23.720058],[121.298415,23.719878],[121.298317,23.719877],[121.298515,23.719698],[121.29842,23.719426],[121.298915,23.719071],[121.298918,23.71889],[121.299217,23.718532],[121.29922,23.718261],[121.299715,23.717905],[121.29972,23.717544],[121.300117,23.717187],[121.300227,23.716286],[121.300424,23.716198],[121.300525,23.715928],[121.300037,23.715742],[121.299942,23.71556],[121.300334,23.715564],[121.300335,23.715474],[121.300827,23.715389],[121.300927,23.71521],[121.301222,23.715123],[121.301326,23.714672],[121.301624,23.714405],[121.301626,23.714224],[121.301528,23.714223],[121.301631,23.713863],[121.301436,23.713771],[121.301635,23.713592],[121.30154,23.71332],[121.301738,23.713142],[121.301835,23.713233],[121.302033,23.713145],[121.302036,23.712874],[121.301841,23.712782],[121.301942,23.712602],[121.301747,23.71251],[121.301749,23.712329],[121.301944,23.712422],[121.302044,23.712242],[121.301754,23.711968],[121.301459,23.711965],[121.301466,23.711423],[121.301175,23.711239],[121.300984,23.710786],[121.300596,23.710511],[121.300506,23.709877],[121.300213,23.709784],[121.300214,23.709694],[121.299822,23.709689],[121.299726,23.709508],[121.299335,23.709413],[121.299337,23.709233],[121.299144,23.70905],[121.298946,23.709138],[121.299041,23.70941],[121.299139,23.709411],[121.298939,23.70968],[121.299036,23.709771],[121.299331,23.709684],[121.29933,23.709774],[121.299623,23.709868],[121.299619,23.710229],[121.299322,23.710406],[121.29932,23.710587],[121.299613,23.71068],[121.299812,23.710412],[121.300008,23.710414],[121.300201,23.710687],[121.300495,23.71069],[121.300786,23.710964],[121.300684,23.711234],[121.301075,23.711329],[121.301073,23.711509],[121.301171,23.71151],[121.301068,23.71187],[121.301263,23.711963],[121.30126,23.712234],[121.300864,23.7125],[121.300959,23.712772],[121.300763,23.71277],[121.300564,23.712948],[121.300561,23.713219],[121.300659,23.71322],[121.300557,23.71349],[121.30085,23.713584],[121.300946,23.713765],[121.300848,23.713764],[121.300845,23.713945],[121.300649,23.713943],[121.300554,23.713761],[121.300257,23.713938],[121.300352,23.71421],[121.299855,23.714656],[121.299848,23.715198],[121.29975,23.715197],[121.299648,23.715557],[121.29945,23.715645],[121.299546,23.715827],[121.299055,23.715912],[121.299144,23.716545],[121.298948,23.716543],[121.29875,23.716721],[121.298546,23.717351],[121.298349,23.717349],[121.298051,23.717707],[121.297854,23.717704],[121.297656,23.717883],[121.297652,23.718154],[121.297254,23.718601],[121.297058,23.718599],[121.297057,23.718689],[121.296568,23.718593],[121.29627,23.718861],[121.296367,23.718952],[121.296265,23.719222],[121.29646,23.719314],[121.296262,23.719493],[121.29626,23.719673],[121.296063,23.719671],[121.295775,23.719217],[121.295578,23.719305],[121.295575,23.719485],[121.295379,23.719483],[121.295383,23.719212],[121.295188,23.71912],[121.295291,23.71876],[121.295096,23.718667],[121.295001,23.718395],[121.294509,23.71857],[121.294699,23.719024],[121.294502,23.719112],[121.294399,23.719472],[121.294002,23.719829],[121.293807,23.719737],[121.293706,23.719916],[121.293997,23.72019],[121.294291,23.720193],[121.294289,23.720374],[121.294191,23.720373],[121.294287,23.720555],[121.294679,23.720559],[121.294878,23.72029],[121.294782,23.720199],[121.294486,23.720286],[121.294489,23.720105],[121.294587,23.720106],[121.294496,23.719564],[121.294992,23.719118],[121.294989,23.719298],[121.295184,23.719391],[121.295181,23.719661],[121.295279,23.719663],[121.295177,23.719932],[121.295372,23.720025],[121.295366,23.720476],[121.295561,23.720569],[121.295461,23.720748],[121.295265,23.720746],[121.295066,23.720924],[121.294961,23.721465],[121.294667,23.721462],[121.294469,23.72164],[121.294465,23.721911],[121.29466,23.722004],[121.294658,23.722184],[121.294269,23.721909],[121.293872,23.722266],[121.293879,23.721724],[121.293201,23.721084],[121.293107,23.720722],[121.292811,23.7209],[121.292805,23.721351],[121.292707,23.72135],[121.292712,23.720989],[121.292517,23.720896],[121.292618,23.720627],[121.292521,23.720535],[121.292227,23.720532],[121.292127,23.720711],[121.291931,23.720709],[121.291932,23.720619],[121.29223,23.720351],[121.292335,23.719811],[121.292433,23.719812],[121.292526,23.720174],[121.292921,23.719998],[121.292635,23.719363],[121.292537,23.719361],[121.292539,23.719181],[121.292344,23.719088],[121.292346,23.718908],[121.292545,23.718729],[121.292254,23.718455],[121.29255,23.718368],[121.292553,23.718097],[121.29275,23.718009],[121.292753,23.717829],[121.293844,23.716847],[121.293651,23.716665],[121.293653,23.716484],[121.293951,23.716217],[121.294343,23.716221],[121.294344,23.716131],[121.294738,23.716045],[121.294937,23.715776],[121.294743,23.715593],[121.294058,23.715495],[121.293962,23.715314],[121.293668,23.71531],[121.293667,23.715401],[121.293471,23.715399],[121.293273,23.715577],[121.29288,23.715573],[121.292879,23.715663],[121.292193,23.715655],[121.292097,23.715474],[121.292881,23.715482],[121.292883,23.715392],[121.293472,23.715308],[121.293672,23.71504],[121.294159,23.715316],[121.294258,23.715227],[121.294162,23.715045],[121.294456,23.715048],[121.294655,23.71487],[121.294657,23.714689],[121.294462,23.714597],[121.294563,23.714417],[121.294661,23.714418],[121.294754,23.714781],[121.294949,23.714873],[121.295149,23.714604],[121.295245,23.714696],[121.295639,23.71461],[121.296036,23.714253],[121.296038,23.714072],[121.296428,23.714257],[121.29653,23.713988],[121.296628,23.713989],[121.296534,23.713626],[121.29693,23.71336],[121.296639,23.713086],[121.296935,23.712999],[121.296934,23.713089],[121.297325,23.713184],[121.297424,23.713094],[121.297329,23.712822],[121.297232,23.712731],[121.297036,23.712729],[121.297035,23.712819],[121.296742,23.712726],[121.296841,23.712636],[121.296746,23.712455],[121.29655,23.712453],[121.296548,23.712543],[121.296255,23.712449],[121.296258,23.712269],[121.296063,23.712176],[121.296066,23.711906],[121.295773,23.711812],[121.295776,23.711631],[121.295581,23.711539],[121.295379,23.711988],[121.295672,23.712082],[121.295671,23.712172],[121.295868,23.712084],[121.295865,23.712265],[121.29557,23.712352],[121.295172,23.712799],[121.294976,23.712797],[121.294876,23.712976],[121.294383,23.713151],[121.294475,23.713604],[121.29398,23.713959],[121.294076,23.714141],[121.293877,23.714319],[121.293681,23.714317],[121.293581,23.714497],[121.293386,23.714404],[121.293385,23.714495],[121.292795,23.714578],[121.292695,23.714758],[121.292598,23.714667],[121.292303,23.714754],[121.292112,23.7143],[121.292707,23.713855],[121.292612,23.713583],[121.292318,23.71358],[121.292217,23.713759],[121.291728,23.713664],[121.291628,23.713843],[121.291432,23.713841],[121.291336,23.713659],[121.291041,23.713746],[121.291038,23.713927],[121.291331,23.71402],[121.291525,23.714203],[121.291523,23.714384],[121.291718,23.714476],[121.291715,23.714657],[121.291518,23.714745],[121.291614,23.714927],[121.291416,23.715015],[121.291512,23.715196],[121.291314,23.715375],[121.291023,23.715101],[121.290728,23.715188],[121.290534,23.715005],[121.290636,23.714735],[121.290344,23.714551],[121.290443,23.714462],[121.290347,23.71428],[121.289856,23.714365],[121.289755,23.714545],[121.289461,23.714542],[121.289361,23.714721],[121.289264,23.71463],[121.288969,23.714717]],[[121.296383,23.725273],[121.296284,23.725362],[121.296285,23.725272],[121.296383,23.725273]],[[121.300982,23.710966],[121.300883,23.711056],[121.300884,23.710965],[121.300982,23.710966]],[[121.300948,23.713585],[121.301046,23.713586],[121.300953,23.713223],[121.301147,23.713406],[121.301344,23.713318],[121.30134,23.713589],[121.301142,23.713767],[121.300948,23.713585]],[[121.299546,23.715827],[121.299643,23.715918],[121.299545,23.715917],[121.299546,23.715827]],[[121.299644,23.715828],[121.299743,23.715739],[121.299742,23.715829],[121.299644,23.715828]],[[121.299743,23.715739],[121.299843,23.715649],[121.299841,23.71574],[121.299743,23.715739]],[[121.296063,23.719671],[121.295964,23.71976],[121.295965,23.71967],[121.296063,23.719671]],[[121.295051,23.714603],[121.295052,23.714513],[121.294856,23.714511],[121.294857,23.714421],[121.295249,23.714425],[121.295051,23.714603]],[[121.295249,23.714425],[121.295349,23.714245],[121.295546,23.714248],[121.295445,23.714427],[121.295249,23.714425]],[[121.295773,23.711812],[121.295674,23.711901],[121.295675,23.711811],[121.295773,23.711812]],[[121.289459,23.714722],[121.289555,23.714904],[121.289358,23.714902],[121.289159,23.71517],[121.288963,23.715168],[121.289459,23.714722]],[[121.293331,23.726143],[121.29343,23.726053],[121.293429,23.726144],[121.293331,23.726143]],[[121.291572,23.725672],[121.29167,23.725673],[121.291668,23.725853],[121.291569,23.725852],[121.291572,23.725672]],[[121.292158,23.725859],[121.292257,23.72577],[121.292256,23.72586],[121.292158,23.725859]],[[121.292453,23.725772],[121.292354,23.725861],[121.292355,23.725771],[121.292453,23.725772]],[[121.292456,23.725591],[121.292554,23.725592],[121.292551,23.725773],[121.292453,23.725772],[121.292456,23.725591]],[[121.291865,23.725765],[121.291964,23.725676],[121.291963,23.725766],[121.291865,23.725765]],[[121.293338,23.725601],[121.293244,23.725329],[121.293538,23.725332],[121.293535,23.725513],[121.293338,23.725601]],[[121.293244,23.725329],[121.293147,23.725238],[121.293245,23.725239],[121.293244,23.725329]],[[121.294221,23.725611],[121.29432,23.725521],[121.294319,23.725612],[121.294221,23.725611]],[[121.291481,23.725129],[121.291084,23.725486],[121.290888,23.725484],[121.2905,23.725118],[121.290502,23.724937],[121.290796,23.725031],[121.290794,23.725121],[121.290993,23.724943],[121.291187,23.725126],[121.291385,23.724947],[121.291581,23.724949],[121.291578,23.72522],[121.291481,23.725129]],[[121.291578,23.72522],[121.291675,23.725312],[121.291771,23.725403],[121.291575,23.725401],[121.291578,23.72522]],[[121.292269,23.724867],[121.292367,23.724868],[121.292361,23.725319],[121.292459,23.72532],[121.292359,23.7255],[121.292261,23.725499],[121.292264,23.725228],[121.292166,23.725227],[121.292269,23.724867]],[[121.294915,23.724986],[121.295014,23.724987],[121.295008,23.725439],[121.29491,23.725438],[121.294915,23.724986]],[[121.29197,23.725225],[121.292069,23.725135],[121.292068,23.725226],[121.29197,23.725225]],[[121.295993,23.725088],[121.296091,23.725089],[121.296089,23.72527],[121.295991,23.725269],[121.295993,23.725088]],[[121.293838,23.724884],[121.293934,23.725066],[121.293736,23.725154],[121.293642,23.724882],[121.293838,23.724884]],[[121.2957,23.724995],[121.295799,23.724906],[121.295798,23.724996],[121.2957,23.724995]],[[121.29482,23.724805],[121.29492,23.724625],[121.295213,23.724719],[121.295015,23.724897],[121.29482,23.724805]],[[121.295212,23.724809],[121.295309,23.7249],[121.295211,23.724899],[121.295212,23.724809]],[[121.290312,23.724484],[121.290609,23.724307],[121.290705,23.724488],[121.290901,23.72449],[121.290995,23.724762],[121.290799,23.72476],[121.2908,23.72467],[121.290505,23.724757],[121.290312,23.724484]],[[121.293155,23.724606],[121.293056,23.724695],[121.293057,23.724604],[121.293155,23.724606]],[[121.293155,23.724606],[121.293254,23.724516],[121.293253,23.724607],[121.293155,23.724606]],[[121.293254,23.724516],[121.293353,23.724427],[121.293352,23.724517],[121.293254,23.724516]],[[121.293548,23.72452],[121.293449,23.724609],[121.29345,23.724519],[121.293548,23.72452]],[[121.293548,23.72452],[121.293648,23.72443],[121.293747,23.724341],[121.293745,23.724522],[121.293548,23.72452]],[[121.293551,23.724339],[121.293553,23.724158],[121.293651,23.72416],[121.293649,23.72434],[121.293551,23.724339]],[[121.292666,23.72451],[121.292765,23.724421],[121.292764,23.724511],[121.292666,23.72451]],[[121.294431,23.724529],[121.29453,23.72444],[121.294529,23.72453],[121.294431,23.724529]],[[121.295218,23.724357],[121.295316,23.724359],[121.295314,23.724539],[121.295216,23.724538],[121.295218,23.724357]],[[121.296197,23.724459],[121.296394,23.724461],[121.296392,23.724551],[121.296196,23.724549],[121.296197,23.724459]],[[121.293942,23.724434],[121.294041,23.724344],[121.29404,23.724435],[121.293942,23.724434]],[[121.292081,23.724233],[121.291982,23.724322],[121.291983,23.724231],[121.292081,23.724233]],[[121.292086,23.723871],[121.292184,23.723872],[121.292287,23.723512],[121.292483,23.723515],[121.292481,23.723605],[121.292777,23.723518],[121.292774,23.723698],[121.292873,23.723699],[121.292771,23.723969],[121.292577,23.723787],[121.292381,23.723784],[121.292179,23.724234],[121.292081,23.724233],[121.292086,23.723871]],[[121.292187,23.723602],[121.29209,23.72351],[121.292188,23.723511],[121.292187,23.723602]],[[121.295708,23.724363],[121.295807,23.724274],[121.295806,23.724364],[121.295708,23.724363]],[[121.2963,23.724098],[121.295907,23.724184],[121.296008,23.723915],[121.295813,23.723822],[121.296012,23.723644],[121.296015,23.723373],[121.296112,23.723464],[121.29631,23.723376],[121.296696,23.723832],[121.296497,23.72401],[121.296592,23.724282],[121.296396,23.72428],[121.2963,23.724098]],[[121.293753,23.72389],[121.293948,23.723982],[121.293945,23.724163],[121.29375,23.72407],[121.293753,23.72389]],[[121.295322,23.723907],[121.295518,23.723909],[121.295516,23.72409],[121.295319,23.724088],[121.295322,23.723907]],[[121.290515,23.723944],[121.290615,23.723855],[121.290614,23.723945],[121.290515,23.723944]],[[121.291399,23.723864],[121.291498,23.723775],[121.291497,23.723865],[121.291399,23.723864]],[[121.293264,23.723794],[121.293363,23.723705],[121.293362,23.723795],[121.293264,23.723794]],[[121.292289,23.723332],[121.292386,23.723423],[121.292288,23.723422],[121.292289,23.723332]],[[121.292289,23.723332],[121.292192,23.72324],[121.29229,23.723242],[121.292289,23.723332]],[[121.294839,23.72336],[121.294938,23.723271],[121.294937,23.723361],[121.294839,23.72336]],[[121.295334,23.723004],[121.295531,23.722916],[121.295536,23.722555],[121.295734,23.722377],[121.296028,23.72238],[121.296129,23.7222],[121.296325,23.722202],[121.296523,23.722024],[121.29652,23.722295],[121.296222,23.722563],[121.296219,23.722833],[121.29582,23.72328],[121.295525,23.723368],[121.295334,23.723004]],[[121.295139,23.722912],[121.295237,23.722913],[121.295234,23.723093],[121.295136,23.723092],[121.295139,23.722912]],[[121.293376,23.722712],[121.293475,23.722623],[121.293474,23.722713],[121.293376,23.722712]],[[121.294163,23.72254],[121.293964,23.722718],[121.293967,23.722538],[121.294163,23.72254]],[[121.294749,23.722727],[121.294848,23.722638],[121.294847,23.722728],[121.294749,23.722727]],[[121.290927,23.722504],[121.290827,23.722593],[121.290828,23.722503],[121.290927,23.722504]],[[121.290927,23.722504],[121.291026,23.722415],[121.290931,23.722143],[121.291129,23.722055],[121.291223,23.722327],[121.291125,23.722326],[121.291123,23.722506],[121.290927,23.722504]],[[121.294066,23.722448],[121.294165,23.722359],[121.294164,23.72245],[121.294066,23.722448]],[[121.294948,23.722458],[121.295048,23.722369],[121.295046,23.722459],[121.294948,23.722458]],[[121.293381,23.722351],[121.29348,23.722261],[121.293479,23.722352],[121.293381,23.722351]],[[121.288097,23.721389],[121.288196,23.7213],[121.28839,23.721483],[121.288387,23.721663],[121.28819,23.721751],[121.288285,23.722023],[121.288086,23.722202],[121.28789,23.7222],[121.287408,23.721562],[121.287506,23.721563],[121.287805,23.721205],[121.288097,23.721389]],[[121.287507,23.721473],[121.28741,23.721382],[121.287508,23.721383],[121.287507,23.721473]],[[121.287805,23.721205],[121.287708,23.721114],[121.287611,23.721023],[121.287807,23.721025],[121.287805,23.721205]],[[121.295246,23.722191],[121.295147,23.72228],[121.295148,23.722189],[121.295246,23.722191]],[[121.29525,23.72192],[121.295348,23.721921],[121.295344,23.722192],[121.295246,23.722191],[121.29525,23.72192]],[[121.293091,23.721986],[121.292893,23.722165],[121.292895,23.721984],[121.293091,23.721986]],[[121.288874,23.72194],[121.288973,23.72185],[121.288972,23.721941],[121.288874,23.72194]],[[121.291424,23.721968],[121.291228,23.721966],[121.291329,23.721696],[121.291427,23.721697],[121.291424,23.721968]],[[121.292112,23.721885],[121.292211,23.721796],[121.29221,23.721886],[121.292112,23.721885]],[[121.295253,23.721649],[121.295055,23.721827],[121.295057,23.721647],[121.295253,23.721649]],[[121.292408,23.721708],[121.292507,23.721619],[121.292506,23.721709],[121.292408,23.721708]],[[121.291237,23.721243],[121.291139,23.721242],[121.291142,23.721062],[121.291534,23.721066],[121.291435,23.721155],[121.291527,23.721608],[121.291332,23.721515],[121.291237,23.721243]],[[121.283978,23.721344],[121.283782,23.721341],[121.283783,23.721251],[121.283981,23.721163],[121.283978,23.721344]],[[121.292215,23.721435],[121.292315,23.721346],[121.292314,23.721436],[121.292215,23.721435]],[[121.285747,23.721092],[121.285652,23.72082],[121.285949,23.720643],[121.286335,23.721099],[121.286137,23.721277],[121.285941,23.721275],[121.285747,23.721092]],[[121.293001,23.721353],[121.2931,23.721264],[121.293099,23.721354],[121.293001,23.721353]],[[121.297416,23.721221],[121.297516,23.721132],[121.297514,23.721222],[121.297416,23.721221]],[[121.28918,23.72104],[121.28889,23.720766],[121.288892,23.720585],[121.28909,23.720407],[121.288897,23.720224],[121.289095,23.720046],[121.289387,23.72023],[121.289188,23.720408],[121.289381,23.720681],[121.289577,23.720683],[121.290174,23.720058],[121.290466,23.720242],[121.289868,23.720957],[121.289674,23.720775],[121.289478,23.720772],[121.28918,23.72104]],[[121.288103,23.720938],[121.288202,23.720849],[121.288201,23.720939],[121.288103,23.720938]],[[121.296145,23.720936],[121.296046,23.721026],[121.296047,23.720935],[121.296145,23.720936]],[[121.296145,23.720936],[121.296244,23.720847],[121.296243,23.720937],[121.296145,23.720936]],[[121.297129,23.720676],[121.296635,23.720942],[121.296634,23.721032],[121.296438,23.72103],[121.297133,23.720405],[121.297129,23.720676]],[[121.297135,23.720225],[121.297233,23.720226],[121.297231,23.720406],[121.297133,23.720405],[121.297135,23.720225]],[[121.291244,23.720702],[121.290856,23.720426],[121.29096,23.719976],[121.291158,23.719798],[121.291354,23.7198],[121.291851,23.719264],[121.292243,23.719358],[121.292239,23.719629],[121.291844,23.719805],[121.291742,23.720165],[121.291247,23.720521],[121.291244,23.720702]],[[121.297327,23.720588],[121.297425,23.720589],[121.297422,23.72077],[121.297324,23.720769],[121.297327,23.720588]],[[121.28527,23.720094],[121.285466,23.720096],[121.285566,23.719916],[121.285859,23.72001],[121.285959,23.71983],[121.286251,23.720014],[121.286052,23.720283],[121.285857,23.720191],[121.285756,23.72037],[121.28556,23.720368],[121.28527,23.720094]],[[121.287521,23.72039],[121.287621,23.7203],[121.287619,23.720391],[121.287521,23.72039]],[[121.288306,23.720398],[121.288405,23.720309],[121.288404,23.720399],[121.288306,23.720398]],[[121.296939,23.720223],[121.296841,23.720222],[121.296843,23.720041],[121.296941,23.720042],[121.296939,23.720223]],[[121.296944,23.719862],[121.297141,23.719773],[121.297143,23.719593],[121.297241,23.719594],[121.297147,23.719322],[121.297343,23.719324],[121.297344,23.719234],[121.29754,23.719236],[121.297539,23.719326],[121.297736,23.719238],[121.297734,23.719419],[121.297636,23.719418],[121.297732,23.719599],[121.298029,23.719332],[121.298226,23.719334],[121.298123,23.719694],[121.297731,23.71969],[121.297433,23.719957],[121.29714,23.719864],[121.297039,23.720043],[121.296941,23.720042],[121.296944,23.719862]],[[121.298123,23.719694],[121.29822,23.719785],[121.298122,23.719784],[121.298123,23.719694]],[[121.290473,23.7197],[121.29067,23.719612],[121.290566,23.720062],[121.290468,23.720061],[121.290473,23.7197]],[[121.29067,23.719612],[121.290769,23.719522],[121.290768,23.719613],[121.29067,23.719612]],[[121.285273,23.719823],[121.285372,23.719734],[121.285371,23.719824],[121.285273,23.719823]],[[121.285765,23.719738],[121.285864,23.719649],[121.285863,23.719739],[121.285765,23.719738]],[[121.288416,23.719496],[121.288514,23.719498],[121.288511,23.719678],[121.288413,23.719677],[121.288416,23.719496]],[[121.28959,23.71969],[121.289689,23.719601],[121.289688,23.719691],[121.28959,23.71969]],[[121.285473,23.719554],[121.285084,23.719279],[121.285086,23.719098],[121.285482,23.718832],[121.285288,23.718649],[121.285488,23.71838],[121.285684,23.718383],[121.285877,23.718656],[121.286172,23.718569],[121.286366,23.718751],[121.28587,23.719197],[121.285675,23.719105],[121.285576,23.719194],[121.285671,23.719376],[121.285473,23.719554]],[[121.286455,23.719475],[121.286355,23.719564],[121.286356,23.719474],[121.286455,23.719475]],[[121.286553,23.719476],[121.286262,23.719202],[121.286558,23.719024],[121.286751,23.719297],[121.286553,23.719476]],[[121.289003,23.719593],[121.289102,23.719504],[121.289101,23.719594],[121.289003,23.719593]],[[121.290967,23.719434],[121.290869,23.719433],[121.290773,23.719252],[121.290969,23.719254],[121.290967,23.719434]],[[121.288721,23.718687],[121.289207,23.718963],[121.289505,23.718696],[121.289507,23.718515],[121.289702,23.718608],[121.289504,23.718786],[121.289502,23.718967],[121.289305,23.718965],[121.289006,23.719322],[121.288712,23.719319],[121.288519,23.719136],[121.288721,23.718687]],[[121.288721,23.718687],[121.288624,23.718596],[121.288722,23.718597],[121.288721,23.718687]],[[121.283322,23.718989],[121.283421,23.71899],[121.283418,23.71917],[121.28332,23.719169],[121.283322,23.718989]],[[121.290974,23.718893],[121.291469,23.718537],[121.291566,23.718628],[121.291861,23.718541],[121.291758,23.718901],[121.291362,23.719168],[121.291166,23.719166],[121.290974,23.718893]],[[121.298326,23.719154],[121.298423,23.719246],[121.298325,23.719245],[121.298326,23.719154]],[[121.29813,23.719152],[121.298132,23.718972],[121.29823,23.718973],[121.298326,23.719154],[121.29813,23.719152]],[[121.298233,23.718792],[121.298429,23.718794],[121.298428,23.718885],[121.29823,23.718973],[121.298233,23.718792]],[[121.297051,23.71914],[121.296757,23.719137],[121.296758,23.719047],[121.297053,23.71896],[121.297051,23.71914]],[[121.29774,23.718967],[121.297936,23.718969],[121.297935,23.71906],[121.297739,23.719058],[121.29774,23.718967]],[[121.297446,23.718964],[121.297252,23.718781],[121.297645,23.718695],[121.297644,23.718786],[121.297446,23.718964]],[[121.297645,23.718695],[121.297745,23.718606],[121.297649,23.718424],[121.297846,23.718336],[121.297938,23.718789],[121.297645,23.718695]],[[121.297849,23.718156],[121.297947,23.718157],[121.297944,23.718337],[121.297846,23.718336],[121.297849,23.718156]],[[121.284999,23.718285],[121.285195,23.718287],[121.285096,23.718376],[121.28519,23.718648],[121.284994,23.718646],[121.284997,23.718465],[121.284899,23.718464],[121.284999,23.718285]],[[121.287156,23.718309],[121.287355,23.71813],[121.287551,23.718132],[121.287745,23.718315],[121.287742,23.718496],[121.287544,23.718674],[121.287348,23.718672],[121.287154,23.718489],[121.287156,23.718309]],[[121.286859,23.718576],[121.286958,23.718487],[121.286957,23.718577],[121.286859,23.718576]],[[121.285978,23.718386],[121.286174,23.718388],[121.286173,23.718478],[121.285977,23.718476],[121.285978,23.718386]],[[121.286567,23.718392],[121.286666,23.718303],[121.286665,23.718393],[121.286567,23.718392]],[[121.287845,23.718136],[121.288142,23.717958],[121.288334,23.718231],[121.288038,23.718409],[121.287845,23.718136]],[[121.28843,23.718413],[121.288529,23.718324],[121.288528,23.718414],[121.28843,23.718413]],[[121.2902,23.718071],[121.290299,23.717982],[121.290298,23.718073],[121.2902,23.718071]],[[121.291573,23.718087],[121.291672,23.717997],[121.291671,23.718088],[121.291573,23.718087]],[[121.284809,23.717831],[121.284908,23.717742],[121.284907,23.717832],[121.284809,23.717831]],[[121.285201,23.717835],[121.2853,23.717746],[121.285299,23.717837],[121.285201,23.717835]],[[121.28893,23.717696],[121.28903,23.717517],[121.289226,23.717519],[121.289126,23.717698],[121.28893,23.717696]],[[121.289226,23.717519],[121.289325,23.71743],[121.289324,23.71752],[121.289226,23.717519]],[[121.289325,23.71743],[121.289425,23.71734],[121.289423,23.717431],[121.289325,23.71743]],[[121.289425,23.71734],[121.289037,23.716975],[121.289435,23.716528],[121.289728,23.716621],[121.289928,23.716353],[121.290319,23.716447],[121.290419,23.716268],[121.290616,23.71627],[121.290516,23.716359],[121.290611,23.716631],[121.290318,23.716538],[121.289621,23.717343],[121.289425,23.71734]],[[121.299128,23.717809],[121.299227,23.717719],[121.299226,23.71781],[121.299128,23.717809]],[[121.291192,23.717179],[121.291388,23.717182],[121.291587,23.717003],[121.291589,23.716823],[121.291883,23.716826],[121.291879,23.717187],[121.291682,23.717185],[121.291384,23.717543],[121.29099,23.717629],[121.291192,23.717179]],[[121.283146,23.717451],[121.283246,23.717362],[121.283244,23.717453],[121.283146,23.717451]],[[121.284719,23.717198],[121.285015,23.717021],[121.285208,23.717294],[121.284912,23.717471],[121.284719,23.717198]],[[121.285506,23.717026],[121.285703,23.716938],[121.285609,23.716666],[121.285903,23.716669],[121.285801,23.716939],[121.285995,23.717122],[121.285698,23.717299],[121.285506,23.717026]],[[121.292567,23.717014],[121.292667,23.716925],[121.292665,23.717015],[121.292567,23.717014]],[[121.284532,23.716474],[121.28483,23.716206],[121.285122,23.71639],[121.285119,23.71657],[121.284822,23.716838],[121.28453,23.716654],[121.284532,23.716474]],[[121.28649,23.716766],[121.286589,23.716677],[121.286588,23.716767],[121.28649,23.716766]],[[121.292572,23.716653],[121.292473,23.716742],[121.292474,23.716652],[121.292572,23.716653]],[[121.292572,23.716653],[121.292671,23.716564],[121.29267,23.716654],[121.292572,23.716653]],[[121.291204,23.716277],[121.291105,23.716366],[121.291106,23.716275],[121.291204,23.716277]],[[121.291204,23.716277],[121.291109,23.716005],[121.291603,23.715739],[121.291601,23.71592],[121.291503,23.715919],[121.291598,23.7161],[121.2914,23.716279],[121.291204,23.716277]],[[121.29189,23.716284],[121.292184,23.716287],[121.292183,23.716378],[121.291889,23.716374],[121.29189,23.716284]],[[121.293071,23.716026],[121.292674,23.716383],[121.292676,23.716202],[121.292874,23.716024],[121.293071,23.716026]],[[121.293069,23.716117],[121.293166,23.716208],[121.293068,23.716207],[121.293069,23.716117]],[[121.290714,23.716271],[121.290813,23.716182],[121.290812,23.716272],[121.290714,23.716271]],[[121.299441,23.716367],[121.29954,23.716278],[121.299539,23.716368],[121.299441,23.716367]],[[121.299443,23.716187],[121.299543,23.716098],[121.299541,23.716188],[121.299443,23.716187]],[[121.288468,23.715524],[121.288567,23.715435],[121.288566,23.715525],[121.288468,23.715524]],[[121.292985,23.715032],[121.293182,23.715034],[121.29318,23.715124],[121.292886,23.715121],[121.292887,23.715031],[121.292593,23.715028],[121.292594,23.714937],[121.292987,23.714942],[121.292985,23.715032]],[[121.30044,23.714934],[121.300636,23.714936],[121.300634,23.715116],[121.300143,23.715201],[121.300146,23.71493],[121.300245,23.714841],[121.300441,23.714843],[121.30044,23.714934]],[[121.289753,23.714725],[121.290047,23.714729],[121.290046,23.714819],[121.289752,23.714816],[121.289753,23.714725]],[[121.291909,23.71484],[121.292008,23.71475],[121.292007,23.714841],[121.291909,23.71484]],[[121.293875,23.7145],[121.294071,23.714502],[121.294072,23.714412],[121.294366,23.714415],[121.294167,23.714684],[121.293479,23.714767],[121.293875,23.7145]],[[121.300448,23.714302],[121.300547,23.714303],[121.300544,23.714483],[121.300446,23.714482],[121.300448,23.714302]],[[121.294564,23.714327],[121.294663,23.714238],[121.294662,23.714328],[121.294564,23.714327]],[[121.300643,23.714394],[121.300743,23.714305],[121.300741,23.714395],[121.300643,23.714394]],[[121.294274,23.713963],[121.29447,23.713965],[121.294469,23.714055],[121.294273,23.714053],[121.294274,23.713963]],[[121.295063,23.71361],[121.295361,23.713343],[121.295653,23.713526],[121.295354,23.713884],[121.295063,23.71361]],[[121.295749,23.713708],[121.295945,23.71371],[121.295942,23.713891],[121.295746,23.713889],[121.295749,23.713708]],[[121.296339,23.713534],[121.296439,23.713445],[121.296437,23.713535],[121.296339,23.713534]],[[121.296348,23.712902],[121.296447,23.712813],[121.296446,23.712903],[121.296348,23.712902]]],[[[121.296173,23.718769],[121.296275,23.7185],[121.296373,23.718501],[121.296379,23.718049],[121.296281,23.718048],[121.296284,23.717777],[121.296186,23.717776],[121.296288,23.717507],[121.296093,23.717414],[121.295994,23.717503],[121.296088,23.717775],[121.295793,23.717862],[121.295787,23.718314],[121.295982,23.718406],[121.295978,23.718677],[121.29588,23.718676],[121.295777,23.719036],[121.295972,23.719128],[121.296075,23.718768],[121.296173,23.718769]]],[[[121.295177,23.719932],[121.294886,23.719749],[121.294783,23.720109],[121.295076,23.720202],[121.295175,23.720113],[121.295177,23.719932]]],[[[121.287875,23.723373],[121.288077,23.722924],[121.288175,23.722925],[121.288079,23.722743],[121.287783,23.722921],[121.28778,23.723101],[121.287584,23.723099],[121.287585,23.723009],[121.287388,23.723097],[121.287482,23.723369],[121.287582,23.72328],[121.287875,23.723373]]],[[[121.292837,23.726408],[121.292937,23.726319],[121.292838,23.726318],[121.292837,23.726408]]],[[[121.298873,23.707241],[121.298677,23.707239],[121.298484,23.706966],[121.298287,23.707054],[121.298481,23.707237],[121.298477,23.707507],[121.298868,23.707602],[121.298767,23.707872],[121.299154,23.708237],[121.299253,23.708148],[121.29935,23.708239],[121.299842,23.708155],[121.300229,23.70852],[121.300333,23.70807],[121.30053,23.707981],[121.300533,23.707801],[121.300731,23.707622],[121.300927,23.707625],[121.300926,23.707715],[121.301319,23.707629],[121.301421,23.707359],[121.301714,23.707453],[121.301816,23.707183],[121.302013,23.707095],[121.302015,23.706914],[121.301725,23.70664],[121.30143,23.706637],[121.301328,23.706997],[121.301231,23.706906],[121.301033,23.706994],[121.30084,23.706811],[121.300055,23.706802],[121.299955,23.706982],[121.29976,23.706889],[121.299263,23.707426],[121.298872,23.707331],[121.298873,23.707241]],[[121.299263,23.707426],[121.29936,23.707517],[121.299261,23.707516],[121.299263,23.707426]],[[121.300136,23.708158],[121.300039,23.708066],[121.300137,23.708067],[121.300136,23.708158]],[[121.299355,23.707878],[121.299258,23.707787],[121.299356,23.707788],[121.299355,23.707878]],[[121.300339,23.707618],[121.300335,23.707889],[121.299944,23.707794],[121.299947,23.707614],[121.300339,23.707618]],[[121.300048,23.707344],[121.300147,23.707255],[121.300146,23.707345],[121.300048,23.707344]],[[121.300049,23.707254],[121.299953,23.707162],[121.299856,23.707071],[121.300052,23.707073],[121.300049,23.707254]],[[121.301129,23.707175],[121.301032,23.707084],[121.30113,23.707085],[121.301129,23.707175]]],[[[121.310066,23.713775],[121.310365,23.713417],[121.31017,23.713324],[121.310273,23.712964],[121.309981,23.712781],[121.309878,23.713141],[121.310073,23.713233],[121.310071,23.713414],[121.309873,23.713592],[121.309776,23.713501],[121.309187,23.713494],[121.309087,23.713674],[121.309184,23.713765],[121.309772,23.713772],[121.309773,23.713681],[121.310066,23.713775]]],[[[121.301308,23.716117],[121.30131,23.715936],[121.301213,23.715845],[121.301016,23.715933],[121.301018,23.715753],[121.300727,23.715478],[121.30053,23.715567],[121.300528,23.715747],[121.300821,23.715841],[121.301011,23.716294],[121.301308,23.716117]]],[[[121.306467,23.719063],[121.306271,23.719061],[121.306274,23.71888],[121.30647,23.718883],[121.306668,23.718704],[121.306576,23.718252],[121.306773,23.718163],[121.306776,23.717983],[121.306485,23.717709],[121.306584,23.71762],[121.306681,23.717711],[121.306877,23.717713],[121.306878,23.717623],[121.306975,23.717714],[121.307075,23.717625],[121.308054,23.717726],[121.308254,23.717457],[121.307568,23.717359],[121.307375,23.717177],[121.306982,23.717172],[121.306887,23.716991],[121.306592,23.716988],[121.306594,23.716897],[121.306494,23.716987],[121.306397,23.716895],[121.30571,23.716978],[121.305711,23.716888],[121.305319,23.716883],[121.30532,23.716793],[121.305025,23.71688],[121.304831,23.716697],[121.304834,23.716427],[121.304736,23.716425],[121.304739,23.716245],[121.304837,23.716246],[121.304743,23.715884],[121.304354,23.715609],[121.304359,23.715247],[121.304164,23.715155],[121.304265,23.714975],[121.303877,23.71461],[121.303881,23.714339],[121.304079,23.714161],[121.303786,23.714067],[121.303785,23.714158],[121.303391,23.714244],[121.303291,23.714423],[121.303095,23.714421],[121.303,23.714149],[121.302902,23.714148],[121.303001,23.714059],[121.303005,23.713788],[121.302907,23.713787],[121.303007,23.713607],[121.302717,23.713333],[121.302521,23.713331],[121.302519,23.713421],[121.302029,23.713416],[121.301932,23.713325],[121.301733,23.713593],[121.302124,23.713688],[121.302317,23.713871],[121.302314,23.714141],[121.302605,23.714415],[121.302898,23.714509],[121.302796,23.714779],[121.303187,23.714873],[121.303283,23.715055],[121.303675,23.715059],[121.303668,23.715601],[121.30357,23.7156],[121.303467,23.71596],[121.303564,23.716051],[121.30386,23.715964],[121.304344,23.716421],[121.304436,23.716874],[121.304534,23.716875],[121.304432,23.717235],[121.304921,23.71733],[121.304919,23.717421],[121.305215,23.717334],[121.305214,23.717424],[121.305508,23.717427],[121.305507,23.717517],[121.3059,23.717431],[121.306289,23.717707],[121.306287,23.717887],[121.305992,23.717884],[121.305994,23.717794],[121.305796,23.717882],[121.30589,23.718244],[121.306083,23.718427],[121.306078,23.718878],[121.305881,23.718876],[121.305682,23.719145],[121.305388,23.719142],[121.30539,23.718961],[121.305195,23.718869],[121.305197,23.718688],[121.305004,23.718505],[121.305106,23.718145],[121.305009,23.718054],[121.304812,23.718142],[121.304709,23.718502],[121.304807,23.718503],[121.304897,23.719136],[121.305288,23.719231],[121.305677,23.719506],[121.306069,23.71951],[121.306263,23.719693],[121.306269,23.719242],[121.306465,23.719244],[121.306467,23.719063]],[[121.305975,23.719238],[121.305878,23.719147],[121.305976,23.719148],[121.305975,23.719238]],[[121.305119,23.717152],[121.305022,23.717061],[121.30512,23.717062],[121.305119,23.717152]],[[121.305315,23.717154],[121.305218,23.717063],[121.305316,23.717064],[121.305315,23.717154]],[[121.30454,23.716423],[121.304542,23.716243],[121.30464,23.716244],[121.304638,23.716424],[121.30454,23.716423]],[[121.304347,23.71615],[121.30435,23.71597],[121.304448,23.715971],[121.304446,23.716151],[121.304347,23.71615]]],[[[121.300291,23.718905],[121.300397,23.718274],[121.300696,23.717916],[121.300605,23.717373],[121.3011,23.717018],[121.301108,23.716386],[121.301011,23.716294],[121.300814,23.716382],[121.300607,23.717193],[121.300508,23.717282],[121.300313,23.71719],[121.30021,23.71755],[121.300112,23.717549],[121.299997,23.718902],[121.300095,23.718903],[121.300189,23.719175],[121.300386,23.719087],[121.300389,23.718906],[121.300291,23.718905]]],[[[121.302314,23.721727],[121.302222,23.721274],[121.302027,23.721182],[121.301933,23.720819],[121.302031,23.72082],[121.302435,23.719922],[121.302337,23.719921],[121.302341,23.71965],[121.302146,23.719558],[121.301648,23.720094],[121.301536,23.721176],[121.301731,23.721269],[121.301826,23.721541],[121.302022,23.721543],[121.302116,23.721815],[121.302314,23.721727]]],[[[121.300613,23.724327],[121.300811,23.724148],[121.300817,23.723697],[121.301013,23.723699],[121.301206,23.723972],[121.301305,23.723883],[121.301598,23.723976],[121.301797,23.723798],[121.3017,23.723706],[121.301709,23.722984],[121.301611,23.722983],[121.301614,23.722712],[121.301516,23.722711],[121.301722,23.721991],[121.30143,23.721807],[121.301328,23.722077],[121.301132,23.722075],[121.300934,23.722253],[121.300732,23.722702],[121.300533,23.722881],[121.300239,23.722878],[121.300242,23.722697],[121.300837,23.722162],[121.300941,23.721711],[121.300843,23.72171],[121.300846,23.72144],[121.300651,23.721347],[121.300654,23.721167],[121.30085,23.721169],[121.301148,23.720901],[121.301151,23.72063],[121.300762,23.720355],[121.300765,23.720174],[121.300667,23.720173],[121.300768,23.719904],[121.300476,23.71972],[121.300383,23.719358],[121.300188,23.719265],[121.299989,23.719444],[121.299987,23.719624],[121.29979,23.719712],[121.299982,23.719985],[121.299486,23.720431],[121.299581,23.720703],[121.299483,23.720702],[121.299479,23.720973],[121.299281,23.721151],[121.299276,23.721513],[121.299078,23.721691],[121.29908,23.72151],[121.298982,23.721509],[121.299082,23.72133],[121.298887,23.721237],[121.298788,23.721327],[121.298885,23.721418],[121.298782,23.721778],[121.299267,23.722235],[121.299358,23.722778],[121.299745,23.723143],[121.299941,23.723145],[121.300134,23.723418],[121.300624,23.723424],[121.300623,23.723514],[121.300231,23.72351],[121.300031,23.723778],[121.300324,23.723872],[121.300417,23.724324],[121.300613,23.724327]],[[121.300628,23.723153],[121.300531,23.723061],[121.300629,23.723063],[121.300628,23.723153]]],[[[121.302462,23.72543],[121.302464,23.72525],[121.30286,23.724983],[121.302866,23.724532],[121.30306,23.724715],[121.303356,23.724537],[121.303354,23.724718],[121.303742,23.725083],[121.303639,23.725443],[121.303834,23.725536],[121.303934,23.725356],[121.30413,23.725358],[121.304224,23.725721],[121.304514,23.725995],[121.304712,23.725907],[121.304518,23.725724],[121.304619,23.725454],[121.304816,23.725456],[121.304814,23.725547],[121.305208,23.725461],[121.305112,23.725279],[121.304525,23.725182],[121.304235,23.724818],[121.303941,23.724815],[121.303554,23.724449],[121.303459,23.724177],[121.303165,23.724174],[121.303168,23.723903],[121.303367,23.723725],[121.303958,23.723551],[121.304059,23.723281],[121.304255,23.723283],[121.304449,23.723466],[121.304841,23.72347],[121.304842,23.72338],[121.305037,23.723472],[121.305137,23.723383],[121.304749,23.723017],[121.30406,23.72319],[121.303673,23.722825],[121.303871,23.722647],[121.304263,23.722651],[121.304457,23.722834],[121.305047,23.72275],[121.305248,23.722391],[121.304955,23.722297],[121.304956,23.722207],[121.304758,23.722295],[121.304762,23.722024],[121.30486,23.722025],[121.304764,23.721844],[121.304467,23.722111],[121.304562,23.722293],[121.303287,23.722279],[121.303192,23.722097],[121.302897,23.722094],[121.302896,23.722184],[121.302505,23.72209],[121.302406,23.722179],[121.302596,23.722633],[121.302794,23.722544],[121.302797,23.722274],[121.302992,23.722366],[121.302893,23.722455],[121.302984,23.722998],[121.302496,23.722812],[121.302297,23.722991],[121.302295,23.723171],[121.302099,23.723169],[121.3018,23.723527],[121.301898,23.723528],[121.301895,23.723799],[121.301993,23.7238],[121.301892,23.723979],[121.301989,23.724071],[121.302185,23.724073],[121.302184,23.724163],[121.30248,23.724076],[121.302571,23.724619],[121.302472,23.724618],[121.30237,23.724978],[121.301881,23.724882],[121.301682,23.725061],[121.301777,23.725333],[121.301184,23.725687],[121.301181,23.725868],[121.301083,23.725867],[121.301174,23.72641],[121.301369,23.726502],[121.301568,23.726324],[121.30157,23.726143],[121.301472,23.726142],[121.301575,23.725782],[121.301966,23.725876],[121.302462,23.72543]],[[121.302165,23.725608],[121.302069,23.725516],[121.302167,23.725517],[121.302165,23.725608]]],[[[121.30658,23.725566],[121.306485,23.725294],[121.306879,23.725208],[121.306784,23.724936],[121.306292,23.725021],[121.306294,23.724931],[121.306001,23.724837],[121.305999,23.724927],[121.305705,23.724924],[121.305704,23.725014],[121.305409,23.725102],[121.305406,23.725282],[121.305794,23.725648],[121.306283,23.725743],[121.306284,23.725653],[121.30658,23.725566]]],[[[121.301485,23.725149],[121.301388,23.725057],[121.301191,23.725146],[121.301284,23.725508],[121.301481,23.72542],[121.301485,23.725149]]],[[[121.303816,23.72689],[121.303821,23.726529],[121.304018,23.726441],[121.304023,23.72608],[121.303925,23.726079],[121.303928,23.725808],[121.303636,23.725624],[121.303535,23.725894],[121.303339,23.725892],[121.30314,23.72607],[121.303036,23.72652],[121.303231,23.726613],[121.303225,23.727064],[121.303516,23.727338],[121.303713,23.72725],[121.303718,23.726889],[121.303816,23.72689]]],[[[121.305862,23.727996],[121.305571,23.727722],[121.305478,23.72736],[121.304312,23.726444],[121.304212,23.726624],[121.304987,23.727354],[121.305081,23.727717],[121.305566,23.728083],[121.305762,23.728085],[121.305862,23.727996]]],[[[121.303311,23.728058],[121.303118,23.727785],[121.302727,23.727691],[121.302925,23.727512],[121.302928,23.727332],[121.302734,23.727149],[121.302535,23.727328],[121.302241,23.727324],[121.302049,23.727051],[121.301851,23.727139],[121.301849,23.72732],[121.301947,23.727321],[121.301942,23.727682],[121.301745,23.72777],[121.30184,23.728042],[121.302135,23.727955],[121.302329,23.728138],[121.303211,23.728148],[121.303311,23.728058]]]]}},{"type":"Feature","properties":{"kind":"bare_dam","month":"2025-04","area_ha":29.64},"geometry":{"type":"MultiPolygon","coordinates":[[[[121.298201,23.69098],[121.298299,23.690981],[121.298301,23.6908],[121.29801,23.690616],[121.298109,23.690527],[121.298013,23.690345],[121.298212,23.690167],[121.298897,23.690265],[121.299196,23.689907],[121.299882,23.689914],[121.299979,23.690006],[121.300178,23.689737],[121.298708,23.689721],[121.298607,23.6899],[121.298018,23.689984],[121.297522,23.69043],[121.297812,23.690704],[121.297614,23.690883],[121.297612,23.691063],[121.2981,23.691249],[121.298201,23.69098]]],[[[121.301235,23.691464],[121.301525,23.691739],[121.301819,23.691742],[121.301818,23.691832],[121.302211,23.691746],[121.302312,23.691567],[121.302606,23.69157],[121.302504,23.69184],[121.302992,23.692026],[121.303191,23.691847],[121.302997,23.691664],[121.303195,23.691486],[121.303199,23.691215],[121.302906,23.691122],[121.302907,23.691031],[121.302808,23.69112],[121.301829,23.691019],[121.301635,23.690837],[121.301637,23.690656],[121.301442,23.690564],[121.301445,23.690383],[121.302325,23.690573],[121.302326,23.690483],[121.302816,23.690488],[121.302916,23.690309],[121.30282,23.690218],[121.302329,23.690212],[121.302331,23.690122],[121.301839,23.690207],[121.301938,23.690118],[121.301843,23.689936],[121.30145,23.689932],[121.301452,23.689841],[121.301156,23.689928],[121.301061,23.689747],[121.300276,23.689738],[121.300274,23.689919],[121.300468,23.690102],[121.300269,23.69028],[121.299976,23.690186],[121.29958,23.690543],[121.300067,23.690729],[121.30026,23.691002],[121.300653,23.690916],[121.300846,23.691189],[121.30114,23.691192],[121.301235,23.691464]]],[[[121.300451,23.691366],[121.300259,23.691093],[121.30006,23.691271],[121.299864,23.691269],[121.299865,23.691178],[121.299474,23.691084],[121.299184,23.69081],[121.29889,23.690807],[121.298891,23.690716],[121.298498,23.690802],[121.298978,23.69153],[121.300448,23.691636],[121.300545,23.691728],[121.300645,23.691548],[121.301136,23.691463],[121.300846,23.691189],[121.300647,23.691368],[121.300451,23.691366]]],[[[121.30021,23.694885],[121.30031,23.694705],[121.300116,23.694522],[121.30041,23.694526],[121.300506,23.694707],[121.300703,23.694619],[121.30051,23.694436],[121.300512,23.694256],[121.301489,23.694537],[121.301679,23.694991],[121.301974,23.694904],[121.302174,23.694635],[121.302076,23.694634],[121.301981,23.694362],[121.301687,23.694359],[121.301401,23.693724],[121.301107,23.693721],[121.300526,23.693172],[121.300528,23.692992],[121.300333,23.692899],[121.300434,23.69272],[121.300143,23.692446],[121.299947,23.692444],[121.299753,23.692261],[121.299653,23.69244],[121.30004,23.692806],[121.299549,23.692891],[121.299258,23.692617],[121.299261,23.692436],[121.299163,23.692435],[121.299264,23.692165],[121.298876,23.69189],[121.298878,23.691709],[121.298391,23.691433],[121.298291,23.691613],[121.298583,23.691796],[121.29858,23.691977],[121.298482,23.691976],[121.298387,23.691794],[121.298191,23.691792],[121.298195,23.691431],[121.298,23.691339],[121.297802,23.691517],[121.297996,23.6917],[121.297796,23.691968],[121.298187,23.692063],[121.297987,23.692332],[121.298378,23.692426],[121.298568,23.69297],[121.298859,23.693154],[121.298855,23.693515],[121.298657,23.693603],[121.298553,23.694054],[121.298846,23.694147],[121.299232,23.694693],[121.299331,23.694604],[121.299428,23.694695],[121.299821,23.694609],[121.299916,23.694881],[121.30021,23.694885]],[[121.30004,23.692806],[121.300137,23.692897],[121.300039,23.692896],[121.30004,23.692806]],[[121.300137,23.692897],[121.300234,23.692989],[121.300136,23.692987],[121.300137,23.692897]],[[121.299821,23.694609],[121.29992,23.69452],[121.299919,23.69461],[121.299821,23.694609]],[[121.301782,23.694631],[121.301685,23.69454],[121.301783,23.694541],[121.301782,23.694631]],[[121.299823,23.694429],[121.299726,23.694337],[121.299825,23.694339],[121.299823,23.694429]],[[121.301396,23.694175],[121.301299,23.694084],[121.301397,23.694085],[121.301396,23.694175]],[[121.299247,23.693519],[121.299248,23.693429],[121.299444,23.693431],[121.299443,23.693522],[121.299247,23.693519]]],[[[121.300994,23.694893],[121.3008,23.69471],[121.3007,23.69489],[121.300895,23.694982],[121.300994,23.694893]]],[[[121.299803,23.695964],[121.299806,23.695783],[121.299904,23.695784],[121.29981,23.695422],[121.299324,23.695146],[121.299225,23.695235],[121.299312,23.696049],[121.299604,23.696232],[121.299705,23.695963],[121.299803,23.695964]]],[[[121.299782,23.697589],[121.300178,23.697322],[121.300281,23.696962],[121.29999,23.696688],[121.299794,23.696686],[121.2997,23.696414],[121.299502,23.696502],[121.2995,23.696683],[121.299695,23.696775],[121.299496,23.696954],[121.299499,23.696773],[121.299304,23.696681],[121.29931,23.696229],[121.299116,23.696046],[121.298919,23.696135],[121.298914,23.696496],[121.299108,23.696678],[121.298811,23.696856],[121.298807,23.697217],[121.298419,23.696851],[121.298816,23.696495],[121.298622,23.696312],[121.298425,23.6964],[121.298528,23.69604],[121.298237,23.695766],[121.298433,23.695768],[121.298632,23.69559],[121.29853,23.695859],[121.29892,23.696044],[121.299019,23.695955],[121.299027,23.695323],[121.298832,23.695231],[121.298838,23.694779],[121.298644,23.694596],[121.298248,23.694953],[121.298255,23.694412],[121.298452,23.694323],[121.298457,23.693962],[121.298262,23.69387],[121.29816,23.69414],[121.297865,23.694227],[121.297958,23.694589],[121.297665,23.694495],[121.297564,23.694765],[121.297466,23.694764],[121.297461,23.695125],[121.297655,23.695308],[121.29795,23.695221],[121.298144,23.695404],[121.297944,23.695672],[121.297749,23.69558],[121.297449,23.696028],[121.297546,23.696119],[121.297743,23.696031],[121.297741,23.696212],[121.297839,23.696213],[121.297736,23.696573],[121.298028,23.696757],[121.298025,23.697028],[121.298315,23.697302],[121.298215,23.697481],[121.29841,23.697574],[121.298307,23.697934],[121.298209,23.697933],[121.298204,23.698294],[121.297905,23.698652],[121.297799,23.699283],[121.297994,23.699375],[121.298391,23.699018],[121.298393,23.698838],[121.29869,23.69866],[121.298593,23.698569],[121.298703,23.697667],[121.298996,23.697761],[121.298997,23.697671],[121.299585,23.697677],[121.299686,23.697497],[121.299782,23.697589]],[[121.298703,23.697667],[121.298606,23.697576],[121.298704,23.697577],[121.298703,23.697667]],[[121.298707,23.697306],[121.298805,23.697307],[121.298802,23.697578],[121.298704,23.697577],[121.298707,23.697306]],[[121.299686,23.697497],[121.299589,23.697406],[121.299687,23.697407],[121.299686,23.697497]],[[121.299393,23.697404],[121.299395,23.697223],[121.299593,23.697045],[121.299688,23.697317],[121.299393,23.697404]]],[[[121.301147,23.698236],[121.301446,23.697878],[121.301155,23.697604],[121.300959,23.697602],[121.300958,23.697692],[121.300763,23.6976],[121.300662,23.697779],[121.30027,23.697775],[121.30017,23.697954],[121.299974,23.697952],[121.299675,23.69831],[121.299968,23.698404],[121.299969,23.698313],[121.30095,23.698324],[121.300951,23.698234],[121.301147,23.698236]]],[[[121.294762,23.699069],[121.294863,23.698889],[121.294572,23.698615],[121.294473,23.698704],[121.29418,23.698611],[121.294181,23.69852],[121.293984,23.698609],[121.293981,23.698789],[121.294175,23.698972],[121.294274,23.698883],[121.294468,23.699065],[121.294762,23.699069]],[[121.294372,23.698884],[121.294471,23.698795],[121.29447,23.698885],[121.294372,23.698884]]],[[[121.297695,23.699733],[121.2976,23.699551],[121.2975,23.699641],[121.297304,23.699638],[121.297111,23.699456],[121.296913,23.699544],[121.297008,23.699816],[121.297497,23.699911],[121.297695,23.699733]]],[[[121.298963,23.700289],[121.298864,23.700378],[121.298866,23.700197],[121.298477,23.699922],[121.298479,23.699832],[121.298772,23.699926],[121.298872,23.699746],[121.298579,23.699652],[121.298484,23.699381],[121.298189,23.699468],[121.298088,23.699737],[121.298282,23.69983],[121.29828,23.70001],[121.298182,23.700009],[121.298278,23.700191],[121.298079,23.700369],[121.298176,23.700461],[121.299157,23.700472],[121.298963,23.700289]]],[[[121.298182,23.700009],[121.297988,23.699827],[121.297888,23.700006],[121.298083,23.700099],[121.298182,23.700009]]],[[[121.297788,23.700186],[121.297981,23.700368],[121.298082,23.700189],[121.297887,23.700096],[121.297788,23.700186]]],[[[121.311379,23.687963],[121.311875,23.687517],[121.311683,23.687244],[121.31198,23.686977],[121.311787,23.686794],[121.311591,23.686792],[121.311692,23.686522],[121.311399,23.686429],[121.311404,23.686067],[121.311306,23.686066],[121.311212,23.685704],[121.310723,23.685608],[121.310624,23.685698],[121.310717,23.68606],[121.311492,23.686791],[121.31139,23.687151],[121.311292,23.68715],[121.311386,23.687422],[121.311189,23.68751],[121.311184,23.687871],[121.311379,23.687963]],[[121.311582,23.687424],[121.311486,23.687332],[121.311584,23.687334],[121.311582,23.687424]]],[[[121.312658,23.687616],[121.312761,23.687256],[121.312566,23.687164],[121.312665,23.687074],[121.312571,23.686803],[121.312083,23.686617],[121.311982,23.686886],[121.312273,23.68707],[121.312168,23.687611],[121.312362,23.687794],[121.312658,23.687616]]],[[[121.31088,23.68868],[121.311179,23.688322],[121.310985,23.68814],[121.310789,23.688138],[121.310491,23.688405],[121.310684,23.688678],[121.31088,23.68868]]],[[[121.310587,23.688587],[121.310392,23.688494],[121.310292,23.688674],[121.310487,23.688766],[121.310587,23.688587]]],[[[121.303792,23.69086],[121.303502,23.690496],[121.303208,23.690493],[121.303209,23.690402],[121.303012,23.690491],[121.303496,23.690947],[121.303693,23.69095],[121.303792,23.69086]]],[[[121.309667,23.691466],[121.309477,23.691013],[121.309183,23.69101],[121.309182,23.6911],[121.308987,23.691008],[121.308888,23.691097],[121.308983,23.691278],[121.309181,23.69119],[121.30947,23.691555],[121.309667,23.691466]]],[[[121.310836,23.692111],[121.310054,23.691922],[121.310055,23.691832],[121.30976,23.691919],[121.309855,23.692101],[121.310442,23.692197],[121.310636,23.69238],[121.310833,23.692292],[121.310836,23.692111]]],[[[121.305139,23.692862],[121.305138,23.692952],[121.305335,23.692864],[121.305141,23.692681],[121.305339,23.692503],[121.305245,23.692231],[121.305938,23.691697],[121.305746,23.691424],[121.305452,23.69142],[121.304954,23.691957],[121.304758,23.691955],[121.304459,23.692312],[121.304263,23.69231],[121.304164,23.6924],[121.30426,23.692581],[121.303772,23.692395],[121.303669,23.692755],[121.303571,23.692754],[121.303668,23.692846],[121.303568,23.693025],[121.303666,23.693026],[121.30376,23.693298],[121.304152,23.693302],[121.304255,23.692942],[121.304353,23.692943],[121.30445,23.693035],[121.304349,23.693305],[121.304543,23.693397],[121.304645,23.693127],[121.304842,23.693039],[121.304845,23.692858],[121.304941,23.69295],[121.305139,23.692862]],[[121.304845,23.692858],[121.30465,23.692766],[121.304652,23.692585],[121.304848,23.692588],[121.304845,23.692858]]],[[[121.303167,23.693653],[121.30278,23.693287],[121.302685,23.693015],[121.302389,23.693193],[121.302871,23.69383],[121.303167,23.693653]]],[[[121.303543,23.694921],[121.303056,23.694645],[121.302955,23.694915],[121.303443,23.695101],[121.303543,23.694921]]],[[[121.302759,23.694913],[121.302758,23.695003],[121.302563,23.69491],[121.302462,23.69509],[121.302656,23.695273],[121.302853,23.695184],[121.303143,23.695549],[121.303438,23.695462],[121.303439,23.695371],[121.303536,23.695463],[121.303831,23.695376],[121.304122,23.69565],[121.304224,23.69538],[121.304322,23.695381],[121.304319,23.695562],[121.304514,23.695654],[121.304813,23.695296],[121.305305,23.695211],[121.305701,23.694854],[121.305704,23.694674],[121.305411,23.69458],[121.305113,23.694848],[121.304821,23.694664],[121.304422,23.695202],[121.303841,23.694653],[121.303542,23.695011],[121.303539,23.695282],[121.303345,23.6951],[121.302953,23.695095],[121.302759,23.694913]],[[121.303735,23.695284],[121.303834,23.695195],[121.303833,23.695285],[121.303735,23.695284]]],[[[121.301672,23.695533],[121.301671,23.695623],[121.301965,23.695626],[121.302061,23.695808],[121.302258,23.69572],[121.301775,23.695173],[121.301282,23.695348],[121.301188,23.695076],[121.300992,23.695074],[121.300991,23.695164],[121.300797,23.694981],[121.3006,23.695069],[121.30089,23.695344],[121.300887,23.695614],[121.30108,23.695797],[121.301278,23.695709],[121.30128,23.695528],[121.301672,23.695533]]],[[[121.302348,23.696353],[121.302251,23.696261],[121.302054,23.69635],[121.302246,23.696623],[121.302148,23.696622],[121.302046,23.696982],[121.301749,23.697159],[121.301942,23.697432],[121.302139,23.697344],[121.302242,23.696984],[121.302835,23.696629],[121.302545,23.696265],[121.302349,23.696263],[121.302348,23.696353]],[[121.302641,23.696446],[121.302542,23.696536],[121.302543,23.696445],[121.302641,23.696446]]]]}},{"type":"Feature","properties":{"kind":"water","month":"2025-04","area_ha":5.68},"geometry":{"type":"MultiPolygon","coordinates":[[[[121.28291,23.69054],[121.282517,23.690626],[121.282516,23.690716],[121.282712,23.690718],[121.282709,23.690899],[121.283001,23.691083],[121.283104,23.690723],[121.28291,23.69054]]],[[[121.283295,23.691086],[121.283102,23.690903],[121.283,23.691173],[121.283293,23.691266],[121.283295,23.691086]]],[[[121.27849,23.691123],[121.278394,23.690941],[121.278198,23.690939],[121.278196,23.69112],[121.278392,23.691122],[121.278488,23.691303],[121.278782,23.691307],[121.278783,23.691216],[121.27849,23.691123]]],[[[121.283292,23.691357],[121.283391,23.691268],[121.283293,23.691266],[121.283292,23.691357]]],[[[121.284547,23.692815],[121.284451,23.692724],[121.284449,23.692814],[121.284547,23.692815]]],[[[121.284836,23.69327],[121.284738,23.693269],[121.284742,23.692908],[121.284644,23.692907],[121.284645,23.692817],[121.284547,23.692815],[121.284637,23.693449],[121.284833,23.693451],[121.284836,23.69327]]],[[[121.284825,23.694083],[121.28502,23.694175],[121.285026,23.693724],[121.284929,23.693632],[121.284831,23.693631],[121.284825,23.694083]]],[[[121.28502,23.694175],[121.285117,23.694267],[121.285118,23.694176],[121.28502,23.694175]]],[[[121.298632,23.69559],[121.298237,23.695766],[121.298236,23.695856],[121.298529,23.69595],[121.298632,23.69559]]],[[[121.298718,23.696494],[121.298914,23.696496],[121.29892,23.696044],[121.298529,23.69595],[121.298723,23.696132],[121.298718,23.696494]]],[[[121.298428,23.696129],[121.298425,23.6964],[121.298523,23.696401],[121.298625,23.696131],[121.298428,23.696129]]],[[[121.298615,23.696854],[121.298616,23.696763],[121.29842,23.696761],[121.298419,23.696851],[121.298615,23.696854]]],[[[121.298912,23.696676],[121.298815,23.696585],[121.298618,23.696673],[121.298714,23.696764],[121.298615,23.696854],[121.298709,23.697216],[121.298807,23.697217],[121.298811,23.696856],[121.298909,23.696857],[121.298912,23.696676]]],[[[121.29105,23.697944],[121.290857,23.697761],[121.290659,23.69785],[121.290662,23.697669],[121.290468,23.697486],[121.290472,23.697215],[121.289599,23.696483],[121.289692,23.696846],[121.289886,23.697028],[121.290082,23.69703],[121.290175,23.697393],[121.290371,23.697395],[121.29027,23.697665],[121.290466,23.697667],[121.290463,23.697847],[121.290657,23.69803],[121.291048,23.698125],[121.29105,23.697944]]],[[[121.291441,23.698039],[121.291147,23.698036],[121.291145,23.698216],[121.291439,23.698219],[121.291441,23.698039]]],[[[121.291929,23.698225],[121.291538,23.69813],[121.291438,23.69831],[121.291535,23.698401],[121.291732,23.698313],[121.29173,23.698493],[121.291926,23.698496],[121.29202,23.698768],[121.292118,23.698769],[121.292123,23.698407],[121.291929,23.698225]]],[[[121.298579,23.699652],[121.298677,23.699654],[121.298779,23.699384],[121.298582,23.699382],[121.298579,23.699652]]],[[[121.297981,23.700368],[121.298078,23.70046],[121.298072,23.700911],[121.298268,23.700913],[121.298265,23.701184],[121.298363,23.701185],[121.298369,23.700734],[121.298173,23.700732],[121.298177,23.70037],[121.297981,23.700368]]],[[[121.31198,23.686977],[121.311983,23.686796],[121.311885,23.686795],[121.311882,23.686976],[121.31198,23.686977]]],[[[121.31227,23.687341],[121.312176,23.686979],[121.31198,23.686977],[121.311879,23.687246],[121.311683,23.687244],[121.311682,23.687335],[121.311976,23.687338],[121.311977,23.687248],[121.31227,23.687341]]],[[[121.312752,23.687978],[121.312757,23.687617],[121.31256,23.687615],[121.312455,23.688156],[121.312752,23.687978]]],[[[121.31304,23.688433],[121.312551,23.688337],[121.312451,23.688517],[121.313136,23.688615],[121.31304,23.688433]]],[[[121.308686,23.691546],[121.308688,23.691365],[121.308884,23.691368],[121.308892,23.690736],[121.308794,23.690735],[121.308703,23.690192],[121.308507,23.69019],[121.308692,23.691095],[121.308096,23.69163],[121.308389,23.691723],[121.30849,23.691544],[121.308686,23.691546]]],[[[121.307603,23.691895],[121.307702,23.691806],[121.307604,23.691805],[121.307603,23.691895]]],[[[121.306621,23.691975],[121.306522,23.692064],[121.30662,23.692065],[121.306621,23.691975]]],[[[121.306619,23.692156],[121.306718,23.692066],[121.30662,23.692065],[121.306619,23.692156]]],[[[121.307599,23.692166],[121.307603,23.691895],[121.307014,23.691889],[121.307011,23.69216],[121.306717,23.692157],[121.306716,23.692247],[121.307009,23.69234],[121.30701,23.69225],[121.307599,23.692166]]],[[[121.303829,23.695556],[121.303831,23.695376],[121.303733,23.695375],[121.303731,23.695555],[121.303829,23.695556]]],[[[121.304121,23.69574],[121.304025,23.695559],[121.303829,23.695556],[121.303826,23.695827],[121.304022,23.695829],[121.304121,23.69574]]],[[[121.303627,23.696006],[121.303826,23.695827],[121.30363,23.695825],[121.303627,23.696006]]],[[[121.299011,23.696587],[121.298914,23.696496],[121.298913,23.696586],[121.299011,23.696587]]],[[[121.299011,23.696587],[121.299108,23.696678],[121.299109,23.696588],[121.299011,23.696587]]],[[[121.302633,23.697078],[121.302635,23.696898],[121.303028,23.696812],[121.303033,23.696451],[121.302636,23.696807],[121.30244,23.696805],[121.30214,23.697254],[121.302633,23.697078]]],[[[121.300177,23.697413],[121.30008,23.697321],[121.300079,23.697411],[121.300177,23.697413]]],[[[121.29869,23.69866],[121.298393,23.698838],[121.298391,23.699018],[121.297895,23.699464],[121.2976,23.699551],[121.297598,23.699642],[121.297795,23.699644],[121.297695,23.699733],[121.297791,23.699915],[121.298086,23.699828],[121.298189,23.699468],[121.298977,23.699205],[121.298983,23.698754],[121.29918,23.698666],[121.299182,23.698485],[121.299381,23.698307],[121.299577,23.698309],[121.299579,23.698128],[121.299774,23.698221],[121.299777,23.69804],[121.30017,23.697954],[121.30027,23.697775],[121.300662,23.697779],[121.300665,23.697599],[121.300958,23.697692],[121.300959,23.697602],[121.301155,23.697604],[121.301157,23.697423],[121.300275,23.697414],[121.300274,23.697504],[121.299981,23.69741],[121.299979,23.697591],[121.298702,23.697758],[121.298699,23.697938],[121.298601,23.697937],[121.298698,23.698028],[121.298693,23.69839],[121.298595,23.698388],[121.29869,23.69866]],[[121.298693,23.69839],[121.29879,23.698481],[121.298692,23.69848],[121.298693,23.69839]],[[121.298794,23.69821],[121.298891,23.698301],[121.298793,23.6983],[121.298794,23.69821]]]]}}]}