{"type":"FeatureCollection","features":[{"type":"Feature","properties":{"kind":"bare_slide","month":"2025-09","area_ha":327.29},"geometry":{"type":"MultiPolygon","coordinates":[[[[121.301188,23.702661],[121.300896,23.702477],[121.300997,23.702207],[121.300804,23.702025],[121.300507,23.702202],[121.300313,23.702019],[121.300319,23.701568],[121.300025,23.701565],[121.300018,23.702106],[121.299919,23.702196],[121.300114,23.702288],[121.300111,23.702469],[121.299815,23.702646],[121.299813,23.702827],[121.299614,23.703005],[121.299419,23.702913],[121.298427,23.703805],[121.29842,23.704346],[121.298909,23.704442],[121.298907,23.704623],[121.298708,23.704801],[121.298515,23.704618],[121.298317,23.704706],[121.298313,23.705068],[121.298215,23.705066],[121.298308,23.705429],[121.298112,23.705427],[121.29801,23.705696],[121.297713,23.705964],[121.297417,23.706051],[121.297415,23.706232],[121.297121,23.706228],[121.29732,23.70596],[121.296642,23.70532],[121.296741,23.705231],[121.296659,23.704056],[121.296856,23.703968],[121.296861,23.703607],[121.296666,23.703514],[121.296669,23.703243],[121.296379,23.702969],[121.296082,23.703147],[121.295977,23.703687],[121.296268,23.703961],[121.296162,23.704502],[121.295867,23.704589],[121.295665,23.705038],[121.295371,23.705035],[121.295269,23.705305],[121.294974,23.705392],[121.29507,23.705574],[121.295266,23.705576],[121.29546,23.705759],[121.295457,23.705939],[121.295164,23.705846],[121.295163,23.705936],[121.29477,23.706022],[121.29457,23.706291],[121.294178,23.706286],[121.293984,23.706103],[121.293588,23.70637],[121.293683,23.706642],[121.294371,23.706559],[121.294369,23.706649],[121.294858,23.706745],[121.294752,23.707376],[121.294158,23.707821],[121.294156,23.708002],[121.294254,23.708003],[121.294146,23.708724],[121.293948,23.708902],[121.293752,23.7089],[121.293651,23.70908],[121.293553,23.709079],[121.293459,23.708807],[121.293261,23.708895],[121.293358,23.708986],[121.293253,23.709527],[121.292857,23.709793],[121.292553,23.710603],[121.292355,23.710691],[121.292353,23.710871],[121.292156,23.710959],[121.292053,23.711319],[121.291757,23.711497],[121.291754,23.711677],[121.291357,23.712034],[121.291355,23.712215],[121.291159,23.712213],[121.29096,23.712391],[121.290958,23.712572],[121.290761,23.71266],[121.290855,23.712932],[121.291051,23.712934],[121.291152,23.712754],[121.291348,23.712756],[121.291444,23.712938],[121.291641,23.71285],[121.291835,23.713033],[121.291635,23.713301],[121.291343,23.713118],[121.291145,23.713296],[121.291242,23.713387],[121.291141,23.713567],[121.291044,23.713476],[121.290554,23.71347],[121.29036,23.713287],[121.290462,23.713018],[121.290267,23.712925],[121.290164,23.713285],[121.289968,23.713283],[121.289767,23.713642],[121.289473,23.713639],[121.289371,23.713909],[121.288776,23.714444],[121.288188,23.714437],[121.288189,23.714347],[121.287895,23.714344],[121.287799,23.714162],[121.287505,23.714159],[121.287506,23.714068],[121.28731,23.714066],[121.287012,23.714334],[121.286621,23.714239],[121.286521,23.714419],[121.286028,23.714594],[121.286124,23.714776],[121.286417,23.714869],[121.286414,23.71505],[121.286017,23.715406],[121.285821,23.715404],[121.285721,23.715584],[121.285427,23.715581],[121.285228,23.715759],[121.285226,23.715939],[121.284932,23.715936],[121.28493,23.716027],[121.284635,23.716114],[121.285023,23.716479],[121.28492,23.716839],[121.284721,23.717017],[121.284916,23.71711],[121.284909,23.717652],[121.285007,23.717653],[121.284907,23.717832],[121.285101,23.718015],[121.285395,23.718018],[121.285293,23.718288],[121.285097,23.718286],[121.285096,23.718376],[121.284507,23.71837],[121.284509,23.718279],[121.283919,23.718363],[121.283628,23.718089],[121.283535,23.717727],[121.283931,23.71746],[121.284126,23.717553],[121.284424,23.717285],[121.284426,23.717104],[121.284623,23.717016],[121.284429,23.716834],[121.284632,23.716384],[121.284535,23.716293],[121.284239,23.71638],[121.284238,23.71647],[121.283945,23.716377],[121.283646,23.716735],[121.283156,23.716729],[121.283055,23.716909],[121.28276,23.716996],[121.282758,23.717176],[121.283051,23.71727],[121.283039,23.718173],[121.282741,23.71844],[121.282447,23.718437],[121.282347,23.718616],[121.282052,23.718613],[121.281853,23.718882],[121.28146,23.718878],[121.280965,23.719233],[121.280671,23.71923],[121.280672,23.71914],[121.279789,23.71922],[121.279692,23.719129],[121.279593,23.719218],[121.279686,23.71958],[121.279979,23.719674],[121.279977,23.719854],[121.280369,23.719859],[121.280366,23.720039],[121.280759,23.720044],[121.280756,23.720224],[121.281149,23.720229],[121.281146,23.720409],[121.281538,23.720413],[121.281534,23.720775],[121.28173,23.720777],[121.281727,23.720957],[121.282806,23.720969],[121.282801,23.72133],[121.282998,23.721333],[121.282995,23.721513],[121.283191,23.721515],[121.283187,23.721877],[121.283383,23.721879],[121.283378,23.72224],[121.283574,23.722242],[121.283572,23.722423],[121.283768,23.722425],[121.283765,23.722605],[121.283962,23.722608],[121.283959,23.722788],[121.284155,23.72279],[121.284153,23.722971],[121.285526,23.722986],[121.285527,23.722896],[121.28582,23.722989],[121.286416,23.722454],[121.286419,23.722183],[121.286616,23.722095],[121.28662,23.721824],[121.286918,23.721557],[121.287407,23.721652],[121.287406,23.721743],[121.288289,23.721662],[121.288677,23.722028],[121.288877,23.721759],[121.289073,23.721761],[121.289271,23.721583],[121.289858,23.72168],[121.28986,23.721589],[121.290351,23.721504],[121.290452,23.721325],[121.291038,23.721512],[121.291335,23.721244],[121.291528,23.721517],[121.291724,23.72152],[121.292015,23.721794],[121.291811,23.722333],[121.292203,23.722428],[121.2925,23.72216],[121.292525,23.720264],[121.292722,23.720176],[121.292728,23.719725],[121.292533,23.719632],[121.292536,23.719452],[121.292729,23.719634],[121.292925,23.719637],[121.293124,23.719458],[121.293127,23.719187],[121.293326,23.719009],[121.29362,23.719012],[121.293919,23.718654],[121.294409,23.71866],[121.29451,23.71848],[121.294804,23.718483],[121.294904,23.718304],[121.295199,23.718307],[121.295301,23.717947],[121.296095,23.717233],[121.296389,23.717237],[121.29649,23.717057],[121.297078,23.717064],[121.297174,23.717245],[121.29737,23.717248],[121.297568,23.717069],[121.297467,23.717339],[121.297662,23.717431],[121.297861,23.717163],[121.298058,23.717165],[121.298256,23.716986],[121.298351,23.717258],[121.298154,23.717256],[121.298053,23.717526],[121.297856,23.717614],[121.297852,23.717885],[121.298047,23.717977],[121.298041,23.718429],[121.298138,23.71852],[121.298628,23.718526],[121.298822,23.718708],[121.298921,23.718619],[121.298827,23.718347],[121.298925,23.718348],[121.299603,23.718988],[121.299799,23.71899],[121.2998,23.7189],[121.300683,23.718909],[121.300783,23.71873],[121.301078,23.718733],[121.301178,23.718554],[121.301766,23.71856],[121.301662,23.71901],[121.301759,23.719102],[121.30225,23.719107],[121.302746,23.718661],[121.302651,23.718389],[121.30216,23.718474],[121.302359,23.718205],[121.302456,23.718297],[121.30334,23.718216],[121.303436,23.718398],[121.30373,23.718401],[121.303729,23.718491],[121.304221,23.718316],[121.30442,23.718138],[121.304323,23.718046],[121.304329,23.717595],[121.304134,23.717502],[121.304137,23.717232],[121.30375,23.716866],[121.303456,23.716863],[121.303654,23.716684],[121.303561,23.716322],[121.303754,23.716505],[121.303854,23.716416],[121.304049,23.716508],[121.30405,23.716418],[121.304345,23.716331],[121.304356,23.715518],[121.304554,23.71534],[121.305142,23.715346],[121.305626,23.715893],[121.305823,23.715805],[121.305728,23.715533],[121.305927,23.715355],[121.306123,23.715357],[121.306317,23.71554],[121.306215,23.71581],[121.30641,23.715902],[121.306709,23.715544],[121.307003,23.715547],[121.307105,23.715278],[121.307008,23.715186],[121.306518,23.715181],[121.306422,23.714999],[121.306128,23.714996],[121.306032,23.714814],[121.305445,23.714718],[121.305544,23.714628],[121.305448,23.714447],[121.305252,23.714445],[121.305251,23.714535],[121.30486,23.71444],[121.30476,23.71462],[121.304563,23.714618],[121.304365,23.714796],[121.304457,23.715249],[121.304163,23.715245],[121.304162,23.715336],[121.303868,23.715332],[121.303767,23.715512],[121.303571,23.71551],[121.303377,23.715327],[121.30338,23.715146],[121.303677,23.714879],[121.303581,23.714787],[121.303383,23.714876],[121.303189,23.714693],[121.303291,23.714423],[121.302805,23.714056],[121.302909,23.713606],[121.302812,23.713515],[121.302419,23.713601],[121.302421,23.71342],[121.302226,23.713328],[121.302036,23.712874],[121.301743,23.712781],[121.301745,23.7126],[121.301845,23.712511],[121.302138,23.712604],[121.302238,23.712425],[121.302629,23.712519],[121.302728,23.71243],[121.302633,23.712249],[121.30322,23.712345],[121.303321,23.712076],[121.303419,23.712077],[121.303414,23.712528],[121.303314,23.712617],[121.304284,23.713441],[121.304386,23.713171],[121.304192,23.712988],[121.304389,23.7129],[121.304393,23.712629],[121.30459,23.712541],[121.304398,23.712268],[121.304691,23.712361],[121.305286,23.711826],[121.305874,23.711833],[121.306068,23.712015],[121.306558,23.712021],[121.306654,23.712202],[121.307048,23.712116],[121.307043,23.712478],[121.307334,23.712752],[121.307137,23.712749],[121.306939,23.712928],[121.306936,23.713199],[121.306738,23.713287],[121.306732,23.713738],[121.306535,23.713826],[121.306533,23.714007],[121.306728,23.714099],[121.306724,23.71437],[121.306919,23.714463],[121.306916,23.714734],[121.307111,23.714826],[121.307107,23.715097],[121.307302,23.715189],[121.307297,23.715551],[121.307492,23.715643],[121.307795,23.715014],[121.30731,23.714557],[121.307315,23.714196],[121.307708,23.71411],[121.307709,23.71402],[121.308102,23.714024],[121.308202,23.713845],[121.308596,23.713759],[121.308598,23.713578],[121.308112,23.713212],[121.308311,23.713033],[121.308313,23.712853],[121.30851,23.712764],[121.308613,23.712404],[121.308711,23.712405],[121.308713,23.712225],[121.308518,23.712132],[121.308522,23.711862],[121.308229,23.711768],[121.308231,23.711588],[121.308427,23.71159],[121.308529,23.71132],[121.308725,23.711322],[121.308923,23.711144],[121.308927,23.710873],[121.309125,23.710694],[121.309029,23.710603],[121.308733,23.71069],[121.308735,23.710509],[121.308152,23.710142],[121.308053,23.710231],[121.308145,23.710684],[121.308437,23.710867],[121.308333,23.711318],[121.30804,23.711224],[121.307642,23.711671],[121.307349,23.711578],[121.307248,23.711757],[121.307443,23.71185],[121.307441,23.71203],[121.30705,23.711936],[121.306954,23.711754],[121.30617,23.711746],[121.306074,23.711564],[121.30578,23.711561],[121.30549,23.711196],[121.305098,23.711192],[121.304799,23.71155],[121.304505,23.711547],[121.304405,23.711726],[121.30411,23.711723],[121.30401,23.711903],[121.303618,23.711898],[121.303424,23.711716],[121.303428,23.711445],[121.303233,23.711352],[121.303244,23.710449],[121.303442,23.710361],[121.303445,23.71009],[121.303739,23.710094],[121.30384,23.709914],[121.304232,23.709918],[121.304231,23.710009],[121.304722,23.709924],[121.30502,23.709656],[121.304923,23.709565],[121.305025,23.709295],[121.304636,23.70902],[121.304244,23.709016],[121.304148,23.708834],[121.303952,23.708832],[121.303951,23.708922],[121.303854,23.708831],[121.303265,23.708824],[121.303166,23.708913],[121.302974,23.70864],[121.302483,23.708635],[121.302388,23.708453],[121.302093,23.70845],[121.301614,23.707632],[121.301418,23.70763],[121.301219,23.707808],[121.30073,23.707713],[121.300832,23.707443],[121.300733,23.707442],[121.300641,23.706989],[121.300839,23.706901],[121.300745,23.706539],[121.300942,23.706451],[121.300749,23.706268],[121.300751,23.706088],[121.300849,23.706089],[121.300755,23.705817],[121.300952,23.705729],[121.300762,23.705275],[121.301058,23.705098],[121.300963,23.704826],[121.301063,23.704737],[121.301356,23.70483],[121.301656,23.704382],[121.301363,23.704288],[121.301262,23.704468],[121.301066,23.704466],[121.301065,23.704556],[121.300772,23.704462],[121.300572,23.704731],[121.300376,23.704729],[121.300183,23.704546],[121.300382,23.704278],[121.300285,23.704186],[121.299892,23.704272],[121.299698,23.704089],[121.299701,23.703909],[121.300096,23.703642],[121.300001,23.703461],[121.300297,23.703283],[121.300588,23.703557],[121.300585,23.703738],[121.300387,23.703916],[121.300679,23.7041],[121.300783,23.70365],[121.300981,23.703471],[121.301078,23.703563],[121.301373,23.703476],[121.301377,23.703205],[121.301475,23.703206],[121.301381,23.702844],[121.301678,23.702666],[121.301872,23.702849],[121.301869,23.70303],[121.301771,23.703029],[121.301865,23.703391],[121.302058,23.703574],[121.302354,23.703487],[121.302741,23.703852],[121.302642,23.703941],[121.302739,23.704033],[121.302635,23.704483],[121.303024,23.704758],[121.302824,23.705027],[121.302435,23.704752],[121.302233,23.705201],[121.301936,23.705469],[121.301932,23.705739],[121.301834,23.705738],[121.301832,23.705919],[121.30193,23.70592],[121.301922,23.706552],[121.301824,23.706551],[121.301918,23.706823],[121.30182,23.706822],[121.301818,23.707002],[121.301915,23.707094],[121.302897,23.707014],[121.302992,23.707196],[121.303286,23.707199],[121.303382,23.707381],[121.303774,23.707385],[121.303874,23.707296],[121.303882,23.706664],[121.304277,23.706397],[121.304183,23.706125],[121.304381,23.705947],[121.304478,23.706038],[121.304675,23.70595],[121.304094,23.705402],[121.304099,23.705041],[121.304296,23.704953],[121.304298,23.704772],[121.304103,23.70468],[121.304115,23.703777],[121.304312,23.703689],[121.304325,23.702695],[121.304523,23.702607],[121.304526,23.702336],[121.30482,23.70234],[121.304921,23.70216],[121.305607,23.702168],[121.305707,23.701988],[121.306001,23.701991],[121.3062,23.701813],[121.306202,23.701632],[121.306008,23.70145],[121.306601,23.701095],[121.306795,23.701278],[121.306696,23.701367],[121.306791,23.701639],[121.307082,23.701823],[121.30708,23.702003],[121.306883,23.702091],[121.30688,23.702272],[121.307075,23.702364],[121.307066,23.703087],[121.306967,23.703176],[121.307064,23.703267],[121.307652,23.703274],[121.308038,23.703729],[121.308334,23.703642],[121.30814,23.70346],[121.308248,23.702648],[121.308055,23.702465],[121.308062,23.701924],[121.307965,23.701832],[121.307768,23.70192],[121.307574,23.701738],[121.307576,23.701557],[121.307873,23.70138],[121.307885,23.700387],[121.308379,23.700121],[121.308288,23.699578],[121.30868,23.699583],[121.308681,23.699492],[121.309173,23.699407],[121.309077,23.699226],[121.308881,23.699224],[121.308687,23.699041],[121.30869,23.69886],[121.308888,23.698682],[121.308796,23.698229],[121.308895,23.69814],[121.309188,23.698234],[121.309488,23.697785],[121.309097,23.697691],[121.309099,23.69751],[121.308904,23.697418],[121.309007,23.697058],[121.308716,23.696784],[121.308226,23.696778],[121.308032,23.696596],[121.308134,23.696326],[121.30833,23.696328],[121.308826,23.695882],[121.308828,23.695701],[121.309026,23.695613],[121.308832,23.69543],[121.30903,23.695252],[121.309033,23.695071],[121.308354,23.694432],[121.307962,23.694428],[121.307866,23.694246],[121.307572,23.694243],[121.307574,23.694153],[121.307377,23.69415],[121.307179,23.694329],[121.307567,23.694694],[121.307564,23.694875],[121.307759,23.694967],[121.307756,23.695238],[121.307949,23.695421],[121.307844,23.695962],[121.306958,23.696223],[121.306856,23.696583],[121.306267,23.696576],[121.306167,23.696756],[121.305481,23.696748],[121.304191,23.697908],[121.304185,23.69836],[121.303988,23.698448],[121.303982,23.698899],[121.303785,23.698987],[121.303781,23.699258],[121.303584,23.699346],[121.303579,23.699707],[121.302985,23.700152],[121.302972,23.701146],[121.302675,23.701413],[121.302086,23.701407],[121.301986,23.701586],[121.300809,23.701573],[121.300903,23.701936],[121.301101,23.701757],[121.301297,23.701759],[121.301491,23.701942],[121.301489,23.702123],[121.301292,23.702211],[121.301386,23.702483],[121.301188,23.702661]],[[121.297568,23.717069],[121.297668,23.71698],[121.297666,23.71707],[121.297568,23.717069]],[[121.303377,23.715327],[121.303278,23.715416],[121.303279,23.715326],[121.303377,23.715327]],[[121.301743,23.712781],[121.301644,23.71287],[121.301645,23.71278],[121.301743,23.712781]],[[121.301643,23.71296],[121.301347,23.713047],[121.301154,23.712864],[121.300856,23.713132],[121.300663,23.712859],[121.300467,23.712857],[121.300367,23.713036],[121.300171,23.713034],[121.30027,23.712945],[121.300174,23.712763],[121.30047,23.712676],[121.300374,23.712495],[121.300572,23.712316],[121.300181,23.712222],[121.300077,23.712672],[121.299589,23.712486],[121.299396,23.712303],[121.299501,23.711763],[121.299306,23.71167],[121.299308,23.71149],[121.299503,23.711582],[121.299701,23.711404],[121.299595,23.712035],[121.299497,23.712034],[121.299593,23.712215],[121.299789,23.712217],[121.299989,23.711949],[121.300182,23.712131],[121.300282,23.712042],[121.300477,23.712135],[121.300676,23.711866],[121.300872,23.711868],[121.301065,23.712141],[121.301262,23.712053],[121.301158,23.712503],[121.301643,23.71296]],[[121.300374,23.712495],[121.300277,23.712403],[121.300375,23.712404],[121.300374,23.712495]],[[121.29921,23.711489],[121.299212,23.711308],[121.29931,23.711309],[121.299308,23.71149],[121.29921,23.711489]],[[121.299704,23.711223],[121.299802,23.711224],[121.299799,23.711405],[121.299701,23.711404],[121.299704,23.711223]],[[121.30774,23.711672],[121.307737,23.711853],[121.307639,23.711852],[121.307642,23.711671],[121.30774,23.711672]],[[121.300395,23.703284],[121.300006,23.703009],[121.300206,23.702741],[121.300402,23.702743],[121.300596,23.702925],[121.300594,23.703106],[121.300395,23.703284]],[[121.301286,23.702662],[121.301285,23.702752],[121.301186,23.702751],[121.301188,23.702661],[121.301286,23.702662]],[[121.288001,23.721208],[121.288003,23.721027],[121.28781,23.720844],[121.288107,23.720577],[121.288599,23.720492],[121.288595,23.720763],[121.288499,23.720671],[121.288203,23.720758],[121.288491,23.721213],[121.288293,23.721391],[121.288001,23.721208]],[[121.289472,23.721224],[121.289671,23.721045],[121.289578,23.720593],[121.289776,23.720505],[121.289583,23.720232],[121.29017,23.720329],[121.290364,23.720511],[121.290265,23.720601],[121.290357,23.721053],[121.28996,23.72141],[121.289666,23.721407],[121.289472,23.721224]],[[121.2833,23.720704],[121.283301,23.720614],[121.283595,23.720617],[121.283594,23.720707],[121.2833,23.720704]],[[121.285655,23.72064],[121.285558,23.720548],[121.285656,23.720549],[121.285655,23.72064]],[[121.282912,23.720338],[121.28291,23.720519],[121.282812,23.720518],[121.282716,23.720336],[121.282912,23.720338]],[[121.283014,23.720069],[121.283314,23.719621],[121.283703,23.719896],[121.283306,23.720253],[121.283402,23.720434],[121.283205,23.720432],[121.283209,23.720161],[121.283014,23.720069]],[[121.288893,23.720495],[121.288796,23.720404],[121.288894,23.720405],[121.288893,23.720495]],[[121.289383,23.7205],[121.289483,23.720411],[121.289481,23.720502],[121.289383,23.7205]],[[121.289287,23.720409],[121.289288,23.720319],[121.28909,23.720407],[121.289192,23.720137],[121.289485,23.720231],[121.289287,23.720409]],[[121.288307,23.720308],[121.288309,23.720127],[121.288506,23.72013],[121.288503,23.72031],[121.288307,23.720308]],[[121.282425,23.720152],[121.282328,23.720061],[121.282426,23.720062],[121.282425,23.720152]],[[121.282621,23.720155],[121.282524,23.720063],[121.282622,23.720064],[121.282621,23.720155]],[[121.282915,23.720158],[121.282818,23.720067],[121.282916,23.720068],[121.282915,23.720158]],[[121.288605,23.72004],[121.288606,23.71995],[121.288802,23.719952],[121.288801,23.720043],[121.288605,23.72004]],[[121.288999,23.719864],[121.289394,23.719688],[121.289389,23.720049],[121.289193,23.720047],[121.289194,23.719957],[121.288997,23.720045],[121.288999,23.719864]],[[121.289782,23.720053],[121.289783,23.719963],[121.289979,23.719965],[121.289978,23.720056],[121.289782,23.720053]],[[121.281251,23.719869],[121.281351,23.719779],[121.281349,23.71987],[121.281251,23.719869]],[[121.281253,23.719778],[121.281156,23.719687],[121.281254,23.719688],[121.281253,23.719778]],[[121.284291,23.719902],[121.284292,23.719812],[121.284587,23.719815],[121.284585,23.719906],[121.284291,23.719902]],[[121.28086,23.719774],[121.280763,23.719682],[121.280861,23.719684],[121.28086,23.719774]],[[121.282037,23.719787],[121.282041,23.719516],[121.282139,23.719517],[121.282135,23.719788],[121.282037,23.719787]],[[121.290766,23.719793],[121.290669,23.719702],[121.290767,23.719703],[121.290766,23.719793]],[[121.28812,23.719583],[121.288024,23.719492],[121.288122,23.719493],[121.28812,23.719583]],[[121.290499,23.717714],[121.290593,23.717985],[121.290788,23.718078],[121.290887,23.717989],[121.290795,23.717536],[121.290992,23.717448],[121.291089,23.717539],[121.291083,23.717991],[121.291182,23.717992],[121.291179,23.718173],[121.290981,23.718351],[121.291274,23.718444],[121.291373,23.718355],[121.29128,23.717993],[121.291476,23.717995],[121.291473,23.718176],[121.291766,23.718269],[121.291764,23.71845],[121.291862,23.718451],[121.291759,23.718811],[121.291072,23.718894],[121.290883,23.71835],[121.290786,23.718258],[121.290588,23.718347],[121.290592,23.718076],[121.290301,23.717802],[121.290202,23.717891],[121.2902,23.718071],[121.290298,23.718073],[121.290191,23.718703],[121.290483,23.718887],[121.290382,23.719157],[121.290188,23.718974],[121.289992,23.718972],[121.289793,23.719151],[121.289791,23.719331],[121.289889,23.719332],[121.289787,23.719602],[121.289201,23.719415],[121.290092,23.718793],[121.289906,23.718068],[121.290004,23.718069],[121.290007,23.717798],[121.290105,23.717799],[121.290307,23.71735],[121.290503,23.717352],[121.290403,23.717532],[121.290598,23.717624],[121.290499,23.717714]],[[121.289598,23.719058],[121.289502,23.718967],[121.2896,23.718968],[121.289598,23.719058]],[[121.290505,23.717262],[121.290603,23.717263],[121.290704,23.716993],[121.290802,23.716994],[121.290897,23.717266],[121.290698,23.717445],[121.290505,23.717262]],[[121.290802,23.716994],[121.290901,23.716905],[121.2909,23.716996],[121.290802,23.716994]],[[121.290598,23.717624],[121.290697,23.717535],[121.290696,23.717625],[121.290598,23.717624]],[[121.283513,23.719442],[121.283418,23.71917],[121.283516,23.719171],[121.283519,23.718991],[121.283715,23.718993],[121.283611,23.719443],[121.283513,23.719442]],[[121.283715,23.718993],[121.283814,23.718904],[121.283813,23.718994],[121.283715,23.718993]],[[121.289107,23.719143],[121.289006,23.719322],[121.288712,23.719319],[121.288813,23.71914],[121.289107,23.719143]],[[121.285183,23.71919],[121.284895,23.718735],[121.285385,23.718741],[121.285782,23.718384],[121.28559,23.718111],[121.285981,23.718205],[121.286278,23.717938],[121.286384,23.717397],[121.286582,23.717219],[121.286776,23.717401],[121.286973,23.717313],[121.28688,23.716951],[121.286486,23.717037],[121.286293,23.716854],[121.286297,23.716493],[121.286395,23.716494],[121.2863,23.716313],[121.286593,23.716406],[121.286493,23.716495],[121.286589,23.716677],[121.287081,23.716592],[121.287468,23.716958],[121.287466,23.717138],[121.287169,23.717315],[121.287068,23.717585],[121.287165,23.717677],[121.287362,23.717589],[121.287556,23.717771],[121.287455,23.717951],[121.287747,23.718135],[121.287745,23.718315],[121.287647,23.718314],[121.28774,23.718676],[121.287442,23.718944],[121.287247,23.718851],[121.28725,23.718671],[121.287152,23.71867],[121.287252,23.71849],[121.286765,23.718214],[121.287063,23.717946],[121.286869,23.717764],[121.286769,23.717943],[121.286573,23.717941],[121.286374,23.718119],[121.286469,23.718391],[121.28627,23.71857],[121.286173,23.718478],[121.285976,23.718566],[121.28617,23.718749],[121.286167,23.71893],[121.285969,23.719108],[121.285576,23.719194],[121.285676,23.719015],[121.285481,23.718922],[121.285183,23.71919]],[[121.287537,23.719216],[121.287538,23.719126],[121.287734,23.719128],[121.287733,23.719218],[121.287537,23.719216]],[[121.292735,23.719183],[121.292638,23.719092],[121.292736,23.719093],[121.292735,23.719183]],[[121.284011,23.718816],[121.283914,23.718724],[121.284012,23.718725],[121.284011,23.718816]],[[121.28313,23.718715],[121.283033,23.718624],[121.283131,23.718625],[121.28313,23.718715]],[[121.283327,23.718627],[121.28323,23.718536],[121.283328,23.718537],[121.283327,23.718627]],[[121.283623,23.71854],[121.283719,23.718632],[121.283621,23.718631],[121.283623,23.71854]],[[121.283721,23.718541],[121.28382,23.718452],[121.283819,23.718543],[121.283721,23.718541]],[[121.283722,23.718451],[121.283625,23.71836],[121.283723,23.718361],[121.283722,23.718451]],[[121.289312,23.718423],[121.289311,23.718513],[121.289115,23.718511],[121.289116,23.718421],[121.289312,23.718423]],[[121.289312,23.718423],[121.289412,23.718334],[121.289411,23.718424],[121.289312,23.718423]],[[121.289608,23.718336],[121.289511,23.718244],[121.289609,23.718245],[121.289608,23.718336]],[[121.298632,23.718255],[121.298634,23.718074],[121.298732,23.718075],[121.29873,23.718256],[121.298632,23.718255]],[[121.301282,23.718103],[121.301281,23.718194],[121.300987,23.71819],[121.300989,23.71801],[121.301282,23.718103]],[[121.302262,23.718114],[121.302264,23.718024],[121.30246,23.718026],[121.302459,23.718116],[121.302262,23.718114]],[[121.301187,23.717831],[121.301186,23.717922],[121.300599,23.717825],[121.300602,23.717554],[121.300407,23.717462],[121.300411,23.717191],[121.300608,23.717103],[121.300514,23.716831],[121.30081,23.716653],[121.300913,23.716293],[121.30101,23.716385],[121.301598,23.716391],[121.30159,23.717023],[121.302273,23.717301],[121.30217,23.717661],[121.301773,23.718018],[121.301381,23.718014],[121.301187,23.717831]],[[121.302463,23.717755],[121.302366,23.717664],[121.302464,23.717665],[121.302463,23.717755]],[[121.289524,23.717251],[121.289229,23.717338],[121.289324,23.71752],[121.288836,23.717334],[121.289036,23.717065],[121.289429,23.716979],[121.289524,23.717251]],[[121.289527,23.71698],[121.289334,23.716798],[121.28953,23.7168],[121.289531,23.71671],[121.289726,23.716802],[121.289527,23.71698]],[[121.290014,23.717257],[121.290011,23.717528],[121.289815,23.717525],[121.289817,23.717345],[121.290014,23.717257]],[[121.298346,23.717619],[121.298347,23.717529],[121.298543,23.717531],[121.298542,23.717622],[121.298346,23.717619]],[[121.294037,23.717121],[121.294034,23.717391],[121.29413,23.717483],[121.293837,23.717389],[121.293841,23.717118],[121.294037,23.717121]],[[121.302858,23.717579],[121.302761,23.717487],[121.302859,23.717488],[121.302858,23.717579]],[[121.298941,23.717084],[121.298938,23.717355],[121.29874,23.717443],[121.298746,23.716992],[121.298941,23.717084]],[[121.299526,23.717362],[121.299429,23.71727],[121.299527,23.717271],[121.299526,23.717362]],[[121.299625,23.717272],[121.299722,23.717364],[121.299624,23.717363],[121.299625,23.717272]],[[121.299723,23.717273],[121.299823,23.717184],[121.299821,23.717274],[121.299723,23.717273]],[[121.303057,23.71731],[121.302961,23.717219],[121.303059,23.71722],[121.303057,23.71731]],[[121.303254,23.717312],[121.303157,23.717221],[121.303255,23.717222],[121.303254,23.717312]],[[121.294429,23.717125],[121.294332,23.717033],[121.29443,23.717035],[121.294429,23.717125]],[[121.288253,23.716966],[121.288156,23.716875],[121.288254,23.716876],[121.288253,23.716966]],[[121.293844,23.716847],[121.294038,23.71703],[121.293842,23.717028],[121.293844,23.716847]],[[121.299235,23.717087],[121.299139,23.716996],[121.299237,23.716997],[121.299235,23.717087]],[[121.299726,23.717093],[121.299629,23.717001],[121.299727,23.717003],[121.299726,23.717093]],[[121.290611,23.716631],[121.290607,23.716902],[121.29051,23.716811],[121.290117,23.716897],[121.290119,23.716716],[121.290611,23.716631]],[[121.29812,23.71238],[121.298518,23.711933],[121.29852,23.711752],[121.298422,23.711751],[121.298525,23.711391],[121.29833,23.711298],[121.298332,23.711118],[121.29843,23.711119],[121.298335,23.710937],[121.298533,23.710759],[121.297952,23.710211],[121.297756,23.710208],[121.297758,23.710028],[121.297954,23.71003],[121.298154,23.709761],[121.298448,23.709765],[121.298737,23.710129],[121.298935,23.710041],[121.298932,23.710221],[121.299224,23.710405],[121.29912,23.710856],[121.299022,23.710854],[121.299016,23.711306],[121.298819,23.711394],[121.29881,23.712116],[121.299005,23.712209],[121.299099,23.712481],[121.298803,23.712658],[121.2988,23.712839],[121.298702,23.712838],[121.2987,23.713018],[121.298503,23.713106],[121.298499,23.713377],[121.298401,23.713376],[121.298396,23.713737],[121.298591,23.71383],[121.298589,23.71401],[121.298292,23.714188],[121.298295,23.714007],[121.298393,23.714008],[121.298199,23.713825],[121.298301,23.713556],[121.298106,23.713463],[121.297907,23.713641],[121.298097,23.714095],[121.2979,23.714183],[121.297892,23.714815],[121.297693,23.714994],[121.29769,23.715264],[121.297297,23.71535],[121.297097,23.715619],[121.296703,23.715705],[121.296504,23.715974],[121.29621,23.715971],[121.295911,23.716328],[121.295419,23.716413],[121.29512,23.716771],[121.295022,23.71677],[121.294928,23.716498],[121.294732,23.716496],[121.294432,23.716944],[121.294236,23.716942],[121.294044,23.716579],[121.294337,23.716672],[121.294438,23.716493],[121.294634,23.716495],[121.294734,23.716316],[121.29454,23.716133],[121.294246,23.71613],[121.29415,23.715948],[121.293954,23.715946],[121.29376,23.715763],[121.29327,23.715758],[121.293174,23.715576],[121.292684,23.71557],[121.292785,23.715391],[121.293178,23.715305],[121.293476,23.715037],[121.293482,23.714586],[121.293972,23.714591],[121.294075,23.714231],[121.294271,23.714234],[121.29457,23.713876],[121.295062,23.7137],[121.295164,23.713431],[121.29497,23.713248],[121.295366,23.712981],[121.295464,23.712982],[121.29546,23.713253],[121.295654,23.713436],[121.295851,23.713348],[121.295757,23.713076],[121.295953,23.713078],[121.295947,23.71353],[121.296141,23.713712],[121.296435,23.713716],[121.296434,23.713806],[121.296632,23.713627],[121.296828,23.71363],[121.297129,23.713181],[121.297614,23.713548],[121.297813,23.71337],[121.297815,23.713189],[121.298111,23.713012],[121.298019,23.712559],[121.298117,23.71256],[121.29812,23.71238]],[[121.295464,23.712982],[121.295369,23.712711],[121.295762,23.712715],[121.295562,23.712984],[121.295464,23.712982]],[[121.295173,23.712708],[121.295072,23.712978],[121.294577,23.713334],[121.294671,23.713606],[121.294175,23.714052],[121.293881,23.714049],[121.293582,23.714407],[121.293386,23.714404],[121.293688,23.713776],[121.293985,23.713598],[121.293889,23.713417],[121.294088,23.713238],[121.294284,23.71324],[121.294385,23.712971],[121.294782,23.712614],[121.294978,23.712616],[121.294977,23.712706],[121.295174,23.712618],[121.294885,23.712254],[121.295379,23.711988],[121.295376,23.712169],[121.295278,23.712168],[121.295375,23.712259],[121.295373,23.71244],[121.295275,23.712439],[121.295369,23.712711],[121.295173,23.712708]],[[121.294774,23.713246],[121.294871,23.713337],[121.294773,23.713336],[121.294774,23.713246]],[[121.297475,23.716707],[121.297379,23.716525],[121.297674,23.716528],[121.297972,23.716171],[121.298168,23.716173],[121.29797,23.716351],[121.298066,23.716533],[121.297772,23.71653],[121.297275,23.716976],[121.297278,23.716795],[121.297475,23.716707]],[[121.299733,23.716551],[121.299832,23.716462],[121.299736,23.71628],[121.299934,23.716192],[121.29993,23.716463],[121.300124,23.716646],[121.299826,23.716913],[121.29963,23.716911],[121.299436,23.716728],[121.299344,23.716276],[121.299733,23.716551]],[[121.299539,23.716368],[121.299638,23.716279],[121.299637,23.716369],[121.299539,23.716368]],[[121.30218,23.716939],[121.302083,23.716848],[121.302181,23.716849],[121.30218,23.716939]],[[121.289139,23.716705],[121.289141,23.716525],[121.289337,23.716527],[121.289336,23.716617],[121.289139,23.716705]],[[121.289337,23.716527],[121.289536,23.716348],[121.289439,23.716257],[121.289441,23.716076],[121.289539,23.716078],[121.289636,23.716169],[121.28963,23.71662],[121.289337,23.716527]],[[121.298359,23.716626],[121.298267,23.716174],[121.298562,23.716087],[121.29886,23.715819],[121.298948,23.716543],[121.298752,23.71654],[121.298651,23.71681],[121.298359,23.716626]],[[121.288061,23.716603],[121.288064,23.716422],[121.288162,23.716423],[121.288159,23.716604],[121.288061,23.716603]],[[121.297086,23.716432],[121.296986,23.716611],[121.296888,23.71661],[121.29689,23.71643],[121.297086,23.716432]],[[121.301987,23.716666],[121.30189,23.716575],[121.301988,23.716576],[121.301987,23.716666]],[[121.290517,23.716269],[121.290417,23.716448],[121.290123,23.716445],[121.290124,23.716355],[121.290517,23.716269]],[[121.290809,23.716453],[121.290812,23.716272],[121.29091,23.716273],[121.290907,23.716454],[121.290809,23.716453]],[[121.29189,23.716284],[121.29209,23.716015],[121.292286,23.716018],[121.292088,23.716196],[121.292085,23.716377],[121.291888,23.716465],[121.29189,23.716284]],[[121.301993,23.716215],[121.301898,23.715943],[121.302294,23.715676],[121.302683,23.715951],[121.302383,23.7164],[121.301989,23.716486],[121.301992,23.716305],[121.301894,23.716304],[121.301993,23.716215]],[[121.289341,23.716256],[121.289244,23.716165],[121.289342,23.716166],[121.289341,23.716256]],[[121.290133,23.715633],[121.290327,23.715815],[121.290227,23.715995],[121.29013,23.715903],[121.289933,23.715992],[121.29003,23.716083],[121.290027,23.716264],[121.289929,23.716262],[121.289738,23.715899],[121.290033,23.715812],[121.289937,23.71563],[121.290133,23.715633]],[[121.289937,23.71563],[121.28984,23.715539],[121.289939,23.71554],[121.289937,23.71563]],[[121.28984,23.715539],[121.289744,23.715448],[121.289842,23.715449],[121.28984,23.715539]],[[121.296793,23.716338],[121.296696,23.716247],[121.296794,23.716248],[121.296793,23.716338]],[[121.300326,23.716196],[121.30052,23.716379],[121.300323,23.716377],[121.300326,23.716196]],[[121.303461,23.716411],[121.303365,23.71632],[121.303463,23.716321],[121.303461,23.716411]],[[121.2965,23.716245],[121.296403,23.716153],[121.296501,23.716154],[121.2965,23.716245]],[[121.297187,23.716252],[121.297188,23.716162],[121.297384,23.716164],[121.297383,23.716254],[121.297187,23.716252]],[[121.303856,23.716235],[121.303955,23.716146],[121.303954,23.716236],[121.303856,23.716235]],[[121.303759,23.716144],[121.303761,23.715963],[121.30386,23.715964],[121.303857,23.716145],[121.303759,23.716144]],[[121.289641,23.715808],[121.28954,23.715987],[121.289149,23.715893],[121.289151,23.715802],[121.289641,23.715808]],[[121.290719,23.71582],[121.290717,23.716],[121.290619,23.715999],[121.290523,23.715818],[121.290719,23.71582]],[[121.297488,23.715714],[121.29749,23.715533],[121.297686,23.715535],[121.297985,23.715177],[121.298181,23.71518],[121.298282,23.715],[121.298576,23.715003],[121.298574,23.715184],[121.298079,23.71554],[121.298173,23.715812],[121.297975,23.71599],[121.297581,23.716076],[121.297486,23.715894],[121.297289,23.715892],[121.297488,23.715714]],[[121.297289,23.715892],[121.29719,23.715981],[121.297191,23.715891],[121.297289,23.715892]],[[121.299837,23.716101],[121.29974,23.716009],[121.299838,23.71601],[121.299837,23.716101]],[[121.2917,23.715831],[121.291307,23.715916],[121.291309,23.715736],[121.291701,23.71574],[121.2917,23.715831]],[[121.292585,23.71566],[121.292584,23.71575],[121.29229,23.715747],[121.292091,23.715925],[121.292193,23.715655],[121.292585,23.71566]],[[121.301701,23.716031],[121.301703,23.71585],[121.301801,23.715851],[121.301799,23.716032],[121.301701,23.716031]],[[121.299251,23.715914],[121.299253,23.715733],[121.299351,23.715734],[121.299349,23.715915],[121.299251,23.715914]],[[121.29837,23.715723],[121.298274,23.715632],[121.298372,23.715633],[121.29837,23.715723]],[[121.299254,23.715643],[121.299157,23.715552],[121.299255,23.715553],[121.299254,23.715643]],[[121.290724,23.715459],[121.290725,23.715368],[121.290921,23.71537],[121.29092,23.715461],[121.290724,23.715459]],[[121.292098,23.715383],[121.291803,23.71547],[121.291805,23.71529],[121.292099,23.715293],[121.292098,23.715383]],[[121.292197,23.715294],[121.292199,23.715204],[121.292591,23.715208],[121.29259,23.715299],[121.292197,23.715294]],[[121.290826,23.715189],[121.290729,23.715097],[121.290827,23.715098],[121.290826,23.715189]],[[121.293082,23.715123],[121.292985,23.715032],[121.293083,23.715033],[121.293082,23.715123]],[[121.298578,23.714823],[121.298581,23.714642],[121.298679,23.714643],[121.298585,23.714281],[121.298783,23.714193],[121.298785,23.714012],[121.298687,23.714011],[121.298793,23.71338],[121.298891,23.713381],[121.298995,23.712931],[121.299192,23.712843],[121.299195,23.712662],[121.299393,23.712484],[121.300168,23.713215],[121.300166,23.713395],[121.300068,23.713394],[121.30016,23.713847],[121.299964,23.713845],[121.299665,23.714203],[121.299567,23.714202],[121.299569,23.714021],[121.299667,23.714022],[121.299572,23.71384],[121.299276,23.713927],[121.299177,23.714017],[121.299174,23.714288],[121.299272,23.714289],[121.299173,23.714378],[121.299269,23.714469],[121.299167,23.714829],[121.298968,23.715008],[121.298772,23.715005],[121.298578,23.714823]],[[121.299756,23.714745],[121.299956,23.714477],[121.30025,23.71448],[121.300249,23.71457],[121.299953,23.714657],[121.299951,23.714838],[121.299458,23.715013],[121.299461,23.714832],[121.299756,23.714745]],[[121.303087,23.715053],[121.30299,23.714962],[121.303088,23.714963],[121.303087,23.715053]],[[121.291914,23.714478],[121.291911,23.714659],[121.291715,23.714657],[121.291717,23.714567],[121.291914,23.714478]],[[121.298187,23.714728],[121.298192,23.714367],[121.29829,23.714368],[121.298285,23.714729],[121.298187,23.714728]],[[121.290448,23.714101],[121.290445,23.714282],[121.290347,23.71428],[121.290252,23.714099],[121.290448,23.714101]],[[121.290739,23.714285],[121.290741,23.714195],[121.290937,23.714197],[121.290936,23.714287],[121.290739,23.714285]],[[121.293194,23.714041],[121.293098,23.71395],[121.293196,23.713951],[121.293194,23.714041]],[[121.302412,23.714142],[121.302315,23.714051],[121.302413,23.714052],[121.302412,23.714142]],[[121.293295,23.713862],[121.293198,23.71377],[121.293296,23.713771],[121.293295,23.713862]],[[121.291633,23.713482],[121.291631,23.713572],[121.291335,23.71375],[121.291337,23.713569],[121.291633,23.713482]],[[121.293002,23.713768],[121.292905,23.713677],[121.293003,23.713678],[121.293002,23.713768]],[[121.293895,23.712965],[121.293994,23.712876],[121.293993,23.712966],[121.293895,23.712965]],[[121.293896,23.712875],[121.293799,23.712784],[121.293702,23.712692],[121.293898,23.712694],[121.293896,23.712875]],[[121.297622,23.712916],[121.297427,23.712824],[121.297429,23.712733],[121.297625,23.712735],[121.297622,23.712916]],[[121.297429,23.712733],[121.297332,23.712642],[121.29743,23.712643],[121.297429,23.712733]],[[121.292037,23.712583],[121.29194,23.712492],[121.292038,23.712493],[121.292037,23.712583]],[[121.294489,23.71252],[121.294586,23.712612],[121.294488,23.712611],[121.294489,23.71252]],[[121.294591,23.71225],[121.294787,23.712253],[121.294685,23.712522],[121.294587,23.712521],[121.294591,23.71225]],[[121.292822,23.712502],[121.292725,23.71241],[121.292823,23.712412],[121.292822,23.712502]],[[121.296843,23.712546],[121.296746,23.712455],[121.296844,23.712456],[121.296843,23.712546]],[[121.297531,23.712373],[121.297629,23.712374],[121.297627,23.712555],[121.297529,23.712554],[121.297531,23.712373]],[[121.297531,23.712373],[121.297434,23.712282],[121.297532,23.712283],[121.297531,23.712373]],[[121.307826,23.712576],[121.307923,23.712668],[121.307825,23.712667],[121.307826,23.712576]],[[121.307929,23.712216],[121.307831,23.712215],[121.307932,23.711945],[121.308129,23.711948],[121.308122,23.712489],[121.308022,23.712579],[121.307924,23.712577],[121.307929,23.712216]],[[121.292529,23.712408],[121.292432,23.712317],[121.29253,23.712318],[121.292529,23.712408]],[[121.297243,23.711918],[121.29715,23.711556],[121.297348,23.711378],[121.297343,23.711739],[121.297633,23.712103],[121.297436,23.712192],[121.297242,23.712009],[121.29714,23.712279],[121.297042,23.712277],[121.297046,23.712007],[121.297243,23.711918]],[[121.293514,23.712058],[121.293418,23.711967],[121.293516,23.711968],[121.293514,23.712058]],[[121.301459,23.711965],[121.301071,23.71169],[121.301173,23.71133],[121.301468,23.711333],[121.301368,23.711422],[121.301562,23.711605],[121.301459,23.711965]],[[121.296067,23.711815],[121.295971,23.711724],[121.296069,23.711725],[121.296067,23.711815]],[[121.300088,23.711859],[121.300091,23.711589],[121.300189,23.71159],[121.300186,23.711861],[121.300088,23.711859]],[[121.293817,23.711429],[121.293918,23.711159],[121.294115,23.711162],[121.294308,23.711344],[121.294109,23.711613],[121.293817,23.711429]],[[121.295484,23.711448],[121.295481,23.711628],[121.295383,23.711627],[121.295386,23.711447],[121.295484,23.711448]],[[121.295582,23.711449],[121.29529,23.711265],[121.295294,23.710994],[121.295592,23.710636],[121.295887,23.710639],[121.29608,23.710822],[121.296077,23.711093],[121.295779,23.711361],[121.295583,23.711358],[121.295582,23.711449]],[[121.302542,23.711706],[121.302544,23.711525],[121.302642,23.711526],[121.30264,23.711707],[121.302542,23.711706]],[[121.302447,23.711434],[121.30235,23.711343],[121.302448,23.711344],[121.302447,23.711434]],[[121.300879,23.711326],[121.300979,23.711237],[121.300977,23.711327],[121.300879,23.711326]],[[121.30088,23.711236],[121.300784,23.711145],[121.300882,23.711146],[121.30088,23.711236]],[[121.300884,23.710965],[121.300982,23.710966],[121.30098,23.711147],[121.300882,23.711146],[121.300884,23.710965]],[[121.302252,23.711341],[121.302155,23.71125],[121.302253,23.711251],[121.302252,23.711341]],[[121.297647,23.71102],[121.297645,23.711201],[121.297448,23.711198],[121.29745,23.711108],[121.297647,23.71102]],[[121.293633,23.710524],[121.29383,23.710436],[121.294022,23.710709],[121.293727,23.710796],[121.29363,23.710705],[121.293633,23.710524]],[[121.301375,23.71088],[121.301377,23.71079],[121.301671,23.710793],[121.30167,23.710884],[121.301375,23.71088]],[[121.308632,23.71096],[121.308535,23.710868],[121.308633,23.71087],[121.308632,23.71096]],[[121.300221,23.709152],[121.300411,23.709606],[121.300705,23.709609],[121.300707,23.709518],[121.300902,23.709611],[121.3009,23.709701],[121.300606,23.709698],[121.300506,23.709877],[121.300894,23.710153],[121.300792,23.710513],[121.300986,23.710695],[121.300789,23.710693],[121.300401,23.710418],[121.300403,23.710238],[121.300209,23.710055],[121.30041,23.709696],[121.300118,23.709512],[121.300123,23.709151],[121.300221,23.709152]],[[121.300123,23.709151],[121.300026,23.70906],[121.300124,23.709061],[121.300123,23.709151]],[[121.296685,23.709565],[121.296586,23.709654],[121.296682,23.709835],[121.296486,23.709833],[121.29649,23.709472],[121.296685,23.709565]],[[121.296782,23.709656],[121.296784,23.709475],[121.296882,23.709476],[121.29688,23.709657],[121.296782,23.709656]],[[121.295508,23.709552],[121.295511,23.709371],[121.295609,23.709372],[121.295607,23.709553],[121.295508,23.709552]],[[121.304139,23.709556],[121.303752,23.7091],[121.303949,23.709012],[121.304143,23.709195],[121.304139,23.709556]],[[121.296595,23.708931],[121.296697,23.708662],[121.296795,23.708663],[121.296789,23.709114],[121.296393,23.709381],[121.296497,23.70893],[121.296595,23.708931]],[[121.303257,23.709456],[121.30316,23.709365],[121.303258,23.709366],[121.303257,23.709456]],[[121.303161,23.709275],[121.303164,23.709094],[121.303262,23.709095],[121.30326,23.709276],[121.303161,23.709275]],[[121.299731,23.709147],[121.29983,23.709057],[121.299829,23.709148],[121.299731,23.709147]],[[121.299732,23.709056],[121.299635,23.708965],[121.299733,23.708966],[121.299732,23.709056]],[[121.295614,23.709011],[121.295517,23.70892],[121.295615,23.708921],[121.295614,23.709011]],[[121.300418,23.709064],[121.300321,23.708972],[121.300419,23.708974],[121.300418,23.709064]],[[121.295909,23.708924],[121.295812,23.708833],[121.29591,23.708834],[121.295909,23.708924]],[[121.299931,23.708788],[121.299935,23.708517],[121.300033,23.708518],[121.30003,23.708789],[121.299931,23.708788]],[[121.299842,23.708155],[121.29994,23.708156],[121.299936,23.708426],[121.299838,23.708425],[121.299842,23.708155]],[[121.299842,23.708155],[121.299745,23.708063],[121.299843,23.708064],[121.299842,23.708155]],[[121.299647,23.708062],[121.299559,23.707248],[121.299168,23.707154],[121.298974,23.706971],[121.299075,23.706792],[121.299563,23.706978],[121.29956,23.707158],[121.299754,23.707341],[121.299745,23.708063],[121.299647,23.708062]],[[121.299563,23.706978],[121.299662,23.706888],[121.299661,23.706979],[121.299563,23.706978]],[[121.299662,23.706888],[121.299761,23.706799],[121.29976,23.706889],[121.299662,23.706888]],[[121.301409,23.708262],[121.301412,23.708081],[121.30151,23.708083],[121.301605,23.708264],[121.301409,23.708262]],[[121.30151,23.708083],[121.301609,23.707993],[121.301608,23.708084],[121.30151,23.708083]],[[121.29906,23.707965],[121.299061,23.707875],[121.299257,23.707877],[121.299256,23.707967],[121.29906,23.707965]],[[121.300042,23.707796],[121.300338,23.707708],[121.300242,23.707527],[121.300438,23.707529],[121.300532,23.707891],[121.300335,23.707889],[121.300334,23.707979],[121.300041,23.707886],[121.300042,23.707796]],[[121.300051,23.707164],[121.300244,23.707346],[121.300048,23.707344],[121.300051,23.707164]],[[121.296723,23.706675],[121.296626,23.706584],[121.296724,23.706585],[121.296723,23.706675]],[[121.302215,23.706645],[121.302118,23.706554],[121.302216,23.706555],[121.302215,23.706645]],[[121.303,23.706564],[121.302904,23.706472],[121.303002,23.706474],[121.303,23.706564]],[[121.29653,23.706402],[121.296433,23.706311],[121.296531,23.706312],[121.29653,23.706402]],[[121.299472,23.706435],[121.299375,23.706343],[121.299473,23.706344],[121.299472,23.706435]],[[121.299278,23.706252],[121.299181,23.706161],[121.299279,23.706162],[121.299278,23.706252]],[[121.302219,23.706284],[121.302222,23.706104],[121.30232,23.706105],[121.302318,23.706285],[121.302219,23.706284]],[[121.299481,23.705712],[121.299389,23.70526],[121.299291,23.705259],[121.29949,23.70499],[121.299878,23.705356],[121.300076,23.705177],[121.300272,23.705179],[121.300466,23.705362],[121.300067,23.705899],[121.29997,23.705808],[121.299675,23.705895],[121.299481,23.705712]],[[121.306408,23.700912],[121.306311,23.700821],[121.306409,23.700822],[121.306408,23.700912]],[[121.30397,23.699802],[121.304268,23.699534],[121.30456,23.699718],[121.30436,23.699987],[121.304167,23.699804],[121.30397,23.699802]]],[[[121.298313,23.712562],[121.298114,23.712831],[121.298406,23.713015],[121.298505,23.712926],[121.298508,23.712655],[121.29841,23.712654],[121.298512,23.712384],[121.298415,23.712293],[121.298218,23.712381],[121.298215,23.712561],[121.298313,23.712562]]],[[[121.288195,23.713895],[121.28869,23.71354],[121.288794,23.713089],[121.288208,23.712902],[121.288106,23.713172],[121.288008,23.713171],[121.287904,23.713621],[121.288195,23.713895]]],[[[121.294958,23.714151],[121.295254,23.714064],[121.295354,23.713884],[121.295647,23.713978],[121.295646,23.714068],[121.295843,23.71398],[121.295747,23.713798],[121.295551,23.713796],[121.295459,23.713344],[121.295262,23.713432],[121.29526,23.713612],[121.294961,23.71397],[121.294469,23.714055],[121.294369,23.714235],[121.294662,23.714328],[121.294663,23.714238],[121.294957,23.714241],[121.294958,23.714151]]],[[[121.296235,23.713984],[121.295942,23.713891],[121.295842,23.71407],[121.296135,23.714164],[121.296235,23.713984]]],[[[121.298872,23.714826],[121.299072,23.714557],[121.298877,23.714465],[121.298678,23.714734],[121.298872,23.714826]]],[[[121.283662,23.715561],[121.283958,23.715384],[121.283962,23.715113],[121.284356,23.714937],[121.284066,23.714662],[121.28417,23.714212],[121.284466,23.714035],[121.284373,23.713673],[121.284077,23.71376],[121.283977,23.713939],[121.283781,23.713937],[121.282987,23.71465],[121.282981,23.715102],[121.283274,23.715195],[121.283272,23.715376],[121.283465,23.715559],[121.283662,23.715561]]],[[[121.296213,23.7157],[121.296408,23.715792],[121.296706,23.715525],[121.297099,23.715439],[121.297103,23.715168],[121.297005,23.715167],[121.297007,23.714986],[121.297105,23.714987],[121.297011,23.714715],[121.29711,23.714626],[121.296817,23.714532],[121.296721,23.714351],[121.296227,23.714616],[121.296611,23.715253],[121.296214,23.715609],[121.296019,23.715517],[121.29582,23.715786],[121.296112,23.715969],[121.296213,23.7157]]],[[[121.294027,23.725428],[121.29383,23.725516],[121.293827,23.725697],[121.293629,23.725875],[121.293723,23.726147],[121.29392,23.726149],[121.293922,23.725969],[121.29451,23.725975],[121.294513,23.725794],[121.294905,23.725799],[121.294903,23.725979],[121.295491,23.725986],[121.295489,23.726166],[121.295881,23.726171],[121.295879,23.726351],[121.296075,23.726353],[121.296072,23.726534],[121.296465,23.726538],[121.296462,23.726719],[121.296756,23.726722],[121.296755,23.726812],[121.297148,23.726817],[121.297149,23.726726],[121.297541,23.726731],[121.297542,23.726641],[121.297639,23.726732],[121.29862,23.726743],[121.298619,23.726833],[121.29911,23.726748],[121.299207,23.726839],[121.29931,23.726479],[121.299508,23.726301],[121.300292,23.7264],[121.300485,23.726583],[121.301369,23.726502],[121.301568,23.726324],[121.301575,23.725782],[121.301771,23.725784],[121.301768,23.725965],[121.301963,23.726057],[121.302067,23.725607],[121.302263,23.725609],[121.302262,23.725699],[121.30246,23.725611],[121.302464,23.72525],[121.30286,23.724983],[121.302864,23.724712],[121.302963,23.724623],[121.303158,23.724716],[121.303356,23.724537],[121.303354,23.724718],[121.303742,23.725083],[121.303738,23.725354],[121.303835,23.725445],[121.30413,23.725358],[121.304224,23.725721],[121.304516,23.725904],[121.304412,23.726355],[121.304607,23.726447],[121.304805,23.726269],[121.304809,23.725998],[121.304711,23.725997],[121.30452,23.725543],[121.304619,23.725454],[121.305011,23.725549],[121.305111,23.725369],[121.305014,23.725278],[121.304719,23.725365],[121.304623,23.725183],[121.304426,23.725271],[121.304429,23.725001],[121.304235,23.724818],[121.303941,23.724815],[121.303554,23.724449],[121.303459,23.724177],[121.303165,23.724174],[121.303167,23.723993],[121.303564,23.723637],[121.303958,23.723551],[121.304059,23.723281],[121.304157,23.723282],[121.303963,23.723099],[121.303966,23.722919],[121.303673,23.722825],[121.303674,23.722735],[121.304263,23.722651],[121.304457,23.722834],[121.304849,23.722838],[121.305149,23.72239],[121.304758,23.722295],[121.30476,23.722205],[121.304561,23.722383],[121.304464,23.722292],[121.303287,23.722279],[121.303192,23.722097],[121.302996,23.722095],[121.302896,23.722184],[121.302984,23.722998],[121.302788,23.722996],[121.302497,23.722722],[121.302199,23.722989],[121.302197,23.72317],[121.301805,23.723166],[121.301808,23.722895],[121.301906,23.722896],[121.301812,23.722624],[121.302108,23.722447],[121.302014,23.722175],[121.30172,23.722172],[121.301624,23.72199],[121.301133,23.721984],[121.300844,23.72162],[121.299667,23.721607],[121.299564,23.721967],[121.299169,23.722234],[121.299165,23.722505],[121.298967,23.722683],[121.298771,23.722681],[121.298383,23.722315],[121.298392,23.721593],[121.298197,23.721501],[121.297601,23.722126],[121.297405,23.722124],[121.297017,23.721759],[121.297023,23.721307],[121.296828,23.721215],[121.296933,23.720674],[121.296641,23.72049],[121.296645,23.720219],[121.296256,23.719944],[121.29626,23.719673],[121.295869,23.719579],[121.295773,23.719397],[121.295479,23.719394],[121.295383,23.719212],[121.295089,23.719209],[121.294701,23.718844],[121.294601,23.719023],[121.294893,23.719207],[121.29489,23.719387],[121.294693,23.719476],[121.294689,23.719746],[121.294492,23.719834],[121.294489,23.720105],[121.29429,23.720284],[121.293996,23.720281],[121.293697,23.720638],[121.292913,23.72063],[121.292813,23.720719],[121.293104,23.720993],[121.293095,23.721715],[121.292897,23.721803],[121.292893,23.722165],[121.293281,23.72244],[121.293277,23.722801],[121.292585,23.723155],[121.292679,23.723517],[121.292381,23.723784],[121.292576,23.723877],[121.292476,23.724056],[121.292669,23.724239],[121.292375,23.724236],[121.292177,23.724414],[121.292174,23.724595],[121.292562,23.72496],[121.292461,23.72514],[121.292558,23.725231],[121.29305,23.725146],[121.293244,23.725329],[121.29324,23.7256],[121.293435,23.725692],[121.293638,23.725153],[121.293346,23.724969],[121.293253,23.724607],[121.293551,23.724339],[121.293447,23.724789],[121.293641,23.724972],[121.293839,23.724794],[121.294133,23.724797],[121.294131,23.724978],[121.293935,23.724975],[121.293834,23.725155],[121.294028,23.725338],[121.294225,23.725249],[121.294321,23.725431],[121.294222,23.72552],[121.294026,23.725518],[121.294027,23.725428]],[[121.294322,23.725341],[121.294422,23.725252],[121.29442,23.725342],[121.294322,23.725341]],[[121.299416,23.725848],[121.299414,23.726029],[121.299316,23.726028],[121.299318,23.725847],[121.299416,23.725848]],[[121.29922,23.725846],[121.299223,23.725575],[121.299422,23.725397],[121.299715,23.725491],[121.299613,23.72576],[121.299418,23.725668],[121.29922,23.725846]],[[121.299223,23.725575],[121.299127,23.725484],[121.299225,23.725485],[121.299223,23.725575]],[[121.299028,23.725483],[121.299031,23.725302],[121.299129,23.725303],[121.299127,23.725484],[121.299028,23.725483]],[[121.299514,23.72585],[121.299612,23.725851],[121.29961,23.726031],[121.299512,23.72603],[121.299514,23.72585]],[[121.295887,23.725719],[121.295788,23.725809],[121.295789,23.725718],[121.295887,23.725719]],[[121.295887,23.725719],[121.295986,23.72563],[121.295985,23.72572],[121.295887,23.725719]],[[121.295986,23.72563],[121.296085,23.725541],[121.296084,23.725631],[121.295986,23.72563]],[[121.297461,23.725375],[121.297755,23.725379],[121.297949,23.725561],[121.297654,23.725558],[121.297555,23.725647],[121.297651,23.725829],[121.297455,23.725827],[121.297458,23.725556],[121.29736,23.725555],[121.297461,23.725375]],[[121.298731,23.725751],[121.29883,23.725661],[121.298829,23.725752],[121.298731,23.725751]],[[121.300989,23.725595],[121.301185,23.725597],[121.301184,23.725687],[121.300987,23.725685],[121.300989,23.725595]],[[121.295303,23.725352],[121.295107,23.72535],[121.295109,23.725169],[121.2955,23.725264],[121.295596,23.725445],[121.295302,23.725442],[121.295303,23.725352]],[[121.2955,23.725264],[121.2956,23.725174],[121.295598,23.725265],[121.2955,23.725264]],[[121.301677,23.725422],[121.301481,23.72542],[121.301482,23.725329],[121.301679,23.725332],[121.301677,23.725422]],[[121.301679,23.725332],[121.301778,23.725242],[121.301777,23.725333],[121.301679,23.725332]],[[121.29492,23.724625],[121.295015,23.724897],[121.294917,23.724896],[121.294913,23.725167],[121.294815,23.725166],[121.294718,23.725074],[121.294724,23.724623],[121.29492,23.724625]],[[121.296776,23.725187],[121.296876,23.725098],[121.296874,23.725188],[121.296776,23.725187]],[[121.300111,23.725224],[121.300015,23.725042],[121.30031,23.724955],[121.300411,23.724776],[121.300607,23.724778],[121.300701,23.72505],[121.300505,23.725048],[121.300405,23.725227],[121.300111,23.725224]],[[121.300701,23.72505],[121.300798,23.725141],[121.3007,23.72514],[121.300701,23.72505]],[[121.300994,23.725143],[121.301094,23.725054],[121.301093,23.725144],[121.300994,23.725143]],[[121.301489,23.724788],[121.301588,23.724789],[121.301591,23.724518],[121.301689,23.724519],[121.301792,23.724159],[121.301988,23.724161],[121.301987,23.724251],[121.30238,23.724165],[121.302477,23.724257],[121.30237,23.724978],[121.301783,23.724881],[121.301682,23.725061],[121.301486,23.725059],[121.301585,23.724969],[121.301489,23.724788]],[[121.298746,23.724577],[121.298744,23.724757],[121.298646,23.724756],[121.298648,23.724576],[121.298746,23.724577]],[[121.29855,23.724575],[121.298552,23.724394],[121.29865,23.724395],[121.298648,23.724576],[121.29855,23.724575]],[[121.298844,23.724578],[121.298942,23.724579],[121.29894,23.72476],[121.298842,23.724759],[121.298844,23.724578]],[[121.294234,23.724617],[121.294333,23.724528],[121.294332,23.724619],[121.294234,23.724617]],[[121.293844,23.724433],[121.293745,23.724522],[121.293746,23.724432],[121.293844,23.724433]],[[121.293847,23.724162],[121.293945,23.724163],[121.294138,23.724436],[121.293844,23.724433],[121.293847,23.724162]],[[121.292965,23.724152],[121.293064,23.724063],[121.293063,23.724153],[121.292965,23.724152]],[[121.301203,23.724152],[121.301303,23.724063],[121.301302,23.724153],[121.301203,23.724152]],[[121.294053,23.723442],[121.293858,23.723349],[121.29386,23.723169],[121.294257,23.722812],[121.294649,23.722816],[121.294843,23.722999],[121.294839,23.72336],[121.294641,23.723448],[121.294638,23.723719],[121.294439,23.723897],[121.294243,23.723895],[121.294049,23.723712],[121.294053,23.723442]],[[121.302586,23.723445],[121.302782,23.723447],[121.302781,23.723538],[121.302585,23.723535],[121.302586,23.723445]],[[121.299255,23.723138],[121.299451,23.72314],[121.299449,23.72332],[121.299253,23.723318],[121.299255,23.723138]],[[121.29585,23.721023],[121.296048,23.720845],[121.296244,23.720847],[121.296438,23.72103],[121.296436,23.72121],[121.296237,23.721389],[121.296041,23.721387],[121.295847,23.721204],[121.29585,23.721023]]],[[[121.292842,23.726047],[121.293239,23.72569],[121.293044,23.725598],[121.293043,23.725688],[121.292747,23.725775],[121.292652,23.725593],[121.292456,23.725591],[121.292256,23.72586],[121.291862,23.725946],[121.291759,23.726396],[121.292935,23.726409],[121.292842,23.726047]],[[121.292352,23.726041],[121.292349,23.726222],[121.292054,23.726309],[121.292056,23.726129],[121.292352,23.726041]]],[[[121.307377,23.709411],[121.30757,23.709594],[121.308062,23.709509],[121.307288,23.708688],[121.307092,23.708686],[121.30679,23.709314],[121.307083,23.709408],[121.307178,23.709589],[121.307377,23.709411]]],[[[121.308935,23.710241],[121.30874,23.710148],[121.308639,23.710418],[121.308834,23.710511],[121.308935,23.710241]]],[[[121.305293,23.71887],[121.305591,23.718602],[121.305693,23.718242],[121.306085,23.718337],[121.306283,23.718158],[121.306191,23.717706],[121.305995,23.717703],[121.305497,23.71824],[121.305203,23.718237],[121.305103,23.718416],[121.304709,23.718502],[121.304803,23.718864],[121.304902,23.718775],[121.305293,23.71887]]],[[[121.306482,23.725565],[121.306485,23.725294],[121.30678,23.725207],[121.306685,23.725025],[121.305705,23.724924],[121.305407,23.725192],[121.305503,23.725373],[121.305699,23.725376],[121.305794,23.725648],[121.306283,23.725743],[121.306482,23.725565]]],[[[121.303429,23.726525],[121.30392,23.72644],[121.303928,23.725808],[121.303831,23.725716],[121.303534,23.725984],[121.30314,23.72607],[121.303133,23.726612],[121.303328,23.726704],[121.303429,23.726525]]],[[[121.305584,23.726729],[121.305783,23.72646],[121.306372,23.726467],[121.306469,23.726558],[121.306569,23.726378],[121.306278,23.726104],[121.305788,23.726099],[121.305787,23.726189],[121.305494,23.726096],[121.305392,23.726366],[121.305294,23.726364],[121.305291,23.726635],[121.305584,23.726729]]],[[[121.303718,23.726889],[121.303328,23.726704],[121.303225,23.727064],[121.303614,23.727339],[121.303718,23.726889]]],[[[121.305862,23.727996],[121.305474,23.727631],[121.305188,23.726995],[121.304797,23.726901],[121.304312,23.726444],[121.304212,23.726624],[121.304891,23.727173],[121.305081,23.727717],[121.305566,23.728083],[121.305762,23.728085],[121.305862,23.727996]]],[[[121.303215,23.727877],[121.303118,23.727785],[121.302629,23.72769],[121.302631,23.727509],[121.302829,23.727421],[121.302734,23.727149],[121.302535,23.727328],[121.302046,23.727232],[121.301947,23.727321],[121.302042,23.727593],[121.301745,23.72777],[121.301841,23.727952],[121.302233,23.727956],[121.302427,23.728139],[121.303113,23.728147],[121.303213,23.728057],[121.303215,23.727877]]]]}},{"type":"Feature","properties":{"kind":"bare_dam","month":"2025-09","area_ha":112.2},"geometry":{"type":"MultiPolygon","coordinates":[[[[121.297612,23.691063],[121.297809,23.690975],[121.297713,23.690794],[121.298308,23.690258],[121.298116,23.689985],[121.297522,23.69043],[121.297515,23.690972],[121.297612,23.691063]]],[[[121.299751,23.692441],[121.299949,23.692263],[121.299755,23.692171],[121.299654,23.69235],[121.299751,23.692441]]],[[[121.300828,23.700129],[121.300926,23.70013],[121.300923,23.700401],[121.301118,23.700493],[121.301115,23.700674],[121.302194,23.700685],[121.302294,23.700506],[121.302686,23.70051],[121.303579,23.699707],[121.303584,23.699346],[121.303781,23.699258],[121.303785,23.698987],[121.303982,23.698899],[121.303988,23.698448],[121.304185,23.69836],[121.304191,23.697908],[121.305481,23.696748],[121.306167,23.696756],[121.306267,23.696576],[121.306856,23.696583],[121.306955,23.696494],[121.306958,23.696223],[121.306668,23.695949],[121.306373,23.696036],[121.306277,23.695854],[121.305981,23.695941],[121.30588,23.696211],[121.305484,23.696477],[121.305288,23.696475],[121.305094,23.696293],[121.305097,23.696112],[121.305492,23.695845],[121.305105,23.69548],[121.305206,23.69521],[121.305404,23.695122],[121.305311,23.69467],[121.30541,23.694671],[121.305511,23.694401],[121.307081,23.694328],[121.307975,23.693435],[121.308269,23.693438],[121.30837,23.693258],[121.308664,23.693261],[121.308862,23.693083],[121.308766,23.692901],[121.309356,23.692818],[121.309655,23.69246],[121.310242,23.692556],[121.310342,23.692377],[121.310734,23.692381],[121.311528,23.691667],[121.311535,23.691126],[121.311732,23.691037],[121.311736,23.690767],[121.311933,23.690678],[121.311936,23.690408],[121.312034,23.690409],[121.312037,23.690228],[121.311843,23.690045],[121.312334,23.68996],[121.312338,23.68969],[121.312535,23.689601],[121.312537,23.689421],[121.312833,23.689334],[121.313329,23.688888],[121.313233,23.688706],[121.313527,23.688709],[121.313437,23.688076],[121.313735,23.687809],[121.313749,23.686725],[121.313554,23.686633],[121.313556,23.686452],[121.313359,23.68654],[121.313461,23.68618],[121.312783,23.685541],[121.312391,23.685536],[121.312295,23.685355],[121.312001,23.685352],[121.311906,23.68517],[121.311611,23.685167],[121.311516,23.684985],[121.310829,23.684978],[121.310827,23.685158],[121.310631,23.685156],[121.310531,23.685335],[121.30975,23.685056],[121.309648,23.685326],[121.309451,23.685414],[121.309546,23.685686],[121.309644,23.685687],[121.309445,23.685865],[121.309443,23.686046],[121.309345,23.686045],[121.309253,23.685592],[121.309057,23.68559],[121.309055,23.685681],[121.308861,23.685588],[121.30876,23.685768],[121.308564,23.685766],[121.308463,23.686035],[121.308365,23.686034],[121.30826,23.686575],[121.307466,23.687289],[121.30727,23.687286],[121.30707,23.687555],[121.306874,23.687553],[121.306676,23.687731],[121.306673,23.687912],[121.306379,23.687909],[121.305784,23.688444],[121.305588,23.688442],[121.305488,23.688621],[121.305194,23.688618],[121.304993,23.688977],[121.304699,23.688974],[121.304603,23.688792],[121.303718,23.688963],[121.303222,23.689409],[121.303218,23.68977],[121.303021,23.689768],[121.302921,23.689948],[121.302726,23.689855],[121.302528,23.690034],[121.302525,23.690214],[121.302329,23.690212],[121.302331,23.690122],[121.302035,23.690209],[121.302127,23.690662],[121.301734,23.690748],[121.301443,23.690473],[121.301247,23.690471],[121.301049,23.69065],[121.300952,23.690558],[121.300954,23.690378],[121.301052,23.690379],[121.300958,23.690107],[121.300467,23.690192],[121.300465,23.690282],[121.300073,23.690278],[121.300072,23.690368],[121.299582,23.690363],[121.299483,23.690452],[121.299578,23.690634],[121.299872,23.690637],[121.300261,23.690912],[121.300653,23.690916],[121.300847,23.691099],[121.300647,23.691368],[121.301135,23.691554],[121.300936,23.691822],[121.300642,23.691819],[121.300549,23.691367],[121.299864,23.691269],[121.299865,23.691178],[121.299474,23.691084],[121.299379,23.690902],[121.298695,23.690714],[121.298593,23.690984],[121.298691,23.690985],[121.298688,23.691256],[121.298978,23.69153],[121.29947,23.691445],[121.299664,23.691628],[121.30035,23.691635],[121.300347,23.691816],[121.30015,23.691904],[121.300245,23.692176],[121.299948,23.692353],[121.299946,23.692534],[121.300239,23.692627],[121.300238,23.692718],[121.300825,23.692814],[121.301019,23.692997],[121.300915,23.693448],[121.301205,23.693722],[121.301401,23.693724],[121.301403,23.693633],[121.301597,23.693726],[121.301796,23.693547],[121.3017,23.693366],[121.301899,23.693187],[121.30219,23.693371],[121.302686,23.692925],[121.302684,23.693106],[121.302976,23.69329],[121.302972,23.69356],[121.302276,23.694365],[121.302082,23.694183],[121.301589,23.694358],[121.301397,23.694085],[121.301201,23.694083],[121.301002,23.694261],[121.300808,23.694078],[121.300811,23.693898],[121.300227,23.69353],[121.30023,23.69335],[121.29994,23.692985],[121.299646,23.692982],[121.29926,23.692526],[121.299064,23.692524],[121.29887,23.692341],[121.299167,23.692074],[121.298977,23.69162],[121.298489,23.691434],[121.298491,23.691344],[121.298196,23.691341],[121.298102,23.691069],[121.297807,23.691156],[121.297891,23.69224],[121.298084,23.692423],[121.298478,23.692337],[121.298375,23.692697],[121.298762,23.693063],[121.298758,23.693424],[121.298559,23.693602],[121.298455,23.694053],[121.298359,23.693961],[121.297965,23.694047],[121.297767,23.694226],[121.297764,23.694406],[121.297567,23.694494],[121.297565,23.694675],[121.297366,23.694853],[121.29726,23.695484],[121.297161,23.695573],[121.296966,23.695481],[121.296864,23.695751],[121.296668,23.695749],[121.296667,23.695839],[121.296472,23.695746],[121.296173,23.696104],[121.295782,23.69601],[121.295584,23.696188],[121.295582,23.696369],[121.295875,23.696462],[121.295873,23.696553],[121.296171,23.696285],[121.296462,23.696559],[121.296759,23.696291],[121.296953,23.696474],[121.297345,23.696478],[121.297346,23.696388],[121.297541,23.696481],[121.297642,23.696301],[121.297838,23.696303],[121.297934,23.696485],[121.298228,23.696488],[121.298329,23.696218],[121.298037,23.696035],[121.29804,23.695854],[121.297846,23.695671],[121.297944,23.695672],[121.297948,23.695401],[121.298145,23.695313],[121.29805,23.695041],[121.298348,23.694774],[121.299027,23.695323],[121.298926,23.695593],[121.298828,23.695592],[121.298922,23.695864],[121.298726,23.695862],[121.298528,23.69604],[121.298622,23.696312],[121.299211,23.696318],[121.299609,23.695871],[121.299707,23.695872],[121.299801,23.696144],[121.3,23.695966],[121.300193,23.696149],[121.300293,23.696059],[121.300585,23.696153],[121.300686,23.695973],[121.301274,23.69598],[121.301273,23.69607],[121.301666,23.695984],[121.302343,23.696714],[121.302539,23.696716],[121.302438,23.696986],[121.302633,23.697078],[121.302623,23.697801],[121.302426,23.697889],[121.302416,23.698701],[121.301423,23.699593],[121.301227,23.699591],[121.301035,23.699318],[121.300838,23.699406],[121.300833,23.699768],[121.300735,23.699766],[121.300828,23.700129]],[[121.301135,23.691554],[121.301235,23.691464],[121.301233,23.691555],[121.301135,23.691554]],[[121.301237,23.691284],[121.301435,23.691105],[121.301827,23.69111],[121.302021,23.691292],[121.302019,23.691473],[121.301623,23.69174],[121.301816,23.692013],[121.301617,23.692191],[121.301323,23.692188],[121.301322,23.692278],[121.301128,23.692095],[121.301524,23.691829],[121.301526,23.691648],[121.301235,23.691464],[121.301237,23.691284]],[[121.302686,23.692925],[121.302786,23.692836],[121.302785,23.692926],[121.302686,23.692925]],[[121.301,23.694442],[121.301582,23.6949],[121.30158,23.69508],[121.301483,23.694989],[121.301287,23.694987],[121.301286,23.695077],[121.300993,23.694983],[121.300894,23.695073],[121.300988,23.695345],[121.300792,23.695342],[121.300796,23.695072],[121.300505,23.694797],[121.300508,23.694527],[121.300904,23.69426],[121.301002,23.694261],[121.301,23.694442]],[[121.302504,23.699425],[121.302601,23.699516],[121.302503,23.699515],[121.302504,23.699425]],[[121.302412,23.698972],[121.30241,23.699153],[121.302312,23.699152],[121.302314,23.698971],[121.302412,23.698972]],[[121.302814,23.698254],[121.302911,23.698346],[121.302813,23.698344],[121.302814,23.698254]],[[121.303023,23.697263],[121.30312,23.697355],[121.303021,23.697353],[121.303023,23.697263]],[[121.303221,23.697085],[121.303318,23.697176],[121.30322,23.697175],[121.303221,23.697085]],[[121.302737,23.696628],[121.30264,23.696537],[121.302738,23.696538],[121.302737,23.696628]],[[121.302738,23.696538],[121.302837,23.696448],[121.302836,23.696539],[121.302738,23.696538]],[[121.302839,23.696268],[121.302936,23.696359],[121.302838,23.696358],[121.302839,23.696268]],[[121.299417,23.695508],[121.299614,23.69542],[121.29971,23.695601],[121.299415,23.695689],[121.299417,23.695508]],[[121.300494,23.69561],[121.300493,23.6957],[121.300297,23.695698],[121.300298,23.695608],[121.300494,23.69561]],[[121.300007,23.695424],[121.300206,23.695155],[121.300499,23.695249],[121.300497,23.695429],[121.3004,23.695338],[121.300201,23.695517],[121.300007,23.695424]],[[121.303144,23.695459],[121.303047,23.695367],[121.303145,23.695368],[121.303144,23.695459]],[[121.303145,23.695368],[121.303244,23.695279],[121.303243,23.695369],[121.303145,23.695368]],[[121.302068,23.695266],[121.302165,23.695358],[121.302067,23.695356],[121.302068,23.695266]],[[121.30168,23.694901],[121.301777,23.694992],[121.301679,23.694991],[121.30168,23.694901]],[[121.303642,23.694832],[121.303739,23.694923],[121.303641,23.694922],[121.303642,23.694832]],[[121.301977,23.694723],[121.302074,23.694815],[121.301976,23.694814],[121.301977,23.694723]],[[121.300019,23.694431],[121.300116,23.694522],[121.300018,23.694521],[121.300019,23.694431]],[[121.303941,23.694474],[121.304038,23.694565],[121.30394,23.694564],[121.303941,23.694474]],[[121.298452,23.694323],[121.298552,23.694144],[121.29865,23.694145],[121.298648,23.694326],[121.298452,23.694323]],[[121.299335,23.694243],[121.299045,23.693969],[121.299341,23.693791],[121.299534,23.694064],[121.299335,23.694243]],[[121.29983,23.693887],[121.299927,23.693978],[121.299829,23.693977],[121.29983,23.693887]],[[121.299735,23.693705],[121.299638,23.693614],[121.299736,23.693615],[121.299735,23.693705]],[[121.299737,23.693525],[121.299933,23.693527],[121.300032,23.693438],[121.30003,23.693618],[121.299736,23.693615],[121.299737,23.693525]],[[121.300929,23.692364],[121.301125,23.692366],[121.301124,23.692457],[121.300925,23.692635],[121.300729,23.692633],[121.300633,23.692451],[121.300928,23.692454],[121.300929,23.692364]],[[121.300633,23.692451],[121.300537,23.69236],[121.300635,23.692361],[121.300633,23.692451]],[[121.302299,23.69256],[121.302396,23.692651],[121.302298,23.69265],[121.302299,23.69256]],[[121.309853,23.692281],[121.309953,23.692102],[121.310247,23.692105],[121.310246,23.692195],[121.309853,23.692281]],[[121.304071,23.692037],[121.304168,23.692129],[121.30407,23.692128],[121.304071,23.692037]],[[121.300944,23.69119],[121.301041,23.691282],[121.300943,23.691281],[121.300944,23.69119]],[[121.306238,23.691248],[121.306335,23.69134],[121.306237,23.691339],[121.306238,23.691248]],[[121.306923,23.691346],[121.306633,23.691072],[121.306929,23.690895],[121.307122,23.691168],[121.306923,23.691346]],[[121.304965,23.691144],[121.304869,23.690962],[121.305167,23.690695],[121.305363,23.690697],[121.305464,23.690427],[121.305561,23.690519],[121.305955,23.690433],[121.306245,23.690707],[121.305946,23.691065],[121.305652,23.691061],[121.305454,23.69124],[121.304965,23.691144]],[[121.306437,23.69107],[121.306533,23.691161],[121.306435,23.69116],[121.306437,23.69107]],[[121.307427,23.690268],[121.30713,23.690536],[121.307226,23.690717],[121.307029,23.690715],[121.307028,23.690806],[121.306737,23.690622],[121.307036,23.690173],[121.307329,23.690267],[121.307528,23.690089],[121.307624,23.69027],[121.307427,23.690268]],[[121.307327,23.690448],[121.307424,23.690539],[121.307326,23.690538],[121.307327,23.690448]],[[121.307718,23.690542],[121.307716,23.690723],[121.307618,23.690722],[121.30762,23.690541],[121.307718,23.690542]],[[121.307722,23.690271],[121.307818,23.690363],[121.30772,23.690362],[121.307722,23.690271]],[[121.30841,23.690098],[121.308408,23.690279],[121.30831,23.690278],[121.308312,23.690097],[121.30841,23.690098]],[[121.307726,23.68991],[121.307627,23.689999],[121.307431,23.689997],[121.307729,23.68973],[121.307726,23.68991]],[[121.307731,23.689549],[121.307829,23.68955],[121.307928,23.689461],[121.307827,23.689731],[121.307729,23.68973],[121.307731,23.689549]],[[121.30793,23.68928],[121.308029,23.689281],[121.308128,23.689192],[121.308026,23.689462],[121.307928,23.689461],[121.30793,23.68928]],[[121.308128,23.689192],[121.308227,23.689103],[121.308226,23.689193],[121.308128,23.689192]],[[121.30812,23.689824],[121.308216,23.689915],[121.308118,23.689914],[121.30812,23.689824]],[[121.306264,23.689262],[121.306263,23.689352],[121.306067,23.68935],[121.306068,23.68926],[121.306264,23.689262]],[[121.308621,23.688927],[121.308525,23.688835],[121.308623,23.688836],[121.308621,23.688927]],[[121.308623,23.688836],[121.308722,23.688747],[121.308721,23.688837],[121.308623,23.688836]],[[121.308723,23.688657],[121.308919,23.688659],[121.308918,23.688749],[121.308722,23.688747],[121.308723,23.688657]],[[121.308334,23.688382],[121.308236,23.688381],[121.308134,23.688741],[121.307937,23.688739],[121.308038,23.688559],[121.30794,23.688558],[121.307943,23.688287],[121.307748,23.688195],[121.307751,23.688014],[121.307948,23.687926],[121.307953,23.687565],[121.308051,23.687566],[121.308144,23.687928],[121.308437,23.688022],[121.308334,23.688382]],[[121.30863,23.688295],[121.308628,23.688385],[121.308432,23.688383],[121.308433,23.688292],[121.30863,23.688295]],[[121.313053,23.68744],[121.312954,23.687529],[121.312955,23.687439],[121.313053,23.68744]],[[121.312759,23.687437],[121.312761,23.687256],[121.312859,23.687257],[121.312955,23.687439],[121.312759,23.687437]],[[121.312278,23.686709],[121.312183,23.686437],[121.31248,23.68626],[121.312674,23.686442],[121.312671,23.686623],[121.312473,23.686801],[121.312278,23.686709]],[[121.31121,23.685885],[121.311111,23.685974],[121.311112,23.685884],[121.31121,23.685885]],[[121.311112,23.685884],[121.311015,23.685792],[121.311113,23.685793],[121.311112,23.685884]]],[[[121.300634,23.699946],[121.30034,23.699943],[121.300043,23.70021],[121.300236,23.700393],[121.300135,23.700663],[121.300429,23.700666],[121.300431,23.700486],[121.300629,23.700397],[121.300632,23.700127],[121.30073,23.700128],[121.300634,23.699946]]]]}},{"type":"Feature","properties":{"kind":"water","month":"2025-09","area_ha":81.53},"geometry":{"type":"MultiPolygon","coordinates":[[[[121.308334,23.688382],[121.308437,23.688022],[121.308241,23.688019],[121.308051,23.687566],[121.307953,23.687565],[121.307948,23.687926],[121.307751,23.688014],[121.307748,23.688195],[121.307943,23.688287],[121.30794,23.688558],[121.308234,23.688561],[121.308236,23.688381],[121.308334,23.688382]]],[[[121.278587,23.691214],[121.278492,23.690942],[121.2782,23.690849],[121.278293,23.691211],[121.278782,23.691307],[121.278783,23.691216],[121.278587,23.691214]]],[[[121.305789,23.695668],[121.305882,23.69603],[121.30598,23.696031],[121.305984,23.695761],[121.306082,23.695762],[121.30608,23.695942],[121.306571,23.695857],[121.306958,23.696223],[121.306964,23.695771],[121.307162,23.695683],[121.306968,23.6955],[121.306983,23.694327],[121.306199,23.694318],[121.306197,23.694408],[121.305511,23.694401],[121.305412,23.69449],[121.305307,23.695031],[121.305405,23.695032],[121.305498,23.695394],[121.305596,23.695395],[121.305691,23.695667],[121.305789,23.695668]]],[[[121.305592,23.695756],[121.305595,23.695485],[121.305497,23.695484],[121.305494,23.695755],[121.305592,23.695756]]],[[[121.306374,23.695945],[121.306373,23.696036],[121.306569,23.696038],[121.30657,23.695948],[121.306374,23.695945]]],[[[121.301227,23.699591],[121.301423,23.699593],[121.301524,23.699414],[121.301426,23.699413],[121.301429,23.699142],[121.301236,23.698959],[121.301037,23.699138],[121.301041,23.698867],[121.300943,23.698866],[121.301044,23.698596],[121.300849,23.698504],[121.300651,23.698682],[121.300653,23.698501],[121.300459,23.698319],[121.300067,23.698314],[121.30007,23.698134],[121.299579,23.698128],[121.299479,23.698308],[121.298989,23.698303],[121.298888,23.698482],[121.298398,23.698477],[121.298298,23.698656],[121.297513,23.698647],[121.297418,23.698466],[121.297123,23.698463],[121.296834,23.698098],[121.296441,23.698184],[121.29634,23.698364],[121.295849,23.698449],[121.295846,23.698629],[121.295161,23.698531],[121.294677,23.698074],[121.294679,23.697894],[121.294486,23.697711],[121.294489,23.69744],[121.294587,23.697441],[121.29469,23.697081],[121.294988,23.696814],[121.295184,23.696816],[121.295284,23.696636],[121.295577,23.69673],[121.295875,23.696462],[121.295679,23.69646],[121.295389,23.696096],[121.294311,23.696084],[121.294312,23.695994],[121.294018,23.69599],[121.293629,23.695715],[121.293041,23.695709],[121.292263,23.695158],[121.291773,23.695153],[121.290998,23.694422],[121.290412,23.694235],[121.29022,23.693962],[121.289238,23.694041],[121.289142,23.69386],[121.288946,23.693857],[121.288944,23.694038],[121.288548,23.694305],[121.288352,23.694302],[121.288158,23.69412],[121.28757,23.694113],[121.28747,23.694293],[121.287078,23.694288],[121.286682,23.694555],[121.286094,23.694548],[121.285997,23.694457],[121.286103,23.693826],[121.285908,23.693734],[121.285913,23.693372],[121.285815,23.693371],[121.285818,23.6931],[121.285624,23.693008],[121.285534,23.692375],[121.285243,23.692101],[121.284851,23.692096],[121.284658,23.691823],[121.284267,23.691729],[121.284173,23.691457],[121.284075,23.691456],[121.284081,23.691004],[121.283787,23.691001],[121.283784,23.691182],[121.283588,23.691179],[121.283593,23.690818],[121.283299,23.690815],[121.283009,23.690451],[121.282713,23.690628],[121.282804,23.691171],[121.282999,23.691263],[121.282995,23.691534],[121.283093,23.691535],[121.28309,23.691806],[121.283188,23.691807],[121.283281,23.692169],[121.283573,23.692353],[121.283763,23.692807],[121.284345,23.693265],[121.284342,23.693536],[121.28444,23.693537],[121.284337,23.693897],[121.284435,23.693898],[121.284529,23.69426],[121.284725,23.694262],[121.284918,23.694445],[121.284819,23.694534],[121.284916,23.694626],[121.284813,23.694986],[121.284911,23.694987],[121.284909,23.695167],[121.285105,23.695169],[121.285198,23.695532],[121.285392,23.695714],[121.285588,23.695717],[121.285684,23.695898],[121.28588,23.6959],[121.285976,23.696082],[121.286172,23.696084],[121.286365,23.696267],[121.286363,23.696448],[121.286557,23.69663],[121.286753,23.696632],[121.287041,23.697087],[121.288218,23.6971],[121.288217,23.69719],[121.288413,23.697193],[121.2885,23.698006],[121.288598,23.698007],[121.288587,23.69882],[121.288782,23.698912],[121.288779,23.699183],[121.288878,23.699094],[121.290348,23.699201],[121.290346,23.699291],[121.290543,23.699293],[121.29054,23.699474],[121.290735,23.699566],[121.290733,23.699747],[121.290927,23.699929],[121.291414,23.700115],[121.291507,23.700568],[121.29121,23.700745],[121.291208,23.700926],[121.291498,23.7012],[121.29149,23.701832],[121.291392,23.701831],[121.291389,23.702102],[121.29119,23.70228],[121.290994,23.702278],[121.29099,23.702549],[121.290892,23.702548],[121.29089,23.702728],[121.291184,23.702731],[121.291377,23.703005],[121.291868,23.70292],[121.292069,23.702561],[121.292461,23.702565],[121.292764,23.701936],[121.293449,23.702034],[121.293647,23.701856],[121.29365,23.701675],[121.293944,23.701678],[121.293945,23.701588],[121.295023,23.7016],[121.295022,23.70169],[121.295316,23.701693],[121.295412,23.701875],[121.295706,23.701878],[121.296094,23.702244],[121.296194,23.702064],[121.296588,23.701978],[121.296688,23.701799],[121.297081,23.701713],[121.297182,23.701533],[121.297575,23.701447],[121.297873,23.70118],[121.298657,23.701188],[121.298753,23.70137],[121.299635,23.70138],[121.299634,23.70147],[121.300027,23.701384],[121.300033,23.700933],[121.300131,23.700934],[121.300137,23.700482],[121.300236,23.700393],[121.299945,23.700209],[121.299947,23.700029],[121.30024,23.700122],[121.30034,23.699943],[121.300732,23.699947],[121.30084,23.699226],[121.301227,23.699591]],[[121.299947,23.700029],[121.29985,23.699937],[121.299948,23.699938],[121.299947,23.700029]],[[121.299654,23.699935],[121.299655,23.699845],[121.299852,23.699757],[121.29985,23.699937],[121.299654,23.699935]],[[121.301132,23.69941],[121.301231,23.69932],[121.30123,23.699411],[121.301132,23.69941]],[[121.299656,23.699755],[121.29946,23.699752],[121.299461,23.699662],[121.299657,23.699664],[121.299656,23.699755]],[[121.29927,23.699299],[121.299171,23.699388],[121.299172,23.699298],[121.29927,23.699299]],[[121.296624,23.699179],[121.296923,23.698822],[121.297216,23.698915],[121.297114,23.699185],[121.296624,23.699179]],[[121.300549,23.698952],[121.300745,23.698954],[121.300742,23.699225],[121.300547,23.699132],[121.300549,23.698952]],[[121.298493,23.698749],[121.298393,23.698838],[121.298395,23.698747],[121.298493,23.698749]],[[121.29869,23.69866],[121.298591,23.69875],[121.298592,23.698659],[121.29869,23.69866]]],[[[121.300849,23.698504],[121.300754,23.698322],[121.300655,23.698321],[121.300653,23.698501],[121.300849,23.698504]]],[[[121.300915,23.701033],[121.301118,23.700493],[121.300922,23.700491],[121.300926,23.70013],[121.300731,23.700037],[121.300629,23.700397],[121.300431,23.700486],[121.300425,23.700937],[121.300619,23.70112],[121.300915,23.701033]]]]}}]}