{"type":"FeatureCollection","features":[{"type":"Feature","properties":{"kind":"bare_slide","month":"2026-04","area_ha":487.52},"geometry":{"type":"MultiPolygon","coordinates":[[[[121.28261,23.720967],[121.282904,23.72097],[121.282801,23.72133],[121.282998,23.721333],[121.282995,23.721513],[121.283192,23.721425],[121.283187,23.721877],[121.283383,23.721879],[121.283378,23.72224],[121.283574,23.722242],[121.283572,23.722423],[121.283768,23.722425],[121.283765,23.722605],[121.283962,23.722608],[121.283959,23.722788],[121.284155,23.72279],[121.284153,23.722971],[121.285526,23.722986],[121.285524,23.723167],[121.28572,23.723169],[121.285717,23.723349],[121.286307,23.723266],[121.286305,23.723446],[121.286501,23.723448],[121.286498,23.723629],[121.286694,23.723631],[121.286692,23.723812],[121.286888,23.723814],[121.286886,23.723994],[121.287278,23.723999],[121.287276,23.724179],[121.287668,23.724184],[121.287666,23.724364],[121.287862,23.724366],[121.287857,23.724728],[121.288053,23.72473],[121.288051,23.72491],[121.288247,23.724913],[121.288242,23.725274],[121.288635,23.725278],[121.288632,23.725459],[121.288828,23.725461],[121.288826,23.725641],[121.290395,23.725659],[121.290393,23.725839],[121.290785,23.725844],[121.290983,23.725665],[121.291177,23.725848],[121.291078,23.725937],[121.291172,23.726209],[121.291565,23.726213],[121.291562,23.726394],[121.292053,23.726399],[121.291957,23.726218],[121.292055,23.726219],[121.292157,23.725949],[121.292352,23.726041],[121.292251,23.726221],[121.292349,23.726222],[121.292445,23.726404],[121.292935,23.726409],[121.292937,23.726319],[121.293525,23.726325],[121.293527,23.726145],[121.29392,23.726149],[121.293922,23.725969],[121.29451,23.725975],[121.294513,23.725794],[121.294905,23.725799],[121.294903,23.725979],[121.295491,23.725986],[121.295489,23.726166],[121.295881,23.726171],[121.295879,23.726351],[121.296075,23.726353],[121.296072,23.726534],[121.296465,23.726538],[121.296462,23.726719],[121.296658,23.726721],[121.296656,23.726902],[121.296755,23.726812],[121.297048,23.726906],[121.297248,23.726637],[121.29862,23.726743],[121.298617,23.726923],[121.299108,23.726929],[121.299209,23.726659],[121.299307,23.72666],[121.299311,23.726389],[121.299507,23.726391],[121.299607,23.726212],[121.30039,23.726401],[121.300582,23.726674],[121.300778,23.726676],[121.300879,23.726497],[121.301369,23.726502],[121.301568,23.726324],[121.301572,23.725962],[121.301963,23.726057],[121.302162,23.725879],[121.302164,23.725698],[121.302457,23.725792],[121.302557,23.725702],[121.302463,23.72534],[121.302957,23.725075],[121.30296,23.724804],[121.303159,23.724625],[121.303742,23.725083],[121.303835,23.725445],[121.30413,23.725358],[121.304224,23.725721],[121.304514,23.725995],[121.304412,23.726355],[121.304509,23.726446],[121.304706,23.726358],[121.304809,23.725998],[121.304711,23.725997],[121.304619,23.725454],[121.305011,23.725549],[121.30521,23.72528],[121.304428,23.725091],[121.304138,23.724726],[121.303942,23.724724],[121.303749,23.724542],[121.303752,23.724271],[121.303364,23.723905],[121.303563,23.723727],[121.303759,23.723729],[121.304057,23.723461],[121.304059,23.723281],[121.304353,23.723284],[121.304449,23.723466],[121.305234,23.723474],[121.305524,23.723748],[121.305619,23.72402],[121.306015,23.723754],[121.306018,23.723483],[121.306311,23.723576],[121.306411,23.723397],[121.305636,23.722666],[121.305343,23.722572],[121.305348,23.722211],[121.304957,23.722117],[121.304863,23.721755],[121.304081,23.721565],[121.30408,23.721656],[121.303785,23.721743],[121.304074,23.722107],[121.303289,23.722189],[121.303193,23.722007],[121.302899,23.722004],[121.302609,23.721639],[121.302616,23.721098],[121.302518,23.721097],[121.302624,23.720466],[121.302526,23.720465],[121.302439,23.719651],[121.302636,23.719563],[121.302641,23.719202],[121.303033,23.719206],[121.304026,23.718224],[121.304519,23.718048],[121.304518,23.718139],[121.304714,23.718141],[121.30461,23.718591],[121.304901,23.718865],[121.304896,23.719226],[121.304993,23.719318],[121.305386,23.719232],[121.305482,23.719414],[121.306069,23.71951],[121.306164,23.719782],[121.306262,23.719783],[121.306268,23.719332],[121.306465,23.719244],[121.306372,23.718881],[121.306668,23.718704],[121.306575,23.718342],[121.30687,23.718255],[121.306972,23.717985],[121.307269,23.717717],[121.307858,23.717724],[121.307955,23.717815],[121.308254,23.717457],[121.307961,23.717364],[121.307962,23.717273],[121.307666,23.717361],[121.307668,23.71727],[121.307373,23.717267],[121.307375,23.717177],[121.306982,23.717172],[121.306692,23.716898],[121.306299,23.716894],[121.306301,23.716804],[121.306103,23.716892],[121.30601,23.71653],[121.306108,23.716531],[121.306211,23.716171],[121.306408,23.716083],[121.30641,23.715902],[121.306802,23.715906],[121.307002,23.715638],[121.307296,23.715641],[121.307495,23.715462],[121.307698,23.714923],[121.307309,23.714648],[121.307315,23.714196],[121.307708,23.71411],[121.307809,23.713931],[121.308005,23.713933],[121.308303,23.713665],[121.308014,23.713211],[121.308112,23.713212],[121.308116,23.712941],[121.308412,23.712763],[121.308615,23.712224],[121.308814,23.712045],[121.309108,23.712049],[121.309109,23.711958],[121.309401,23.712142],[121.309501,23.711963],[121.309895,23.711877],[121.309997,23.711517],[121.310095,23.711518],[121.310004,23.710975],[121.309516,23.710789],[121.309226,23.710515],[121.309228,23.710334],[121.309624,23.710068],[121.309527,23.709976],[121.309628,23.709707],[121.309434,23.709614],[121.309436,23.709434],[121.309732,23.709256],[121.309638,23.708984],[121.30954,23.708983],[121.309543,23.708712],[121.309837,23.708716],[121.309939,23.708446],[121.309841,23.708445],[121.309844,23.708174],[121.309651,23.707991],[121.309062,23.707985],[121.309063,23.707894],[121.30877,23.707801],[121.308875,23.70726],[121.309172,23.707083],[121.309075,23.706992],[121.309174,23.706902],[121.30918,23.706451],[121.30879,23.706266],[121.308793,23.706085],[121.308694,23.706084],[121.308796,23.705815],[121.308408,23.705449],[121.308317,23.704906],[121.308026,23.704723],[121.308036,23.70391],[121.308134,23.703911],[121.308138,23.70364],[121.308236,23.703641],[121.308238,23.703461],[121.30814,23.70346],[121.308148,23.702828],[121.308247,23.702738],[121.307958,23.702374],[121.307967,23.701652],[121.308065,23.701653],[121.307871,23.70147],[121.307874,23.701289],[121.308072,23.701111],[121.308083,23.700298],[121.307985,23.700297],[121.308085,23.700118],[121.307988,23.700027],[121.308185,23.699938],[121.308097,23.699215],[121.308293,23.699217],[121.308484,23.69958],[121.308781,23.699403],[121.308587,23.69922],[121.30859,23.69895],[121.308492,23.698948],[121.308595,23.698588],[121.308693,23.698589],[121.308503,23.698136],[121.308699,23.698138],[121.3088,23.697868],[121.308607,23.697686],[121.308518,23.696962],[121.308225,23.696869],[121.308226,23.696778],[121.307834,23.696774],[121.307937,23.696414],[121.308234,23.696146],[121.308238,23.695876],[121.308635,23.695519],[121.308539,23.695337],[121.308342,23.695425],[121.308345,23.695154],[121.308247,23.695153],[121.308351,23.694703],[121.308058,23.694609],[121.307866,23.694246],[121.307377,23.69415],[121.306981,23.694507],[121.306968,23.6955],[121.307163,23.695593],[121.306964,23.695771],[121.306955,23.696494],[121.306856,23.696583],[121.306267,23.696576],[121.306167,23.696756],[121.305481,23.696748],[121.304191,23.697908],[121.304185,23.69836],[121.303988,23.698448],[121.303982,23.698899],[121.303785,23.698987],[121.303781,23.699258],[121.303584,23.699346],[121.303579,23.699707],[121.302985,23.700152],[121.302972,23.701146],[121.302675,23.701413],[121.302086,23.701407],[121.301986,23.701586],[121.299633,23.70156],[121.299537,23.701379],[121.298753,23.70137],[121.298657,23.701188],[121.297873,23.70118],[121.297575,23.701447],[121.297182,23.701533],[121.297081,23.701713],[121.296885,23.701711],[121.296588,23.701978],[121.296095,23.702154],[121.296279,23.703059],[121.295982,23.703326],[121.295979,23.703507],[121.296272,23.7036],[121.296363,23.704143],[121.296167,23.704141],[121.295969,23.704319],[121.295964,23.70468],[121.295767,23.704769],[121.295862,23.70495],[121.295566,23.705128],[121.29556,23.705579],[121.295462,23.705578],[121.295554,23.70603],[121.295259,23.706117],[121.295353,23.706389],[121.295058,23.706476],[121.294954,23.706927],[121.294562,23.706923],[121.294467,23.706651],[121.294666,23.706472],[121.294178,23.706286],[121.294179,23.706196],[121.293588,23.70637],[121.293585,23.706641],[121.293683,23.706642],[121.293778,23.706914],[121.293975,23.706826],[121.29388,23.706554],[121.294272,23.706558],[121.294369,23.706649],[121.294267,23.70701],[121.294755,23.707196],[121.294652,23.707556],[121.294158,23.707821],[121.294156,23.708002],[121.294254,23.708003],[121.294144,23.708904],[121.293751,23.70899],[121.293453,23.709258],[121.29345,23.709439],[121.292856,23.709884],[121.29275,23.710514],[121.292453,23.710692],[121.292451,23.710872],[121.292156,23.710959],[121.292053,23.711319],[121.291757,23.711497],[121.291753,23.711768],[121.291357,23.712034],[121.291256,23.712304],[121.29096,23.712391],[121.290958,23.712572],[121.290659,23.712929],[121.290365,23.712926],[121.290166,23.713105],[121.289964,23.713554],[121.289768,23.713552],[121.289668,23.713731],[121.289571,23.71364],[121.289374,23.713728],[121.289469,23.71391],[121.289174,23.713997],[121.289171,23.714267],[121.288875,23.714355],[121.288878,23.714174],[121.288683,23.714081],[121.288681,23.714172],[121.288387,23.714169],[121.288287,23.714348],[121.28819,23.714257],[121.287895,23.714344],[121.287604,23.71407],[121.287212,23.714065],[121.287116,23.713884],[121.28672,23.71415],[121.286816,23.714332],[121.28711,23.714335],[121.287111,23.714245],[121.287502,23.714339],[121.287499,23.71461],[121.287206,23.714517],[121.287105,23.714696],[121.287202,23.714787],[121.287694,23.714703],[121.287789,23.714884],[121.287986,23.714886],[121.288082,23.714978],[121.28798,23.715338],[121.287592,23.714972],[121.287298,23.714969],[121.287299,23.714879],[121.287102,23.714967],[121.287006,23.714785],[121.28681,23.714783],[121.287009,23.714605],[121.286913,23.714423],[121.286226,23.714415],[121.286225,23.714506],[121.28593,23.714593],[121.286026,23.714774],[121.286417,23.714869],[121.286215,23.715318],[121.286019,23.715316],[121.285721,23.715584],[121.285427,23.715581],[121.285128,23.715938],[121.284734,23.716024],[121.284633,23.716294],[121.283945,23.716377],[121.283646,23.716735],[121.283157,23.716639],[121.283156,23.716729],[121.282664,23.716814],[121.282758,23.717176],[121.283051,23.71727],[121.282752,23.717628],[121.282749,23.717808],[121.282944,23.717901],[121.282742,23.71835],[121.282448,23.718347],[121.282348,23.718526],[121.282054,23.718523],[121.281953,23.718702],[121.281561,23.718698],[121.28146,23.718878],[121.280676,23.718869],[121.280378,23.719136],[121.27979,23.71913],[121.279791,23.71904],[121.279496,23.719127],[121.279587,23.719669],[121.279979,23.719674],[121.279977,23.719854],[121.280271,23.719858],[121.280273,23.719677],[121.280371,23.719678],[121.280275,23.719496],[121.280472,23.719499],[121.280567,23.71968],[121.280959,23.719685],[121.28106,23.719505],[121.281256,23.719507],[121.281455,23.719329],[121.28136,23.719057],[121.281654,23.71906],[121.281652,23.719241],[121.281554,23.71924],[121.281649,23.719421],[121.282046,23.719065],[121.28214,23.719427],[121.282435,23.71934],[121.282629,23.719523],[121.282731,23.719253],[121.282632,23.719252],[121.282538,23.71898],[121.282734,23.718982],[121.282733,23.719072],[121.28293,23.718984],[121.282738,23.718711],[121.283326,23.718718],[121.283124,23.719167],[121.282927,23.719255],[121.283019,23.719708],[121.282726,23.719614],[121.282624,23.719884],[121.282427,23.719972],[121.282425,23.720152],[121.282619,23.720245],[121.282421,23.720423],[121.282515,23.720695],[121.28271,23.720788],[121.28261,23.720967]],[[121.305386,23.719232],[121.305488,23.718962],[121.305197,23.718688],[121.305104,23.718326],[121.305495,23.71842],[121.305693,23.718242],[121.305502,23.717879],[121.305699,23.71779],[121.305794,23.718062],[121.305892,23.718064],[121.305887,23.718425],[121.305985,23.718426],[121.306079,23.718788],[121.305981,23.718787],[121.305978,23.718967],[121.305782,23.718965],[121.305485,23.719233],[121.305386,23.719232]],[[121.283124,23.719167],[121.283221,23.719258],[121.283123,23.719257],[121.283124,23.719167]],[[121.28271,23.720788],[121.28281,23.720699],[121.282808,23.720789],[121.28271,23.720788]],[[121.296662,23.72645],[121.296857,23.726543],[121.296855,23.726723],[121.29666,23.726631],[121.296662,23.72645]],[[121.291862,23.725946],[121.291763,23.726035],[121.291764,23.725945],[121.291862,23.725946]],[[121.291377,23.725579],[121.291573,23.725581],[121.291569,23.725852],[121.291471,23.725851],[121.291377,23.725579]],[[121.289419,23.725287],[121.289125,23.725283],[121.288156,23.72437],[121.28816,23.724099],[121.287965,23.724006],[121.287969,23.723645],[121.288167,23.723557],[121.28817,23.723286],[121.288567,23.722929],[121.288861,23.722933],[121.288962,23.722753],[121.289942,23.722764],[121.290038,23.722946],[121.290528,23.722951],[121.291304,23.723682],[121.2913,23.723953],[121.291495,23.724045],[121.291486,23.724768],[121.291191,23.724764],[121.291091,23.724944],[121.290504,23.724847],[121.290304,23.725116],[121.29001,23.725113],[121.289711,23.725471],[121.289515,23.725468],[121.289419,23.725287]],[[121.30169,23.724429],[121.301788,23.72443],[121.301792,23.724159],[121.301889,23.72425],[121.302478,23.724166],[121.302371,23.724888],[121.301686,23.72479],[121.30169,23.724429]],[[121.295428,23.723276],[121.29533,23.723275],[121.295335,23.722914],[121.295433,23.722915],[121.295435,23.722734],[121.295532,23.722826],[121.295827,23.722739],[121.295833,23.722287],[121.295931,23.722288],[121.295929,23.722469],[121.296123,23.722652],[121.296019,23.723102],[121.295822,23.72319],[121.295819,23.723371],[121.295722,23.723279],[121.295525,23.723368],[121.295521,23.723638],[121.295325,23.723636],[121.295428,23.723276]],[[121.301912,23.722445],[121.302308,23.722178],[121.302596,23.722633],[121.302794,23.722544],[121.302987,23.722727],[121.302985,23.722908],[121.302497,23.722722],[121.302099,23.723169],[121.301804,23.723256],[121.301912,23.722445]],[[121.30514,23.723112],[121.305339,23.722934],[121.305434,23.723115],[121.30514,23.723112]],[[121.304163,23.72283],[121.303967,23.722828],[121.303968,23.722738],[121.304164,23.72274],[121.304163,23.72283]],[[121.285047,23.722078],[121.285147,23.721989],[121.285145,23.722079],[121.285047,23.722078]],[[121.285149,23.721808],[121.284954,23.721716],[121.285064,23.720814],[121.285163,23.720725],[121.284873,23.72045],[121.284875,23.72027],[121.284778,23.720179],[121.284581,23.720267],[121.284673,23.720719],[121.284381,23.720535],[121.28448,23.720446],[121.284385,23.720264],[121.284089,23.720352],[121.284092,23.720171],[121.284387,23.720084],[121.284389,23.719903],[121.284291,23.719902],[121.284394,23.719542],[121.28459,23.719544],[121.284692,23.719275],[121.28479,23.719276],[121.284795,23.718915],[121.284601,23.718732],[121.284305,23.718819],[121.284407,23.718549],[121.284213,23.718366],[121.284017,23.718364],[121.283825,23.718091],[121.284121,23.717914],[121.28412,23.718004],[121.284512,23.718008],[121.284706,23.718191],[121.284808,23.717921],[121.285102,23.717925],[121.285683,23.718473],[121.286469,23.718391],[121.286667,23.718213],[121.28667,23.718032],[121.286867,23.717944],[121.28687,23.717673],[121.286968,23.717674],[121.286872,23.717583],[121.286877,23.717132],[121.286976,23.717133],[121.287081,23.716592],[121.287279,23.716414],[121.287474,23.716506],[121.287374,23.716686],[121.287567,23.716868],[121.287766,23.71669],[121.288058,23.716874],[121.287858,23.717143],[121.287663,23.71705],[121.287564,23.717139],[121.28766,23.717321],[121.287462,23.717409],[121.287656,23.717592],[121.287642,23.718675],[121.287544,23.718674],[121.287541,23.718855],[121.287832,23.719129],[121.288126,23.719132],[121.288227,23.718953],[121.288521,23.718956],[121.288719,23.718777],[121.288622,23.718686],[121.288723,23.718507],[121.289015,23.71869],[121.289114,23.718601],[121.289018,23.71842],[121.289214,23.718422],[121.289317,23.718062],[121.289415,23.718063],[121.289511,23.718244],[121.289413,23.718243],[121.28931,23.718603],[121.289407,23.718695],[121.289702,23.718608],[121.2897,23.718788],[121.289992,23.718972],[121.289989,23.719153],[121.289792,23.719241],[121.289789,23.719512],[121.289984,23.719604],[121.290182,23.719426],[121.290089,23.719063],[121.290385,23.718886],[121.290389,23.718615],[121.290984,23.71808],[121.290981,23.718351],[121.291465,23.718808],[121.291955,23.718813],[121.293504,23.720365],[121.293703,23.720187],[121.293899,23.720189],[121.293897,23.72037],[121.293995,23.720371],[121.293697,23.720638],[121.293891,23.720821],[121.293884,23.721363],[121.293686,23.721451],[121.293683,23.721722],[121.291329,23.721696],[121.29104,23.721331],[121.290746,23.721328],[121.29065,23.721147],[121.290356,23.721143],[121.29026,23.720962],[121.289966,23.720958],[121.28987,23.720777],[121.28938,23.720771],[121.289284,23.72059],[121.288794,23.720584],[121.288503,23.72031],[121.288204,23.720668],[121.288009,23.720576],[121.287712,23.720843],[121.287708,23.721114],[121.28751,23.721292],[121.287505,23.721654],[121.287306,23.721832],[121.286524,23.721643],[121.286424,23.721822],[121.286033,23.721728],[121.286032,23.721818],[121.285442,23.721902],[121.285342,23.722081],[121.285147,23.721989],[121.285149,23.721808]],[[121.28667,23.718032],[121.286573,23.717941],[121.286671,23.717942],[121.28667,23.718032]],[[121.287474,23.716506],[121.287573,23.716417],[121.287572,23.716507],[121.287474,23.716506]],[[121.288821,23.718508],[121.28892,23.718418],[121.288919,23.718509],[121.288821,23.718508]],[[121.294173,23.721727],[121.294272,23.721638],[121.294271,23.721728],[121.294173,23.721727]],[[121.294275,23.721457],[121.294177,23.721456],[121.29418,23.721186],[121.294478,23.720918],[121.294568,23.721551],[121.294272,23.721638],[121.294275,23.721457]],[[121.294478,23.720918],[121.294577,23.720829],[121.294576,23.720919],[121.294478,23.720918]],[[121.284079,23.721164],[121.283788,23.72089],[121.283986,23.720712],[121.284278,23.720895],[121.284079,23.721164]],[[121.296049,23.720755],[121.29595,23.720844],[121.295951,23.720754],[121.296049,23.720755]],[[121.296443,23.720669],[121.296345,23.720668],[121.296347,23.720487],[121.296445,23.720488],[121.296443,23.720669]],[[121.282916,23.720068],[121.282817,23.720157],[121.282818,23.720067],[121.282916,23.720068]],[[121.294585,23.720197],[121.294487,23.720196],[121.29449,23.720015],[121.294588,23.720016],[121.294585,23.720197]],[[121.29498,23.72002],[121.295175,23.720113],[121.295174,23.720203],[121.294978,23.720201],[121.29498,23.72002]],[[121.301653,23.719733],[121.301948,23.719646],[121.301946,23.719826],[121.301749,23.719914],[121.301746,23.720095],[121.301548,23.720273],[121.301653,23.719733]],[[121.294296,23.719832],[121.294197,23.719922],[121.294198,23.719831],[121.294296,23.719832]],[[121.294687,23.719927],[121.29459,23.719836],[121.294688,23.719837],[121.294687,23.719927]],[[121.29459,23.719836],[121.294493,23.719744],[121.294591,23.719745],[121.29459,23.719836]],[[121.295181,23.719661],[121.295082,23.719751],[121.295079,23.719931],[121.294981,23.71993],[121.294985,23.719659],[121.295181,23.719661]],[[121.296453,23.719856],[121.296354,23.719945],[121.296355,23.719855],[121.296453,23.719856]],[[121.280474,23.719318],[121.280375,23.719407],[121.280376,23.719317],[121.280474,23.719318]],[[121.296948,23.7195],[121.296849,23.71959],[121.29685,23.719499],[121.296948,23.7195]],[[121.2946,23.719113],[121.2945,23.719202],[121.294497,23.719473],[121.294399,23.719472],[121.294403,23.719111],[121.2946,23.719113]],[[121.295575,23.719485],[121.295477,23.719484],[121.29548,23.719304],[121.295578,23.719305],[121.295575,23.719485]],[[121.296164,23.719492],[121.295873,23.719218],[121.296069,23.71922],[121.296164,23.719492]],[[121.29646,23.719314],[121.296361,23.719404],[121.296362,23.719313],[121.29646,23.719314]],[[121.295285,23.719211],[121.295186,23.7193],[121.295187,23.71921],[121.295285,23.719211]],[[121.296365,23.719133],[121.296267,23.719132],[121.296269,23.718951],[121.296367,23.718952],[121.296365,23.719133]],[[121.294896,23.718936],[121.294797,23.719025],[121.294798,23.718935],[121.294896,23.718936]],[[121.294994,23.718937],[121.295093,23.718848],[121.295092,23.718938],[121.294994,23.718937]],[[121.295096,23.718667],[121.295292,23.718669],[121.295293,23.718579],[121.295489,23.718581],[121.295191,23.718849],[121.295093,23.718848],[121.295096,23.718667]],[[121.283719,23.718632],[121.28362,23.718721],[121.283621,23.718631],[121.283719,23.718632]],[[121.29627,23.718861],[121.296276,23.718409],[121.296374,23.71841],[121.296368,23.718862],[121.29627,23.718861]],[[121.296276,23.718409],[121.296179,23.718318],[121.296082,23.718227],[121.296278,23.718229],[121.296276,23.718409]],[[121.295002,23.718305],[121.294903,23.718394],[121.294904,23.718304],[121.295002,23.718305]],[[121.286079,23.718206],[121.285982,23.718115],[121.28608,23.718116],[121.286079,23.718206]],[[121.285982,23.718115],[121.285885,23.718024],[121.285983,23.718025],[121.285982,23.718115]],[[121.289707,23.718247],[121.290007,23.717798],[121.290012,23.717437],[121.290109,23.717529],[121.290404,23.717442],[121.290402,23.717622],[121.290204,23.71771],[121.2903,23.717892],[121.289903,23.718249],[121.289707,23.718247]],[[121.286374,23.718119],[121.286178,23.718117],[121.286179,23.718027],[121.286375,23.718029],[121.286374,23.718119]],[[121.289121,23.718059],[121.289022,23.718149],[121.289023,23.718058],[121.289121,23.718059]],[[121.295201,23.718127],[121.295005,23.718124],[121.295006,23.718034],[121.295202,23.718036],[121.295201,23.718127]],[[121.295888,23.718044],[121.29579,23.718043],[121.295793,23.717862],[121.295891,23.717863],[121.295888,23.718044]],[[121.288832,23.717695],[121.289029,23.717607],[121.289025,23.717878],[121.288927,23.717877],[121.288832,23.717695]],[[121.291086,23.71781],[121.290987,23.7179],[121.290988,23.717809],[121.291086,23.71781]],[[121.288734,23.717694],[121.288634,23.717783],[121.288635,23.717693],[121.288734,23.717694]],[[121.286674,23.717671],[121.286478,23.717669],[121.286479,23.717579],[121.286675,23.717581],[121.286674,23.717671]],[[121.291088,23.71763],[121.290989,23.717719],[121.29099,23.717629],[121.291088,23.71763]],[[121.306093,23.717705],[121.306289,23.717707],[121.306287,23.717887],[121.306188,23.717886],[121.306093,23.717705]],[[121.306778,23.717802],[121.306679,23.717892],[121.30668,23.717801],[121.306778,23.717802]],[[121.28952,23.717522],[121.289421,23.717611],[121.289422,23.717521],[121.28952,23.717522]],[[121.288738,23.717333],[121.289035,23.717156],[121.289032,23.717336],[121.288738,23.717333]],[[121.28913,23.717337],[121.289331,23.716978],[121.289527,23.71698],[121.289329,23.717159],[121.289327,23.717339],[121.28913,23.717337]],[[121.290405,23.717351],[121.290505,23.717262],[121.290503,23.717352],[121.290405,23.717351]],[[121.290507,23.717082],[121.290704,23.716993],[121.290709,23.716632],[121.290906,23.716544],[121.290701,23.717264],[121.290505,23.717262],[121.290507,23.717082]],[[121.289824,23.716803],[121.29002,23.716805],[121.290214,23.716988],[121.290014,23.717257],[121.289916,23.717256],[121.289824,23.716803]],[[121.291289,23.717271],[121.291388,23.717182],[121.291387,23.717272],[121.291289,23.717271]],[[121.291388,23.717182],[121.291487,23.717092],[121.291486,23.717183],[121.291388,23.717182]],[[121.28531,23.717024],[121.28521,23.717113],[121.285212,23.717023],[121.28531,23.717024]],[[121.295214,23.717133],[121.295115,23.717223],[121.295116,23.717132],[121.295214,23.717133]],[[121.28875,23.71643],[121.288845,23.716702],[121.288647,23.71679],[121.288652,23.716429],[121.28875,23.71643]],[[121.288944,23.716613],[121.289139,23.716705],[121.289138,23.716795],[121.288941,23.716793],[121.288944,23.716613]],[[121.289531,23.71671],[121.289432,23.716799],[121.289433,23.716708],[121.289531,23.71671]],[[121.291591,23.716642],[121.291492,23.716731],[121.291493,23.716641],[121.291591,23.716642]],[[121.288259,23.716515],[121.28816,23.716514],[121.288163,23.716333],[121.288261,23.716334],[121.288259,23.716515]],[[121.296008,23.71642],[121.295908,23.716509],[121.29591,23.716419],[121.296008,23.71642]],[[121.296595,23.716517],[121.296694,23.716427],[121.296693,23.716518],[121.296595,23.716517]],[[121.296694,23.716427],[121.296793,23.716338],[121.296792,23.716428],[121.296694,23.716427]],[[121.289634,23.716349],[121.289438,23.716347],[121.289439,23.716257],[121.289635,23.716259],[121.289634,23.716349]],[[121.292089,23.716106],[121.292187,23.716107],[121.292184,23.716287],[121.291987,23.716375],[121.292089,23.716106]],[[121.285614,23.716215],[121.285516,23.716214],[121.285519,23.716033],[121.285617,23.716034],[121.285614,23.716215]],[[121.288948,23.716252],[121.28885,23.716251],[121.288853,23.71607],[121.288951,23.716071],[121.288948,23.716252]],[[121.292581,23.715931],[121.292482,23.71602],[121.292483,23.715929],[121.292581,23.715931]],[[121.295915,23.715967],[121.295816,23.716057],[121.295817,23.715966],[121.295915,23.715967]],[[121.287776,23.715877],[121.287486,23.715603],[121.287684,23.715425],[121.287976,23.715609],[121.287776,23.715877]],[[121.293465,23.71585],[121.293366,23.715939],[121.293367,23.715849],[121.293465,23.71585]],[[121.29778,23.715898],[121.297681,23.715987],[121.297682,23.715896],[121.29778,23.715898]],[[121.289543,23.715807],[121.289446,23.715715],[121.289544,23.715716],[121.289543,23.715807]],[[121.289446,23.715715],[121.289349,23.715624],[121.289447,23.715625],[121.289446,23.715715]],[[121.289349,23.715624],[121.289252,23.715533],[121.28935,23.715534],[121.289349,23.715624]],[[121.293467,23.715669],[121.293567,23.71558],[121.293566,23.715671],[121.293467,23.715669]],[[121.293567,23.71558],[121.293666,23.715491],[121.293665,23.715581],[121.293567,23.71558]],[[121.288865,23.715167],[121.289061,23.715169],[121.28906,23.71526],[121.288863,23.715257],[121.288865,23.715167]],[[121.289061,23.715169],[121.28916,23.71508],[121.289159,23.71517],[121.289061,23.715169]],[[121.293278,23.715126],[121.293179,23.715215],[121.29318,23.715124],[121.293278,23.715126]],[[121.289653,23.714905],[121.289553,23.714994],[121.289555,23.714904],[121.289653,23.714905]],[[121.294065,23.714954],[121.293966,23.715043],[121.293967,23.714953],[121.294065,23.714954]],[[121.288284,23.714529],[121.288478,23.714711],[121.288184,23.714708],[121.288284,23.714529]],[[121.288284,23.714529],[121.288188,23.714437],[121.288286,23.714438],[121.288284,23.714529]],[[121.294462,23.714597],[121.29456,23.714598],[121.294558,23.714778],[121.29446,23.714777],[121.294462,23.714597]],[[121.29456,23.714598],[121.294659,23.714509],[121.294658,23.714599],[121.29456,23.714598]],[[121.299167,23.714829],[121.298875,23.714645],[121.298877,23.714465],[121.299274,23.714108],[121.299468,23.714291],[121.299464,23.714562],[121.299167,23.714829]],[[121.294468,23.714145],[121.294369,23.714235],[121.29437,23.714144],[121.294468,23.714145]],[[121.29486,23.71415],[121.294761,23.714239],[121.294762,23.714149],[121.29486,23.71415]],[[121.298785,23.714012],[121.298493,23.713829],[121.298495,23.713648],[121.298792,23.713471],[121.298986,23.713653],[121.298983,23.713834],[121.298785,23.714012]],[[121.305165,23.713631],[121.305065,23.71372],[121.305067,23.71363],[121.305165,23.713631]],[[121.30536,23.713723],[121.305262,23.713722],[121.305264,23.713542],[121.305362,23.713543],[121.30536,23.713723]],[[121.305558,23.713545],[121.305852,23.713548],[121.30585,23.713729],[121.305654,23.713727],[121.305558,23.713545]],[[121.295947,23.71353],[121.295849,23.713529],[121.295851,23.713348],[121.295949,23.713349],[121.295947,23.71353]],[[121.305069,23.713449],[121.304971,23.713448],[121.304973,23.713268],[121.305071,23.713269],[121.305069,23.713449]],[[121.306148,23.713461],[121.306049,23.71346],[121.306052,23.713279],[121.30615,23.71328],[121.306148,23.713461]],[[121.305563,23.713184],[121.305463,23.713273],[121.305465,23.713183],[121.305563,23.713184]],[[121.295964,23.712266],[121.295864,23.712355],[121.295865,23.712265],[121.295964,23.712266]],[[121.304112,23.711633],[121.304012,23.711722],[121.304014,23.711632],[121.304112,23.711633]],[[121.305685,23.711289],[121.305491,23.711106],[121.305591,23.711017],[121.305496,23.710745],[121.305693,23.710657],[121.305883,23.711201],[121.305685,23.711289]],[[121.304804,23.711189],[121.304611,23.710916],[121.304807,23.710918],[121.305,23.711191],[121.304804,23.711189]],[[121.304121,23.71091],[121.304022,23.711],[121.304023,23.710909],[121.304121,23.71091]],[[121.3052,23.710922],[121.305004,23.71092],[121.305005,23.71083],[121.305201,23.710832],[121.3052,23.710922]],[[121.305396,23.710924],[121.305298,23.710923],[121.3053,23.710743],[121.305398,23.710744],[121.305396,23.710924]],[[121.306877,23.710128],[121.306683,23.709945],[121.306787,23.709495],[121.306593,23.709312],[121.307085,23.709227],[121.306982,23.709587],[121.307177,23.70968],[121.307078,23.709769],[121.307172,23.710041],[121.306877,23.710128]],[[121.307172,23.710041],[121.307269,23.710132],[121.307171,23.710131],[121.307172,23.710041]],[[121.306,23.709667],[121.305901,23.709756],[121.305902,23.709666],[121.306,23.709667]],[[121.30747,23.709773],[121.307373,23.709682],[121.307471,23.709683],[121.30747,23.709773]],[[121.307373,23.709682],[121.307276,23.709591],[121.307374,23.709592],[121.307373,23.709682]],[[121.306393,23.709671],[121.306395,23.709491],[121.306493,23.709492],[121.306491,23.709672],[121.306393,23.709671]],[[121.306297,23.709489],[121.306202,23.709218],[121.306009,23.709035],[121.305812,23.709033],[121.305815,23.708852],[121.306303,23.709038],[121.3063,23.709219],[121.306495,23.709311],[121.306297,23.709489]],[[121.302477,23.709086],[121.302378,23.709176],[121.302379,23.709085],[121.302477,23.709086]],[[121.306694,23.709133],[121.306596,23.709132],[121.306598,23.708951],[121.306696,23.708952],[121.306694,23.709133]],[[121.306502,23.708769],[121.306403,23.708859],[121.306404,23.708768],[121.306502,23.708769]],[[121.305821,23.708401],[121.305721,23.70849],[121.305723,23.7084],[121.305821,23.708401]],[[121.307492,23.700473],[121.307393,23.700562],[121.307394,23.700472],[121.307492,23.700473]],[[121.307205,23.699928],[121.307106,23.700017],[121.307006,23.700106],[121.307009,23.699926],[121.307205,23.699928]],[[121.30789,23.700025],[121.307791,23.700115],[121.307792,23.700024],[121.30789,23.700025]],[[121.305937,23.699372],[121.305839,23.699371],[121.305841,23.69919],[121.30594,23.699191],[121.305937,23.699372]],[[121.307116,23.699204],[121.307019,23.699113],[121.307022,23.698932],[121.307315,23.699026],[121.307513,23.698847],[121.307707,23.69903],[121.307704,23.699211],[121.30741,23.699208],[121.307409,23.699298],[121.307116,23.699204]],[[121.305844,23.69901],[121.305746,23.699009],[121.305748,23.698828],[121.305846,23.698829],[121.305844,23.69901]],[[121.306729,23.698839],[121.306824,23.699021],[121.30653,23.699017],[121.306532,23.698837],[121.306729,23.698839]]],[[[121.284453,23.715028],[121.284066,23.714662],[121.284069,23.714392],[121.284567,23.713855],[121.284473,23.713493],[121.284276,23.713581],[121.284274,23.713762],[121.28388,23.713848],[121.282987,23.71465],[121.282981,23.715102],[121.283274,23.715195],[121.283272,23.715376],[121.283465,23.715559],[121.283859,23.715473],[121.283962,23.715113],[121.284061,23.715024],[121.284354,23.715117],[121.284453,23.715028]]],[[[121.284252,23.715387],[121.284446,23.71557],[121.284741,23.715483],[121.284452,23.715118],[121.284255,23.715206],[121.284252,23.715387]]],[[[121.282218,23.720963],[121.282415,23.720875],[121.282417,23.720694],[121.28203,23.720329],[121.282132,23.720059],[121.281937,23.719966],[121.281834,23.720326],[121.281638,23.720324],[121.281738,23.720145],[121.281445,23.720051],[121.281345,23.720231],[121.281443,23.720232],[121.281632,23.720776],[121.281825,23.720958],[121.281925,23.720869],[121.282219,23.720873],[121.282218,23.720963]]],[[[121.29225,23.726311],[121.292347,23.726403],[121.292348,23.726312],[121.29225,23.726311]]],[[[121.303718,23.726889],[121.303816,23.72689],[121.303723,23.726528],[121.304019,23.726351],[121.303831,23.725716],[121.303339,23.725892],[121.30314,23.72607],[121.303137,23.726341],[121.303039,23.72634],[121.303036,23.72652],[121.303231,23.726613],[121.303225,23.727064],[121.303516,23.727338],[121.303713,23.72725],[121.303718,23.726889]]],[[[121.305961,23.727907],[121.305475,23.72754],[121.305382,23.727178],[121.305091,23.726904],[121.3047,23.726809],[121.304509,23.726446],[121.304311,23.726534],[121.304502,23.726988],[121.304795,23.727081],[121.304792,23.727262],[121.304986,23.727445],[121.304983,23.727716],[121.305176,23.727898],[121.305372,23.7279],[121.305468,23.728082],[121.30586,23.728086],[121.305961,23.727907]]],[[[121.303313,23.727878],[121.302824,23.727782],[121.30263,23.727599],[121.302631,23.727509],[121.302927,23.727422],[121.302734,23.727149],[121.302535,23.727328],[121.302241,23.727324],[121.302049,23.727051],[121.301851,23.727139],[121.301948,23.727231],[121.301944,23.727592],[121.301746,23.72768],[121.301841,23.727952],[121.302135,23.727955],[121.302134,23.728045],[121.302428,23.728049],[121.302427,23.728139],[121.303211,23.728148],[121.303313,23.727878]]],[[[121.309737,23.70131],[121.310334,23.700594],[121.310139,23.700502],[121.310046,23.700139],[121.309753,23.700046],[121.309755,23.699865],[121.30956,23.699773],[121.309461,23.699862],[121.309542,23.701217],[121.309737,23.70131]]],[[[121.309968,23.713774],[121.310164,23.713776],[121.310363,23.713597],[121.310176,23.712873],[121.309881,23.71296],[121.309878,23.713141],[121.310072,23.713323],[121.309972,23.713503],[121.309679,23.713409],[121.309678,23.7135],[121.309186,23.713585],[121.309282,23.713766],[121.309772,23.713772],[121.309773,23.713681],[121.30997,23.713683],[121.309968,23.713774]]],[[[121.307688,23.723321],[121.307493,23.723228],[121.307495,23.723048],[121.307593,23.723049],[121.307497,23.722867],[121.307203,23.722864],[121.306814,23.722589],[121.306817,23.722408],[121.306719,23.722407],[121.306824,23.721866],[121.306629,23.721774],[121.306425,23.722313],[121.306129,23.722491],[121.306221,23.722943],[121.306804,23.723401],[121.306898,23.723673],[121.307584,23.723771],[121.307688,23.723321]],[[121.307003,23.723132],[121.307198,23.723225],[121.307196,23.723405],[121.307001,23.723313],[121.307003,23.723132]]],[[[121.308664,23.723692],[121.30847,23.72351],[121.308272,23.723598],[121.308366,23.72396],[121.308169,23.724048],[121.308265,23.72414],[121.308166,23.724229],[121.30826,23.724591],[121.308751,23.724506],[121.308753,23.724325],[121.308558,23.724233],[121.308664,23.723692]]],[[[121.308853,23.724236],[121.308953,23.724057],[121.308758,23.723964],[121.308658,23.724144],[121.308853,23.724236]]],[[[121.306087,23.725741],[121.306578,23.725656],[121.306681,23.725296],[121.306877,23.725298],[121.306972,23.72557],[121.307364,23.725574],[121.307362,23.725755],[121.307656,23.725758],[121.30776,23.725308],[121.307566,23.725125],[121.307762,23.725127],[121.307962,23.724859],[121.307572,23.724674],[121.307175,23.725031],[121.307172,23.725301],[121.306784,23.724936],[121.306294,23.724931],[121.3061,23.724748],[121.305509,23.724922],[121.30521,23.72528],[121.305502,23.725464],[121.305597,23.725736],[121.305793,23.725738],[121.305794,23.725648],[121.306088,23.725651],[121.306087,23.725741]]],[[[121.305685,23.726459],[121.306176,23.726464],[121.306175,23.726555],[121.306566,23.726649],[121.306665,23.72656],[121.306573,23.726108],[121.306771,23.725929],[121.306576,23.725837],[121.306476,23.726016],[121.305691,23.726008],[121.305295,23.726274],[121.305388,23.726727],[121.305584,23.726729],[121.305685,23.726459]]]]}},{"type":"Feature","properties":{"kind":"bare_dam","month":"2026-04","area_ha":171.02},"geometry":{"type":"Polygon","coordinates":[[[121.294044,23.701499],[121.294143,23.70141],[121.294048,23.701228],[121.293458,23.701312],[121.292877,23.700764],[121.292897,23.699229],[121.292702,23.699136],[121.292708,23.698685],[121.292513,23.698592],[121.292519,23.698141],[121.292421,23.69814],[121.292521,23.69796],[121.292326,23.697868],[121.292339,23.696875],[121.292536,23.696787],[121.29254,23.696516],[121.292838,23.696248],[121.293524,23.696256],[121.293624,23.696076],[121.294115,23.696082],[121.294116,23.695991],[121.295291,23.696095],[121.295786,23.695739],[121.296276,23.695744],[121.296277,23.695654],[121.296965,23.695571],[121.296966,23.695481],[121.297161,23.695573],[121.297359,23.695395],[121.297366,23.694853],[121.297464,23.694854],[121.297768,23.694135],[121.298063,23.694048],[121.298067,23.693777],[121.29846,23.693691],[121.298462,23.693511],[121.29856,23.693512],[121.298562,23.693422],[121.298269,23.693328],[121.298369,23.693149],[121.298565,23.693151],[121.29857,23.69279],[121.298375,23.692697],[121.298378,23.692426],[121.298083,23.692513],[121.297889,23.692331],[121.297893,23.69206],[121.297795,23.692059],[121.297702,23.691697],[121.297507,23.691604],[121.297511,23.691243],[121.297609,23.691244],[121.297522,23.69043],[121.298117,23.689895],[121.298607,23.6899],[121.298708,23.689721],[121.300963,23.689746],[121.301058,23.689927],[121.30145,23.689932],[121.301449,23.690022],[121.301743,23.690025],[121.301742,23.690116],[121.302035,23.690209],[121.302036,23.690119],[121.302429,23.690123],[121.302529,23.689944],[121.303119,23.689769],[121.30332,23.68941],[121.303812,23.689325],[121.303912,23.689146],[121.304599,23.689063],[121.304793,23.689246],[121.304894,23.689066],[121.305189,23.688979],[121.305191,23.688799],[121.30539,23.68862],[121.305586,23.688623],[121.305686,23.688443],[121.306179,23.688268],[121.306378,23.687999],[121.306966,23.688006],[121.306965,23.688096],[121.307356,23.68819],[121.307558,23.687741],[121.307755,23.687653],[121.307758,23.687472],[121.307466,23.687289],[121.307665,23.68702],[121.308059,23.686934],[121.308253,23.687117],[121.308256,23.686846],[121.308649,23.68676],[121.308651,23.686669],[121.308844,23.686852],[121.309235,23.686947],[121.309236,23.686856],[121.309432,23.686859],[121.309435,23.686678],[121.309731,23.686501],[121.309833,23.686231],[121.310713,23.686421],[121.310716,23.68615],[121.310523,23.685967],[121.310528,23.685516],[121.310826,23.685248],[121.310829,23.684978],[121.311516,23.684985],[121.311903,23.68535],[121.312295,23.685355],[121.312391,23.685536],[121.312783,23.685541],[121.313364,23.686089],[121.313166,23.686267],[121.313163,23.686538],[121.313555,23.686542],[121.313749,23.686725],[121.313735,23.687809],[121.313537,23.687897],[121.313527,23.688709],[121.313232,23.688796],[121.312933,23.689154],[121.312739,23.688972],[121.312542,23.68906],[121.312638,23.689241],[121.312439,23.68942],[121.312335,23.68987],[121.311842,23.690136],[121.311933,23.690678],[121.311737,23.690676],[121.311732,23.691037],[121.311535,23.691126],[121.311528,23.691667],[121.310734,23.692381],[121.31044,23.692378],[121.310441,23.692288],[121.310146,23.692375],[121.310145,23.692465],[121.30946,23.692367],[121.309458,23.692457],[121.309164,23.692454],[121.308867,23.692722],[121.308081,23.692804],[121.308079,23.692984],[121.308468,23.693259],[121.308269,23.693438],[121.307975,23.693435],[121.306983,23.694327],[121.306968,23.6955],[121.307163,23.695593],[121.306964,23.695771],[121.306955,23.696494],[121.306856,23.696583],[121.306267,23.696576],[121.306167,23.696756],[121.305481,23.696748],[121.304191,23.697908],[121.304185,23.69836],[121.303988,23.698448],[121.303982,23.698899],[121.303785,23.698987],[121.303781,23.699258],[121.303584,23.699346],[121.303579,23.699707],[121.302686,23.70051],[121.302294,23.700506],[121.302194,23.700685],[121.29935,23.700654],[121.299255,23.700473],[121.297686,23.700455],[121.297586,23.700635],[121.297291,23.700632],[121.297191,23.700811],[121.296897,23.700808],[121.296302,23.701343],[121.295909,23.701339],[121.295809,23.701518],[121.294927,23.701509],[121.294736,23.701055],[121.294344,23.701051],[121.294341,23.701322],[121.294243,23.70132],[121.294338,23.701502],[121.294044,23.701499]],[[121.296016,23.700708],[121.296507,23.700623],[121.296509,23.700442],[121.296805,23.700355],[121.296807,23.700175],[121.296611,23.700173],[121.296214,23.700529],[121.295823,23.700435],[121.295824,23.700345],[121.29553,23.700341],[121.295626,23.700523],[121.29592,23.700526],[121.296016,23.700708]],[[121.294646,23.700422],[121.294745,23.700423],[121.294747,23.700242],[121.294552,23.70015],[121.294646,23.700422]],[[121.294941,23.700425],[121.295137,23.700427],[121.295138,23.700337],[121.294942,23.700335],[121.294941,23.700425]],[[121.295334,23.700339],[121.29553,23.700341],[121.295531,23.700251],[121.295336,23.700159],[121.295334,23.700339]],[[121.294356,23.700148],[121.294453,23.700239],[121.294454,23.700149],[121.294356,23.700148]],[[121.296904,23.700266],[121.297492,23.700273],[121.297496,23.700002],[121.2973,23.7],[121.297298,23.70009],[121.297104,23.699997],[121.296904,23.700266]],[[121.297788,23.700186],[121.298083,23.700099],[121.298184,23.699829],[121.297988,23.699827],[121.29779,23.700005],[121.297788,23.700186]],[[121.29838,23.699831],[121.298577,23.699833],[121.298578,23.699743],[121.298382,23.699741],[121.29838,23.699831]],[[121.298578,23.699743],[121.299068,23.699748],[121.299168,23.699569],[121.299364,23.699571],[121.299466,23.699301],[121.29927,23.699299],[121.299271,23.699209],[121.298976,23.699296],[121.299072,23.699477],[121.298678,23.699563],[121.298578,23.699743]],[[121.302697,23.699698],[121.302991,23.699701],[121.302897,23.699429],[121.303192,23.699342],[121.302804,23.698976],[121.302706,23.698975],[121.302704,23.699156],[121.302802,23.699157],[121.3028,23.699338],[121.302702,23.699337],[121.302796,23.699609],[121.302697,23.699698]],[[121.30309,23.699612],[121.303187,23.699703],[121.303188,23.699613],[121.30309,23.699612]],[[121.292995,23.69923],[121.293092,23.699321],[121.293093,23.699231],[121.292995,23.69923]],[[121.299662,23.699303],[121.299859,23.699215],[121.299763,23.699124],[121.299863,23.698944],[121.300059,23.698946],[121.300259,23.698678],[121.300751,23.698502],[121.301149,23.698055],[121.300855,23.698052],[121.300655,23.698321],[121.300459,23.698319],[121.299963,23.698765],[121.299472,23.69885],[121.299662,23.699303]],[[121.301822,23.699146],[121.30192,23.699147],[121.301922,23.698967],[121.301824,23.698966],[121.301822,23.699146]],[[121.301334,23.69896],[121.30163,23.698783],[121.301438,23.69851],[121.301141,23.698687],[121.301334,23.69896]],[[121.301149,23.698055],[121.301641,23.69797],[121.301642,23.69788],[121.30125,23.697876],[121.301149,23.698055]],[[121.302426,23.697889],[121.302523,23.69798],[121.302524,23.69789],[121.302426,23.697889]],[[121.29978,23.697769],[121.299877,23.697861],[121.299878,23.69777],[121.29978,23.697769]],[[121.301742,23.697701],[121.301938,23.697703],[121.302236,23.697435],[121.302239,23.697164],[121.301746,23.69743],[121.301742,23.697701]],[[121.297733,23.696844],[121.298028,23.696757],[121.29803,23.696576],[121.297837,23.696394],[121.29754,23.696571],[121.297733,23.696844]],[[121.297838,23.696303],[121.298134,23.696126],[121.297942,23.695853],[121.297645,23.69603],[121.297838,23.696303]],[[121.298834,23.69514],[121.29893,23.695232],[121.298932,23.695141],[121.298834,23.69514]],[[121.298451,23.694414],[121.298745,23.694417],[121.298845,23.694237],[121.298551,23.694234],[121.298451,23.694414]],[[121.29985,23.692352],[121.300144,23.692355],[121.300343,23.692177],[121.300248,23.691905],[121.300347,23.691816],[121.30064,23.691909],[121.300741,23.69173],[121.299565,23.691627],[121.299567,23.691536],[121.299173,23.691622],[121.298883,23.691348],[121.298687,23.691346],[121.299074,23.691712],[121.299072,23.691892],[121.29927,23.691714],[121.299563,23.691807],[121.29966,23.691899],[121.299558,23.692168],[121.299851,23.692262],[121.29985,23.692352]],[[121.299267,23.691985],[121.299364,23.692076],[121.299365,23.691986],[121.299267,23.691985]],[[121.308291,23.691722],[121.308388,23.691814],[121.308389,23.691723],[121.308291,23.691722]],[[121.308687,23.691456],[121.308784,23.691547],[121.308785,23.691457],[121.308687,23.691456]],[[121.298492,23.691254],[121.298589,23.691345],[121.29859,23.691255],[121.298492,23.691254]],[[121.30928,23.691101],[121.309377,23.691192],[121.309378,23.691102],[121.30928,23.691101]],[[121.30193,23.69075],[121.302225,23.690663],[121.302227,23.690572],[121.301445,23.690383],[121.30154,23.690565],[121.301736,23.690567],[121.30193,23.69075]],[[121.306176,23.688448],[121.306273,23.68854],[121.306274,23.688449],[121.306176,23.688448]],[[121.312957,23.687258],[121.313254,23.687081],[121.313061,23.686808],[121.312765,23.686985],[121.312957,23.687258]]]}},{"type":"Feature","properties":{"kind":"water","month":"2026-04","area_ha":2.98},"geometry":{"type":"MultiPolygon","coordinates":[[[[121.290759,23.69776],[121.290564,23.697668],[121.290572,23.697036],[121.29077,23.696857],[121.290674,23.696766],[121.290676,23.696586],[121.290774,23.696587],[121.290682,23.696134],[121.289995,23.696127],[121.289803,23.695854],[121.289607,23.695851],[121.2897,23.696214],[121.289504,23.696211],[121.289399,23.696752],[121.289691,23.696936],[121.289881,23.697389],[121.290462,23.697938],[121.290756,23.697941],[121.290759,23.69776]]],[[[121.301742,23.697701],[121.302236,23.697435],[121.302239,23.697164],[121.301746,23.69743],[121.301742,23.697701]]],[[[121.301641,23.69797],[121.301642,23.69788],[121.30125,23.697876],[121.301149,23.698055],[121.301641,23.69797]]],[[[121.300756,23.698141],[121.300754,23.698322],[121.300459,23.698319],[121.299963,23.698765],[121.299472,23.69885],[121.29947,23.69903],[121.300059,23.698946],[121.300259,23.698678],[121.300751,23.698502],[121.301149,23.698055],[121.300756,23.698141]]],[[[121.299271,23.699209],[121.299172,23.699298],[121.29927,23.699299],[121.299271,23.699209]]],[[[121.299073,23.699387],[121.298972,23.699567],[121.298678,23.699563],[121.298676,23.699744],[121.299068,23.699748],[121.299168,23.699569],[121.299364,23.699571],[121.299366,23.699481],[121.29917,23.699478],[121.299172,23.699298],[121.298976,23.699296],[121.299073,23.699387]]],[[[121.2973,23.7],[121.297298,23.70009],[121.297104,23.699997],[121.297101,23.700178],[121.296905,23.700176],[121.296904,23.700266],[121.297492,23.700273],[121.297496,23.700002],[121.2973,23.7]]],[[[121.296609,23.700353],[121.296805,23.700355],[121.296807,23.700175],[121.296611,23.700173],[121.296609,23.700353]]],[[[121.296214,23.700529],[121.295921,23.700436],[121.295919,23.700617],[121.296212,23.70071],[121.296213,23.70062],[121.296507,23.700623],[121.296609,23.700353],[121.296413,23.700351],[121.296214,23.700529]]]]}}]}