{"type":"FeatureCollection","features":[{"type":"Feature","properties":{"kind":"bare_slide","month":"2026-05","area_ha":448.46},"geometry":{"type":"MultiPolygon","coordinates":[[[[121.283662,23.715561],[121.283958,23.715384],[121.283962,23.715113],[121.284356,23.714937],[121.28397,23.714481],[121.284367,23.714124],[121.284369,23.713943],[121.284568,23.713765],[121.284472,23.713583],[121.284174,23.713851],[121.28388,23.713848],[121.282987,23.71465],[121.282981,23.715102],[121.283274,23.715195],[121.283272,23.715376],[121.283465,23.715559],[121.283662,23.715561]],[[121.283675,23.714568],[121.283676,23.714478],[121.283872,23.71448],[121.283871,23.71457],[121.283675,23.714568]]],[[[121.282844,23.71808],[121.28294,23.718262],[121.282741,23.71844],[121.282545,23.718438],[121.282445,23.718618],[121.281954,23.718612],[121.281854,23.718792],[121.28146,23.718878],[121.281556,23.719059],[121.28195,23.718973],[121.282043,23.719336],[121.282334,23.71961],[121.282727,23.719524],[121.282635,23.719071],[121.28293,23.718984],[121.282836,23.718712],[121.283227,23.718807],[121.283224,23.718987],[121.283126,23.718986],[121.283222,23.719168],[121.283619,23.718811],[121.283722,23.718451],[121.283625,23.71836],[121.28333,23.718447],[121.283332,23.718266],[121.283627,23.718179],[121.283631,23.717908],[121.283437,23.717726],[121.283734,23.717548],[121.283736,23.717368],[121.283932,23.71737],[121.283933,23.71728],[121.284226,23.717373],[121.284425,23.717195],[121.284329,23.717013],[121.284133,23.717011],[121.284235,23.716741],[121.284333,23.716742],[121.28414,23.716469],[121.283846,23.716466],[121.283646,23.716735],[121.283058,23.716728],[121.283057,23.716818],[121.282761,23.716905],[121.282758,23.717176],[121.283051,23.71727],[121.282947,23.71772],[121.282849,23.717719],[121.283041,23.717992],[121.282844,23.71808]],[[121.282635,23.719071],[121.282538,23.71898],[121.282636,23.718981],[121.282635,23.719071]],[[121.283227,23.718807],[121.283326,23.718718],[121.283325,23.718808],[121.283227,23.718807]],[[121.283435,23.717906],[121.283239,23.717904],[121.28324,23.717814],[121.283436,23.717816],[121.283435,23.717906]],[[121.283042,23.717902],[121.283142,23.717813],[121.283141,23.717903],[121.283042,23.717902]],[[121.282736,23.718801],[121.28264,23.71871],[121.282738,23.718711],[121.282736,23.718801]],[[121.283235,23.718175],[121.283138,23.718083],[121.283236,23.718085],[121.283235,23.718175]]],[[[121.284786,23.719547],[121.285086,23.719098],[121.284989,23.719007],[121.284792,23.719095],[121.284406,23.718639],[121.28421,23.718637],[121.283912,23.718905],[121.28371,23.719354],[121.283905,23.719446],[121.284103,23.719268],[121.284296,23.719541],[121.284786,23.719547]]],[[[121.280774,23.71887],[121.280476,23.719138],[121.280084,23.719133],[121.280083,23.719223],[121.279398,23.719126],[121.279297,23.719305],[121.279688,23.7194],[121.279587,23.719669],[121.279979,23.719674],[121.279977,23.719854],[121.280173,23.719857],[121.280277,23.719406],[121.280473,23.719408],[121.280468,23.719769],[121.280663,23.719862],[121.280563,23.720041],[121.280857,23.720045],[121.281059,23.719595],[121.281456,23.719239],[121.281458,23.719058],[121.281361,23.718967],[121.281164,23.719055],[121.281068,23.718873],[121.280774,23.71887]],[[121.281164,23.719055],[121.281065,23.719144],[121.281066,23.719054],[121.281164,23.719055]]],[[[121.283991,23.72035],[121.28429,23.719993],[121.284095,23.7199],[121.284097,23.71972],[121.283807,23.719445],[121.283611,23.719443],[121.283509,23.719713],[121.2838,23.719987],[121.283698,23.720257],[121.283991,23.72035]]],[[[121.285635,23.722175],[121.285537,23.722174],[121.285539,23.721993],[121.285637,23.721994],[121.285542,23.721722],[121.285642,23.721633],[121.285447,23.72154],[121.285449,23.72136],[121.285646,23.721272],[121.28565,23.721001],[121.285455,23.720908],[121.285257,23.721087],[121.285349,23.721539],[121.285051,23.721807],[121.284956,23.721535],[121.285154,23.721447],[121.285156,23.721266],[121.285058,23.721265],[121.284964,23.720993],[121.285162,23.720815],[121.285065,23.720724],[121.284868,23.720812],[121.284772,23.72063],[121.284575,23.720718],[121.284778,23.720179],[121.284681,23.720087],[121.284386,23.720174],[121.284088,23.720442],[121.284086,23.720622],[121.284184,23.720623],[121.284278,23.720895],[121.284474,23.720898],[121.28457,23.721079],[121.284863,23.721173],[121.28476,23.721533],[121.284563,23.721621],[121.284559,23.721892],[121.284461,23.721891],[121.284654,23.722164],[121.284162,23.722249],[121.284453,23.722523],[121.284159,23.722519],[121.283868,23.722245],[121.283672,23.722243],[121.283572,23.722423],[121.283768,23.722425],[121.283765,23.722605],[121.283962,23.722608],[121.283959,23.722788],[121.284157,23.7227],[121.284153,23.722971],[121.285526,23.722986],[121.285524,23.723167],[121.28572,23.723169],[121.285717,23.723349],[121.286113,23.723083],[121.286306,23.723356],[121.286502,23.723358],[121.286598,23.72354],[121.286794,23.723542],[121.287084,23.723816],[121.287187,23.723456],[121.286993,23.723273],[121.286406,23.723176],[121.286117,23.722812],[121.285921,23.72281],[121.285728,23.722537],[121.285435,23.722443],[121.285635,23.722175]],[[121.285532,23.722535],[121.285433,23.722624],[121.285434,23.722534],[121.285532,23.722535]],[[121.285437,23.722263],[121.285236,23.722622],[121.28504,23.72262],[121.285045,23.722258],[121.284754,23.721984],[121.284757,23.721804],[121.284951,23.721986],[121.285147,23.721989],[121.285144,23.722169],[121.285437,23.722263]],[[121.284743,23.722887],[121.284646,23.722796],[121.284744,23.722797],[121.284743,23.722887]]],[[[121.28759,23.722648],[121.287888,23.72238],[121.287798,23.721747],[121.287604,23.721564],[121.287408,23.721562],[121.287011,23.721919],[121.287009,23.7221],[121.287204,23.722192],[121.2872,23.722463],[121.287394,23.722646],[121.28759,23.722648]]],[[[121.290783,23.726024],[121.290979,23.726026],[121.29098,23.725936],[121.290784,23.725934],[121.290783,23.726024]]],[[[121.309841,23.700859],[121.310035,23.700952],[121.310234,23.700773],[121.310236,23.700593],[121.310138,23.700592],[121.310045,23.70023],[121.309559,23.699863],[121.30946,23.699952],[121.309454,23.700404],[121.309648,23.700586],[121.309644,23.700857],[121.309546,23.700856],[121.309639,23.701309],[121.309836,23.701221],[121.309841,23.700859]]],[[[121.289714,23.7252],[121.289814,23.72511],[121.289521,23.725017],[121.289322,23.725195],[121.289417,23.725467],[121.289223,23.725285],[121.288733,23.725279],[121.288632,23.725459],[121.288828,23.725461],[121.288826,23.725641],[121.290395,23.725659],[121.290393,23.725839],[121.290884,23.725754],[121.291077,23.726027],[121.291468,23.726122],[121.291562,23.726394],[121.293525,23.726325],[121.293527,23.726145],[121.29392,23.726149],[121.293922,23.725969],[121.29451,23.725975],[121.294513,23.725794],[121.294905,23.725799],[121.294903,23.725979],[121.295393,23.725985],[121.295593,23.725716],[121.295884,23.7259],[121.295986,23.72563],[121.296084,23.725631],[121.296082,23.725812],[121.296276,23.725994],[121.296473,23.725906],[121.29647,23.726087],[121.296664,23.72627],[121.297057,23.726274],[121.297157,23.726094],[121.297353,23.726097],[121.297547,23.726279],[121.297639,23.726732],[121.298334,23.726107],[121.29853,23.72611],[121.298917,23.726475],[121.299012,23.726747],[121.299306,23.72675],[121.299506,23.726482],[121.299702,23.726484],[121.299701,23.726574],[121.30019,23.72667],[121.300286,23.726851],[121.300581,23.726764],[121.300677,23.726946],[121.300873,23.726948],[121.300973,23.726769],[121.300487,23.726492],[121.300492,23.726041],[121.300104,23.725766],[121.300009,23.725494],[121.300501,23.725409],[121.300603,23.725049],[121.300996,23.725053],[121.300797,23.725232],[121.300795,23.725412],[121.300989,23.725595],[121.301283,23.725598],[121.301766,23.726145],[121.301962,23.726147],[121.302065,23.725787],[121.302362,23.72561],[121.302464,23.72525],[121.30286,23.724983],[121.302865,23.724622],[121.303357,23.724447],[121.303451,23.724809],[121.303743,23.724993],[121.30374,23.725174],[121.303934,23.725356],[121.30413,23.725358],[121.304224,23.725721],[121.304417,23.725903],[121.304615,23.725815],[121.304518,23.725724],[121.304621,23.725364],[121.304328,23.72527],[121.304331,23.724999],[121.304038,23.724906],[121.30365,23.72454],[121.303654,23.72427],[121.30346,23.724087],[121.303166,23.724084],[121.303168,23.723903],[121.303463,23.723906],[121.303564,23.723637],[121.304059,23.723281],[121.303576,23.722734],[121.304263,23.722651],[121.304457,23.722834],[121.304849,23.722838],[121.305048,23.72266],[121.30505,23.722479],[121.30476,23.722205],[121.304561,23.722383],[121.304365,23.722381],[121.304366,23.722291],[121.303482,23.722371],[121.303484,23.722281],[121.303189,23.722278],[121.303094,23.722096],[121.302896,23.722184],[121.302801,23.722003],[121.302604,23.722001],[121.302439,23.719651],[121.302637,23.719473],[121.302641,23.719202],[121.303033,23.719206],[121.303135,23.718936],[121.303331,23.718938],[121.304323,23.718046],[121.304812,23.718142],[121.30461,23.718591],[121.304901,23.718865],[121.304896,23.719226],[121.305287,23.719321],[121.30539,23.718961],[121.305099,23.718687],[121.305006,23.718325],[121.305204,23.718146],[121.3054,23.718148],[121.305601,23.717789],[121.305892,23.718064],[121.306079,23.718788],[121.306372,23.718881],[121.306373,23.718791],[121.306668,23.718704],[121.306575,23.718342],[121.306871,23.718165],[121.306874,23.717984],[121.307072,23.717806],[121.307268,23.717808],[121.307269,23.717717],[121.307858,23.717724],[121.307955,23.717815],[121.308252,23.717548],[121.308059,23.717365],[121.307567,23.71745],[121.307276,23.717176],[121.306884,23.717171],[121.306495,23.716896],[121.306005,23.716891],[121.30601,23.71653],[121.306108,23.716531],[121.306111,23.71626],[121.306309,23.716172],[121.306312,23.715901],[121.306802,23.715906],[121.307002,23.715638],[121.307198,23.71564],[121.307397,23.715461],[121.3076,23.714922],[121.307212,23.714556],[121.307216,23.714285],[121.307314,23.714286],[121.307316,23.714106],[121.307906,23.714022],[121.308303,23.713665],[121.308012,23.713391],[121.308015,23.71312],[121.308313,23.712853],[121.308315,23.712672],[121.308514,23.712494],[121.308517,23.712223],[121.308813,23.712136],[121.308814,23.712045],[121.309108,23.712049],[121.309109,23.711958],[121.309402,23.712052],[121.309403,23.711962],[121.309797,23.711876],[121.309995,23.711697],[121.309999,23.711426],[121.310097,23.711427],[121.310003,23.711065],[121.309809,23.710882],[121.309418,23.710788],[121.309128,23.710514],[121.309232,23.710063],[121.309529,23.709796],[121.309335,23.709613],[121.309339,23.709342],[121.309536,23.709254],[121.309445,23.708711],[121.30974,23.708624],[121.309746,23.708173],[121.309649,23.708081],[121.309158,23.708166],[121.309062,23.707985],[121.308768,23.707981],[121.308677,23.707439],[121.308775,23.70744],[121.308777,23.707259],[121.309073,23.707172],[121.309178,23.706631],[121.308984,23.706449],[121.308788,23.706447],[121.30879,23.706266],[121.308595,23.706174],[121.308698,23.705813],[121.308406,23.70563],[121.308411,23.705269],[121.308216,23.705176],[121.308218,23.704996],[121.308023,23.704903],[121.308027,23.704632],[121.307833,23.70445],[121.307935,23.70418],[121.308033,23.704181],[121.308037,23.70382],[121.308135,23.703821],[121.308048,23.703007],[121.307853,23.702915],[121.308051,23.702736],[121.308054,23.702556],[121.307859,23.702463],[121.307863,23.702102],[121.307765,23.702101],[121.307868,23.701741],[121.307966,23.701742],[121.307874,23.701289],[121.307972,23.701291],[121.307975,23.70102],[121.308073,23.701021],[121.307976,23.700929],[121.308079,23.700569],[121.307981,23.700568],[121.307986,23.700207],[121.307888,23.700206],[121.308086,23.700028],[121.307996,23.699395],[121.308094,23.699396],[121.308097,23.699215],[121.308293,23.699217],[121.308485,23.69949],[121.308684,23.699312],[121.308394,23.698947],[121.308493,23.698858],[121.308497,23.698587],[121.308302,23.698495],[121.308404,23.698225],[121.308111,23.698132],[121.308506,23.697865],[121.308416,23.697232],[121.308318,23.697231],[121.308128,23.696777],[121.308029,23.696867],[121.307442,23.69677],[121.307443,23.69668],[121.307738,23.696592],[121.30774,23.696412],[121.308237,23.695966],[121.308142,23.695694],[121.308044,23.695693],[121.308244,23.695424],[121.307952,23.69524],[121.307859,23.694788],[121.307761,23.694787],[121.307862,23.694607],[121.307667,23.694515],[121.307866,23.694246],[121.307377,23.69415],[121.306981,23.694507],[121.306968,23.6955],[121.307163,23.695593],[121.306964,23.695771],[121.306955,23.696494],[121.306856,23.696583],[121.306267,23.696576],[121.306167,23.696756],[121.305481,23.696748],[121.304191,23.697908],[121.304185,23.69836],[121.303988,23.698448],[121.303982,23.698899],[121.303785,23.698987],[121.303781,23.699258],[121.303584,23.699346],[121.303579,23.699707],[121.302985,23.700152],[121.302972,23.701146],[121.302675,23.701413],[121.302086,23.701407],[121.301986,23.701586],[121.299633,23.70156],[121.299537,23.701379],[121.299341,23.701377],[121.299339,23.701557],[121.298942,23.701914],[121.298651,23.70164],[121.298357,23.701637],[121.298157,23.701905],[121.297864,23.701812],[121.297764,23.701991],[121.297568,23.701989],[121.297182,23.701533],[121.297081,23.701713],[121.296688,23.701799],[121.296588,23.701978],[121.296391,23.701976],[121.295996,23.702243],[121.295995,23.702333],[121.296191,23.702335],[121.296089,23.702605],[121.296284,23.702697],[121.296278,23.703149],[121.29618,23.703148],[121.296078,23.703418],[121.29637,23.703601],[121.296368,23.703782],[121.29627,23.703781],[121.296363,23.704143],[121.295969,23.704319],[121.295966,23.7045],[121.295868,23.704499],[121.295964,23.70468],[121.295767,23.704769],[121.295861,23.705041],[121.295565,23.705218],[121.295562,23.705398],[121.29566,23.7054],[121.295462,23.705578],[121.295557,23.70585],[121.295655,23.705851],[121.295553,23.706121],[121.295456,23.706029],[121.295259,23.706117],[121.295353,23.706389],[121.294958,23.706656],[121.294954,23.706927],[121.294561,23.707013],[121.294755,23.707196],[121.294652,23.707556],[121.294356,23.707643],[121.294255,23.707912],[121.294157,23.707911],[121.294254,23.708003],[121.294242,23.708906],[121.294046,23.708903],[121.294045,23.708994],[121.293849,23.708992],[121.293453,23.709258],[121.293251,23.709707],[121.292954,23.709885],[121.293049,23.710157],[121.292553,23.710603],[121.292549,23.710873],[121.292353,23.710871],[121.292155,23.71105],[121.292052,23.71141],[121.291757,23.711497],[121.291753,23.711768],[121.291455,23.712035],[121.291453,23.712216],[121.291158,23.712303],[121.29086,23.71257],[121.290858,23.712751],[121.290659,23.712929],[121.290463,23.712927],[121.290165,23.713195],[121.290163,23.713375],[121.289173,23.714087],[121.289169,23.714358],[121.288875,23.714355],[121.288774,23.714624],[121.288478,23.714711],[121.288477,23.714802],[121.288085,23.714797],[121.288284,23.714529],[121.288091,23.714346],[121.287797,23.714343],[121.287798,23.714252],[121.287505,23.714159],[121.287405,23.714248],[121.287499,23.71461],[121.287791,23.714794],[121.287788,23.714975],[121.287982,23.715157],[121.287395,23.715061],[121.287396,23.71497],[121.286906,23.714965],[121.286814,23.714512],[121.286226,23.714415],[121.286225,23.714506],[121.28593,23.714593],[121.286026,23.714774],[121.286417,23.714869],[121.286215,23.715318],[121.285919,23.715405],[121.285819,23.715585],[121.285525,23.715582],[121.285226,23.715939],[121.284635,23.716114],[121.285023,23.716479],[121.285018,23.71684],[121.284821,23.716928],[121.284816,23.717289],[121.285207,23.717384],[121.285104,23.717744],[121.285298,23.717927],[121.285494,23.717929],[121.285685,23.718292],[121.285881,23.718295],[121.285981,23.718205],[121.285885,23.718024],[121.286179,23.718027],[121.286477,23.717759],[121.286284,23.717486],[121.28648,23.717488],[121.286581,23.717309],[121.286777,23.717311],[121.286976,23.717133],[121.28688,23.716951],[121.286684,23.716949],[121.286583,23.717128],[121.286387,23.717126],[121.286388,23.717036],[121.286191,23.717124],[121.286197,23.716673],[121.286099,23.716672],[121.2862,23.716402],[121.286104,23.71631],[121.286202,23.716311],[121.286302,23.716132],[121.28679,23.716318],[121.287187,23.715961],[121.287285,23.715962],[121.287378,23.716325],[121.287576,23.716236],[121.287769,23.716419],[121.28767,23.716508],[121.287767,23.7166],[121.287661,23.717231],[121.287954,23.717324],[121.288048,23.717596],[121.288246,23.717508],[121.288151,23.717236],[121.288347,23.717238],[121.288344,23.717509],[121.288442,23.71751],[121.288339,23.71787],[121.288726,23.718236],[121.288923,23.718238],[121.289023,23.718058],[121.289512,23.718154],[121.289407,23.718695],[121.2897,23.718788],[121.289795,23.71906],[121.289598,23.719058],[121.2894,23.719236],[121.289398,23.719417],[121.289593,23.719509],[121.28959,23.71969],[121.289393,23.719778],[121.289386,23.72032],[121.289581,23.720412],[121.289572,23.721044],[121.289961,23.72132],[121.290053,23.721772],[121.289954,23.721861],[121.289661,23.721768],[121.289557,23.722218],[121.289259,23.722486],[121.289749,23.722581],[121.289942,23.722764],[121.289938,23.723125],[121.28974,23.723213],[121.289738,23.723394],[121.289933,23.723486],[121.289929,23.723757],[121.290416,23.724034],[121.290218,23.724212],[121.290312,23.724484],[121.290114,23.724662],[121.290308,23.724845],[121.290505,23.724757],[121.29051,23.724396],[121.290707,23.724308],[121.29071,23.724037],[121.290907,23.724039],[121.290903,23.72431],[121.291195,23.724494],[121.291093,23.724763],[121.290401,23.725207],[121.290495,23.725479],[121.290299,23.725477],[121.290205,23.725205],[121.290009,23.725203],[121.289908,23.725382],[121.289714,23.7252]],[[121.305601,23.717789],[121.305504,23.717698],[121.305602,23.717699],[121.305601,23.717789]],[[121.307854,23.702824],[121.307757,23.702733],[121.307855,23.702734],[121.307854,23.702824]],[[121.307889,23.700116],[121.307495,23.700202],[121.307498,23.700021],[121.30789,23.700025],[121.307889,23.700116]],[[121.307178,23.694419],[121.307275,23.69451],[121.307177,23.694509],[121.307178,23.694419]],[[121.303579,23.699707],[121.303676,23.699799],[121.303578,23.699798],[121.303579,23.699707]],[[121.285114,23.717022],[121.285408,23.717025],[121.285405,23.717206],[121.28511,23.717293],[121.285114,23.717022]],[[121.286203,23.716221],[121.286106,23.71613],[121.286204,23.716131],[121.286203,23.716221]],[[121.287187,23.715961],[121.28709,23.71587],[121.287188,23.715871],[121.287187,23.715961]],[[121.2897,23.718788],[121.289799,23.718699],[121.289798,23.718789],[121.2897,23.718788]],[[121.291195,23.724494],[121.291294,23.724404],[121.291293,23.724495],[121.291195,23.724494]],[[121.289908,23.725382],[121.290005,23.725474],[121.289907,23.725473],[121.289908,23.725382]],[[121.292054,23.726309],[121.292056,23.726129],[121.292154,23.72613],[121.292152,23.72631],[121.292054,23.726309]],[[121.291471,23.725851],[121.291474,23.725671],[121.291572,23.725672],[121.291569,23.725852],[121.291471,23.725851]],[[121.300003,23.725945],[121.299906,23.725854],[121.300004,23.725855],[121.300003,23.725945]],[[121.292257,23.72577],[121.29187,23.725404],[121.292164,23.725407],[121.292257,23.72577]],[[121.293043,23.725688],[121.292946,23.725597],[121.293044,23.725598],[121.293043,23.725688]],[[121.29962,23.725219],[121.299523,23.725127],[121.299622,23.725128],[121.29962,23.725219]],[[121.301689,23.724519],[121.301792,23.724159],[121.302478,23.724166],[121.30237,23.724978],[121.301783,23.724881],[121.301787,23.72452],[121.301689,23.724519]],[[121.293055,23.724785],[121.293057,23.724604],[121.293155,23.724606],[121.293153,23.724786],[121.293055,23.724785]],[[121.293645,23.724611],[121.293742,23.724702],[121.293644,23.724701],[121.293645,23.724611]],[[121.29375,23.72407],[121.293849,23.724071],[121.293841,23.724613],[121.293743,23.724612],[121.29375,23.72407]],[[121.301302,23.724153],[121.301205,23.724062],[121.301303,23.724063],[121.301302,23.724153]],[[121.301794,23.723978],[121.301697,23.723887],[121.301795,23.723888],[121.301794,23.723978]],[[121.301799,23.723617],[121.301702,23.723526],[121.3018,23.723527],[121.301799,23.723617]],[[121.294055,23.723261],[121.293958,23.72317],[121.294056,23.723171],[121.294055,23.723261]],[[121.301714,23.722623],[121.30221,23.722177],[121.302502,23.722361],[121.302596,23.722633],[121.302794,23.722544],[121.302797,23.722274],[121.302993,23.722276],[121.30299,23.722547],[121.302892,23.722546],[121.302984,23.722998],[121.302496,23.722812],[121.3019,23.723347],[121.301707,23.723165],[121.301714,23.722623]],[[121.290925,23.722594],[121.290732,23.722412],[121.290836,23.721961],[121.290934,23.721962],[121.290839,23.72169],[121.291035,23.721693],[121.291235,23.721424],[121.291724,23.72152],[121.291819,23.721792],[121.291521,23.722059],[121.291225,23.722146],[121.291516,23.72242],[121.291514,23.722601],[121.290925,23.722594]],[[121.291516,23.72242],[121.291615,23.722331],[121.291614,23.722421],[121.291516,23.72242]],[[121.289751,23.722401],[121.289654,23.722309],[121.289752,23.722311],[121.289751,23.722401]],[[121.294854,23.722186],[121.294757,23.722095],[121.294855,23.722096],[121.294854,23.722186]],[[121.293291,23.721718],[121.292516,23.720987],[121.29252,23.720625],[121.292917,23.720269],[121.293408,23.720274],[121.293409,23.720184],[121.293802,23.720098],[121.294101,23.71974],[121.294297,23.719742],[121.294588,23.720016],[121.294585,23.720197],[121.294288,23.720464],[121.294385,23.720556],[121.294283,23.720825],[121.293988,23.720913],[121.294186,23.720734],[121.293992,23.720551],[121.293794,23.72073],[121.293888,23.721002],[121.293691,23.72109],[121.293788,23.721181],[121.293685,23.721541],[121.293487,23.72172],[121.293291,23.721718]],[[121.294666,23.721552],[121.294569,23.721461],[121.294667,23.721462],[121.294666,23.721552]],[[121.294374,23.721368],[121.294177,23.721456],[121.294181,23.721095],[121.294378,23.721097],[121.294374,23.721368]],[[121.301948,23.719646],[121.301846,23.720006],[121.301548,23.720273],[121.301654,23.719642],[121.301948,23.719646]],[[121.296451,23.720037],[121.296354,23.719945],[121.296452,23.719946],[121.296451,23.720037]],[[121.295971,23.719219],[121.296166,23.719311],[121.296269,23.718951],[121.296367,23.718952],[121.296459,23.719405],[121.296066,23.719491],[121.295969,23.719399],[121.295971,23.719219]],[[121.295479,23.719394],[121.29548,23.719304],[121.295676,23.719306],[121.295675,23.719396],[121.295479,23.719394]],[[121.296557,23.719406],[121.29656,23.719225],[121.296658,23.719226],[121.296655,23.719407],[121.296557,23.719406]],[[121.295776,23.719126],[121.29578,23.718855],[121.295878,23.718856],[121.295874,23.719127],[121.295776,23.719126]],[[121.294895,23.719026],[121.294896,23.718936],[121.295092,23.718938],[121.295091,23.719028],[121.294895,23.719026]],[[121.294702,23.718753],[121.294704,23.718663],[121.2949,23.718665],[121.294898,23.718755],[121.294702,23.718753]],[[121.295193,23.718759],[121.295096,23.718667],[121.295194,23.718668],[121.295193,23.718759]],[[121.296272,23.71868],[121.296275,23.7185],[121.296373,23.718501],[121.296371,23.718681],[121.296272,23.71868]],[[121.295489,23.718581],[121.295492,23.718401],[121.295688,23.718403],[121.295685,23.718583],[121.295489,23.718581]],[[121.289901,23.718429],[121.289804,23.718338],[121.289902,23.718339],[121.289901,23.718429]],[[121.296178,23.718408],[121.296081,23.718317],[121.296179,23.718318],[121.296178,23.718408]],[[121.296668,23.718414],[121.296571,23.718322],[121.296669,23.718323],[121.296668,23.718414]],[[121.290002,23.71816],[121.290099,23.718251],[121.290001,23.71825],[121.290002,23.71816]],[[121.2901,23.718161],[121.2902,23.718071],[121.290199,23.718162],[121.2901,23.718161]],[[121.296965,23.718236],[121.296868,23.718145],[121.296966,23.718146],[121.296965,23.718236]],[[121.28569,23.717931],[121.285692,23.717751],[121.285791,23.717752],[121.285788,23.717932],[121.28569,23.717931]],[[121.289908,23.717888],[121.290009,23.717618],[121.289911,23.717617],[121.289824,23.716803],[121.29002,23.716805],[121.290103,23.71798],[121.289908,23.717888]],[[121.297164,23.717968],[121.297261,23.718059],[121.297163,23.718058],[121.297164,23.717968]],[[121.297262,23.717969],[121.297362,23.71788],[121.297361,23.71797],[121.297262,23.717969]],[[121.297362,23.71788],[121.297461,23.71779],[121.297463,23.71761],[121.297659,23.717612],[121.297558,23.717882],[121.297362,23.71788]],[[121.288927,23.717877],[121.28893,23.717696],[121.289028,23.717697],[121.289025,23.717878],[121.288927,23.717877]],[[121.295988,23.717955],[121.295891,23.717863],[121.295989,23.717864],[121.295988,23.717955]],[[121.294126,23.717844],[121.294029,23.717753],[121.294127,23.717754],[121.294126,23.717844]],[[121.306777,23.717893],[121.30658,23.717981],[121.306583,23.71771],[121.306779,23.717712],[121.306777,23.717893]],[[121.285698,23.717299],[121.285603,23.717118],[121.285799,23.71712],[121.285792,23.717661],[121.285597,23.717569],[121.2856,23.717298],[121.285698,23.717299]],[[121.306289,23.717707],[121.306287,23.717887],[121.305994,23.717794],[121.305995,23.717703],[121.306289,23.717707]],[[121.294129,23.717573],[121.294226,23.717664],[121.294128,23.717663],[121.294129,23.717573]],[[121.294227,23.717574],[121.294327,23.717485],[121.294325,23.717575],[121.294227,23.717574]],[[121.294521,23.717577],[121.294425,23.717486],[121.294523,23.717487],[121.294521,23.717577]],[[121.288737,23.717423],[121.288739,23.717243],[121.289034,23.717246],[121.288933,23.717425],[121.288737,23.717423]],[[121.289035,23.717156],[121.28933,23.717069],[121.289331,23.716978],[121.289625,23.716981],[121.289624,23.717072],[121.289329,23.717159],[121.289327,23.717339],[121.28913,23.717337],[121.289035,23.717156]],[[121.294525,23.717306],[121.294622,23.717398],[121.294524,23.717397],[121.294525,23.717306]],[[121.294623,23.717308],[121.294823,23.717039],[121.295019,23.717041],[121.294819,23.71731],[121.294623,23.717308]],[[121.296681,23.717421],[121.296584,23.717329],[121.296682,23.71733],[121.296681,23.717421]],[[121.297761,23.717342],[121.297858,23.717433],[121.29776,23.717432],[121.297761,23.717342]],[[121.297859,23.717343],[121.297958,23.717254],[121.297957,23.717344],[121.297859,23.717343]],[[121.295314,23.716954],[121.295317,23.716773],[121.295415,23.716774],[121.295411,23.717045],[121.295115,23.717223],[121.295117,23.717042],[121.295314,23.716954]],[[121.287957,23.717053],[121.28786,23.716962],[121.287958,23.716963],[121.287957,23.717053]],[[121.288153,23.717055],[121.288156,23.716875],[121.288254,23.716876],[121.288251,23.717057],[121.288153,23.717055]],[[121.288546,23.71706],[121.288449,23.716968],[121.288547,23.71697],[121.288546,23.71706]],[[121.288745,23.716791],[121.288648,23.7167],[121.288746,23.716701],[121.288745,23.716791]],[[121.289138,23.716795],[121.289041,23.716704],[121.289139,23.716705],[121.289138,23.716795]],[[121.288066,23.716242],[121.288358,23.716426],[121.288354,23.716697],[121.28816,23.716514],[121.287964,23.716512],[121.288066,23.716242]],[[121.287968,23.716241],[121.287971,23.71597],[121.288069,23.715971],[121.288066,23.716242],[121.287968,23.716241]],[[121.288069,23.715971],[121.288169,23.715882],[121.288168,23.715972],[121.288069,23.715971]],[[121.299827,23.716823],[121.29973,23.716732],[121.299828,23.716733],[121.299827,23.716823]],[[121.298652,23.71672],[121.298555,23.716628],[121.298653,23.71663],[121.298652,23.71672]],[[121.289828,23.716532],[121.289829,23.716442],[121.290025,23.716444],[121.290024,23.716534],[121.289828,23.716532]],[[121.296107,23.716331],[121.296006,23.71651],[121.295712,23.716507],[121.296109,23.71615],[121.296403,23.716153],[121.296402,23.716244],[121.296107,23.716331]],[[121.296405,23.716063],[121.296699,23.716066],[121.296698,23.716157],[121.296403,23.716153],[121.296405,23.716063]],[[121.296699,23.716066],[121.296798,23.715977],[121.296797,23.716067],[121.296699,23.716066]],[[121.298558,23.716358],[121.298752,23.71654],[121.298556,23.716538],[121.298558,23.716358]],[[121.302086,23.716577],[121.301989,23.716486],[121.302087,23.716487],[121.302086,23.716577]],[[121.285221,23.716301],[121.285223,23.71612],[121.285321,23.716121],[121.285319,23.716302],[121.285221,23.716301]],[[121.285618,23.715944],[121.285613,23.716305],[121.285417,23.716303],[121.28542,23.716122],[121.285618,23.715944]],[[121.292285,23.716108],[121.292284,23.716198],[121.291987,23.716375],[121.29199,23.716195],[121.292285,23.716108]],[[121.295422,23.716233],[121.29562,23.716054],[121.295618,23.716235],[121.295419,23.716413],[121.295125,23.71641],[121.295226,23.716231],[121.295422,23.716233]],[[121.297086,23.716432],[121.297087,23.716341],[121.297284,23.716344],[121.297282,23.716434],[121.297086,23.716432]],[[121.292481,23.71611],[121.292384,23.716019],[121.292482,23.71602],[121.292481,23.71611]],[[121.297777,23.716078],[121.29778,23.715898],[121.297878,23.715899],[121.297875,23.716079],[121.297777,23.716078]],[[121.296897,23.715888],[121.296994,23.715979],[121.296896,23.715978],[121.296897,23.715888]],[[121.296995,23.715889],[121.297095,23.7158],[121.297093,23.71589],[121.296995,23.715889]],[[121.297097,23.715619],[121.297293,23.715621],[121.297291,23.715802],[121.297095,23.7158],[121.297097,23.715619]],[[121.297388,23.715893],[121.297484,23.715985],[121.297386,23.715984],[121.297388,23.715893]],[[121.297486,23.715894],[121.297585,23.715805],[121.297584,23.715895],[121.297486,23.715894]],[[121.292877,23.715844],[121.292879,23.715663],[121.293075,23.715665],[121.293073,23.715846],[121.292877,23.715844]],[[121.301898,23.715943],[121.301998,23.715854],[121.301996,23.715944],[121.301898,23.715943]],[[121.301899,23.715853],[121.301803,23.715761],[121.301901,23.715762],[121.301899,23.715853]],[[121.293564,23.715761],[121.293467,23.715669],[121.293566,23.715671],[121.293564,23.715761]],[[121.295428,23.715781],[121.295331,23.71569],[121.295429,23.715691],[121.295428,23.715781]],[[121.298173,23.715812],[121.298076,23.71572],[121.298174,23.715721],[121.298173,23.715812]],[[121.288761,23.715617],[121.288664,23.715526],[121.288762,23.715527],[121.288761,23.715617]],[[121.289349,23.715624],[121.289252,23.715533],[121.28935,23.715534],[121.289349,23.715624]],[[121.293665,23.715581],[121.293568,23.71549],[121.293666,23.715491],[121.293665,23.715581]],[[121.297689,23.715355],[121.297588,23.715534],[121.297392,23.715532],[121.297493,23.715353],[121.297689,23.715355]],[[121.292883,23.715392],[121.292786,23.715301],[121.292884,23.715302],[121.292883,23.715392]],[[121.293765,23.715402],[121.293668,23.71531],[121.293766,23.715312],[121.293765,23.715402]],[[121.288863,23.715257],[121.288865,23.715167],[121.289061,23.715169],[121.28906,23.71526],[121.288863,23.715257]],[[121.293178,23.715305],[121.29318,23.715124],[121.293278,23.715126],[121.293276,23.715306],[121.293178,23.715305]],[[121.288374,23.715162],[121.288375,23.715071],[121.28867,23.715075],[121.288668,23.715165],[121.288374,23.715162]],[[121.294064,23.715044],[121.294161,23.715135],[121.293669,23.71522],[121.293672,23.71504],[121.293967,23.714953],[121.293871,23.714771],[121.294166,23.714774],[121.294064,23.715044]],[[121.293871,23.714771],[121.293775,23.71468],[121.293873,23.714681],[121.293871,23.714771]],[[121.297789,23.715175],[121.297886,23.715267],[121.297788,23.715266],[121.297789,23.715175]],[[121.297887,23.715176],[121.297986,23.715087],[121.297985,23.715177],[121.297887,23.715176]],[[121.288179,23.715069],[121.288082,23.714978],[121.288181,23.714979],[121.288179,23.715069]],[[121.291318,23.715014],[121.291222,23.714922],[121.29132,23.714923],[121.291318,23.715014]],[[121.293478,23.714857],[121.293381,23.714765],[121.293479,23.714767],[121.293478,23.714857]],[[121.294559,23.714688],[121.294557,23.714869],[121.294459,23.714868],[121.294463,23.714507],[121.294659,23.714509],[121.294657,23.714689],[121.294559,23.714688]],[[121.298969,23.714917],[121.298872,23.714826],[121.298971,23.714827],[121.298969,23.714917]],[[121.296029,23.714795],[121.29603,23.714704],[121.296226,23.714707],[121.296225,23.714797],[121.296029,23.714795]],[[121.293384,23.714585],[121.293386,23.714404],[121.293484,23.714405],[121.293482,23.714586],[121.293384,23.714585]],[[121.296521,23.71462],[121.296425,23.714528],[121.296523,23.714529],[121.296521,23.71462]],[[121.299169,23.714649],[121.299072,23.714557],[121.29917,23.714558],[121.299169,23.714649]],[[121.293975,23.714321],[121.293978,23.71414],[121.294076,23.714141],[121.294073,23.714322],[121.293975,23.714321]],[[121.296721,23.714351],[121.296723,23.71417],[121.296821,23.714171],[121.296819,23.714352],[121.296721,23.714351]],[[121.298585,23.714281],[121.298488,23.71419],[121.298587,23.714191],[121.298585,23.714281]],[[121.295059,23.713971],[121.295056,23.714152],[121.29486,23.71415],[121.294861,23.714059],[121.295059,23.713971]],[[121.295254,23.714064],[121.295157,23.713972],[121.295255,23.713973],[121.295254,23.714064]],[[121.299666,23.714112],[121.299669,23.713932],[121.299767,23.713933],[121.299764,23.714113],[121.299666,23.714112]],[[121.295354,23.713884],[121.295451,23.713976],[121.295353,23.713975],[121.295354,23.713884]],[[121.295452,23.713885],[121.295356,23.713704],[121.295554,23.713616],[121.295648,23.713888],[121.295452,23.713885]],[[121.29359,23.713775],[121.293493,23.713683],[121.293591,23.713684],[121.29359,23.713775]],[[121.29712,23.713813],[121.297023,23.713722],[121.297121,23.713723],[121.29712,23.713813]],[[121.299081,23.713835],[121.298985,23.713744],[121.299083,23.713745],[121.299081,23.713835]],[[121.291434,23.71366],[121.291337,23.713569],[121.291435,23.71357],[121.291434,23.71366]],[[121.299573,23.71375],[121.299476,23.713659],[121.299574,23.71366],[121.299573,23.71375]],[[121.295067,23.713339],[121.295065,23.71352],[121.294867,23.713608],[121.29487,23.713427],[121.295067,23.713339]],[[121.29879,23.713651],[121.298693,23.71356],[121.298791,23.713561],[121.29879,23.713651]],[[121.299966,23.713664],[121.299869,23.713573],[121.299968,23.713574],[121.299966,23.713664]],[[121.295656,23.713256],[121.295659,23.713075],[121.295757,23.713076],[121.295951,23.713259],[121.295947,23.71353],[121.295753,23.713347],[121.295457,23.713524],[121.295459,23.713344],[121.295656,23.713256]],[[121.29919,23.713023],[121.299185,23.713385],[121.298989,23.713382],[121.299092,23.713022],[121.29919,23.713023]],[[121.306148,23.713461],[121.306051,23.71337],[121.306149,23.713371],[121.306148,23.713461]],[[121.30507,23.713359],[121.304973,23.713268],[121.305071,23.713269],[121.30507,23.713359]],[[121.295857,23.712897],[121.29586,23.712716],[121.295958,23.712717],[121.295955,23.712898],[121.295857,23.712897]],[[121.299387,23.712935],[121.29929,23.712844],[121.299389,23.712845],[121.299387,23.712935]],[[121.294682,23.712793],[121.294684,23.712613],[121.294881,23.712525],[121.294879,23.712705],[121.294682,23.712793]],[[121.294881,23.712525],[121.294981,23.712435],[121.294979,23.712526],[121.294881,23.712525]],[[121.294981,23.712435],[121.29508,23.712346],[121.295079,23.712436],[121.294981,23.712435]],[[121.295082,23.712166],[121.29518,23.712167],[121.295178,23.712347],[121.29508,23.712346],[121.295082,23.712166]],[[121.300565,23.712858],[121.300468,23.712767],[121.300566,23.712768],[121.300565,23.712858]],[[121.300957,23.712862],[121.30096,23.712682],[121.301058,23.712683],[121.301056,23.712863],[121.300957,23.712862]],[[121.300571,23.712407],[121.300674,23.712047],[121.301063,23.712322],[121.300863,23.71259],[121.300571,23.712407]],[[121.299982,23.71249],[121.299984,23.71231],[121.300082,23.712311],[121.30008,23.712491],[121.299982,23.71249]],[[121.29361,23.71224],[121.293513,23.712148],[121.293611,23.712149],[121.29361,23.71224]],[[121.298611,23.712295],[121.298514,23.712203],[121.298612,23.712204],[121.298611,23.712295]],[[121.295378,23.712079],[121.295281,23.711987],[121.295379,23.711988],[121.295378,23.712079]],[[121.301361,23.711964],[121.301364,23.711783],[121.301462,23.711784],[121.301459,23.711965],[121.301361,23.711964]],[[121.293718,23.711518],[121.29372,23.711338],[121.293918,23.711159],[121.294115,23.711162],[121.294308,23.711344],[121.294306,23.711525],[121.294108,23.711703],[121.293911,23.711701],[121.293718,23.711518]],[[121.295389,23.711176],[121.295688,23.710818],[121.29598,23.711002],[121.295681,23.711359],[121.295389,23.711176]],[[121.307353,23.711217],[121.306967,23.710761],[121.306771,23.710759],[121.306383,23.710393],[121.306386,23.710213],[121.306483,23.710304],[121.306778,23.710217],[121.306788,23.709405],[121.307185,23.709048],[121.307381,23.70905],[121.307963,23.709598],[121.307959,23.709869],[121.308154,23.709961],[121.308151,23.710232],[121.308346,23.710325],[121.308339,23.710866],[121.307942,23.711223],[121.307353,23.711217]],[[121.30412,23.711001],[121.304023,23.710909],[121.304121,23.71091],[121.30412,23.711001]],[[121.305789,23.710838],[121.305692,23.710747],[121.30579,23.710748],[121.305789,23.710838]],[[121.298148,23.710213],[121.298347,23.709944],[121.298544,23.709946],[121.298737,23.710129],[121.298538,23.710398],[121.298342,23.710395],[121.298148,23.710213]],[[121.305995,23.710118],[121.305997,23.709938],[121.306095,23.709939],[121.306093,23.710119],[121.305995,23.710118]],[[121.305901,23.709756],[121.305804,23.709665],[121.305902,23.709666],[121.305901,23.709756]],[[121.302476,23.709177],[121.302379,23.709085],[121.302477,23.709086],[121.302476,23.709177]],[[121.299242,23.709051],[121.299245,23.70878],[121.299343,23.708781],[121.29934,23.709052],[121.299242,23.709051]],[[121.300916,23.708527],[121.300819,23.708436],[121.300917,23.708437],[121.300916,23.708527]],[[121.306213,23.708405],[121.306214,23.708315],[121.30641,23.708317],[121.306409,23.708407],[121.306213,23.708405]],[[121.301952,23.704205],[121.302341,23.70448],[121.302337,23.704751],[121.302239,23.704749],[121.302134,23.70529],[121.301937,23.705378],[121.301931,23.70583],[121.301733,23.706008],[121.301727,23.70646],[121.301628,23.706549],[121.301821,23.706731],[121.301624,23.70682],[121.30152,23.70727],[121.301223,23.707538],[121.301026,23.707535],[121.300736,23.707261],[121.301033,23.706994],[121.300946,23.70618],[121.301242,23.706003],[121.301146,23.705911],[121.301344,23.705733],[121.301248,23.705551],[121.301545,23.705374],[121.301352,23.705101],[121.301748,23.704834],[121.301655,23.704472],[121.301952,23.704205]],[[121.301854,23.704203],[121.301856,23.704023],[121.302053,23.704025],[121.302051,23.704115],[121.301854,23.704203]],[[121.297406,23.706954],[121.297309,23.706862],[121.297407,23.706864],[121.297406,23.706954]],[[121.299074,23.706882],[121.299076,23.706701],[121.299174,23.706702],[121.299172,23.706883],[121.299074,23.706882]],[[121.297312,23.706592],[121.297215,23.7065],[121.297313,23.706501],[121.297312,23.706592]],[[121.297423,23.7056],[121.297326,23.705508],[121.297424,23.705509],[121.297423,23.7056]],[[121.297138,23.704874],[121.297041,23.704783],[121.297139,23.704784],[121.297138,23.704874]],[[121.30038,23.704458],[121.300283,23.704367],[121.300381,23.704368],[121.30038,23.704458]],[[121.300872,23.704283],[121.300973,23.704103],[121.300779,23.703921],[121.301175,23.703654],[121.301369,23.703837],[121.301365,23.704108],[121.301267,23.704107],[121.301363,23.704288],[121.301164,23.704467],[121.300872,23.704283]],[[121.297243,23.704333],[121.297147,23.704242],[121.297245,23.704243],[121.297243,23.704333]],[[121.299796,23.704091],[121.299996,23.703822],[121.300288,23.704006],[121.300088,23.704274],[121.299796,23.704091]],[[121.298226,23.704164],[121.298129,23.704072],[121.298227,23.704073],[121.298226,23.704164]],[[121.302347,23.704028],[121.30225,23.703937],[121.302348,23.703938],[121.302347,23.704028]],[[121.297152,23.703791],[121.297154,23.7037],[121.29735,23.703702],[121.297348,23.703793],[121.297152,23.703791]],[[121.29755,23.703343],[121.297548,23.703524],[121.29745,23.703523],[121.297354,23.703341],[121.29755,23.703343]],[[121.301666,23.703569],[121.301569,23.703478],[121.301667,23.703479],[121.301666,23.703569]],[[121.29863,23.703265],[121.298632,23.703084],[121.298731,23.703086],[121.298728,23.703266],[121.29863,23.703265]],[[121.298051,23.702536],[121.298048,23.702807],[121.29795,23.702806],[121.297855,23.702534],[121.297658,23.702622],[121.297464,23.70244],[121.297566,23.70217],[121.297762,23.702172],[121.298051,23.702536]],[[121.297859,23.702263],[121.297958,23.702174],[121.297957,23.702264],[121.297859,23.702263]],[[121.298743,23.702092],[121.298647,23.702001],[121.298745,23.702002],[121.298743,23.702092]],[[121.307294,23.700651],[121.307296,23.70047],[121.307492,23.700473],[121.30749,23.700653],[121.307294,23.700651]],[[121.303966,23.700163],[121.303869,23.700072],[121.303967,23.700073],[121.303966,23.700163]],[[121.307206,23.699837],[121.307203,23.700108],[121.307006,23.700106],[121.307009,23.699926],[121.307206,23.699837]],[[121.306811,23.700014],[121.306715,23.699922],[121.306813,23.699923],[121.306811,23.700014]],[[121.305936,23.699462],[121.305547,23.699187],[121.305553,23.698736],[121.305847,23.698739],[121.305943,23.698921],[121.306139,23.698923],[121.306136,23.699194],[121.305938,23.699282],[121.305936,23.699462]],[[121.307017,23.699294],[121.307022,23.698932],[121.307414,23.698937],[121.307415,23.698846],[121.307708,23.69894],[121.307703,23.699301],[121.307409,23.699298],[121.307309,23.699477],[121.307017,23.699294]],[[121.305352,23.699095],[121.30535,23.699275],[121.305252,23.699274],[121.305156,23.699093],[121.305352,23.699095]],[[121.306432,23.699016],[121.306434,23.698836],[121.306827,23.69884],[121.306824,23.699021],[121.306432,23.699016]],[[121.304866,23.698818],[121.304769,23.698727],[121.304867,23.698728],[121.304866,23.698818]],[[121.305357,23.698734],[121.30526,23.698642],[121.305358,23.698643],[121.305357,23.698734]],[[121.30715,23.696586],[121.307152,23.696405],[121.30725,23.696407],[121.307248,23.696587],[121.30715,23.696586]]],[[[121.306268,23.719332],[121.306466,23.719153],[121.306078,23.718878],[121.30578,23.719146],[121.305584,23.719144],[121.305483,23.719323],[121.305776,23.719417],[121.305775,23.719507],[121.306069,23.71951],[121.306164,23.719782],[121.306262,23.719783],[121.306268,23.719332]]],[[[121.305992,23.725469],[121.306386,23.725383],[121.306292,23.725021],[121.305803,23.724925],[121.305407,23.725192],[121.305405,23.725372],[121.305696,23.725646],[121.305991,23.725559],[121.305992,23.725469]]],[[[121.306071,23.727005],[121.306269,23.726827],[121.306374,23.726286],[121.306081,23.726193],[121.305985,23.726011],[121.305594,23.725916],[121.305389,23.726636],[121.305584,23.726729],[121.305678,23.727001],[121.306071,23.727005]]],[[[121.302037,23.727954],[121.302335,23.727687],[121.30253,23.727779],[121.302631,23.727509],[121.301949,23.72714],[121.302051,23.726871],[121.302344,23.726964],[121.302343,23.727054],[121.30254,23.726966],[121.302444,23.726785],[121.302248,23.726783],[121.302349,23.726603],[121.302154,23.726511],[121.302153,23.726601],[121.301857,23.726688],[121.301855,23.726869],[121.301757,23.726867],[121.301852,23.727049],[121.301654,23.727228],[121.301947,23.727321],[121.301945,23.727502],[121.302043,23.727503],[121.301843,23.727771],[121.302037,23.727954]]],[[[121.305863,23.727906],[121.305474,23.727631],[121.305381,23.727268],[121.30509,23.726994],[121.304894,23.726992],[121.304895,23.726902],[121.3046,23.726989],[121.304987,23.727354],[121.304984,23.727625],[121.305082,23.727626],[121.305176,23.727898],[121.305372,23.7279],[121.305566,23.728083],[121.305762,23.728085],[121.305863,23.727906]]],[[[121.303117,23.727876],[121.30302,23.727784],[121.30253,23.727779],[121.302429,23.727958],[121.302722,23.728052],[121.302721,23.728142],[121.303015,23.728145],[121.303117,23.727876]]]]}},{"type":"Feature","properties":{"kind":"bare_dam","month":"2026-05","area_ha":140.7},"geometry":{"type":"MultiPolygon","coordinates":[[[[121.29771,23.691065],[121.297909,23.690796],[121.298105,23.690798],[121.298702,23.690172],[121.299094,23.690177],[121.299196,23.689907],[121.299002,23.689724],[121.298708,23.689721],[121.298607,23.6899],[121.298018,23.689984],[121.297522,23.69043],[121.297514,23.691062],[121.29771,23.691065]]],[[[121.300546,23.691637],[121.300646,23.691458],[121.300353,23.691364],[121.300356,23.691184],[121.299968,23.690818],[121.299575,23.690904],[121.299474,23.691084],[121.299181,23.69099],[121.299086,23.690809],[121.298397,23.690982],[121.298493,23.691163],[121.298885,23.691168],[121.298978,23.69153],[121.299567,23.691536],[121.299565,23.691627],[121.300546,23.691637]]],[[[121.299849,23.700028],[121.300138,23.700392],[121.299942,23.70039],[121.299945,23.700209],[121.299653,23.700025],[121.29955,23.700386],[121.299452,23.700384],[121.299547,23.700656],[121.300919,23.700671],[121.30092,23.700581],[121.301116,23.700583],[121.301115,23.700674],[121.302194,23.700685],[121.302294,23.700506],[121.302686,23.70051],[121.303579,23.699707],[121.303584,23.699346],[121.303781,23.699258],[121.303785,23.698987],[121.303982,23.698899],[121.303988,23.698448],[121.304185,23.69836],[121.304191,23.697908],[121.305481,23.696748],[121.306167,23.696756],[121.306267,23.696576],[121.306856,23.696583],[121.306955,23.696494],[121.306964,23.695771],[121.307162,23.695683],[121.306968,23.6955],[121.306983,23.694327],[121.307975,23.693435],[121.308368,23.693349],[121.308371,23.693168],[121.308078,23.693074],[121.307982,23.692893],[121.30818,23.692714],[121.308473,23.692808],[121.308475,23.692718],[121.309064,23.692634],[121.309362,23.692366],[121.309754,23.69237],[121.309753,23.692461],[121.310047,23.692464],[121.310245,23.692285],[121.310734,23.692381],[121.311528,23.691667],[121.311535,23.691126],[121.311438,23.691034],[121.311636,23.690856],[121.31164,23.690585],[121.311837,23.690497],[121.311842,23.690136],[121.312337,23.68978],[121.31234,23.689509],[121.312538,23.689331],[121.312541,23.68915],[121.312347,23.688967],[121.312934,23.689064],[121.313134,23.688795],[121.313527,23.688709],[121.313529,23.688529],[121.313139,23.688344],[121.313144,23.687983],[121.312853,23.687709],[121.312461,23.687704],[121.312267,23.687522],[121.312759,23.687437],[121.312957,23.687258],[121.312955,23.687439],[121.313248,23.687532],[121.313439,23.687896],[121.313735,23.687809],[121.313745,23.686996],[121.313456,23.686632],[121.313259,23.686629],[121.313066,23.686447],[121.313268,23.685997],[121.313074,23.685815],[121.312779,23.685902],[121.312781,23.685721],[121.312879,23.685722],[121.312783,23.685541],[121.312293,23.685535],[121.312294,23.685445],[121.311509,23.685527],[121.311608,23.685438],[121.311516,23.684985],[121.310829,23.684978],[121.310826,23.685248],[121.310528,23.685516],[121.310524,23.685877],[121.310622,23.685878],[121.310618,23.686149],[121.310812,23.686332],[121.31071,23.686602],[121.310614,23.68651],[121.309731,23.686501],[121.309533,23.686679],[121.309626,23.687041],[121.30943,23.687039],[121.309431,23.686949],[121.30894,23.687034],[121.308939,23.687124],[121.30845,23.687028],[121.308348,23.687298],[121.307958,23.687113],[121.307957,23.687204],[121.307662,23.687291],[121.307759,23.687382],[121.307753,23.687834],[121.307457,23.688011],[121.307355,23.688281],[121.307258,23.688189],[121.306963,23.688276],[121.306867,23.688095],[121.306377,23.688089],[121.306179,23.688268],[121.306176,23.688448],[121.305883,23.688355],[121.305783,23.688534],[121.30539,23.68862],[121.305191,23.688799],[121.305188,23.68907],[121.304992,23.689068],[121.304793,23.689246],[121.304696,23.689155],[121.304206,23.689149],[121.304205,23.68924],[121.30401,23.689147],[121.303712,23.689415],[121.303517,23.689322],[121.303516,23.689413],[121.303221,23.6895],[121.303119,23.689769],[121.302923,23.689767],[121.302823,23.689947],[121.302627,23.689945],[121.302429,23.690123],[121.301937,23.690208],[121.301938,23.690118],[121.301742,23.690116],[121.301843,23.689936],[121.301058,23.689927],[121.300865,23.689745],[121.299198,23.689726],[121.299488,23.69],[121.299486,23.690181],[121.299877,23.690276],[121.299973,23.690457],[121.30066,23.690375],[121.300756,23.690556],[121.30105,23.690559],[121.301146,23.690741],[121.301343,23.690653],[121.301445,23.690383],[121.302227,23.690572],[121.302124,23.690932],[121.302416,23.691116],[121.302314,23.691386],[121.302508,23.691569],[121.302705,23.691481],[121.302899,23.691663],[121.3028,23.691752],[121.302507,23.691659],[121.302307,23.691928],[121.301916,23.691833],[121.301915,23.691923],[121.30162,23.69201],[121.301622,23.69183],[121.301428,23.691647],[121.300841,23.69155],[121.300738,23.69191],[121.300443,23.691998],[121.300342,23.692267],[121.300146,23.692265],[121.299947,23.692444],[121.300335,23.692809],[121.300532,23.692721],[121.300534,23.69254],[121.300733,23.692362],[121.301024,23.692546],[121.300727,23.692813],[121.300724,23.692994],[121.300822,23.692995],[121.300624,23.693173],[121.300719,23.693445],[121.300523,23.693443],[121.300038,23.692986],[121.299646,23.692982],[121.299258,23.692617],[121.299261,23.692436],[121.299558,23.692168],[121.299462,23.692077],[121.299166,23.692164],[121.299073,23.691802],[121.298685,23.691436],[121.298293,23.691432],[121.298198,23.69125],[121.298396,23.691072],[121.298201,23.69098],[121.297804,23.691336],[121.297795,23.692059],[121.298084,23.692423],[121.298378,23.692426],[121.298375,23.692697],[121.29857,23.69279],[121.298565,23.693151],[121.298367,23.693329],[121.29866,23.693423],[121.298659,23.693513],[121.298361,23.693781],[121.298165,23.693778],[121.298063,23.694048],[121.297668,23.694315],[121.297564,23.694765],[121.297365,23.694944],[121.297358,23.695485],[121.29716,23.695664],[121.296867,23.69557],[121.296866,23.69566],[121.296571,23.695657],[121.29657,23.695748],[121.295884,23.69574],[121.295784,23.695919],[121.295489,23.695916],[121.295291,23.696095],[121.295485,23.696277],[121.295285,23.696546],[121.294993,23.696362],[121.295094,23.696183],[121.294703,23.696088],[121.294704,23.695998],[121.294605,23.696087],[121.293624,23.696076],[121.293524,23.696256],[121.292838,23.696248],[121.29254,23.696516],[121.292536,23.696787],[121.292339,23.696875],[121.292326,23.697868],[121.292521,23.69796],[121.292422,23.69805],[121.292519,23.698141],[121.292513,23.698592],[121.292708,23.698685],[121.292703,23.699046],[121.292899,23.699048],[121.293093,23.699231],[121.293091,23.699411],[121.292895,23.699409],[121.292886,23.700041],[121.293084,23.699953],[121.292987,23.699862],[121.29299,23.699591],[121.293088,23.699592],[121.293183,23.699864],[121.293672,23.69996],[121.293671,23.70005],[121.294357,23.700058],[121.294356,23.700148],[121.294553,23.70006],[121.294552,23.70015],[121.295237,23.700248],[121.295238,23.700158],[121.295827,23.700164],[121.295926,23.700075],[121.295635,23.699801],[121.295831,23.699803],[121.29603,23.699624],[121.295938,23.699172],[121.296234,23.698995],[121.296236,23.698814],[121.296333,23.698905],[121.29653,23.698817],[121.296434,23.698726],[121.296534,23.698546],[121.29634,23.698364],[121.296044,23.698541],[121.296041,23.698722],[121.295843,23.6989],[121.295647,23.698898],[121.295551,23.698716],[121.295255,23.698894],[121.295061,23.698711],[121.294863,23.698889],[121.29486,23.69907],[121.295054,23.699253],[121.294657,23.699609],[121.294461,23.699607],[121.294661,23.699338],[121.294368,23.699245],[121.294665,23.698977],[121.29457,23.698796],[121.294275,23.698792],[121.294176,23.698882],[121.294272,23.699063],[121.294073,23.699242],[121.293877,23.69924],[121.293782,23.699058],[121.293682,23.699147],[121.293487,23.699055],[121.293289,23.699233],[121.293096,23.69896],[121.293195,23.698961],[121.293295,23.698782],[121.293489,23.698964],[121.293783,23.698968],[121.293981,23.698789],[121.293791,23.698336],[121.294386,23.6978],[121.294582,23.697803],[121.294581,23.697893],[121.294877,23.697806],[121.294878,23.697715],[121.295269,23.69781],[121.295369,23.697631],[121.295565,23.697633],[121.295564,23.697723],[121.295859,23.697636],[121.295955,23.697818],[121.296249,23.697821],[121.29625,23.697731],[121.296545,23.697734],[121.296546,23.697644],[121.296741,23.697736],[121.296842,23.697466],[121.297238,23.6972],[121.296947,23.696926],[121.29705,23.696566],[121.297248,23.696387],[121.297443,23.69648],[121.297642,23.696301],[121.297547,23.696029],[121.297746,23.695851],[121.297942,23.695853],[121.298231,23.696217],[121.298428,23.696129],[121.298432,23.695858],[121.29853,23.695859],[121.298625,23.696131],[121.298822,23.696043],[121.298821,23.696133],[121.299112,23.696317],[121.298913,23.696586],[121.298718,23.696494],[121.298618,23.696673],[121.298714,23.696764],[121.298912,23.696676],[121.299202,23.69695],[121.299496,23.696954],[121.299395,23.697223],[121.298907,23.697037],[121.298908,23.696947],[121.298614,23.696944],[121.298615,23.696854],[121.298419,23.696851],[121.298319,23.697031],[121.298609,23.697305],[121.298805,23.697307],[121.298998,23.69758],[121.299194,23.697582],[121.299387,23.697855],[121.299583,23.697858],[121.299683,23.697678],[121.299878,23.69777],[121.299777,23.69804],[121.299482,23.698037],[121.299184,23.698395],[121.299962,23.698855],[121.300061,23.698766],[121.299966,23.698584],[121.300065,23.698495],[121.30026,23.698587],[121.300261,23.698497],[121.300654,23.698411],[121.300853,23.698233],[121.300855,23.698052],[121.302043,23.697162],[121.302047,23.696891],[121.302245,23.696713],[121.302342,23.696804],[121.302637,23.696717],[121.302545,23.696265],[121.302841,23.696178],[121.302944,23.695727],[121.303142,23.695639],[121.303144,23.695459],[121.303241,23.69555],[121.303829,23.695556],[121.303234,23.696092],[121.303328,23.696364],[121.302832,23.69681],[121.302829,23.69708],[121.302632,23.697169],[121.302629,23.697349],[121.302433,23.697347],[121.302036,23.697704],[121.30213,23.698066],[121.301537,23.698421],[121.301629,23.698873],[121.301332,23.699051],[121.301042,23.698777],[121.301044,23.698596],[121.301241,23.698508],[121.301048,23.698325],[121.300849,23.698504],[121.300946,23.698595],[121.300846,23.698774],[121.30065,23.698772],[121.30045,23.699041],[121.299859,23.699215],[121.299562,23.699483],[121.29946,23.699752],[121.299851,23.699847],[121.299849,23.700028]],[[121.312266,23.687612],[121.312166,23.687791],[121.31197,23.687789],[121.31207,23.68761],[121.312266,23.687612]],[[121.31197,23.687789],[121.311871,23.687878],[121.311966,23.68806],[121.311571,23.688327],[121.311566,23.688688],[121.311368,23.688866],[121.311172,23.688864],[121.310874,23.689132],[121.31058,23.689129],[121.310382,23.689307],[121.310379,23.689488],[121.309888,23.689573],[121.309689,23.689751],[121.309693,23.68948],[121.309988,23.689393],[121.310189,23.689034],[121.310483,23.689037],[121.310484,23.688947],[121.310878,23.688861],[121.310979,23.688591],[121.311277,23.688324],[121.311572,23.688236],[121.311476,23.688055],[121.311774,23.687787],[121.31197,23.687789]],[[121.313055,23.687259],[121.312765,23.686985],[121.313061,23.686808],[121.313254,23.687081],[121.313055,23.687259]],[[121.306274,23.688449],[121.306272,23.68863],[121.306174,23.688629],[121.306176,23.688448],[121.306274,23.688449]],[[121.301345,23.690472],[121.301249,23.690381],[121.301347,23.690382],[121.301345,23.690472]],[[121.301617,23.692191],[121.301519,23.69219],[121.301522,23.692009],[121.30162,23.69201],[121.301617,23.692191]],[[121.298378,23.692426],[121.298478,23.692337],[121.298476,23.692427],[121.298378,23.692426]],[[121.29866,23.693423],[121.298759,23.693334],[121.298758,23.693424],[121.29866,23.693423]],[[121.294368,23.699245],[121.294268,23.699334],[121.29427,23.699244],[121.294368,23.699245]],[[121.293196,23.698871],[121.293099,23.698779],[121.293197,23.698781],[121.293196,23.698871]],[[121.295859,23.697636],[121.295959,23.697547],[121.295957,23.697637],[121.295859,23.697636]],[[121.299016,23.696226],[121.299115,23.696137],[121.299114,23.696227],[121.299016,23.696226]],[[121.299493,23.697224],[121.299491,23.697405],[121.299393,23.697404],[121.299395,23.697223],[121.299493,23.697224]],[[121.299851,23.699847],[121.29995,23.699758],[121.299949,23.699848],[121.299851,23.699847]],[[121.29446,23.699697],[121.294557,23.699789],[121.294459,23.699788],[121.29446,23.699697]],[[121.301031,23.699589],[121.301128,23.699681],[121.30103,23.699679],[121.301031,23.699589]],[[121.300348,23.699311],[121.300347,23.699401],[121.300151,23.699399],[121.300152,23.699309],[121.300348,23.699311]],[[121.300843,23.698955],[121.30094,23.699046],[121.300842,23.699045],[121.300843,23.698955]],[[121.301726,23.698965],[121.301823,23.699056],[121.301725,23.699055],[121.301726,23.698965]],[[121.300166,23.698225],[121.300164,23.698406],[121.300066,23.698405],[121.300068,23.698224],[121.300166,23.698225]],[[121.292912,23.698055],[121.293009,23.698146],[121.292911,23.698145],[121.292912,23.698055]],[[121.302619,23.698162],[121.302716,23.698253],[121.302618,23.698252],[121.302619,23.698162]],[[121.293895,23.697885],[121.293992,23.697977],[121.293894,23.697976],[121.293895,23.697885]],[[121.292723,23.697511],[121.29282,23.697602],[121.292722,23.697601],[121.292723,23.697511]],[[121.293704,23.697522],[121.2938,23.697613],[121.293702,23.697612],[121.293704,23.697522]],[[121.299489,23.697495],[121.299586,23.697587],[121.299488,23.697586],[121.299489,23.697495]],[[121.295373,23.69736],[121.29547,23.697451],[121.295372,23.69745],[121.295373,23.69736]],[[121.296549,23.697373],[121.296259,23.697099],[121.296555,23.696921],[121.296748,23.697194],[121.296549,23.697373]],[[121.293218,23.697155],[121.293315,23.697247],[121.293217,23.697246],[121.293218,23.697155]],[[121.294298,23.697077],[121.294297,23.697167],[121.294002,23.697164],[121.294004,23.697074],[121.294298,23.697077]],[[121.294494,23.697079],[121.294591,23.697171],[121.294493,23.697169],[121.294494,23.697079]],[[121.295278,23.697088],[121.295375,23.697179],[121.295277,23.697178],[121.295278,23.697088]],[[121.294791,23.696812],[121.294888,23.696903],[121.29479,23.696902],[121.294791,23.696812]],[[121.295086,23.696815],[121.295182,23.696906],[121.295084,23.696905],[121.295086,23.696815]],[[121.304302,23.696916],[121.304399,23.697007],[121.304301,23.697006],[121.304302,23.696916]],[[121.303527,23.696185],[121.303624,23.696276],[121.303526,23.696275],[121.303527,23.696185]],[[121.301962,23.695897],[121.302059,23.695988],[121.30196,23.695987],[121.301962,23.695897]],[[121.305882,23.69603],[121.305592,23.695756],[121.305888,23.695579],[121.306081,23.695852],[121.305882,23.69603]],[[121.300394,23.69579],[121.300491,23.695881],[121.300393,23.69588],[121.300394,23.69579]],[[121.298238,23.695676],[121.298335,23.695767],[121.298237,23.695766],[121.298238,23.695676]],[[121.299024,23.695594],[121.298925,23.695683],[121.298926,23.695593],[121.299024,23.695594]],[[121.298926,23.695593],[121.298732,23.69541],[121.298929,23.695322],[121.298926,23.695593]],[[121.29873,23.695591],[121.298534,23.695589],[121.298536,23.695408],[121.298634,23.695409],[121.29873,23.695591]],[[121.302455,23.695632],[121.302552,23.695723],[121.302454,23.695722],[121.302455,23.695632]],[[121.297554,23.695487],[121.297651,23.695579],[121.297553,23.695578],[121.297554,23.695487]],[[121.29775,23.69549],[121.297847,23.695581],[121.297749,23.69558],[121.29775,23.69549]],[[121.304025,23.695559],[121.303928,23.695467],[121.304026,23.695468],[121.304025,23.695559]],[[121.304028,23.695378],[121.304519,23.695293],[121.304622,23.694933],[121.305712,23.694042],[121.305422,23.693678],[121.30572,23.69341],[121.305722,23.693229],[121.306019,23.693052],[121.306213,23.693235],[121.30621,23.693415],[121.306013,23.693503],[121.306009,23.693774],[121.305812,23.693862],[121.305706,23.694493],[121.30521,23.694939],[121.305014,23.694937],[121.304517,23.695474],[121.304123,23.69556],[121.304028,23.695378]],[[121.297755,23.695128],[121.297753,23.695309],[121.297655,23.695308],[121.297657,23.695127],[121.297755,23.695128]],[[121.299813,23.695241],[121.29991,23.695333],[121.299812,23.695332],[121.299813,23.695241]],[[121.299819,23.69479],[121.299916,23.694881],[121.299818,23.69488],[121.299819,23.69479]],[[121.298452,23.694323],[121.29865,23.694145],[121.298845,23.694237],[121.298843,23.694418],[121.29845,23.694504],[121.298452,23.694323]],[[121.299137,23.694421],[121.299234,23.694513],[121.299136,23.694512],[121.299137,23.694421]],[[121.301006,23.69399],[121.301005,23.694081],[121.300808,23.694078],[121.30081,23.693988],[121.301006,23.69399]],[[121.300516,23.693985],[121.300322,23.693802],[121.300616,23.693805],[121.300516,23.693985]],[[121.300129,23.693529],[121.300226,23.693621],[121.300128,23.693619],[121.300129,23.693529]],[[121.307289,23.693427],[121.307386,23.693518],[121.307288,23.693517],[121.307289,23.693427]],[[121.301323,23.692188],[121.301321,23.692368],[121.301223,23.692367],[121.301225,23.692187],[121.301323,23.692188]],[[121.307105,23.692432],[121.307208,23.692072],[121.307502,23.692075],[121.307603,23.691895],[121.307995,23.6919],[121.308095,23.69172],[121.308487,23.691724],[121.308486,23.691815],[121.308191,23.691902],[121.308189,23.692082],[121.307992,23.69208],[121.307991,23.692171],[121.307795,23.692168],[121.3074,23.692435],[121.307105,23.692432]],[[121.303578,23.692213],[121.303675,23.692304],[121.303577,23.692303],[121.303578,23.692213]],[[121.302895,23.691934],[121.302796,23.692023],[121.302797,23.691933],[121.302895,23.691934]],[[121.302601,23.691931],[121.302602,23.691841],[121.302799,23.691843],[121.302797,23.691933],[121.302601,23.691931]],[[121.303681,23.691852],[121.303778,23.691944],[121.30368,23.691943],[121.303681,23.691852]],[[121.309182,23.6911],[121.308983,23.691278],[121.309275,23.691462],[121.309273,23.691643],[121.308976,23.69182],[121.308589,23.691455],[121.308886,23.691187],[121.308889,23.691006],[121.309185,23.690829],[121.309182,23.6911]],[[121.309185,23.690829],[121.309284,23.69074],[121.309283,23.69083],[121.309185,23.690829]],[[121.303588,23.69149],[121.303297,23.691216],[121.303495,23.691038],[121.303884,23.691313],[121.303883,23.691403],[121.303589,23.6914],[121.303588,23.69149]],[[121.302709,23.69121],[121.302706,23.69139],[121.302608,23.691389],[121.302611,23.691209],[121.302709,23.69121]],[[121.302806,23.691301],[121.302902,23.691392],[121.302804,23.691391],[121.302806,23.691301]],[[121.309963,23.691379],[121.310059,23.691471],[121.309961,23.69147],[121.309963,23.691379]],[[121.304282,23.690866],[121.30428,23.691046],[121.304182,23.691045],[121.304184,23.690865],[121.304282,23.690866]],[[121.309681,23.690383],[121.309778,23.690474],[121.30968,23.690473],[121.309681,23.690383]],[[121.309588,23.690021],[121.309491,23.689929],[121.309589,23.68993],[121.309588,23.690021]],[[121.30959,23.68984],[121.309786,23.689842],[121.309784,23.690023],[121.309686,23.690022],[121.30959,23.68984]],[[121.311452,23.689951],[121.311549,23.690042],[121.311451,23.690041],[121.311452,23.689951]],[[121.310475,23.689669],[121.310572,23.689761],[121.310474,23.68976],[121.310475,23.689669]],[[121.308125,23.689373],[121.308124,23.689463],[121.307928,23.689461],[121.307929,23.689371],[121.308125,23.689373]],[[121.310706,23.686963],[121.310512,23.68678],[121.310708,23.686782],[121.310706,23.686963]],[[121.312376,23.68671],[121.312473,23.686801],[121.312375,23.6868],[121.312376,23.68671]],[[121.311122,23.685071],[121.311219,23.685162],[121.311121,23.685161],[121.311122,23.685071]]],[[[121.298386,23.699379],[121.298878,23.699295],[121.298784,23.698932],[121.298686,23.698931],[121.29869,23.69866],[121.298495,23.698568],[121.298596,23.698298],[121.2985,23.698207],[121.298106,23.698293],[121.297817,23.697928],[121.297523,23.697925],[121.297324,23.698104],[121.297229,23.697922],[121.296936,23.697828],[121.296737,23.698007],[121.296735,23.698187],[121.297607,23.69901],[121.297804,23.698922],[121.297998,23.699104],[121.297897,23.699284],[121.298091,23.699467],[121.297793,23.699734],[121.297406,23.699369],[121.297408,23.699188],[121.297115,23.699095],[121.296718,23.699451],[121.297009,23.699726],[121.297007,23.699906],[121.2972,23.700089],[121.298082,23.700189],[121.298477,23.699922],[121.298284,23.69974],[121.298386,23.699379]],[[121.298284,23.69974],[121.298184,23.699829],[121.298186,23.699738],[121.298284,23.69974]]],[[[121.295814,23.701157],[121.296007,23.70134],[121.296302,23.701343],[121.2965,23.701165],[121.296405,23.700893],[121.296796,23.700987],[121.2968,23.700717],[121.297191,23.700811],[121.297293,23.700541],[121.296903,23.700356],[121.296902,23.700447],[121.296508,23.700533],[121.296603,23.700805],[121.29631,23.700711],[121.296309,23.700801],[121.296013,23.700888],[121.296016,23.700708],[121.295822,23.700525],[121.295528,23.700522],[121.295529,23.700432],[121.295137,23.700427],[121.295036,23.700607],[121.294743,23.700513],[121.294745,23.700423],[121.29445,23.70042],[121.294452,23.700329],[121.294059,23.700325],[121.294061,23.700235],[121.293864,23.700233],[121.293764,23.700412],[121.29347,23.700409],[121.293374,23.700227],[121.293077,23.700495],[121.292882,23.700402],[121.292877,23.700764],[121.293458,23.701312],[121.293948,23.701317],[121.294044,23.701499],[121.294436,23.701503],[121.294439,23.701323],[121.294537,23.701324],[121.294534,23.701504],[121.295809,23.701518],[121.295908,23.701429],[121.295814,23.701157]],[[121.295814,23.701157],[121.295717,23.701066],[121.295815,23.701067],[121.295814,23.701157]]]]}},{"type":"Feature","properties":{"kind":"water","month":"2026-05","area_ha":8.99},"geometry":{"type":"MultiPolygon","coordinates":[[[[121.283775,23.691904],[121.283777,23.691723],[121.283487,23.691449],[121.283291,23.691447],[121.283383,23.6919],[121.283579,23.691902],[121.28358,23.691811],[121.283775,23.691904]]],[[[121.284933,23.693362],[121.284744,23.692818],[121.284259,23.692361],[121.284254,23.692722],[121.284451,23.692724],[121.284448,23.692905],[121.284546,23.692906],[121.28454,23.693357],[121.284833,23.693451],[121.284933,23.693362]]],[[[121.284832,23.693541],[121.284931,23.693452],[121.284833,23.693451],[121.284832,23.693541]]],[[[121.28512,23.693996],[121.285027,23.693633],[121.284831,23.693631],[121.284829,23.693812],[121.284927,23.693813],[121.284825,23.694083],[121.285021,23.694085],[121.28512,23.693996]]],[[[121.286664,23.695909],[121.286665,23.695819],[121.286274,23.695724],[121.28637,23.695906],[121.286566,23.695908],[121.28676,23.696091],[121.286758,23.696271],[121.286954,23.696273],[121.28686,23.695911],[121.286664,23.695909]]],[[[121.290679,23.696315],[121.290677,23.696495],[121.290972,23.696408],[121.290974,23.696318],[121.290679,23.696315]]],[[[121.298127,23.696668],[121.29803,23.696576],[121.298029,23.696667],[121.298127,23.696668]]],[[[121.298127,23.696668],[121.298224,23.696759],[121.298225,23.696669],[121.298127,23.696668]]],[[[121.299104,23.696949],[121.299107,23.696769],[121.298911,23.696767],[121.298912,23.696676],[121.298812,23.696765],[121.298616,23.696763],[121.298618,23.696673],[121.298224,23.696759],[121.298223,23.696849],[121.298908,23.696947],[121.299102,23.69713],[121.299495,23.697044],[121.299496,23.696954],[121.299104,23.696949]]],[[[121.290856,23.697852],[121.290467,23.697577],[121.290665,23.697398],[121.290371,23.697395],[121.290475,23.696945],[121.290674,23.696766],[121.290583,23.696223],[121.290386,23.696221],[121.290388,23.696131],[121.29019,23.696219],[121.289997,23.696036],[121.289799,23.696124],[121.289805,23.695673],[121.289609,23.695671],[121.289701,23.696123],[121.289306,23.69639],[121.289301,23.696751],[121.28969,23.697026],[121.289687,23.697207],[121.290076,23.697482],[121.290073,23.697662],[121.29027,23.697665],[121.290462,23.697938],[121.290853,23.698032],[121.290856,23.697852]]],[[[121.299297,23.697222],[121.299396,23.697133],[121.299298,23.697132],[121.299297,23.697222]]],[[[121.291047,23.698215],[121.291049,23.698034],[121.290951,23.698033],[121.290949,23.698214],[121.291047,23.698215]]],[[[121.291633,23.698402],[121.291539,23.69804],[121.29144,23.698129],[121.291245,23.698037],[121.291243,23.698217],[121.291047,23.698215],[121.291241,23.698398],[121.291437,23.6984],[121.291438,23.69831],[121.291633,23.698402]]],[[[121.293093,23.699231],[121.292607,23.698864],[121.292312,23.698951],[121.292414,23.698682],[121.292218,23.698679],[121.292219,23.698589],[121.292121,23.698588],[121.292118,23.698769],[121.291922,23.698766],[121.29192,23.698947],[121.292214,23.69895],[121.29231,23.699132],[121.292702,23.699136],[121.292698,23.699407],[121.293091,23.699411],[121.293093,23.699231]]],[[[121.298868,23.700017],[121.299167,23.699659],[121.299559,23.699663],[121.299466,23.699301],[121.298575,23.699923],[121.298868,23.700017]]],[[[121.296904,23.700266],[121.296611,23.700173],[121.296411,23.700441],[121.296215,23.700439],[121.296216,23.700349],[121.295824,23.700345],[121.295729,23.700163],[121.294943,23.700245],[121.294944,23.700154],[121.294552,23.70015],[121.294553,23.70006],[121.294454,23.700149],[121.294357,23.700058],[121.293671,23.70005],[121.293672,23.69996],[121.293183,23.699864],[121.293088,23.699592],[121.29299,23.699591],[121.292987,23.699862],[121.293278,23.700046],[121.293276,23.700226],[121.293472,23.700228],[121.293473,23.700138],[121.293668,23.700231],[121.29347,23.700409],[121.293764,23.700412],[121.293864,23.700233],[121.294061,23.700235],[121.294059,23.700325],[121.294745,23.700423],[121.294938,23.700606],[121.295036,23.700607],[121.295039,23.700426],[121.295529,23.700432],[121.295528,23.700522],[121.295822,23.700525],[121.295821,23.700615],[121.296409,23.700622],[121.296506,23.700713],[121.296508,23.700533],[121.296902,23.700447],[121.296904,23.700266]]],[[[121.297393,23.700362],[121.297688,23.700275],[121.297789,23.700095],[121.2972,23.700089],[121.297002,23.700267],[121.297,23.700448],[121.297196,23.70045],[121.297296,23.70027],[121.297393,23.700362]]],[[[121.296505,23.700804],[121.296604,23.700714],[121.296506,23.700713],[121.296505,23.700804]]],[[[121.31207,23.68761],[121.312068,23.68779],[121.312166,23.687791],[121.312266,23.687612],[121.31207,23.68761]]],[[[121.313342,23.687804],[121.313345,23.687624],[121.313052,23.68753],[121.312956,23.687349],[121.312267,23.687522],[121.312461,23.687704],[121.312853,23.687709],[121.313144,23.687983],[121.313139,23.688344],[121.313529,23.688529],[121.313537,23.687897],[121.313342,23.687804]]],[[[121.311966,23.68806],[121.31187,23.687969],[121.31197,23.687789],[121.311774,23.687787],[121.311672,23.688057],[121.311476,23.688055],[121.311475,23.688145],[121.311768,23.688239],[121.311966,23.68806]]],[[[121.310182,23.689576],[121.310183,23.689485],[121.310379,23.689488],[121.310382,23.689307],[121.31058,23.689129],[121.310874,23.689132],[121.310876,23.688951],[121.311071,23.689044],[121.311172,23.688864],[121.311368,23.688866],[121.311566,23.688688],[121.311572,23.688236],[121.311277,23.688324],[121.310979,23.688591],[121.310878,23.688861],[121.310681,23.688859],[121.310483,23.689037],[121.310189,23.689034],[121.310087,23.689304],[121.309693,23.68948],[121.309689,23.689751],[121.309888,23.689573],[121.310182,23.689576]]],[[[121.307794,23.692259],[121.307795,23.692168],[121.308189,23.692082],[121.308191,23.691902],[121.308486,23.691815],[121.308487,23.691724],[121.308095,23.69172],[121.307995,23.6919],[121.307603,23.691895],[121.307502,23.692075],[121.307208,23.692072],[121.307105,23.692432],[121.3074,23.692435],[121.307401,23.692345],[121.307794,23.692259]]],[[[121.304913,23.695117],[121.305015,23.694847],[121.30521,23.694939],[121.305706,23.694493],[121.305811,23.693953],[121.305614,23.694041],[121.305611,23.694221],[121.305316,23.694308],[121.305314,23.694489],[121.305118,23.694487],[121.305114,23.694758],[121.304919,23.694665],[121.304622,23.694933],[121.304617,23.695294],[121.304913,23.695117]]],[[[121.304517,23.695474],[121.304617,23.695294],[121.304225,23.69529],[121.304026,23.695468],[121.304221,23.695561],[121.304223,23.69547],[121.304517,23.695474]]],[[[121.303928,23.695467],[121.304025,23.695559],[121.304026,23.695468],[121.303928,23.695467]]],[[[121.302343,23.696714],[121.302047,23.696891],[121.301943,23.697342],[121.302141,23.697163],[121.302335,23.697346],[121.302629,23.697349],[121.302632,23.697169],[121.302829,23.69708],[121.302832,23.69681],[121.30303,23.696721],[121.303033,23.696451],[121.303228,23.696543],[121.30323,23.696362],[121.303328,23.696364],[121.303135,23.696181],[121.303829,23.695556],[121.303241,23.69555],[121.303144,23.695459],[121.303142,23.695639],[121.302944,23.695727],[121.302941,23.695998],[121.302742,23.696177],[121.302838,23.696358],[121.302641,23.696446],[121.302537,23.696897],[121.302341,23.696895],[121.302343,23.696714]],[[121.302935,23.69645],[121.302934,23.69654],[121.302738,23.696538],[121.302739,23.696447],[121.302935,23.69645]],[[121.302339,23.697075],[121.302241,23.697074],[121.302243,23.696893],[121.302341,23.696895],[121.302339,23.697075]]],[[[121.299491,23.697405],[121.299493,23.697224],[121.299395,23.697223],[121.299393,23.697404],[121.299491,23.697405]]],[[[121.301049,23.698235],[121.300854,23.698142],[121.300555,23.6985],[121.300848,23.698594],[121.301046,23.698415],[121.301049,23.698235]]],[[[121.300848,23.698594],[121.300945,23.698685],[121.300946,23.698595],[121.300848,23.698594]]],[[[121.300846,23.698774],[121.300847,23.698684],[121.300651,23.698682],[121.30065,23.698772],[121.300846,23.698774]]],[[[121.30065,23.698772],[121.30055,23.698861],[121.300648,23.698863],[121.30065,23.698772]]],[[[121.29996,23.699036],[121.300253,23.699129],[121.30055,23.698861],[121.300255,23.698949],[121.300061,23.698766],[121.30006,23.698856],[121.299765,23.698943],[121.299859,23.699215],[121.300056,23.699217],[121.29996,23.699036]]],[[[121.299858,23.699305],[121.299761,23.699214],[121.29976,23.699304],[121.299858,23.699305]]],[[[121.299662,23.699303],[121.299759,23.699395],[121.29976,23.699304],[121.299662,23.699303]]]]}}]}