{"type":"FeatureCollection","features":[{"type":"Feature","properties":{"kind":"bare_slide","month":"2026-06","area_ha":452.34},"geometry":{"type":"MultiPolygon","coordinates":[[[[121.290841,23.72151],[121.290544,23.721777],[121.290349,23.721685],[121.290348,23.721775],[121.289758,23.721859],[121.289558,23.722128],[121.290141,23.722586],[121.290137,23.722857],[121.290331,23.723039],[121.290527,23.723041],[121.290623,23.723223],[121.291116,23.723048],[121.291405,23.723412],[121.291601,23.723415],[121.291697,23.723596],[121.291796,23.723507],[121.291991,23.723599],[121.291989,23.72378],[121.292087,23.723781],[121.291888,23.72396],[121.291881,23.724501],[121.291978,23.724593],[121.291482,23.725039],[121.29148,23.725219],[121.291281,23.725398],[121.291184,23.725306],[121.290791,23.725392],[121.290597,23.725209],[121.290401,23.725207],[121.290202,23.725386],[121.290009,23.725203],[121.289809,23.725472],[121.289614,23.725379],[121.289414,23.725648],[121.290395,23.725659],[121.290393,23.725839],[121.290589,23.725841],[121.290887,23.725574],[121.291176,23.725938],[121.291372,23.72594],[121.291663,23.726214],[121.29166,23.726395],[121.293525,23.726325],[121.293527,23.726145],[121.29392,23.726149],[121.293922,23.725969],[121.29451,23.725975],[121.294513,23.725794],[121.294905,23.725799],[121.294903,23.725979],[121.295491,23.725986],[121.295489,23.726166],[121.295881,23.726171],[121.295879,23.726351],[121.296075,23.726353],[121.296072,23.726534],[121.296465,23.726538],[121.296462,23.726719],[121.296658,23.726721],[121.296852,23.726904],[121.297146,23.726907],[121.297247,23.726728],[121.297738,23.726643],[121.297737,23.726733],[121.29862,23.726743],[121.298617,23.726923],[121.298814,23.726925],[121.298812,23.727016],[121.299303,23.727021],[121.299502,23.726752],[121.299405,23.726661],[121.298718,23.726744],[121.298333,23.726198],[121.298134,23.726376],[121.29784,23.726373],[121.297455,23.725827],[121.297157,23.726094],[121.296963,23.725912],[121.296765,23.72609],[121.296569,23.726088],[121.296474,23.725816],[121.296181,23.725723],[121.296085,23.725541],[121.295889,23.725539],[121.295691,23.725717],[121.2954,23.725443],[121.295403,23.725172],[121.295701,23.724905],[121.295895,23.725087],[121.296385,23.725093],[121.296869,23.72564],[121.297166,23.725372],[121.297362,23.725374],[121.297361,23.725465],[121.297657,23.725378],[121.29785,23.72556],[121.297951,23.725381],[121.298246,23.725294],[121.298242,23.725655],[121.29834,23.725656],[121.298239,23.725836],[121.298433,23.726018],[121.298629,23.72602],[121.298829,23.725752],[121.299025,23.725754],[121.299314,23.726118],[121.299513,23.72594],[121.299807,23.725943],[121.300293,23.72631],[121.300287,23.726761],[121.300384,23.726852],[121.301069,23.72695],[121.301173,23.7265],[121.301568,23.726324],[121.301574,23.725872],[121.301767,23.726055],[121.301963,23.726057],[121.302065,23.725787],[121.302163,23.725788],[121.30207,23.725426],[121.302362,23.72561],[121.302464,23.72525],[121.302562,23.725251],[121.302468,23.724979],[121.301783,23.724881],[121.301683,23.72497],[121.301777,23.725333],[121.301481,23.72542],[121.301484,23.725239],[121.301582,23.72524],[121.301584,23.72506],[121.301486,23.725059],[121.30159,23.724608],[121.301493,23.724517],[121.301791,23.724249],[121.301793,23.724069],[121.301989,23.724071],[121.301988,23.724161],[121.302381,23.724075],[121.302574,23.724348],[121.30277,23.72435],[121.302871,23.724171],[121.303165,23.724174],[121.303264,23.724085],[121.303168,23.723903],[121.303364,23.723905],[121.304059,23.723281],[121.304061,23.7231],[121.303673,23.722825],[121.303675,23.722644],[121.304067,23.722649],[121.304068,23.722558],[121.304361,23.722652],[121.30436,23.722742],[121.304656,23.722655],[121.304563,23.722203],[121.304464,23.722292],[121.30417,23.722289],[121.304171,23.722198],[121.304072,23.722288],[121.303385,23.72228],[121.303095,23.722006],[121.302606,23.72191],[121.302615,23.721188],[121.302517,23.721187],[121.302525,23.720555],[121.302624,23.720466],[121.302526,23.720465],[121.302534,23.719833],[121.302436,23.719832],[121.302642,23.719111],[121.302936,23.719115],[121.303136,23.718846],[121.303529,23.71876],[121.304028,23.718133],[121.304617,23.71805],[121.304616,23.71814],[121.304812,23.718142],[121.304708,23.718592],[121.304806,23.718593],[121.304897,23.719136],[121.305189,23.71932],[121.305388,23.719142],[121.305391,23.718871],[121.305099,23.718687],[121.305105,23.718235],[121.3057,23.7177],[121.305891,23.718154],[121.305989,23.718155],[121.306079,23.718788],[121.305981,23.718787],[121.305879,23.719057],[121.305584,23.719144],[121.305581,23.719324],[121.306071,23.71942],[121.306264,23.719603],[121.306268,23.719332],[121.306465,23.719244],[121.306467,23.719063],[121.306274,23.71888],[121.306868,23.718435],[121.306973,23.717895],[121.307663,23.717631],[121.307763,23.717452],[121.307569,23.717269],[121.307275,23.717266],[121.307276,23.717176],[121.306885,23.717081],[121.306887,23.716991],[121.306592,23.716988],[121.306594,23.716897],[121.306299,23.716894],[121.306301,23.716804],[121.306103,23.716892],[121.306011,23.716439],[121.306408,23.716083],[121.306311,23.715991],[121.306411,23.715812],[121.306704,23.715905],[121.306903,23.715727],[121.30691,23.715185],[121.307107,23.715097],[121.307113,23.714645],[121.30731,23.714557],[121.307316,23.714106],[121.307709,23.71402],[121.307711,23.71393],[121.308005,23.713933],[121.308303,23.713665],[121.308208,23.713393],[121.308013,23.713301],[121.308015,23.71312],[121.308313,23.712853],[121.308316,23.712582],[121.308415,23.712583],[121.308517,23.712223],[121.30901,23.712048],[121.309011,23.711957],[121.309402,23.712052],[121.309502,23.711872],[121.309896,23.711786],[121.309999,23.711426],[121.310097,23.711427],[121.310003,23.711065],[121.309128,23.710514],[121.309233,23.709973],[121.309529,23.709796],[121.309241,23.709341],[121.309539,23.709073],[121.309445,23.708711],[121.309742,23.708534],[121.309746,23.708173],[121.309551,23.70808],[121.309451,23.70826],[121.309156,23.708347],[121.309158,23.708166],[121.308963,23.708074],[121.308765,23.708252],[121.308867,23.707892],[121.308769,23.707891],[121.308677,23.707439],[121.308775,23.70744],[121.308779,23.707169],[121.309074,23.707082],[121.309178,23.706631],[121.308984,23.706449],[121.308788,23.706447],[121.308699,23.705723],[121.308407,23.705539],[121.308411,23.705269],[121.308023,23.704903],[121.308028,23.704542],[121.30793,23.704541],[121.30814,23.70346],[121.308042,23.703459],[121.308048,23.703007],[121.307757,23.702733],[121.30805,23.702827],[121.30815,23.702647],[121.307955,23.702555],[121.307958,23.702374],[121.307668,23.70201],[121.307866,23.701922],[121.307869,23.701651],[121.307967,23.701652],[121.307874,23.701289],[121.308072,23.701111],[121.30808,23.700479],[121.307982,23.700478],[121.307889,23.700116],[121.307594,23.700203],[121.307498,23.700021],[121.307597,23.699932],[121.307891,23.699935],[121.30789,23.700025],[121.308087,23.699937],[121.30809,23.699757],[121.307992,23.699756],[121.308098,23.699125],[121.308391,23.699218],[121.308485,23.69949],[121.308683,23.699402],[121.308685,23.699221],[121.30849,23.699129],[121.308496,23.698678],[121.308398,23.698677],[121.308307,23.698134],[121.308209,23.698133],[121.308506,23.697865],[121.308409,23.697774],[121.308511,23.697504],[121.308317,23.697321],[121.308321,23.69705],[121.308127,23.696868],[121.30754,23.696771],[121.307641,23.696501],[121.307839,23.696413],[121.307841,23.696232],[121.308038,23.696144],[121.30804,23.695964],[121.308238,23.695876],[121.308141,23.695784],[121.308245,23.695334],[121.308148,23.695242],[121.307951,23.695331],[121.307955,23.694969],[121.307857,23.694968],[121.307765,23.694516],[121.307667,23.694515],[121.307768,23.694245],[121.307377,23.69415],[121.306981,23.694507],[121.306968,23.6955],[121.307163,23.695593],[121.306964,23.695771],[121.306955,23.696494],[121.306856,23.696583],[121.306267,23.696576],[121.306167,23.696756],[121.305481,23.696748],[121.304191,23.697908],[121.304185,23.69836],[121.303988,23.698448],[121.303982,23.698899],[121.303785,23.698987],[121.303781,23.699258],[121.303584,23.699346],[121.303579,23.699707],[121.302985,23.700152],[121.302972,23.701146],[121.302675,23.701413],[121.302086,23.701407],[121.301986,23.701586],[121.299633,23.70156],[121.299537,23.701379],[121.298753,23.70137],[121.298657,23.701188],[121.297971,23.701181],[121.297968,23.701361],[121.298163,23.701454],[121.298062,23.701724],[121.298159,23.701815],[121.298454,23.701728],[121.298452,23.701909],[121.298058,23.701995],[121.297866,23.701722],[121.297667,23.7019],[121.297471,23.701898],[121.297279,23.701625],[121.297082,23.701623],[121.297081,23.701713],[121.296885,23.701711],[121.296588,23.701978],[121.296095,23.702154],[121.296093,23.702334],[121.296191,23.702335],[121.296089,23.702605],[121.29638,23.702879],[121.296376,23.70315],[121.29608,23.703327],[121.296175,23.703509],[121.296371,23.703511],[121.296368,23.703782],[121.29627,23.703781],[121.296363,23.704143],[121.296167,23.704141],[121.295969,23.704319],[121.295774,23.704227],[121.295673,23.704406],[121.295477,23.704404],[121.295382,23.704223],[121.295085,23.7044],[121.294989,23.704218],[121.294696,23.704125],[121.294595,23.704394],[121.294693,23.704396],[121.294786,23.704758],[121.294688,23.704757],[121.294683,23.705118],[121.294485,23.705296],[121.294571,23.7062],[121.294472,23.706289],[121.293983,23.706194],[121.293982,23.706284],[121.293588,23.70637],[121.293585,23.706641],[121.293683,23.706642],[121.293778,23.706914],[121.293975,23.706826],[121.29388,23.706554],[121.294272,23.706558],[121.29427,23.706739],[121.294368,23.70674],[121.294267,23.70701],[121.294755,23.707196],[121.294652,23.707556],[121.294257,23.707732],[121.294254,23.708003],[121.294352,23.708004],[121.294242,23.708906],[121.294046,23.708903],[121.294045,23.708994],[121.293849,23.708992],[121.293453,23.709258],[121.29345,23.709439],[121.292954,23.709885],[121.293049,23.710157],[121.292852,23.710245],[121.292748,23.710695],[121.292155,23.71105],[121.292151,23.711321],[121.291556,23.711856],[121.291453,23.712216],[121.291254,23.712394],[121.291058,23.712392],[121.290659,23.712929],[121.290267,23.712925],[121.290163,23.713375],[121.289964,23.713554],[121.289571,23.71364],[121.289171,23.714267],[121.288974,23.714265],[121.288973,23.714356],[121.288679,23.714352],[121.288583,23.714171],[121.287798,23.714252],[121.287604,23.71407],[121.286919,23.713972],[121.286719,23.71424],[121.287208,23.714336],[121.287207,23.714426],[121.287108,23.714516],[121.286226,23.714415],[121.286028,23.714594],[121.286124,23.714776],[121.286417,23.714869],[121.286215,23.715318],[121.286019,23.715316],[121.285819,23.715585],[121.285525,23.715582],[121.285226,23.715939],[121.284635,23.716114],[121.285023,23.716479],[121.285017,23.71693],[121.284917,23.71702],[121.285014,23.717111],[121.28531,23.717024],[121.285307,23.717205],[121.28511,23.717293],[121.285203,23.717655],[121.285397,23.717838],[121.285594,23.71775],[121.285403,23.717386],[121.2858,23.717029],[121.285994,23.717212],[121.285881,23.718295],[121.286075,23.718477],[121.286273,23.718389],[121.286465,23.718662],[121.286662,23.718574],[121.286856,23.718757],[121.28636,23.719203],[121.286358,23.719383],[121.286456,23.719384],[121.286354,23.719654],[121.286056,23.719922],[121.285861,23.719829],[121.285564,23.720097],[121.28556,23.720368],[121.285363,23.720456],[121.285557,23.720639],[121.285554,23.720819],[121.285357,23.720907],[121.285451,23.721179],[121.285942,23.721185],[121.286328,23.721641],[121.28672,23.721645],[121.286919,23.721466],[121.286921,23.721286],[121.287214,23.721379],[121.287213,23.72147],[121.28741,23.721382],[121.287316,23.72111],[121.287218,23.721109],[121.287318,23.720929],[121.288006,23.720846],[121.288007,23.720756],[121.288497,23.720762],[121.288598,23.720582],[121.288794,23.720584],[121.288793,23.720675],[121.28899,23.720586],[121.289085,23.720858],[121.289281,23.720861],[121.289479,23.720682],[121.289968,23.720778],[121.289967,23.720868],[121.290262,23.720781],[121.290162,23.720961],[121.290553,23.721055],[121.290453,23.721235],[121.290646,23.721417],[121.290943,23.72124],[121.290841,23.72151]],[[121.305206,23.718056],[121.305109,23.717965],[121.305207,23.717966],[121.305206,23.718056]],[[121.305602,23.717699],[121.305506,23.717608],[121.305604,23.717609],[121.305602,23.717699]],[[121.292748,23.710695],[121.292845,23.710786],[121.292746,23.710785],[121.292748,23.710695]],[[121.291041,23.721241],[121.290654,23.720876],[121.290457,23.720874],[121.290362,23.720692],[121.290756,23.720516],[121.290852,23.720697],[121.29134,23.720883],[121.291041,23.721241]],[[121.291569,23.725852],[121.291471,23.725851],[121.291475,23.72558],[121.291573,23.725581],[121.291569,23.725852]],[[121.301184,23.725687],[121.300889,23.725684],[121.300893,23.725413],[121.301187,23.725416],[121.301184,23.725687]],[[121.292067,23.725316],[121.291968,23.725405],[121.291969,23.725315],[121.292067,23.725316]],[[121.300704,23.724869],[121.300901,23.724781],[121.301192,23.725055],[121.300896,23.725142],[121.300895,23.725233],[121.300601,23.725229],[121.300704,23.724869]],[[121.297466,23.724924],[121.297367,23.725013],[121.297368,23.724923],[121.297466,23.724924]],[[121.295407,23.724901],[121.295309,23.7249],[121.295311,23.72472],[121.295409,23.724721],[121.295407,23.724901]],[[121.294624,23.724802],[121.294822,23.724624],[121.29482,23.724805],[121.294624,23.724802]],[[121.293548,23.72452],[121.293351,23.724608],[121.293357,23.724156],[121.293259,23.724155],[121.293359,23.723976],[121.293166,23.723793],[121.293066,23.723882],[121.292871,23.72379],[121.29307,23.723611],[121.292876,23.723429],[121.292878,23.723248],[121.293077,23.72307],[121.293273,23.723072],[121.293369,23.723253],[121.293566,23.723165],[121.293564,23.723346],[121.293267,23.723523],[121.293363,23.723705],[121.293462,23.723616],[121.294051,23.723622],[121.294048,23.723803],[121.29434,23.723987],[121.294138,23.724436],[121.293942,23.724434],[121.293742,23.724702],[121.293548,23.72452]],[[121.297865,23.724477],[121.297766,23.724476],[121.297771,23.724115],[121.297869,23.724116],[121.297865,23.724477]],[[121.301206,23.723972],[121.301401,23.724064],[121.301398,23.724245],[121.301203,23.724152],[121.301206,23.723972]],[[121.294833,23.723811],[121.295031,23.723633],[121.295029,23.723814],[121.294833,23.723811]],[[121.297874,23.723755],[121.297776,23.723754],[121.297778,23.723573],[121.297876,23.723574],[121.297874,23.723755]],[[121.301714,23.722623],[121.301911,23.722535],[121.301913,23.722354],[121.302109,23.722356],[121.302308,23.722178],[121.302503,23.72227],[121.302596,23.722633],[121.302794,23.722544],[121.302797,23.722274],[121.302993,23.722276],[121.302991,23.722456],[121.302893,23.722455],[121.302984,23.722998],[121.302496,23.722812],[121.302197,23.72317],[121.301804,23.723256],[121.301714,23.722623]],[[121.291517,23.72233],[121.29142,23.722239],[121.291324,23.722147],[121.29152,23.722149],[121.291517,23.72233]],[[121.291324,23.722147],[121.291227,23.722056],[121.291325,23.722057],[121.291324,23.722147]],[[121.293872,23.722266],[121.293676,23.722264],[121.293677,23.722173],[121.293873,23.722175],[121.293872,23.722266]],[[121.291132,23.721784],[121.291329,23.721696],[121.291326,23.721967],[121.291228,23.721966],[121.291132,23.721784]],[[121.29378,23.721813],[121.293681,23.721902],[121.293682,23.721812],[121.29378,23.721813]],[[121.291722,23.7217],[121.291622,23.721789],[121.291624,23.721699],[121.291722,23.7217]],[[121.291919,23.721612],[121.29182,23.721701],[121.291821,23.721611],[121.291919,23.721612]],[[121.293487,23.72172],[121.293196,23.721446],[121.293392,23.721448],[121.293493,23.721268],[121.293985,23.721093],[121.293489,23.721539],[121.293487,23.72172]],[[121.294573,23.72119],[121.294177,23.721456],[121.294181,23.721095],[121.294278,23.721187],[121.294476,23.721098],[121.294379,23.721007],[121.29448,23.720737],[121.294773,23.720831],[121.294575,23.721009],[121.294573,23.72119]],[[121.294671,23.721191],[121.294669,23.721281],[121.294571,23.72128],[121.294573,23.72119],[121.294671,23.721191]],[[121.295551,23.721381],[121.295452,23.72147],[121.295453,23.72138],[121.295551,23.721381]],[[121.299375,23.721423],[121.299276,23.721513],[121.299277,23.721422],[121.299375,23.721423]],[[121.295063,23.721195],[121.294965,23.721194],[121.294967,23.721014],[121.295065,23.721015],[121.295063,23.721195]],[[121.298597,23.720963],[121.298499,23.720962],[121.298501,23.720782],[121.298599,23.720783],[121.298597,23.720963]],[[121.296049,23.720755],[121.29595,23.720844],[121.295951,23.720754],[121.296049,23.720755]],[[121.295563,23.720478],[121.295463,23.720568],[121.295465,23.720477],[121.295563,23.720478]],[[121.296355,23.719855],[121.296551,23.719857],[121.296353,23.720036],[121.296448,23.720308],[121.296251,23.720305],[121.296355,23.719855]],[[121.293018,23.720089],[121.292918,23.720178],[121.29292,23.720088],[121.293018,23.720089]],[[121.295076,23.720202],[121.294978,23.720201],[121.29498,23.72002],[121.295078,23.720022],[121.295076,23.720202]],[[121.295667,23.720028],[121.295567,23.720117],[121.295568,23.720027],[121.295667,23.720028]],[[121.29361,23.719825],[121.29351,23.719914],[121.293511,23.719824],[121.29361,23.719825]],[[121.293807,23.719737],[121.293708,23.719826],[121.293709,23.719736],[121.293807,23.719737]],[[121.294003,23.719739],[121.293904,23.719828],[121.293905,23.719738],[121.294003,23.719739]],[[121.295963,23.719851],[121.295865,23.71985],[121.295867,23.719669],[121.295965,23.71967],[121.295963,23.719851]],[[121.301752,23.719643],[121.301948,23.719646],[121.301847,23.719915],[121.301651,23.719913],[121.301752,23.719643]],[[121.294595,23.719474],[121.294496,23.719564],[121.294497,23.719473],[121.294595,23.719474]],[[121.296163,23.719582],[121.295872,23.719308],[121.296269,23.718951],[121.296463,23.719134],[121.296659,23.719136],[121.296655,23.719407],[121.296361,23.719404],[121.296163,23.719582]],[[121.296948,23.7195],[121.296849,23.71959],[121.29685,23.719499],[121.296948,23.7195]],[[121.295381,23.719393],[121.295281,23.719482],[121.295282,23.719392],[121.295381,23.719393]],[[121.295675,23.719396],[121.295575,23.719485],[121.295577,23.719395],[121.295675,23.719396]],[[121.287339,23.719304],[121.287146,23.719121],[121.287155,23.718399],[121.286862,23.718305],[121.286863,23.718215],[121.286568,23.718302],[121.286374,23.718119],[121.286573,23.717941],[121.286576,23.71767],[121.286775,23.717492],[121.286872,23.717583],[121.287069,23.717495],[121.286977,23.717042],[121.286783,23.71686],[121.286584,23.717038],[121.286293,23.716854],[121.286395,23.716494],[121.286004,23.7164],[121.285811,23.716217],[121.28601,23.715948],[121.286206,23.71595],[121.286302,23.716132],[121.28679,23.716318],[121.286691,23.716407],[121.286786,23.716589],[121.287083,23.716412],[121.287176,23.716774],[121.287371,23.716866],[121.287271,23.717046],[121.28766,23.717321],[121.287643,23.718585],[121.287741,23.718586],[121.287638,23.718946],[121.287736,23.718947],[121.287734,23.719128],[121.287536,23.719306],[121.287339,23.719304]],[[121.289502,23.718967],[121.289698,23.718969],[121.289793,23.719151],[121.2894,23.719236],[121.289502,23.718967]],[[121.294405,23.719021],[121.294503,23.719022],[121.294499,23.719293],[121.294401,23.719292],[121.294405,23.719021]],[[121.294503,23.719022],[121.294604,23.718752],[121.295193,23.718759],[121.295092,23.718938],[121.294602,23.718933],[121.294601,23.719023],[121.294503,23.719022]],[[121.295092,23.718938],[121.295189,23.719029],[121.295091,23.719028],[121.295092,23.718938]],[[121.289602,23.718787],[121.289406,23.718785],[121.289407,23.718695],[121.289603,23.718697],[121.289602,23.718787]],[[121.296469,23.718682],[121.296369,23.718772],[121.296371,23.718681],[121.296469,23.718682]],[[121.296373,23.718501],[121.296274,23.71859],[121.296275,23.7185],[121.296373,23.718501]],[[121.289312,23.718423],[121.289412,23.718334],[121.289411,23.718424],[121.289312,23.718423]],[[121.289414,23.718153],[121.289512,23.718154],[121.28951,23.718335],[121.289412,23.718334],[121.289414,23.718153]],[[121.294019,23.718475],[121.294119,23.718386],[121.294117,23.718476],[121.294019,23.718475]],[[121.294119,23.718386],[121.294218,23.718296],[121.294217,23.718387],[121.294119,23.718386]],[[121.294609,23.718391],[121.294511,23.71839],[121.294513,23.718209],[121.294611,23.71821],[121.294609,23.718391]],[[121.296965,23.718236],[121.296766,23.718415],[121.29657,23.718413],[121.296967,23.718056],[121.296965,23.718236]],[[121.296869,23.718055],[121.296772,23.717963],[121.29687,23.717964],[121.296869,23.718055]],[[121.296873,23.717784],[121.296971,23.717785],[121.296968,23.717965],[121.29687,23.717964],[121.296873,23.717784]],[[121.296973,23.717604],[121.297071,23.717605],[121.29717,23.717516],[121.297069,23.717786],[121.296971,23.717785],[121.296973,23.717604]],[[121.290117,23.716897],[121.290313,23.716899],[121.290312,23.716989],[121.290017,23.717076],[121.290014,23.717257],[121.290209,23.717349],[121.290301,23.717802],[121.290203,23.717801],[121.290197,23.718252],[121.289903,23.718249],[121.290103,23.71798],[121.290005,23.717979],[121.290012,23.717437],[121.289914,23.717436],[121.289824,23.716803],[121.290021,23.716715],[121.290117,23.716897]],[[121.290119,23.716716],[121.289926,23.716533],[121.29022,23.716537],[121.290119,23.716716]],[[121.290221,23.716446],[121.290417,23.716448],[121.290416,23.716539],[121.29022,23.716537],[121.290221,23.716446]],[[121.290418,23.716358],[121.290614,23.71636],[121.290613,23.716451],[121.290417,23.716448],[121.290418,23.716358]],[[121.289713,23.717795],[121.289614,23.717884],[121.289615,23.717794],[121.289713,23.717795]],[[121.295991,23.717684],[121.296089,23.717685],[121.296087,23.717865],[121.29589,23.717954],[121.295991,23.717684]],[[121.297364,23.717699],[121.297462,23.7177],[121.297464,23.717519],[121.297661,23.717522],[121.297658,23.717702],[121.297262,23.717969],[121.297364,23.717699]],[[121.295403,23.717677],[121.295304,23.717767],[121.295305,23.717676],[121.295403,23.717677]],[[121.306094,23.717614],[121.306387,23.717708],[121.306386,23.717798],[121.306188,23.717886],[121.306094,23.717614]],[[121.306583,23.71771],[121.306779,23.717712],[121.306777,23.717893],[121.306679,23.717892],[121.306583,23.71771]],[[121.291187,23.717541],[121.291088,23.71763],[121.291089,23.717539],[121.291187,23.717541]],[[121.292466,23.717284],[121.292662,23.717286],[121.292659,23.717466],[121.292363,23.717644],[121.292466,23.717284]],[[121.294327,23.717485],[121.294227,23.717574],[121.294228,23.717484],[121.294327,23.717485]],[[121.291389,23.717091],[121.291487,23.717092],[121.291485,23.717273],[121.291287,23.717451],[121.291389,23.717091]],[[121.293151,23.717382],[121.293052,23.717471],[121.293053,23.717381],[121.293151,23.717382]],[[121.295312,23.717135],[121.29492,23.71713],[121.294918,23.717221],[121.294623,23.717308],[121.294621,23.717488],[121.294425,23.717486],[121.294725,23.717038],[121.295215,23.717043],[121.295317,23.716773],[121.295415,23.716774],[121.295312,23.717135]],[[121.295415,23.716774],[121.295514,23.716685],[121.295513,23.716776],[121.295415,23.716774]],[[121.300506,23.717463],[121.300407,23.717462],[121.30041,23.717281],[121.300508,23.717282],[121.300506,23.717463]],[[121.290605,23.717083],[121.290703,23.717084],[121.290701,23.717264],[121.290603,23.717263],[121.290605,23.717083]],[[121.290705,23.716903],[121.290803,23.716904],[121.290903,23.716815],[121.290801,23.717085],[121.290703,23.717084],[121.290705,23.716903]],[[121.297958,23.717254],[121.297859,23.717343],[121.29786,23.717253],[121.297958,23.717254]],[[121.294234,23.717032],[121.294135,23.717122],[121.294136,23.717031],[121.294234,23.717032]],[[121.296588,23.717058],[121.296489,23.717148],[121.29649,23.717057],[121.296588,23.717058]],[[121.289529,23.71689],[121.289429,23.716979],[121.289431,23.716889],[121.289529,23.71689]],[[121.291587,23.717003],[121.291489,23.717002],[121.291491,23.716822],[121.291589,23.716823],[121.291587,23.717003]],[[121.29973,23.716732],[121.299927,23.716734],[121.299924,23.716914],[121.299826,23.716913],[121.29973,23.716732]],[[121.291591,23.716642],[121.291492,23.716731],[121.291493,23.716641],[121.291591,23.716642]],[[121.296885,23.716791],[121.297084,23.716612],[121.297082,23.716793],[121.296885,23.716791]],[[121.288064,23.716422],[121.288261,23.716334],[121.288357,23.716516],[121.288159,23.716604],[121.288064,23.716422]],[[121.29728,23.716614],[121.297181,23.716704],[121.297182,23.716613],[121.29728,23.716614]],[[121.291987,23.716375],[121.292385,23.715928],[121.292581,23.715931],[121.292084,23.716467],[121.291789,23.716554],[121.291791,23.716373],[121.291987,23.716375]],[[121.285418,23.716213],[121.28522,23.716391],[121.285223,23.71612],[121.285418,23.716213]],[[121.28542,23.716122],[121.285618,23.715944],[121.285713,23.716216],[121.285515,23.716304],[121.28542,23.716122]],[[121.294836,23.716046],[121.294634,23.716495],[121.294438,23.716493],[121.294539,23.716223],[121.294637,23.716224],[121.294543,23.715952],[121.294938,23.715686],[121.295033,23.715958],[121.294836,23.716046]],[[121.295033,23.715958],[121.29513,23.716049],[121.295032,23.716048],[121.295033,23.715958]],[[121.296206,23.716241],[121.296006,23.71651],[121.29581,23.716508],[121.295813,23.716327],[121.296206,23.716241]],[[121.296206,23.716241],[121.296305,23.716152],[121.296304,23.716243],[121.296206,23.716241]],[[121.296307,23.716062],[121.296601,23.716065],[121.2966,23.716155],[121.296305,23.716152],[121.296307,23.716062]],[[121.296602,23.715975],[121.296798,23.715977],[121.296797,23.716067],[121.296601,23.716065],[121.296602,23.715975]],[[121.296798,23.715977],[121.297196,23.71553],[121.297392,23.715532],[121.297692,23.715084],[121.297887,23.715176],[121.297291,23.715802],[121.297095,23.7158],[121.296994,23.715979],[121.296798,23.715977]],[[121.296497,23.716516],[121.296793,23.716338],[121.296791,23.716519],[121.296497,23.716516]],[[121.298556,23.716538],[121.298755,23.71636],[121.298752,23.71654],[121.298556,23.716538]],[[121.302087,23.716487],[121.301988,23.716576],[121.301989,23.716486],[121.302087,23.716487]],[[121.293165,23.716298],[121.292968,23.716386],[121.29297,23.716206],[121.293267,23.716028],[121.293165,23.716298]],[[121.293267,23.716028],[121.293366,23.715939],[121.293365,23.71603],[121.293267,23.716028]],[[121.293368,23.715759],[121.293566,23.715671],[121.293672,23.71504],[121.294065,23.714954],[121.29416,23.715226],[121.293765,23.715402],[121.293955,23.715855],[121.293662,23.715762],[121.293562,23.715941],[121.293366,23.715939],[121.293368,23.715759]],[[121.293562,23.715941],[121.293659,23.716033],[121.293561,23.716032],[121.293562,23.715941]],[[121.295127,23.71623],[121.295324,23.716232],[121.295423,23.716142],[121.295321,23.716412],[121.295127,23.71623]],[[121.29738,23.716435],[121.297184,23.716433],[121.297186,23.716343],[121.297382,23.716345],[121.29738,23.716435]],[[121.290028,23.716173],[121.289929,23.716262],[121.28993,23.716172],[121.290028,23.716173]],[[121.286695,23.716046],[121.286404,23.715862],[121.286406,23.715682],[121.286703,23.715504],[121.286896,23.715687],[121.286894,23.715868],[121.286695,23.716046]],[[121.290717,23.716],[121.290618,23.716089],[121.290619,23.715999],[121.290717,23.716]],[[121.294345,23.71604],[121.294246,23.71613],[121.294247,23.716039],[121.294345,23.71604]],[[121.302092,23.716126],[121.301993,23.716215],[121.301994,23.716124],[121.302092,23.716126]],[[121.290425,23.715816],[121.290326,23.715906],[121.290327,23.715815],[121.290425,23.715816]],[[121.297975,23.71599],[121.297779,23.715988],[121.297781,23.715807],[121.298076,23.71572],[121.297975,23.71599]],[[121.298076,23.71572],[121.298176,23.715631],[121.298174,23.715721],[121.298076,23.71572]],[[121.301995,23.716034],[121.301703,23.71585],[121.301804,23.715671],[121.302097,23.715764],[121.301995,23.716034]],[[121.292978,23.715574],[121.293076,23.715575],[121.293073,23.715846],[121.292877,23.715844],[121.292978,23.715574]],[[121.294447,23.715771],[121.294348,23.71586],[121.294349,23.715769],[121.294447,23.715771]],[[121.297585,23.715805],[121.297486,23.715894],[121.297487,23.715804],[121.297585,23.715805]],[[121.295429,23.715691],[121.295329,23.71578],[121.295331,23.71569],[121.295429,23.715691]],[[121.291017,23.715552],[121.290918,23.715641],[121.290919,23.715551],[121.291017,23.715552]],[[121.295236,23.715418],[121.295137,23.715507],[121.295138,23.715417],[121.295236,23.715418]],[[121.298571,23.715364],[121.298472,23.715454],[121.298473,23.715363],[121.298571,23.715364]],[[121.292983,23.715213],[121.292884,23.715302],[121.292885,23.715212],[121.292983,23.715213]],[[121.293276,23.715306],[121.293178,23.715305],[121.293182,23.715034],[121.29328,23.715035],[121.293276,23.715306]],[[121.295435,23.71524],[121.295631,23.715242],[121.295629,23.715332],[121.295433,23.71533],[121.295435,23.71524]],[[121.295631,23.715242],[121.29573,23.715153],[121.295729,23.715243],[121.295631,23.715242]],[[121.298572,23.715274],[121.298474,23.715273],[121.298477,23.715093],[121.298575,23.715094],[121.298572,23.715274]],[[121.287004,23.714966],[121.286811,23.714693],[121.287009,23.714605],[121.287201,23.714878],[121.287004,23.714966]],[[121.289751,23.714906],[121.289949,23.714728],[121.289947,23.714908],[121.289751,23.714906]],[[121.291321,23.714833],[121.291222,23.714922],[121.291223,23.714832],[121.291321,23.714833]],[[121.298871,23.714916],[121.298772,23.715005],[121.298774,23.714825],[121.29907,23.714738],[121.299067,23.714918],[121.298871,23.714916]],[[121.299072,23.714557],[121.29917,23.714558],[121.299168,23.714739],[121.29907,23.714738],[121.299072,23.714557]],[[121.293479,23.714767],[121.29338,23.714856],[121.293381,23.714765],[121.293479,23.714767]],[[121.294756,23.7146],[121.294658,23.714599],[121.294656,23.71478],[121.294459,23.714868],[121.294463,23.714507],[121.294858,23.71433],[121.294756,23.7146]],[[121.294861,23.714059],[121.295256,23.713883],[121.295258,23.713703],[121.295456,23.713614],[121.295459,23.713344],[121.295656,23.713256],[121.295753,23.713347],[121.295555,23.713525],[121.295649,23.713797],[121.295354,23.713884],[121.295254,23.714064],[121.295058,23.714062],[121.294956,23.714331],[121.294858,23.71433],[121.294861,23.714059]],[[121.296423,23.714618],[121.296225,23.714797],[121.296227,23.714616],[121.296423,23.714618]],[[121.296423,23.714618],[121.296523,23.714529],[121.296521,23.71462],[121.296423,23.714618]],[[121.296523,23.714529],[121.296622,23.71444],[121.296621,23.71453],[121.296523,23.714529]],[[121.296622,23.71444],[121.296721,23.714351],[121.29672,23.714441],[121.296622,23.71444]],[[121.296723,23.71417],[121.296821,23.714171],[121.296819,23.714352],[121.296721,23.714351],[121.296723,23.71417]],[[121.296821,23.714171],[121.296921,23.714082],[121.29692,23.714172],[121.296821,23.714171]],[[121.296923,23.713902],[121.297021,23.713903],[121.297019,23.714083],[121.296921,23.714082],[121.296923,23.713902]],[[121.297023,23.713722],[121.297121,23.713723],[121.297119,23.713904],[121.297021,23.713903],[121.297023,23.713722]],[[121.298383,23.71473],[121.298382,23.714821],[121.298186,23.714818],[121.29809,23.714637],[121.298383,23.71473]],[[121.297894,23.714635],[121.297895,23.714544],[121.298092,23.714546],[121.29809,23.714637],[121.297894,23.714635]],[[121.298888,23.713652],[121.298786,23.713922],[121.298495,23.713648],[121.298393,23.714008],[121.298295,23.714007],[121.29839,23.714189],[121.298687,23.714011],[121.298685,23.714192],[121.298587,23.714191],[121.298678,23.714734],[121.298579,23.714732],[121.298583,23.714462],[121.298192,23.714367],[121.298291,23.714278],[121.298194,23.714186],[121.2982,23.713735],[121.298397,23.713647],[121.298302,23.713465],[121.298596,23.713468],[121.298696,23.713289],[121.298794,23.71329],[121.29879,23.713651],[121.298888,23.713652]],[[121.298598,23.713288],[121.298601,23.713107],[121.298699,23.713108],[121.298696,23.713289],[121.298598,23.713288]],[[121.293482,23.714586],[121.293384,23.714585],[121.293386,23.714404],[121.293484,23.714405],[121.293482,23.714586]],[[121.295347,23.714426],[121.295248,23.714515],[121.295249,23.714425],[121.295347,23.714426]],[[121.297113,23.714355],[121.297014,23.714444],[121.297015,23.714354],[121.297113,23.714355]],[[121.305644,23.714449],[121.305545,23.714538],[121.305546,23.714448],[121.305644,23.714449]],[[121.293877,23.714319],[121.293779,23.714318],[121.293782,23.714138],[121.29388,23.714139],[121.293877,23.714319]],[[121.298095,23.714276],[121.297996,23.714365],[121.297997,23.714275],[121.298095,23.714276]],[[121.299271,23.714379],[121.299173,23.714378],[121.299175,23.714197],[121.299273,23.714198],[121.299271,23.714379]],[[121.295547,23.714157],[121.295447,23.714246],[121.295449,23.714156],[121.295547,23.714157]],[[121.299469,23.7142],[121.299568,23.714111],[121.299567,23.714202],[121.299469,23.7142]],[[121.299568,23.714111],[121.299667,23.714022],[121.299767,23.713933],[121.299764,23.714113],[121.299568,23.714111]],[[121.299081,23.713835],[121.299275,23.714018],[121.299079,23.714016],[121.299081,23.713835]],[[121.298983,23.713834],[121.298986,23.713653],[121.299084,23.713654],[121.299081,23.713835],[121.298983,23.713834]],[[121.299673,23.713571],[121.299574,23.71366],[121.299572,23.71384],[121.299474,23.713839],[121.299477,23.713568],[121.299673,23.713571]],[[121.291435,23.71357],[121.291336,23.713659],[121.291337,23.713569],[121.291435,23.71357]],[[121.299868,23.713663],[121.299872,23.713392],[121.29997,23.713393],[121.299966,23.713664],[121.299868,23.713663]],[[121.299872,23.713392],[121.299775,23.713301],[121.299873,23.713302],[121.299872,23.713392]],[[121.295851,23.713348],[121.295949,23.713349],[121.295947,23.71353],[121.295849,23.713529],[121.295851,23.713348]],[[121.295952,23.713168],[121.29605,23.71317],[121.296048,23.71335],[121.295949,23.713349],[121.295952,23.713168]],[[121.29605,23.71317],[121.296149,23.71308],[121.296148,23.713171],[121.29605,23.71317]],[[121.297321,23.713454],[121.297222,23.713544],[121.297223,23.713453],[121.297321,23.713454]],[[121.295165,23.71334],[121.295066,23.71343],[121.295067,23.713339],[121.295165,23.71334]],[[121.29929,23.712844],[121.29939,23.712755],[121.299387,23.712935],[121.299189,23.713114],[121.299185,23.713385],[121.298989,23.713382],[121.299089,23.713293],[121.299096,23.712752],[121.29929,23.712844]],[[121.298997,23.71275],[121.299,23.71257],[121.299198,23.712391],[121.299195,23.712662],[121.298997,23.71275]],[[121.305071,23.713269],[121.304972,23.713358],[121.304973,23.713268],[121.305071,23.713269]],[[121.295756,23.713166],[121.295658,23.713165],[121.29566,23.712985],[121.295758,23.712986],[121.295756,23.713166]],[[121.300674,23.712047],[121.301063,23.712322],[121.300961,23.712591],[121.301253,23.712775],[121.301053,23.713044],[121.300761,23.71286],[121.300863,23.71259],[121.30057,23.712497],[121.300674,23.712047]],[[121.30057,23.712497],[121.300471,23.712586],[121.300472,23.712496],[121.30057,23.712497]],[[121.298213,23.712742],[121.297919,23.712739],[121.297921,23.712558],[121.298019,23.712559],[121.297926,23.712197],[121.298218,23.712381],[121.29842,23.711931],[121.298518,23.711933],[121.29861,23.712385],[121.298313,23.712562],[121.298407,23.712925],[121.298213,23.712742]],[[121.295957,23.712807],[121.295858,23.712806],[121.295863,23.712445],[121.295961,23.712446],[121.295957,23.712807]],[[121.29635,23.712721],[121.296251,23.712811],[121.296252,23.71272],[121.29635,23.712721]],[[121.294782,23.712614],[121.294683,23.712703],[121.294684,23.712613],[121.294782,23.712614]],[[121.295271,23.712709],[121.295075,23.712707],[121.295076,23.712617],[121.295272,23.712619],[121.295271,23.712709]],[[121.300568,23.712677],[121.300468,23.712767],[121.30047,23.712676],[121.300568,23.712677]],[[121.296352,23.712541],[121.296253,23.71263],[121.296254,23.71254],[121.296352,23.712541]],[[121.299784,23.712579],[121.299884,23.712489],[121.299882,23.71258],[121.299784,23.712579]],[[121.299884,23.712489],[121.300082,23.712311],[121.300178,23.712493],[121.299884,23.712489]],[[121.294982,23.712345],[121.295081,23.712256],[121.29508,23.712346],[121.294982,23.712345]],[[121.295081,23.712256],[121.29518,23.712167],[121.29528,23.712077],[121.295277,23.712258],[121.295081,23.712256]],[[121.29979,23.712127],[121.299788,23.712308],[121.29969,23.712307],[121.299595,23.712035],[121.29979,23.712127]],[[121.299595,23.712035],[121.299498,23.711943],[121.299596,23.711944],[121.299595,23.712035]],[[121.301261,23.712143],[121.301162,23.712232],[121.301163,23.712142],[121.301261,23.712143]],[[121.296753,23.711913],[121.296655,23.711912],[121.296657,23.711731],[121.296755,23.711733],[121.296753,23.711913]],[[121.29744,23.71183],[121.297341,23.71192],[121.297342,23.711829],[121.29744,23.71183]],[[121.301459,23.711965],[121.301361,23.711964],[121.301365,23.711693],[121.301463,23.711694],[121.301459,23.711965]],[[121.298716,23.711754],[121.298617,23.711843],[121.298618,23.711753],[121.298716,23.711754]],[[121.294009,23.711702],[121.293718,23.711518],[121.29372,23.711338],[121.293918,23.711159],[121.294115,23.711162],[121.294308,23.711344],[121.294009,23.711702]],[[121.296267,23.711547],[121.296365,23.711548],[121.296363,23.711728],[121.296265,23.711727],[121.296267,23.711547]],[[121.296365,23.711548],[121.296464,23.711458],[121.296463,23.711549],[121.296365,23.711548]],[[121.295973,23.711543],[121.295874,23.711633],[121.295875,23.711542],[121.295973,23.711543]],[[121.30009,23.711679],[121.299992,23.711678],[121.299994,23.711497],[121.300092,23.711498],[121.30009,23.711679]],[[121.295485,23.711357],[121.295292,23.711084],[121.295787,23.710729],[121.296079,23.710912],[121.295681,23.711359],[121.295485,23.711357]],[[121.298722,23.711303],[121.298526,23.711301],[121.298527,23.71121],[121.298723,23.711212],[121.298722,23.711303]],[[121.304121,23.71091],[121.304022,23.711],[121.304023,23.710909],[121.304121,23.71091]],[[121.305789,23.710838],[121.305691,23.710837],[121.305693,23.710657],[121.305791,23.710658],[121.305789,23.710838]],[[121.307477,23.709232],[121.307769,23.709415],[121.307765,23.709686],[121.30796,23.709779],[121.307951,23.710501],[121.307554,23.710858],[121.30677,23.710849],[121.306674,23.710668],[121.30638,23.710664],[121.306383,23.710393],[121.306286,23.710302],[121.306089,23.71039],[121.306093,23.710119],[121.305899,23.709937],[121.305703,23.709934],[121.305704,23.709844],[121.305999,23.709757],[121.305805,23.709574],[121.305812,23.709033],[121.306209,23.708676],[121.306994,23.708684],[121.307186,23.708957],[121.307383,23.70896],[121.307477,23.709232]],[[121.307383,23.70896],[121.307482,23.70887],[121.307481,23.708961],[121.307383,23.70896]],[[121.297554,23.710658],[121.297456,23.710657],[121.297458,23.710476],[121.297556,23.710477],[121.297554,23.710658]],[[121.300006,23.710594],[121.299908,23.710593],[121.29991,23.710413],[121.300008,23.710414],[121.300006,23.710594]],[[121.29834,23.710486],[121.298149,23.710122],[121.298347,23.709944],[121.298544,23.709946],[121.298737,23.710129],[121.298735,23.71031],[121.298536,23.710488],[121.29834,23.710486]],[[121.299224,23.710405],[121.299125,23.710494],[121.299126,23.710404],[121.299224,23.710405]],[[121.296872,23.710289],[121.296971,23.7102],[121.29697,23.71029],[121.296872,23.710289]],[[121.296971,23.7102],[121.29707,23.710111],[121.297069,23.710201],[121.296971,23.7102]],[[121.293638,23.710073],[121.293539,23.710162],[121.29354,23.710072],[121.293638,23.710073]],[[121.301286,23.710247],[121.301187,23.710246],[121.30119,23.710066],[121.301288,23.710067],[121.301286,23.710247]],[[121.300995,23.709973],[121.300897,23.709972],[121.300899,23.709792],[121.300997,23.709793],[121.300995,23.709973]],[[121.305607,23.709753],[121.305508,23.709842],[121.305509,23.709752],[121.305607,23.709753]],[[121.299431,23.709595],[121.299434,23.709324],[121.299532,23.709325],[121.299529,23.709596],[121.299431,23.709595]],[[121.299336,23.709323],[121.299242,23.709051],[121.299439,23.708963],[121.299434,23.709324],[121.299336,23.709323]],[[121.302867,23.709271],[121.302768,23.709361],[121.302769,23.70927],[121.302867,23.709271]],[[121.300907,23.70916],[121.300808,23.709249],[121.300809,23.709158],[121.300907,23.70916]],[[121.295024,23.709095],[121.294926,23.709094],[121.294928,23.708913],[121.295026,23.708914],[121.295024,23.709095]],[[121.302477,23.709086],[121.302378,23.709176],[121.302379,23.709085],[121.302477,23.709086]],[[121.302873,23.70882],[121.302774,23.708909],[121.302775,23.708819],[121.302873,23.70882]],[[121.305524,23.708578],[121.305425,23.708667],[121.305426,23.708577],[121.305524,23.708578]],[[121.301114,23.708349],[121.301015,23.708438],[121.300916,23.708527],[121.300918,23.708347],[121.301114,23.708349]],[[121.30592,23.708311],[121.306116,23.708314],[121.306115,23.708404],[121.305721,23.70849],[121.30592,23.708311]],[[121.306409,23.708407],[121.306213,23.708405],[121.306214,23.708315],[121.30641,23.708317],[121.306409,23.708407]],[[121.300528,23.708162],[121.300429,23.708251],[121.30043,23.708161],[121.300528,23.708162]],[[121.296023,23.707661],[121.296123,23.707572],[121.296121,23.707662],[121.296023,23.707661]],[[121.296123,23.707572],[121.296222,23.707483],[121.296221,23.707573],[121.296123,23.707572]],[[121.301026,23.707535],[121.300737,23.707171],[121.301035,23.706903],[121.300946,23.70618],[121.301242,23.706003],[121.301245,23.705822],[121.301147,23.705821],[121.301248,23.705551],[121.301151,23.70546],[121.301348,23.705462],[121.301546,23.705284],[121.30145,23.705102],[121.301748,23.704834],[121.301655,23.704472],[121.301951,23.704295],[121.301757,23.704112],[121.301858,23.703933],[121.301372,23.703566],[121.301374,23.703385],[121.301671,23.703208],[121.302056,23.703754],[121.302351,23.703667],[121.302545,23.70385],[121.302542,23.704121],[121.302245,23.704298],[121.302242,23.704569],[121.302435,23.704752],[121.302337,23.704751],[121.302233,23.705201],[121.302036,23.705289],[121.301931,23.70583],[121.301733,23.706008],[121.30212,23.706374],[121.302018,23.706734],[121.30172,23.707001],[121.301915,23.707094],[121.302113,23.706915],[121.302307,23.707098],[121.302305,23.707279],[121.302106,23.707457],[121.301912,23.707274],[121.301813,23.707363],[121.301422,23.707269],[121.301223,23.707538],[121.301026,23.707535]],[[121.305342,23.707492],[121.305441,23.707403],[121.30544,23.707494],[121.305342,23.707492]],[[121.305444,23.707223],[121.30525,23.70704],[121.305647,23.706683],[121.30584,23.706866],[121.305837,23.707137],[121.305739,23.707136],[121.305637,23.707405],[121.305441,23.707403],[121.305444,23.707223]],[[121.299559,23.707248],[121.299461,23.707247],[121.299463,23.707067],[121.299562,23.707068],[121.299559,23.707248]],[[121.305151,23.707129],[121.305051,23.707218],[121.304952,23.707308],[121.304954,23.707127],[121.305151,23.707129]],[[121.297407,23.706864],[121.297307,23.706953],[121.297309,23.706862],[121.297407,23.706864]],[[121.294662,23.706743],[121.294563,23.706832],[121.294564,23.706742],[121.294662,23.706743]],[[121.297019,23.706498],[121.29692,23.706587],[121.296921,23.706497],[121.297019,23.706498]],[[121.296432,23.706401],[121.296141,23.706127],[121.29634,23.705949],[121.296632,23.706133],[121.296432,23.706401]],[[121.298395,23.706242],[121.298296,23.706332],[121.298297,23.706241],[121.298395,23.706242]],[[121.302319,23.706195],[121.302219,23.706284],[121.302221,23.706194],[121.302319,23.706195]],[[121.295265,23.705666],[121.295461,23.705668],[121.295653,23.705941],[121.295162,23.706026],[121.295265,23.705666]],[[121.297617,23.705782],[121.297518,23.705871],[121.297519,23.705781],[121.297617,23.705782]],[[121.295075,23.705212],[121.295173,23.705214],[121.295175,23.705033],[121.294884,23.704759],[121.294986,23.704489],[121.295182,23.704491],[121.295278,23.704673],[121.295474,23.704675],[121.295668,23.704858],[121.295665,23.705038],[121.295271,23.705215],[121.295366,23.705396],[121.29517,23.705394],[121.295075,23.705212]],[[121.301164,23.704467],[121.300872,23.704283],[121.300973,23.704103],[121.300779,23.703921],[121.300978,23.703742],[121.301174,23.703744],[121.301367,23.703927],[121.301365,23.704108],[121.301267,23.704107],[121.301363,23.704288],[121.301164,23.704467]],[[121.297449,23.703613],[121.29735,23.703702],[121.297351,23.703612],[121.297449,23.703613]],[[121.305392,23.70361],[121.305293,23.703699],[121.305294,23.703609],[121.305392,23.70361]],[[121.297256,23.70334],[121.297157,23.703429],[121.297158,23.703339],[121.297256,23.70334]],[[121.297747,23.703346],[121.29755,23.703343],[121.297552,23.703253],[121.297748,23.703255],[121.297747,23.703346]],[[121.303539,23.702867],[121.30344,23.702866],[121.303443,23.702686],[121.303541,23.702687],[121.303539,23.702867]],[[121.307588,23.700654],[121.307294,23.700651],[121.307296,23.70047],[121.30759,23.700474],[121.307588,23.700654]],[[121.306716,23.699832],[121.307009,23.699926],[121.307207,23.699747],[121.307203,23.700108],[121.306713,23.700013],[121.306716,23.699832]],[[121.307701,23.699482],[121.307602,23.699571],[121.307603,23.699481],[121.307701,23.699482]],[[121.305741,23.69937],[121.305645,23.699188],[121.305155,23.699183],[121.305157,23.699002],[121.305354,23.699004],[121.305352,23.699095],[121.30555,23.699007],[121.305552,23.698826],[121.305259,23.698732],[121.30526,23.698642],[121.305554,23.698645],[121.305655,23.698466],[121.305944,23.69883],[121.30614,23.698832],[121.306034,23.699463],[121.305741,23.69937]],[[121.307309,23.699477],[121.307017,23.699294],[121.307022,23.698932],[121.307612,23.698758],[121.307801,23.699302],[121.307702,23.699391],[121.307409,23.699298],[121.307309,23.699477]],[[121.306434,23.698836],[121.30673,23.698749],[121.306824,23.699021],[121.30653,23.699017],[121.306434,23.698836]],[[121.304769,23.698727],[121.30467,23.698816],[121.304671,23.698726],[121.304769,23.698727]],[[121.307248,23.696587],[121.30715,23.696586],[121.307153,23.696315],[121.307251,23.696316],[121.307248,23.696587]]],[[[121.283859,23.715473],[121.283958,23.715384],[121.284061,23.715024],[121.284257,23.715026],[121.284256,23.715116],[121.284453,23.715028],[121.284066,23.714662],[121.28417,23.714212],[121.284466,23.714035],[121.28447,23.713764],[121.284568,23.713765],[121.284472,23.713583],[121.284174,23.713851],[121.283781,23.713937],[121.282986,23.714741],[121.282982,23.715012],[121.283563,23.71556],[121.283859,23.715473]]],[[[121.283326,23.718718],[121.283226,23.718897],[121.283421,23.71899],[121.283719,23.718632],[121.283722,23.718451],[121.283333,23.718176],[121.283438,23.717635],[121.283637,23.717457],[121.28393,23.71755],[121.284326,23.717284],[121.284328,23.717103],[121.284036,23.71692],[121.284235,23.716741],[121.284042,23.716468],[121.283846,23.716466],[121.283646,23.716735],[121.283058,23.716728],[121.282859,23.716907],[121.282856,23.717177],[121.283051,23.71727],[121.282948,23.71763],[121.283143,23.717722],[121.283235,23.718175],[121.282943,23.717991],[121.282844,23.71808],[121.28294,23.718262],[121.282741,23.71844],[121.282545,23.718438],[121.282445,23.718618],[121.281953,23.718702],[121.282045,23.719155],[121.28224,23.719247],[121.28214,23.719427],[121.282432,23.719611],[121.282433,23.71952],[121.282728,23.719433],[121.282538,23.71898],[121.282734,23.718982],[121.28283,23.719164],[121.283027,23.719076],[121.282933,23.718804],[121.282835,23.718803],[121.282937,23.718442],[121.283328,23.718537],[121.283229,23.718626],[121.283326,23.718718]],[[121.283328,23.718537],[121.283428,23.718448],[121.283426,23.718538],[121.283328,23.718537]]],[[[121.28195,23.718973],[121.281854,23.718792],[121.281559,23.718879],[121.281654,23.71906],[121.28195,23.718973]]],[[[121.284787,23.719456],[121.284689,23.719455],[121.284792,23.719095],[121.284597,23.719003],[121.2846,23.718822],[121.284406,23.718639],[121.28421,23.718637],[121.283912,23.718905],[121.283809,23.719265],[121.283711,23.719264],[121.283807,23.719445],[121.284103,23.719268],[121.284296,23.719541],[121.28459,23.719544],[121.284589,23.719635],[121.284787,23.719456]]],[[[121.280376,23.719317],[121.28057,23.7195],[121.280566,23.719771],[121.280761,23.719863],[121.281358,23.719238],[121.281065,23.719144],[121.281164,23.719055],[121.281068,23.718873],[121.280774,23.71887],[121.280674,23.719049],[121.280084,23.719133],[121.280083,23.719223],[121.279887,23.719221],[121.279888,23.719131],[121.279692,23.719129],[121.279691,23.719219],[121.279398,23.719126],[121.279298,23.719215],[121.279394,23.719396],[121.279689,23.719309],[121.279587,23.719669],[121.279979,23.719674],[121.279977,23.719854],[121.280271,23.719858],[121.280277,23.719406],[121.280376,23.719317]]],[[[121.309836,23.701221],[121.309841,23.700859],[121.310135,23.700863],[121.310334,23.700594],[121.309656,23.699954],[121.309658,23.699774],[121.309367,23.69959],[121.309266,23.69977],[121.309461,23.699862],[121.309454,23.700404],[121.309648,23.700586],[121.309542,23.701217],[121.309639,23.701309],[121.309836,23.701221]]],[[[121.31252,23.706036],[121.312325,23.705943],[121.312328,23.705673],[121.312133,23.70558],[121.312146,23.704587],[121.311854,23.704403],[121.311358,23.704849],[121.311349,23.705572],[121.311544,23.705664],[121.31154,23.705935],[121.311928,23.7063],[121.312613,23.706398],[121.31252,23.706036]]],[[[121.308056,23.717545],[121.307861,23.717453],[121.307761,23.717632],[121.307956,23.717725],[121.308056,23.717545]]],[[[121.3048,23.72663],[121.304803,23.726449],[121.304705,23.726448],[121.304707,23.726268],[121.304805,23.726269],[121.304718,23.725455],[121.305306,23.725462],[121.305405,23.725372],[121.305696,23.725646],[121.305892,23.725649],[121.30609,23.72547],[121.306385,23.725473],[121.306587,23.725024],[121.306489,23.725023],[121.306394,23.724751],[121.305705,23.724924],[121.305416,23.72456],[121.30522,23.724558],[121.305125,23.724286],[121.304732,23.724372],[121.304637,23.7241],[121.304442,23.724007],[121.304144,23.724275],[121.304142,23.724456],[121.303847,23.724543],[121.303842,23.724904],[121.303645,23.724992],[121.303638,23.725534],[121.30344,23.725622],[121.303437,23.725893],[121.303239,23.725981],[121.303134,23.726521],[121.303329,23.726614],[121.303331,23.726524],[121.303921,23.726349],[121.303835,23.725445],[121.304129,23.725449],[121.304127,23.725629],[121.304419,23.725813],[121.304511,23.726266],[121.304609,23.726267],[121.304506,23.726627],[121.304603,23.726718],[121.3048,23.72663]]],[[[121.306456,23.727551],[121.306361,23.727279],[121.305968,23.727365],[121.306069,23.727095],[121.306168,23.727096],[121.306171,23.726826],[121.306269,23.726827],[121.306274,23.726466],[121.306569,23.726378],[121.306475,23.726107],[121.306378,23.726015],[121.306082,23.726102],[121.306083,23.726012],[121.305495,23.726005],[121.305398,23.725914],[121.3051,23.726182],[121.305098,23.726362],[121.30539,23.726546],[121.305483,23.726908],[121.304987,23.727354],[121.304984,23.727625],[121.305179,23.727718],[121.305079,23.727807],[121.305175,23.727989],[121.30586,23.728086],[121.305957,23.728178],[121.305855,23.728538],[121.306148,23.728631],[121.306243,23.728813],[121.306341,23.728814],[121.306351,23.728092],[121.306253,23.728091],[121.306353,23.727911],[121.306158,23.727819],[121.306161,23.727638],[121.306456,23.727551]],[[121.306158,23.727819],[121.306059,23.727908],[121.30606,23.727818],[121.306158,23.727819]],[[121.305675,23.727272],[121.305671,23.727543],[121.305475,23.72754],[121.305478,23.72736],[121.305675,23.727272]]],[[[121.302721,23.728142],[121.303113,23.728147],[121.303313,23.727878],[121.30263,23.727599],[121.302632,23.727419],[121.30283,23.727331],[121.302734,23.727149],[121.302535,23.727328],[121.302339,23.727325],[121.301951,23.72705],[121.30185,23.72723],[121.301948,23.727231],[121.302043,23.727503],[121.301649,23.727589],[121.301743,23.727951],[121.302134,23.728045],[121.302133,23.728136],[121.302525,23.72814],[121.302526,23.72805],[121.302722,23.728052],[121.302721,23.728142]]]]}},{"type":"Feature","properties":{"kind":"bare_dam","month":"2026-06","area_ha":144.35},"geometry":{"type":"MultiPolygon","coordinates":[[[[121.297809,23.690975],[121.297909,23.690796],[121.298105,23.690798],[121.298304,23.69062],[121.298111,23.690347],[121.298507,23.69008],[121.298898,23.690175],[121.298997,23.690085],[121.298901,23.689904],[121.2991,23.689725],[121.298708,23.689721],[121.298607,23.6899],[121.298117,23.689895],[121.297522,23.69043],[121.297514,23.691062],[121.297809,23.690975]]],[[[121.300645,23.691548],[121.300161,23.691091],[121.299865,23.691178],[121.299673,23.690905],[121.299376,23.691083],[121.299087,23.690718],[121.298891,23.690716],[121.298691,23.690985],[121.298594,23.690894],[121.298397,23.690982],[121.298493,23.691163],[121.298592,23.691074],[121.298885,23.691168],[121.298978,23.69153],[121.299371,23.691534],[121.299372,23.691444],[121.299665,23.691537],[121.299664,23.691628],[121.300546,23.691637],[121.300645,23.691548]]],[[[121.299848,23.700118],[121.299551,23.700295],[121.299647,23.700477],[121.299548,23.700566],[121.299353,23.700474],[121.29935,23.700654],[121.299743,23.700659],[121.299744,23.700568],[121.299841,23.70066],[121.302194,23.700685],[121.302294,23.700506],[121.302686,23.70051],[121.303579,23.699707],[121.303485,23.699435],[121.303781,23.699258],[121.303785,23.698987],[121.303982,23.698899],[121.303988,23.698448],[121.304185,23.69836],[121.304191,23.697908],[121.305481,23.696748],[121.306167,23.696756],[121.306267,23.696576],[121.306856,23.696583],[121.306955,23.696494],[121.306964,23.695771],[121.307162,23.695683],[121.306968,23.6955],[121.306983,23.694327],[121.307975,23.693435],[121.308269,23.693438],[121.308468,23.693259],[121.308469,23.693169],[121.308078,23.693074],[121.308082,23.692713],[121.308473,23.692808],[121.308475,23.692718],[121.309064,23.692634],[121.309264,23.692365],[121.309852,23.692371],[121.309851,23.692462],[121.310146,23.692375],[121.310147,23.692284],[121.310637,23.69229],[121.310734,23.692381],[121.311528,23.691667],[121.311535,23.691126],[121.311437,23.691125],[121.311539,23.690764],[121.311837,23.690497],[121.311942,23.689956],[121.312138,23.689958],[121.312337,23.68978],[121.31234,23.689509],[121.312538,23.689331],[121.312541,23.68915],[121.312249,23.688966],[121.312251,23.688786],[121.31274,23.688881],[121.312934,23.689064],[121.313036,23.688794],[121.313527,23.688709],[121.31353,23.688438],[121.313334,23.688436],[121.313434,23.688347],[121.313338,23.688165],[121.313534,23.688168],[121.313537,23.687897],[121.313735,23.687809],[121.31365,23.686724],[121.313457,23.686541],[121.313259,23.686629],[121.313066,23.686447],[121.313268,23.685997],[121.312779,23.685902],[121.312783,23.685541],[121.312098,23.685443],[121.312097,23.685533],[121.311606,23.685618],[121.311509,23.685527],[121.311511,23.685346],[121.311609,23.685347],[121.311516,23.684985],[121.310829,23.684978],[121.310826,23.685248],[121.310528,23.685516],[121.310524,23.685877],[121.310622,23.685878],[121.310619,23.686059],[121.310813,23.686242],[121.310809,23.686603],[121.310907,23.686604],[121.310708,23.686782],[121.310706,23.686963],[121.310511,23.68687],[121.310513,23.68669],[121.310611,23.686691],[121.310516,23.686509],[121.310221,23.686506],[121.31022,23.686596],[121.309927,23.686503],[121.309823,23.686953],[121.309627,23.686951],[121.309626,23.687041],[121.309235,23.686947],[121.308938,23.687214],[121.308744,23.687032],[121.308548,23.68703],[121.308446,23.687299],[121.307958,23.687113],[121.307957,23.687204],[121.307662,23.687291],[121.307856,23.687473],[121.30785,23.687925],[121.307655,23.687832],[121.307457,23.688011],[121.307452,23.688372],[121.307258,23.688189],[121.306963,23.688276],[121.306867,23.688095],[121.306377,23.688089],[121.306179,23.688268],[121.306371,23.688541],[121.305883,23.688355],[121.305783,23.688534],[121.305489,23.688531],[121.305191,23.688799],[121.305189,23.688979],[121.304894,23.689066],[121.304793,23.689246],[121.304599,23.689063],[121.303912,23.689146],[121.303812,23.689325],[121.30332,23.68941],[121.303119,23.689769],[121.302529,23.689944],[121.302429,23.690123],[121.301937,23.690208],[121.301743,23.690025],[121.301253,23.69002],[121.300865,23.689745],[121.300472,23.68974],[121.300471,23.689831],[121.300374,23.689739],[121.299198,23.689726],[121.299488,23.69],[121.299486,23.690181],[121.299877,23.690276],[121.30007,23.690549],[121.300268,23.69037],[121.300464,23.690372],[121.300463,23.690463],[121.30066,23.690375],[121.300756,23.690556],[121.300953,23.690468],[121.301146,23.690741],[121.301342,23.690743],[121.30154,23.690565],[121.301445,23.690383],[121.30213,23.690481],[121.302227,23.690572],[121.302125,23.690842],[121.302417,23.691026],[121.302314,23.691386],[121.302606,23.69157],[121.302604,23.69175],[121.302405,23.691929],[121.301917,23.691743],[121.30162,23.69201],[121.301622,23.69183],[121.301428,23.691647],[121.300939,23.691551],[121.30064,23.691909],[121.300347,23.691816],[121.300248,23.691905],[121.300343,23.692177],[121.299946,23.692534],[121.30014,23.692717],[121.300434,23.69272],[121.300724,23.692994],[121.300722,23.693174],[121.300525,23.693263],[121.300619,23.693535],[121.300423,23.693532],[121.300426,23.693352],[121.299941,23.692895],[121.299842,23.692984],[121.299549,23.692891],[121.298968,23.692343],[121.299166,23.692164],[121.299074,23.691712],[121.298783,23.691438],[121.298001,23.691248],[121.297803,23.691427],[121.297801,23.691607],[121.297899,23.691608],[121.297795,23.692059],[121.298084,23.692423],[121.298478,23.692337],[121.298375,23.692697],[121.29857,23.69279],[121.298565,23.693151],[121.298368,23.693239],[121.29856,23.693512],[121.298067,23.693777],[121.298064,23.693958],[121.297669,23.694225],[121.297665,23.694495],[121.297366,23.694853],[121.29746,23.695216],[121.297756,23.695038],[121.297949,23.695311],[121.29775,23.69549],[121.297554,23.695487],[121.297361,23.695305],[121.297259,23.695575],[121.296867,23.69557],[121.296866,23.69566],[121.296571,23.695657],[121.29657,23.695748],[121.295786,23.695739],[121.295785,23.695829],[121.295589,23.695827],[121.295193,23.696094],[121.294899,23.69609],[121.2949,23.696],[121.294213,23.696083],[121.294116,23.695991],[121.294115,23.696082],[121.293624,23.696076],[121.293524,23.696256],[121.292838,23.696248],[121.29254,23.696516],[121.292536,23.696787],[121.292339,23.696875],[121.292326,23.697868],[121.292521,23.69796],[121.292421,23.69814],[121.292519,23.698141],[121.292513,23.698592],[121.292708,23.698685],[121.292704,23.698956],[121.292997,23.699049],[121.293197,23.698781],[121.293882,23.698878],[121.293984,23.698609],[121.29379,23.698426],[121.294386,23.6978],[121.294777,23.697895],[121.294878,23.697715],[121.295269,23.69781],[121.295369,23.697631],[121.295956,23.697727],[121.295955,23.697818],[121.296445,23.697823],[121.296446,23.697733],[121.296641,23.697825],[121.296743,23.697555],[121.297238,23.6972],[121.29724,23.697019],[121.296948,23.696835],[121.29705,23.696566],[121.297248,23.696387],[121.297443,23.69648],[121.297741,23.696212],[121.297645,23.69603],[121.297844,23.695852],[121.29804,23.695854],[121.298037,23.696035],[121.298136,23.696036],[121.297937,23.696214],[121.298029,23.696667],[121.297831,23.696845],[121.29832,23.696941],[121.299289,23.697854],[121.29968,23.697949],[121.299679,23.698039],[121.299482,23.698037],[121.299382,23.698217],[121.299087,23.698304],[121.29957,23.698851],[121.299962,23.698855],[121.299764,23.699033],[121.299858,23.699305],[121.299662,23.699303],[121.299563,23.699392],[121.299659,23.699574],[121.299362,23.699751],[121.299457,23.700023],[121.299654,23.699935],[121.299656,23.699755],[121.299852,23.699757],[121.29985,23.699937],[121.299752,23.699936],[121.299848,23.700118]],[[121.313338,23.688165],[121.313241,23.688074],[121.313339,23.688075],[121.313338,23.688165]],[[121.29833,23.696128],[121.298529,23.69595],[121.298625,23.696131],[121.298822,23.696043],[121.299016,23.696226],[121.298618,23.696673],[121.299203,23.69686],[121.299298,23.697132],[121.298517,23.696853],[121.29852,23.696672],[121.298228,23.696488],[121.298328,23.696309],[121.298133,23.696216],[121.298134,23.696126],[121.29833,23.696128]],[[121.299962,23.698855],[121.300061,23.698766],[121.30006,23.698856],[121.299962,23.698855]],[[121.300256,23.698858],[121.299869,23.698493],[121.300163,23.698496],[121.300263,23.698317],[121.300657,23.698231],[121.301155,23.697604],[121.301448,23.697697],[121.301449,23.697607],[121.301843,23.697521],[121.302041,23.697343],[121.301946,23.697071],[121.302341,23.696895],[121.302343,23.696714],[121.302838,23.696358],[121.302841,23.696178],[121.303436,23.695642],[121.303632,23.695644],[121.303433,23.695823],[121.30323,23.696362],[121.302835,23.696629],[121.30293,23.696811],[121.302635,23.696898],[121.302534,23.697168],[121.302039,23.697523],[121.302036,23.697704],[121.302134,23.697705],[121.302034,23.697884],[121.302132,23.697886],[121.302227,23.698157],[121.301634,23.698512],[121.30163,23.698783],[121.301433,23.698871],[121.301527,23.699143],[121.300945,23.698685],[121.300648,23.698863],[121.300555,23.6985],[121.300259,23.698678],[121.300256,23.698858]],[[121.302423,23.69816],[121.302421,23.69825],[121.302518,23.698341],[121.302225,23.698248],[121.302227,23.698157],[121.302423,23.69816]],[[121.300354,23.698859],[121.300351,23.69913],[121.300057,23.699127],[121.300058,23.699037],[121.300156,23.699038],[121.300157,23.698947],[121.300255,23.698949],[121.300256,23.698858],[121.300354,23.698859]],[[121.300057,23.699127],[121.299957,23.699216],[121.299959,23.699126],[121.300057,23.699127]],[[121.300044,23.70012],[121.300043,23.70021],[121.299847,23.700208],[121.299848,23.700118],[121.300044,23.70012]],[[121.300137,23.700482],[121.300038,23.700572],[121.300039,23.700481],[121.300137,23.700482]],[[121.301903,23.700411],[121.302099,23.700414],[121.302097,23.700594],[121.301999,23.700593],[121.301903,23.700411]],[[121.302103,23.700143],[121.302004,23.700232],[121.302005,23.700142],[121.302103,23.700143]],[[121.300047,23.699849],[121.299948,23.699938],[121.299949,23.699848],[121.300047,23.699849]],[[121.301225,23.699772],[121.301029,23.69977],[121.301031,23.699589],[121.301129,23.69959],[121.301225,23.699772]],[[121.301129,23.69959],[121.301229,23.699501],[121.301227,23.699591],[121.301129,23.69959]],[[121.300051,23.699578],[121.299952,23.699668],[121.299953,23.699577],[121.300051,23.699578]],[[121.300348,23.699311],[121.300249,23.6994],[121.30025,23.69931],[121.300348,23.699311]],[[121.301726,23.698965],[121.301922,23.698967],[121.30192,23.699147],[121.301822,23.699146],[121.301726,23.698965]],[[121.303396,23.698712],[121.303297,23.698801],[121.303298,23.698711],[121.303396,23.698712]],[[121.303299,23.698621],[121.303202,23.698529],[121.3033,23.69853],[121.303299,23.698621]],[[121.303006,23.698527],[121.303007,23.698437],[121.303204,23.698439],[121.303202,23.698529],[121.303006,23.698527]],[[121.29301,23.698056],[121.292911,23.698145],[121.292912,23.698055],[121.29301,23.698056]],[[121.302814,23.698254],[121.302618,23.698252],[121.302619,23.698162],[121.302815,23.698164],[121.302814,23.698254]],[[121.30017,23.697954],[121.300072,23.697953],[121.300074,23.697773],[121.300172,23.697774],[121.30017,23.697954]],[[121.29282,23.697602],[121.292722,23.697601],[121.292724,23.697421],[121.292822,23.697422],[121.29282,23.697602]],[[121.303607,23.697541],[121.303509,23.697539],[121.303513,23.697269],[121.303611,23.69727],[121.303607,23.697541]],[[121.293609,23.69725],[121.29351,23.697339],[121.293511,23.697249],[121.293609,23.69725]],[[121.295376,23.697089],[121.295474,23.69709],[121.295471,23.697361],[121.295275,23.697359],[121.295376,23.697089]],[[121.296653,23.696922],[121.296846,23.697195],[121.296549,23.697373],[121.296357,23.6971],[121.296653,23.696922]],[[121.296456,23.69701],[121.296359,23.696919],[121.296457,23.69692],[121.296456,23.69701]],[[121.293316,23.697156],[121.293217,23.697246],[121.293218,23.697155],[121.293316,23.697156]],[[121.295864,23.697275],[121.295766,23.697274],[121.295768,23.697093],[121.295866,23.697094],[121.295864,23.697275]],[[121.304394,23.697369],[121.304493,23.697279],[121.304492,23.69737],[121.304394,23.697369]],[[121.304493,23.697279],[121.304593,23.69719],[121.304591,23.69728],[121.304493,23.697279]],[[121.294299,23.696987],[121.2942,23.697076],[121.2941,23.697165],[121.294103,23.696985],[121.294299,23.696987]],[[121.294592,23.69708],[121.294493,23.697169],[121.294494,23.697079],[121.294592,23.69708]],[[121.296063,23.697096],[121.295963,23.697186],[121.295964,23.697095],[121.296063,23.697096]],[[121.294986,23.696904],[121.29479,23.696902],[121.294791,23.696812],[121.294988,23.696814],[121.294986,23.696904]],[[121.295184,23.696816],[121.295084,23.696905],[121.295086,23.696815],[121.295184,23.696816]],[[121.295381,23.696728],[121.295282,23.696817],[121.295283,23.696727],[121.295381,23.696728]],[[121.295289,23.696275],[121.295189,23.696364],[121.295191,23.696274],[121.295289,23.696275]],[[121.296074,23.696194],[121.295975,23.696283],[121.295976,23.696192],[121.296074,23.696194]],[[121.29627,23.696196],[121.296171,23.696285],[121.296172,23.696195],[121.29627,23.696196]],[[121.300492,23.695791],[121.300393,23.69588],[121.300394,23.69579],[121.300492,23.695791]],[[121.30569,23.695757],[121.305985,23.69567],[121.305981,23.695941],[121.305785,23.695939],[121.30569,23.695757]],[[121.298927,23.695503],[121.298828,23.695592],[121.298829,23.695501],[121.298927,23.695503]],[[121.298932,23.695141],[121.298832,23.695231],[121.298834,23.69514],[121.298932,23.695141]],[[121.299912,23.695152],[121.299813,23.695241],[121.299814,23.695151],[121.299912,23.695152]],[[121.304618,23.695204],[121.304519,23.695293],[121.30452,23.695203],[121.304618,23.695204]],[[121.304328,23.69493],[121.304228,23.695019],[121.30423,23.694929],[121.304328,23.69493]],[[121.304623,23.694843],[121.304917,23.694846],[121.304916,23.694936],[121.304522,23.695022],[121.304623,23.694843]],[[121.300015,23.694792],[121.299916,23.694881],[121.299917,23.694791],[121.300015,23.694792]],[[121.305014,23.694937],[121.305212,23.694759],[121.30521,23.694939],[121.305014,23.694937]],[[121.305215,23.694578],[121.30561,23.694312],[121.305516,23.69404],[121.305811,23.693953],[121.305506,23.694762],[121.305215,23.694578]],[[121.305213,23.694669],[121.305017,23.694666],[121.305019,23.694576],[121.305215,23.694578],[121.305213,23.694669]],[[121.298451,23.694414],[121.29865,23.694145],[121.298846,23.694147],[121.298745,23.694417],[121.298451,23.694414]],[[121.301005,23.694081],[121.300808,23.694078],[121.30081,23.693988],[121.301006,23.69399],[121.301005,23.694081]],[[121.306302,23.693868],[121.306497,23.69396],[121.306496,23.69405],[121.3063,23.694048],[121.306302,23.693868]],[[121.300321,23.693892],[121.300519,23.693714],[121.300615,23.693896],[121.300321,23.693892]],[[121.305622,23.693409],[121.30582,23.69323],[121.306015,23.693323],[121.305914,23.693593],[121.305718,23.69359],[121.305622,23.693409]],[[121.30709,23.693605],[121.306894,23.693603],[121.306895,23.693513],[121.307091,23.693515],[121.30709,23.693605]],[[121.307386,23.693518],[121.307288,23.693517],[121.30729,23.693337],[121.307388,23.693338],[121.307386,23.693518]],[[121.29876,23.693243],[121.298661,23.693332],[121.298662,23.693242],[121.29876,23.693243]],[[121.300727,23.692813],[121.300826,23.692724],[121.300825,23.692814],[121.300727,23.692813]],[[121.300826,23.692724],[121.300925,23.692635],[121.300924,23.692725],[121.300826,23.692724]],[[121.300533,23.692631],[121.300632,23.692541],[121.300631,23.692632],[121.300533,23.692631]],[[121.300635,23.692361],[121.300831,23.692363],[121.30083,23.692453],[121.300632,23.692541],[121.300635,23.692361]],[[121.306812,23.692338],[121.306713,23.692427],[121.306714,23.692337],[121.306812,23.692338]],[[121.30142,23.692279],[121.301224,23.692277],[121.301225,23.692187],[121.301421,23.692189],[121.30142,23.692279]],[[121.307403,23.692164],[121.307207,23.692162],[121.307208,23.692072],[121.307404,23.692074],[121.307403,23.692164]],[[121.308388,23.691814],[121.308289,23.691903],[121.30829,23.691813],[121.308388,23.691814]],[[121.308682,23.691817],[121.308781,23.691728],[121.30878,23.691818],[121.308682,23.691817]],[[121.308786,23.691367],[121.308688,23.691365],[121.30879,23.691096],[121.308986,23.691098],[121.308985,23.691188],[121.309182,23.6911],[121.309279,23.691191],[121.309276,23.691372],[121.309178,23.691371],[121.309273,23.691643],[121.309074,23.691821],[121.308781,23.691728],[121.308786,23.691367]],[[121.302802,23.691572],[121.302703,23.691661],[121.302704,23.691571],[121.302802,23.691572]],[[121.310158,23.691472],[121.309961,23.69147],[121.309963,23.691379],[121.310159,23.691382],[121.310158,23.691472]],[[121.304282,23.690866],[121.304183,23.690955],[121.304184,23.690865],[121.304282,23.690866]],[[121.309184,23.690919],[121.309085,23.691009],[121.309086,23.690918],[121.309184,23.690919]],[[121.309482,23.690652],[121.30958,23.690653],[121.309577,23.690833],[121.309479,23.690832],[121.309482,23.690652]],[[121.30958,23.690653],[121.309679,23.690564],[121.309678,23.690654],[121.30958,23.690653]],[[121.31105,23.690669],[121.310951,23.690758],[121.310952,23.690668],[121.31105,23.690669]],[[121.309779,23.690384],[121.30968,23.690473],[121.309681,23.690383],[121.309779,23.690384]],[[121.310562,23.690483],[121.310662,23.690394],[121.310661,23.690484],[121.310562,23.690483]],[[121.310662,23.690394],[121.310761,23.690304],[121.31076,23.690395],[121.310662,23.690394]],[[121.309785,23.689933],[121.309686,23.690022],[121.309687,23.689932],[121.309785,23.689933]],[[121.310078,23.690026],[121.310177,23.689937],[121.310176,23.690027],[121.310078,23.690026]],[[121.310177,23.689937],[121.310276,23.689848],[121.310275,23.689938],[121.310177,23.689937]],[[121.31155,23.689952],[121.311451,23.690041],[121.311452,23.689951],[121.31155,23.689952]],[[121.310569,23.689941],[121.310471,23.68994],[121.310474,23.68976],[121.310572,23.689761],[121.310569,23.689941]],[[121.311158,23.689948],[121.310867,23.689674],[121.311065,23.689495],[121.311357,23.689679],[121.311158,23.689948]],[[121.30979,23.689571],[121.309691,23.689661],[121.309692,23.68957],[121.30979,23.689571]],[[121.30793,23.68928],[121.308125,23.689373],[121.308124,23.689463],[121.307928,23.689461],[121.30793,23.68928]],[[121.310087,23.689304],[121.309989,23.689303],[121.309992,23.689122],[121.31009,23.689123],[121.310087,23.689304]],[[121.310285,23.689216],[121.310185,23.689305],[121.310187,23.689215],[121.310285,23.689216]],[[121.31058,23.689129],[121.310481,23.689218],[121.310482,23.689128],[121.31058,23.689129]],[[121.310287,23.689035],[121.310386,23.688946],[121.310385,23.689036],[121.310287,23.689035]],[[121.310388,23.688765],[121.310487,23.688766],[121.310484,23.688947],[121.310386,23.688946],[121.310388,23.688765]],[[121.310487,23.688766],[121.310586,23.688677],[121.310585,23.688767],[121.310487,23.688766]],[[121.310587,23.688587],[121.310783,23.688589],[121.310882,23.6885],[121.31088,23.68868],[121.310586,23.688677],[121.310587,23.688587]],[[121.310882,23.6885],[121.310788,23.688228],[121.311183,23.687961],[121.311377,23.688144],[121.311574,23.688056],[121.311572,23.688236],[121.311278,23.688233],[121.31098,23.688501],[121.310882,23.6885]],[[121.31088,23.68868],[121.310977,23.688772],[121.310879,23.688771],[121.31088,23.68868]],[[121.311173,23.688774],[121.311371,23.688595],[121.311369,23.688776],[121.311173,23.688774]],[[121.311958,23.688692],[121.311859,23.688781],[121.31186,23.688691],[121.311958,23.688692]],[[121.312939,23.688703],[121.312841,23.688702],[121.312843,23.688521],[121.312941,23.688522],[121.312939,23.688703]],[[121.311872,23.687788],[121.31207,23.68761],[121.312266,23.687612],[121.312263,23.687883],[121.311867,23.688149],[121.31187,23.687969],[121.311968,23.68797],[121.311872,23.687788]],[[121.311872,23.687788],[121.311775,23.687697],[121.311873,23.687698],[121.311872,23.687788]],[[121.311774,23.687787],[121.311675,23.687876],[121.311676,23.687786],[121.311774,23.687787]],[[121.311675,23.687876],[121.311575,23.687966],[121.311577,23.687875],[121.311675,23.687876]],[[121.313144,23.687983],[121.312855,23.687618],[121.312559,23.687705],[121.312562,23.687525],[121.312858,23.687347],[121.312954,23.687529],[121.313248,23.687532],[121.313246,23.687713],[121.313439,23.687896],[121.313144,23.687983]],[[121.312862,23.687077],[121.312664,23.687165],[121.312767,23.686805],[121.313062,23.686718],[121.313256,23.6869],[121.313254,23.687081],[121.313055,23.687259],[121.312862,23.687077]],[[121.31228,23.686528],[121.312474,23.686711],[121.312571,23.686803],[121.312278,23.686709],[121.31228,23.686528]],[[121.31228,23.686528],[121.312183,23.686437],[121.312281,23.686438],[121.31228,23.686528]],[[121.311313,23.685525],[121.311213,23.685614],[121.311215,23.685524],[121.311313,23.685525]],[[121.311218,23.685253],[121.31112,23.685252],[121.311122,23.685071],[121.31122,23.685072],[121.311218,23.685253]]],[[[121.297886,23.700187],[121.298577,23.699833],[121.298481,23.699651],[121.298877,23.699385],[121.29869,23.69866],[121.298495,23.698568],[121.298697,23.698119],[121.298306,23.698024],[121.298107,23.698203],[121.297817,23.697928],[121.297523,23.697925],[121.297422,23.698105],[121.297132,23.697831],[121.296933,23.698009],[121.296738,23.697917],[121.296637,23.698186],[121.297123,23.698463],[121.296825,23.698821],[121.29702,23.698913],[121.297219,23.698644],[121.297512,23.698738],[121.297706,23.698921],[121.297704,23.699101],[121.298092,23.699376],[121.29809,23.699557],[121.297795,23.699644],[121.297311,23.699097],[121.297115,23.699095],[121.296916,23.699363],[121.296721,23.699271],[121.296619,23.699541],[121.2972,23.700089],[121.297397,23.700091],[121.297497,23.699911],[121.297886,23.700187]]],[[[121.293779,23.699238],[121.29378,23.699148],[121.293681,23.699237],[121.293192,23.699142],[121.29299,23.699591],[121.292892,23.69959],[121.292887,23.699951],[121.293184,23.699774],[121.29328,23.699955],[121.293477,23.699867],[121.293476,23.699958],[121.293868,23.699962],[121.293867,23.700052],[121.294554,23.699969],[121.29465,23.700151],[121.294749,23.700062],[121.294846,23.700153],[121.294945,23.700064],[121.295042,23.700155],[121.295336,23.700159],[121.295337,23.700068],[121.295729,23.700163],[121.295927,23.699985],[121.29583,23.699893],[121.295832,23.699713],[121.296031,23.699534],[121.295936,23.699262],[121.296134,23.699174],[121.296136,23.698994],[121.296429,23.699087],[121.296627,23.698909],[121.29663,23.698728],[121.296435,23.698636],[121.296341,23.698273],[121.296144,23.698362],[121.296142,23.698542],[121.295844,23.69881],[121.295453,23.698715],[121.295353,23.698895],[121.295062,23.69862],[121.294671,23.698526],[121.294571,23.698705],[121.29408,23.6987],[121.293981,23.698789],[121.294272,23.699063],[121.29417,23.699333],[121.293779,23.699238]],[[121.29417,23.699333],[121.294267,23.699424],[121.294169,23.699423],[121.29417,23.699333]],[[121.294363,23.699606],[121.294264,23.699695],[121.294265,23.699605],[121.294363,23.699606]],[[121.294562,23.699337],[121.294464,23.699336],[121.294467,23.699156],[121.294665,23.698977],[121.294861,23.698979],[121.295055,23.699162],[121.295053,23.699343],[121.294656,23.6997],[121.29446,23.699697],[121.294562,23.699337]]],[[[121.299157,23.700472],[121.298963,23.700289],[121.299064,23.700019],[121.298772,23.699926],[121.29867,23.700195],[121.298474,23.700193],[121.298373,23.700373],[121.29808,23.700279],[121.29798,23.700459],[121.299157,23.700472]]],[[[121.2968,23.700717],[121.296897,23.700808],[121.29729,23.700722],[121.297393,23.700362],[121.297296,23.70027],[121.296805,23.700355],[121.296804,23.700446],[121.296609,23.700353],[121.296505,23.700804],[121.2967,23.700896],[121.2968,23.700717]]],[[[121.295909,23.701339],[121.296302,23.701343],[121.2965,23.701165],[121.296405,23.700893],[121.296307,23.700892],[121.296407,23.700802],[121.296312,23.700531],[121.296116,23.700528],[121.296115,23.700619],[121.295626,23.700523],[121.295627,23.700433],[121.294646,23.700422],[121.294547,23.700511],[121.294548,23.700421],[121.294352,23.700419],[121.293964,23.700143],[121.293667,23.700321],[121.293571,23.700139],[121.293277,23.700136],[121.293182,23.699954],[121.292884,23.700222],[121.292877,23.700764],[121.293458,23.701312],[121.293948,23.701317],[121.294044,23.701499],[121.295809,23.701518],[121.295909,23.701339]],[[121.294737,23.700965],[121.294637,23.701144],[121.294539,23.701143],[121.294541,23.700963],[121.294737,23.700965]]],[[[121.2967,23.700896],[121.296796,23.700987],[121.296798,23.700897],[121.2967,23.700896]]]]}},{"type":"Feature","properties":{"kind":"water","month":"2026-06","area_ha":7.99},"geometry":{"type":"MultiPolygon","coordinates":[[[[121.283,23.691173],[121.28339,23.691358],[121.283203,23.690633],[121.283007,23.690631],[121.283006,23.690722],[121.282713,23.690628],[121.282714,23.690538],[121.282321,23.690624],[121.28232,23.690714],[121.282712,23.690718],[121.282709,23.690899],[121.283002,23.690992],[121.283,23.691173]],[[121.283002,23.690992],[121.283102,23.690903],[121.2831,23.690993],[121.283002,23.690992]]],[[[121.283775,23.691904],[121.283777,23.691723],[121.283389,23.691448],[121.283383,23.6919],[121.283482,23.69181],[121.283775,23.691904]]],[[[121.284161,23.69236],[121.28426,23.692271],[121.284162,23.692269],[121.284161,23.69236]]],[[[121.284552,23.692454],[121.284259,23.692361],[121.284356,23.692452],[121.284256,23.692632],[121.284547,23.692815],[121.284543,23.693177],[121.284641,23.693178],[121.284744,23.692818],[121.284549,23.692725],[121.284552,23.692454]]],[[[121.284933,23.693362],[121.28474,23.693089],[121.284637,23.693449],[121.284933,23.693362]]],[[[121.28872,23.696203],[121.288817,23.696294],[121.28921,23.696208],[121.289115,23.695936],[121.289213,23.695937],[121.289316,23.695577],[121.289122,23.695394],[121.289024,23.695393],[121.289118,23.695756],[121.288922,23.695753],[121.288924,23.695573],[121.288726,23.695751],[121.288822,23.695843],[121.28872,23.696203]],[[121.288917,23.696115],[121.289016,23.696025],[121.289015,23.696116],[121.288917,23.696115]]],[[[121.288724,23.695842],[121.288625,23.695931],[121.288723,23.695932],[121.288724,23.695842]]],[[[121.28843,23.695838],[121.28833,23.696018],[121.288623,23.696111],[121.288625,23.695931],[121.28843,23.695838]]],[[[121.29107,23.696409],[121.29117,23.69632],[121.291072,23.696319],[121.29107,23.696409]]],[[[121.290774,23.696587],[121.291067,23.69668],[121.291068,23.69659],[121.290679,23.696315],[121.291072,23.696319],[121.291073,23.696229],[121.290976,23.696137],[121.289995,23.696127],[121.289899,23.696035],[121.289904,23.695584],[121.289806,23.695583],[121.289705,23.695852],[121.289213,23.695937],[121.289306,23.69639],[121.289404,23.696391],[121.289301,23.696751],[121.28969,23.697026],[121.289687,23.697207],[121.290462,23.697938],[121.290658,23.69794],[121.290753,23.698212],[121.291731,23.698403],[121.291539,23.69804],[121.291148,23.697945],[121.290955,23.697763],[121.290957,23.697582],[121.290664,23.697488],[121.290666,23.697308],[121.290864,23.69722],[121.290865,23.697129],[121.290669,23.697127],[121.290671,23.696947],[121.290964,23.69704],[121.290968,23.696769],[121.290772,23.696767],[121.290774,23.696587]]],[[[121.29116,23.697042],[121.290964,23.69704],[121.290963,23.697131],[121.291158,23.697223],[121.29116,23.697042]]],[[[121.292221,23.698409],[121.292123,23.698407],[121.29212,23.698678],[121.292218,23.698679],[121.292221,23.698409]]],[[[121.292216,23.69877],[121.292412,23.698772],[121.292414,23.698682],[121.292218,23.698679],[121.292216,23.69877]]],[[[121.292509,23.698863],[121.292412,23.698772],[121.292411,23.698862],[121.292509,23.698863]]],[[[121.292216,23.69877],[121.291922,23.698766],[121.291921,23.698857],[121.292212,23.699131],[121.292409,23.699043],[121.292408,23.699133],[121.292702,23.699136],[121.2927,23.699317],[121.292897,23.699229],[121.292895,23.699409],[121.293091,23.699411],[121.292997,23.699049],[121.292801,23.699047],[121.292705,23.698865],[121.292509,23.698863],[121.292508,23.698954],[121.292312,23.698951],[121.292216,23.69877]],[[121.292704,23.698956],[121.292605,23.699045],[121.292606,23.698955],[121.292704,23.698956]]],[[[121.293964,23.700143],[121.293962,23.700234],[121.294159,23.700236],[121.294259,23.700056],[121.293867,23.700052],[121.293868,23.699962],[121.293476,23.699958],[121.293477,23.699867],[121.29328,23.699955],[121.293086,23.699773],[121.293084,23.699953],[121.293277,23.700136],[121.293571,23.700139],[121.293667,23.700321],[121.293964,23.700143]]],[[[121.312858,23.687347],[121.312562,23.687525],[121.312559,23.687705],[121.312855,23.687618],[121.312853,23.687709],[121.313049,23.687711],[121.313144,23.687983],[121.313439,23.687896],[121.313246,23.687713],[121.313248,23.687532],[121.312954,23.687529],[121.312858,23.687347]],[[121.313246,23.687713],[121.313146,23.687802],[121.313148,23.687712],[121.313246,23.687713]]],[[[121.311867,23.688149],[121.312263,23.687883],[121.312266,23.687612],[121.311971,23.687699],[121.311867,23.688149]]],[[[121.311279,23.688143],[121.311278,23.688233],[121.311572,23.688236],[121.311574,23.688056],[121.311279,23.688143]]],[[[121.31118,23.688232],[121.311281,23.687962],[121.310986,23.688049],[121.310984,23.68823],[121.310788,23.688228],[121.310786,23.688318],[121.311177,23.688413],[121.311277,23.688324],[121.31118,23.688232]]],[[[121.305707,23.694403],[121.305711,23.694132],[121.305809,23.694133],[121.305811,23.693953],[121.305516,23.69404],[121.30561,23.694312],[121.305413,23.6944],[121.305311,23.69467],[121.305506,23.694762],[121.305509,23.694581],[121.305707,23.694403]]],[[[121.305215,23.694578],[121.305314,23.694489],[121.305216,23.694488],[121.305215,23.694578]]],[[[121.305019,23.694576],[121.305017,23.694666],[121.305213,23.694669],[121.305215,23.694578],[121.305019,23.694576]]],[[[121.302041,23.697343],[121.301546,23.697699],[121.301544,23.697879],[121.301742,23.697701],[121.301938,23.697703],[121.302534,23.697168],[121.302439,23.696896],[121.30293,23.696811],[121.302835,23.696629],[121.30323,23.696362],[121.303233,23.696182],[121.303331,23.696183],[121.303333,23.696002],[121.303632,23.695644],[121.303436,23.695642],[121.303039,23.695999],[121.303037,23.69618],[121.302841,23.696178],[121.302838,23.696358],[121.302343,23.696714],[121.302341,23.696895],[121.301946,23.697071],[121.302041,23.697343]],[[121.302042,23.697252],[121.302141,23.697163],[121.30214,23.697254],[121.302042,23.697252]]],[[[121.299105,23.696859],[121.299006,23.696948],[121.299009,23.696768],[121.298518,23.696762],[121.298614,23.696944],[121.298908,23.696947],[121.298907,23.697037],[121.299298,23.697132],[121.2993,23.696951],[121.299105,23.696859]]],[[[121.299751,23.700027],[121.29985,23.699937],[121.299852,23.699757],[121.299656,23.699755],[121.29965,23.700206],[121.299848,23.700118],[121.299751,23.700027]]],[[[121.295828,23.700074],[121.295927,23.699985],[121.295829,23.699983],[121.295828,23.700074]]],[[[121.300043,23.70021],[121.300044,23.70012],[121.299848,23.700118],[121.299847,23.700208],[121.300043,23.70021]]],[[[121.297979,23.700549],[121.298076,23.70064],[121.297982,23.700278],[121.298373,23.700373],[121.298969,23.699837],[121.298577,23.699833],[121.298575,23.699923],[121.298379,23.699921],[121.297984,23.700188],[121.297887,23.700096],[121.2972,23.700089],[121.297002,23.700267],[121.297001,23.700358],[121.297197,23.70036],[121.297198,23.700269],[121.297589,23.700364],[121.297391,23.700542],[121.297388,23.700723],[121.297979,23.700549]],[[121.297688,23.700275],[121.297884,23.700277],[121.297883,23.700367],[121.297687,23.700365],[121.297688,23.700275]]],[[[121.294157,23.700326],[121.294257,23.700237],[121.294159,23.700236],[121.294157,23.700326]]],[[[121.296509,23.700442],[121.296609,23.700353],[121.296804,23.700446],[121.296806,23.700265],[121.296709,23.700174],[121.296316,23.70026],[121.296319,23.699989],[121.295926,23.700075],[121.296216,23.700349],[121.295922,23.700346],[121.295827,23.700164],[121.295434,23.70016],[121.295436,23.700069],[121.295336,23.700159],[121.295042,23.700155],[121.295043,23.700065],[121.294846,23.700153],[121.294749,23.700062],[121.294747,23.700242],[121.294845,23.700243],[121.294745,23.700423],[121.295627,23.700433],[121.295626,23.700523],[121.29592,23.700526],[121.295919,23.700617],[121.29641,23.700532],[121.296408,23.700712],[121.296604,23.700714],[121.296507,23.700623],[121.296509,23.700442]]]]}}]}