{"type":"FeatureCollection","features":[{"type":"Feature","properties":{"id":"watershed","name":"馬太鞍溪集水區","area_ha":13661.3},"geometry":{"type":"Polygon","coordinates":[[[121.306315,23.728867],[121.306507,23.72706],[121.308072,23.725432],[121.308071,23.72489],[121.309444,23.724707],[121.310227,23.723983],[121.310027,23.722719],[121.311008,23.722536],[121.311788,23.720729],[121.312965,23.720546],[121.314137,23.718557],[121.315705,23.718373],[121.316487,23.717107],[121.31864,23.715297],[121.31903,23.714213],[121.320404,23.714752],[121.320994,23.715473],[121.322368,23.715831],[121.323945,23.718898],[121.329242,23.719248],[121.330809,23.718342],[121.332966,23.718156],[121.333942,23.716348],[121.336488,23.714717],[121.337068,23.711646],[121.338824,23.70803],[121.341181,23.709289],[121.34432,23.709644],[121.345298,23.708558],[121.346278,23.708194],[121.346863,23.706929],[121.349412,23.706562],[121.35039,23.705837],[121.35745,23.70546],[121.357841,23.705098],[121.359216,23.705817],[121.360589,23.705814],[121.361176,23.705271],[121.364508,23.704541],[121.364899,23.703998],[121.366076,23.703995],[121.368817,23.702363],[121.370386,23.702359],[121.371365,23.701815],[121.372346,23.701813],[121.372543,23.702174],[121.3747,23.701988],[121.377247,23.701079],[121.37921,23.701977],[121.383134,23.702328],[121.385099,23.703768],[121.385688,23.703767],[121.388034,23.701413],[121.388617,23.699606],[121.391157,23.696349],[121.389773,23.692379],[121.389771,23.691657],[121.390748,23.690751],[121.395063,23.690921],[121.406042,23.689809],[121.407025,23.690529],[121.41036,23.690881],[121.418787,23.689414],[121.434069,23.684857],[121.445818,23.680128],[121.454047,23.678118],[121.460517,23.677918],[121.462872,23.678453],[121.464052,23.679352],[121.465816,23.678986],[121.467586,23.680425],[121.468174,23.680423],[121.468171,23.67952],[121.469741,23.679877],[121.470131,23.679514],[121.466599,23.678622],[121.466597,23.67808],[121.465222,23.677543],[121.46522,23.677001],[121.462471,23.675925],[121.462273,23.675384],[121.461686,23.675567],[121.460309,23.674487],[121.458153,23.674674],[121.458154,23.675035],[121.457371,23.675218],[121.455214,23.675225],[121.452661,23.674149],[121.4507,23.673974],[121.447566,23.675066],[121.447176,23.67579],[121.446196,23.675793],[121.446002,23.676335],[121.444827,23.67688],[121.443847,23.676883],[121.443457,23.677606],[121.44228,23.677429],[121.440911,23.678517],[121.438952,23.679064],[121.437191,23.680153],[121.436406,23.679974],[121.435036,23.680881],[121.432682,23.680526],[121.430331,23.681255],[121.428762,23.68126],[121.428373,23.682164],[121.427392,23.681986],[121.42739,23.681444],[121.426606,23.681446],[121.426414,23.682711],[121.41995,23.684896],[121.410935,23.686907],[121.406621,23.686737],[121.405244,23.685296],[121.404651,23.683853],[121.406214,23.682043],[121.406201,23.677709],[121.405807,23.677168],[121.406981,23.676442],[121.408542,23.674091],[121.406579,23.673373],[121.405203,23.672113],[121.404413,23.670309],[121.400682,23.668513],[121.400086,23.665986],[121.399692,23.665445],[121.398908,23.665447],[121.398121,23.664365],[121.39655,23.663828],[121.394006,23.66546],[121.39185,23.665646],[121.391655,23.666007],[121.390478,23.66583],[121.387925,23.664211],[121.386154,23.662229],[121.384781,23.661871],[121.382815,23.66025],[121.382227,23.660252],[121.381446,23.661337],[121.380268,23.660798],[121.378308,23.660984],[121.377718,23.660443],[121.374776,23.659909],[121.374578,23.659367],[121.373793,23.659189],[121.372417,23.657928],[121.370849,23.657932],[121.370262,23.658475],[121.368694,23.658479],[121.368303,23.658841],[121.367518,23.658662],[121.366345,23.659748],[121.363011,23.659395],[121.360263,23.658498],[121.359285,23.659404],[121.355169,23.659774],[121.354388,23.66086],[121.352623,23.660864],[121.351248,23.659964],[121.350067,23.65798],[121.348889,23.657441],[121.347903,23.655456],[121.347315,23.655458],[121.346725,23.654556],[121.344959,23.654199],[121.343779,23.652757],[121.342602,23.652218],[121.342205,23.650412],[121.341025,23.64897],[121.340629,23.647526],[121.339648,23.647348],[121.338467,23.645544],[121.334743,23.645914],[121.331602,23.644115],[121.330813,23.64213],[121.329636,23.64159],[121.328848,23.640328],[121.32826,23.640148],[121.327865,23.639066],[121.327079,23.638526],[121.327078,23.637803],[121.325313,23.637626],[121.32433,23.636545],[121.322958,23.636367],[121.321779,23.635286],[121.321776,23.634022],[121.31981,23.631859],[121.319415,23.630776],[121.318045,23.63132],[121.318043,23.630779],[121.316669,23.629878],[121.316078,23.628796],[121.313724,23.628078],[121.313724,23.627717],[121.312744,23.6279],[121.311956,23.626457],[121.310582,23.625556],[121.310384,23.624654],[121.309795,23.624294],[121.309793,23.62321],[121.308816,23.624476],[121.307052,23.624841],[121.305489,23.626831],[121.304704,23.626652],[121.304705,23.627013],[121.303334,23.627196],[121.302356,23.628101],[121.301376,23.628103],[121.299418,23.62919],[121.299419,23.629732],[121.298831,23.629733],[121.297658,23.631],[121.296482,23.631002],[121.295896,23.631906],[121.295899,23.63317],[121.294724,23.634076],[121.294334,23.634979],[121.292373,23.634622],[121.292179,23.635345],[121.290223,23.637154],[121.287871,23.63752],[121.287285,23.638243],[121.286304,23.638245],[121.285519,23.637705],[121.283559,23.637889],[121.282973,23.638974],[121.280426,23.639339],[121.279839,23.640063],[121.279056,23.640245],[121.278665,23.641149],[121.277686,23.641511],[121.277491,23.642234],[121.276903,23.642235],[121.275925,23.64314],[121.27534,23.644586],[121.274162,23.643866],[121.271811,23.644592],[121.270043,23.642609],[121.267885,23.642071],[121.267099,23.641169],[121.267098,23.640266],[121.267881,23.639903],[121.26788,23.639362],[121.26611,23.636836],[121.264347,23.63702],[121.263173,23.638105],[121.260813,23.634678],[121.259049,23.634862],[121.257478,23.633058],[121.25689,23.633059],[121.258061,23.630709],[121.256294,23.628906],[121.256291,23.627462],[121.255505,23.626379],[121.254524,23.6262],[121.253739,23.625479],[121.252171,23.625482],[121.251778,23.625121],[121.251579,23.623857],[121.250794,23.623136],[121.250596,23.621872],[121.249614,23.621152],[121.249416,23.620068],[121.246275,23.617184],[121.245881,23.616281],[121.246271,23.615378],[121.240979,23.615025],[121.240585,23.614122],[121.239802,23.614485],[121.23843,23.614306],[121.238036,23.613223],[121.236663,23.612684],[121.23666,23.611419],[121.23607,23.610337],[121.235091,23.610338],[121.232344,23.608898],[121.230777,23.60908],[121.229989,23.607095],[121.228812,23.606555],[121.227045,23.604571],[121.226457,23.604572],[121.226064,23.603669],[121.22469,23.602768],[121.224689,23.602227],[121.224101,23.602047],[121.222926,23.60259],[121.22214,23.601508],[121.221744,23.599161],[121.219785,23.599525],[121.219395,23.600248],[121.217828,23.600792],[121.213516,23.600436],[121.213517,23.60152],[121.214303,23.602422],[121.214504,23.605672],[121.215289,23.606033],[121.216469,23.60874],[121.216276,23.610546],[121.21726,23.613073],[121.217263,23.614879],[121.218636,23.61578],[121.220597,23.616319],[121.220403,23.617403],[121.220995,23.61957],[121.222567,23.622276],[121.223745,23.623178],[121.223944,23.625164],[121.224927,23.626788],[121.224734,23.628594],[121.225128,23.629858],[121.224151,23.631304],[121.224349,23.632748],[121.223957,23.632749],[121.223762,23.633472],[121.224159,23.63618],[121.223771,23.638528],[121.224948,23.638888],[121.225146,23.639971],[121.225931,23.640512],[121.226129,23.641956],[121.22711,23.642316],[121.228092,23.643579],[121.2279,23.645385],[121.230453,23.64791],[121.23026,23.650077],[121.231438,23.650979],[121.230659,23.653869],[121.232034,23.655131],[121.232038,23.65784],[121.233611,23.660005],[121.234593,23.660907],[121.23577,23.661266],[121.235967,23.661988],[121.235779,23.666503],[121.236173,23.667225],[121.235787,23.671018],[121.23305,23.675718],[121.232072,23.676623],[121.232073,23.677526],[121.233841,23.679329],[121.233843,23.680593],[121.236396,23.682576],[121.236202,23.68366],[121.236596,23.684562],[121.239738,23.687266],[121.239741,23.688711],[121.23896,23.690518],[121.239559,23.696658],[121.241327,23.6981],[121.241525,23.699002],[121.242897,23.698639],[121.245055,23.698816],[121.246233,23.699537],[121.248979,23.699532],[121.250355,23.701155],[121.250948,23.703683],[121.251733,23.703862],[121.252322,23.704584],[121.255067,23.704037],[121.255461,23.704759],[121.256245,23.704758],[121.258211,23.706741],[121.259781,23.707461],[121.260176,23.708905],[121.260962,23.709445],[121.264297,23.709981],[121.265472,23.709076],[121.266453,23.709075],[121.268612,23.709974],[121.271358,23.709789],[121.271948,23.710871],[121.273519,23.711591],[121.273521,23.712313],[121.274897,23.713756],[121.274507,23.71502],[121.275099,23.716825],[121.275884,23.716824],[121.276474,23.717545],[121.27824,23.718084],[121.278439,23.719348],[121.28158,23.720426],[121.281777,23.720967],[121.282758,23.720965],[121.284135,23.722949],[121.286294,23.723306],[121.288849,23.725649],[121.290418,23.725647],[121.291597,23.726367],[121.293558,23.726363],[121.29493,23.725819],[121.296698,23.726899],[121.300229,23.726892],[121.301605,23.728153],[121.303763,23.728149],[121.306315,23.728867]]]}},{"type":"Feature","properties":{"id":"downstream_all","name":"下游河道區（土砂堆積＋沖淤調節＋出流口）","area_ha":2048.2},"geometry":{"type":"Polygon","coordinates":[[[121.4507,23.673974],[121.4507,23.674154],[121.450308,23.674155],[121.450309,23.674336],[121.449524,23.674338],[121.449525,23.674519],[121.449133,23.67452],[121.449133,23.674701],[121.448545,23.674702],[121.44835,23.675064],[121.447566,23.675066],[121.447371,23.675428],[121.447175,23.675429],[121.447176,23.67579],[121.446196,23.675793],[121.446196,23.675973],[121.446,23.675974],[121.446002,23.676335],[121.445413,23.676337],[121.445219,23.676698],[121.444826,23.6767],[121.444827,23.67688],[121.443847,23.676883],[121.443652,23.677245],[121.443456,23.677245],[121.443457,23.677606],[121.442672,23.677609],[121.442672,23.677428],[121.44228,23.677429],[121.442085,23.677791],[121.441693,23.677792],[121.441498,23.678154],[121.441106,23.678155],[121.440911,23.678517],[121.440322,23.678518],[121.440323,23.678699],[121.439931,23.6787],[121.439932,23.678881],[121.439539,23.678882],[121.43954,23.679062],[121.438952,23.679064],[121.438952,23.679245],[121.43856,23.679246],[121.438561,23.679607],[121.437385,23.679791],[121.437191,23.680153],[121.436994,23.680153],[121.436994,23.679973],[121.436406,23.679974],[121.436211,23.680336],[121.435818,23.680337],[121.435624,23.680699],[121.435035,23.6807],[121.435036,23.680881],[121.434644,23.680882],[121.434643,23.680702],[121.433663,23.680704],[121.433662,23.680524],[121.432682,23.680526],[121.432682,23.680707],[121.431702,23.68071],[121.431702,23.68089],[121.43131,23.680891],[121.431311,23.681072],[121.43033,23.681075],[121.430331,23.681255],[121.428762,23.68126],[121.428764,23.681802],[121.428372,23.681983],[121.428373,23.682164],[121.427785,23.682165],[121.427784,23.681985],[121.427392,23.681986],[121.42739,23.681444],[121.426606,23.681446],[121.426606,23.681627],[121.42641,23.681627],[121.426412,23.682169],[121.426608,23.682169],[121.426609,23.68253],[121.426413,23.68253],[121.426414,23.682711],[121.426022,23.682712],[121.426022,23.682893],[121.425434,23.682894],[121.425435,23.683075],[121.424846,23.683076],[121.424847,23.683257],[121.424259,23.683259],[121.424259,23.683439],[121.423671,23.683441],[121.423671,23.683621],[121.422887,23.683624],[121.422888,23.683804],[121.422495,23.683805],[121.422496,23.683986],[121.422104,23.683987],[121.422104,23.684168],[121.421516,23.684169],[121.421517,23.68435],[121.420928,23.684351],[121.420929,23.684532],[121.420341,23.684534],[121.420341,23.684714],[121.419949,23.684715],[121.41995,23.684896],[121.419165,23.684898],[121.419166,23.685078],[121.417989,23.685082],[121.41799,23.685262],[121.417205,23.685264],[121.417206,23.685445],[121.416422,23.685447],[121.416422,23.685628],[121.415834,23.685629],[121.415834,23.68581],[121.415246,23.685811],[121.415247,23.685992],[121.414462,23.685994],[121.414463,23.686175],[121.413679,23.686177],[121.413679,23.686357],[121.412895,23.68636],[121.412895,23.68654],[121.412111,23.686542],[121.412111,23.686723],[121.410935,23.686726],[121.410935,23.686907],[121.40721,23.686916],[121.407209,23.686736],[121.406621,23.686737],[121.40662,23.686557],[121.406228,23.686558],[121.406227,23.686197],[121.406031,23.686197],[121.405833,23.685836],[121.405637,23.685837],[121.405636,23.685476],[121.405244,23.685296],[121.405242,23.684935],[121.405046,23.684935],[121.405049,23.685838],[121.404853,23.685839],[121.404854,23.68602],[121.40505,23.686019],[121.405054,23.687283],[121.404465,23.687285],[121.40427,23.687646],[121.403485,23.687468],[121.403486,23.687648],[121.403094,23.68765],[121.402899,23.688011],[121.401722,23.688014],[121.401723,23.688195],[121.40133,23.688196],[121.40133,23.688015],[121.400742,23.688017],[121.400741,23.687836],[121.400545,23.687837],[121.400545,23.688017],[121.399173,23.688021],[121.398976,23.68766],[121.398192,23.687843],[121.398191,23.687662],[121.396622,23.687666],[121.396621,23.687305],[121.396425,23.687306],[121.396424,23.686944],[121.396228,23.686945],[121.396227,23.686764],[121.395443,23.686766],[121.39544,23.685683],[121.395244,23.685683],[121.395046,23.685322],[121.39485,23.685323],[121.394653,23.684962],[121.394261,23.684963],[121.39426,23.684783],[121.394064,23.684783],[121.394065,23.684964],[121.393477,23.684965],[121.393477,23.685146],[121.392497,23.685148],[121.392496,23.684968],[121.391908,23.684969],[121.391907,23.684789],[121.392103,23.684788],[121.392102,23.684427],[121.390533,23.684431],[121.390533,23.68425],[121.390141,23.684251],[121.39014,23.684071],[121.388964,23.684074],[121.388964,23.684254],[121.388572,23.684255],[121.388571,23.684075],[121.388179,23.684076],[121.388179,23.683895],[121.387787,23.683896],[121.387786,23.683715],[121.387002,23.683717],[121.387001,23.683537],[121.386609,23.683538],[121.386608,23.683357],[121.386412,23.683358],[121.386413,23.683538],[121.386021,23.683539],[121.38602,23.683359],[121.385432,23.68336],[121.38484,23.682278],[121.384448,23.682279],[121.384251,23.681918],[121.384055,23.681919],[121.384054,23.681738],[121.383858,23.681739],[121.383858,23.681558],[121.383662,23.681559],[121.383661,23.681378],[121.383465,23.681378],[121.383465,23.681198],[121.383268,23.681198],[121.383268,23.681018],[121.383072,23.681018],[121.383071,23.680838],[121.382875,23.680838],[121.382875,23.680658],[121.382679,23.680658],[121.382678,23.680477],[121.382482,23.680478],[121.382481,23.680297],[121.382285,23.680298],[121.382285,23.680117],[121.382089,23.680118],[121.382088,23.679937],[121.381696,23.679938],[121.381499,23.679577],[121.381303,23.679578],[121.381302,23.679397],[121.380714,23.679399],[121.380517,23.679038],[121.380321,23.679038],[121.38032,23.678858],[121.380124,23.678858],[121.380124,23.678678],[121.379928,23.678678],[121.379927,23.678498],[121.379535,23.678499],[121.379338,23.678138],[121.379142,23.678138],[121.379141,23.677958],[121.378945,23.677958],[121.378945,23.677778],[121.377768,23.677781],[121.377767,23.6776],[121.376787,23.677602],[121.376787,23.677422],[121.37463,23.677427],[121.374629,23.677246],[121.374237,23.677247],[121.37404,23.676887],[121.373844,23.676887],[121.373647,23.676526],[121.37247,23.676349],[121.372271,23.675627],[121.372075,23.675627],[121.372073,23.674905],[121.371877,23.674905],[121.37168,23.674545],[121.371484,23.674545],[121.371485,23.674726],[121.371092,23.674727],[121.371093,23.674907],[121.370897,23.674908],[121.370899,23.675811],[121.370508,23.675992],[121.370508,23.676173],[121.370901,23.676352],[121.370905,23.677797],[121.371101,23.677797],[121.371106,23.679422],[121.37091,23.679423],[121.370913,23.680506],[121.370716,23.680507],[121.370719,23.681229],[121.370915,23.681228],[121.370918,23.682312],[121.37131,23.682492],[121.371312,23.683033],[121.371508,23.683033],[121.371509,23.683394],[121.371902,23.683574],[121.371903,23.684116],[121.372099,23.684115],[121.3721,23.684476],[121.372493,23.684656],[121.372494,23.685017],[121.372887,23.685197],[121.372888,23.685558],[121.373084,23.685558],[121.373086,23.68628],[121.373282,23.686279],[121.373283,23.68646],[121.373087,23.686461],[121.373088,23.686822],[121.373284,23.686821],[121.373284,23.687002],[121.37348,23.687001],[121.373481,23.687182],[121.373677,23.687181],[121.373677,23.687362],[121.373873,23.687362],[121.373874,23.687542],[121.37407,23.687542],[121.374071,23.687722],[121.374267,23.687722],[121.374464,23.688083],[121.37466,23.688082],[121.374665,23.689888],[121.374861,23.689888],[121.374862,23.690068],[121.374077,23.69007],[121.373882,23.690432],[121.373686,23.690432],[121.373687,23.690613],[121.373098,23.690614],[121.373099,23.690795],[121.372903,23.690795],[121.372901,23.690253],[121.371725,23.690256],[121.371724,23.690076],[121.371332,23.690077],[121.371331,23.689896],[121.371135,23.689897],[121.370938,23.689536],[121.370154,23.689538],[121.370153,23.689357],[121.369761,23.689358],[121.369564,23.688997],[121.369368,23.688998],[121.369367,23.688817],[121.369171,23.688818],[121.369171,23.688637],[121.368974,23.688638],[121.368973,23.688276],[121.368581,23.688097],[121.36858,23.687916],[121.367795,23.687737],[121.367598,23.687377],[121.367402,23.687377],[121.3674,23.686655],[121.367204,23.686655],[121.367007,23.686294],[121.366811,23.686295],[121.36681,23.686114],[121.366614,23.686115],[121.366614,23.685934],[121.366418,23.685935],[121.36622,23.685574],[121.366024,23.685574],[121.366024,23.685394],[121.365828,23.685394],[121.365827,23.685214],[121.365435,23.685215],[121.365434,23.684853],[121.365238,23.684854],[121.365041,23.684493],[121.364845,23.684494],[121.364842,23.683591],[121.36445,23.683411],[121.364449,23.68305],[121.364252,23.68305],[121.364055,23.682689],[121.363859,23.68269],[121.363859,23.682509],[121.363467,23.68251],[121.363466,23.682149],[121.36327,23.68215],[121.363269,23.681788],[121.363072,23.681789],[121.363072,23.681608],[121.36268,23.681609],[121.362483,23.681248],[121.362287,23.681249],[121.362286,23.681068],[121.361502,23.68107],[121.361305,23.680709],[121.360716,23.680711],[121.360716,23.68053],[121.359343,23.680533],[121.359146,23.680173],[121.358754,23.680174],[121.358557,23.679813],[121.358165,23.679814],[121.357966,23.678731],[121.35777,23.678731],[121.357768,23.678009],[121.357571,23.678009],[121.35757,23.677467],[121.357374,23.677468],[121.357372,23.676745],[121.357176,23.676746],[121.357174,23.676204],[121.356782,23.676024],[121.35678,23.675483],[121.356584,23.675483],[121.356583,23.675122],[121.356387,23.675122],[121.356385,23.6744],[121.356777,23.674218],[121.356773,23.672954],[121.356577,23.672955],[121.356576,23.672413],[121.35638,23.672413],[121.356378,23.671691],[121.356182,23.671691],[121.35618,23.67115],[121.355984,23.67115],[121.355787,23.670789],[121.355591,23.67079],[121.35559,23.670429],[121.355197,23.670249],[121.355196,23.669888],[121.354411,23.669528],[121.354408,23.668445],[121.354212,23.668445],[121.354211,23.667903],[121.354015,23.667904],[121.354014,23.667543],[121.35421,23.667542],[121.354209,23.667362],[121.354013,23.667362],[121.354011,23.666459],[121.353815,23.66646],[121.353814,23.666098],[121.353421,23.665919],[121.35342,23.665557],[121.353224,23.665558],[121.353223,23.665016],[121.353027,23.665017],[121.353025,23.664294],[121.352829,23.664295],[121.352828,23.663933],[121.352631,23.663934],[121.352627,23.662128],[121.352823,23.662127],[121.352819,23.660863],[121.352623,23.660864],[121.352426,23.660503],[121.35223,23.660503],[121.35223,23.660323],[121.351642,23.660324],[121.351444,23.659963],[121.351248,23.659964],[121.351247,23.659603],[121.351051,23.659603],[121.350853,23.658881],[121.350657,23.658882],[121.35046,23.658521],[121.350264,23.658521],[121.350263,23.65816],[121.350067,23.658161],[121.350067,23.65798],[121.349675,23.657981],[121.349478,23.65762],[121.349086,23.657621],[121.349085,23.65744],[121.348889,23.657441],[121.348691,23.656719],[121.348495,23.656719],[121.348494,23.656358],[121.348298,23.656359],[121.348101,23.655998],[121.347905,23.655998],[121.347903,23.655456],[121.347315,23.655458],[121.347118,23.655097],[121.346922,23.655097],[121.346921,23.654736],[121.346725,23.654737],[121.346725,23.654556],[121.346137,23.654557],[121.346136,23.654377],[121.345352,23.654379],[121.345351,23.654198],[121.344763,23.654199],[121.344764,23.65456],[121.344568,23.654561],[121.344571,23.655464],[121.344374,23.655464],[121.344377,23.656367],[121.344181,23.656368],[121.344182,23.656729],[121.343986,23.656729],[121.343989,23.657994],[121.343793,23.657994],[121.3438,23.660703],[121.343604,23.660703],[121.343606,23.661606],[121.34341,23.661607],[121.343217,23.662691],[121.343021,23.662691],[121.343021,23.662872],[121.343217,23.662871],[121.343219,23.663413],[121.342827,23.663595],[121.342828,23.663775],[121.342436,23.663776],[121.342436,23.663957],[121.342044,23.663958],[121.342044,23.664138],[121.341652,23.664139],[121.341457,23.664501],[121.341261,23.664501],[121.341261,23.664682],[121.341065,23.664682],[121.341066,23.664863],[121.340674,23.664864],[121.340479,23.665225],[121.340283,23.665226],[121.340283,23.665406],[121.340087,23.665407],[121.340088,23.665768],[121.339892,23.665768],[121.339893,23.66631],[121.339697,23.666311],[121.339698,23.666672],[121.339502,23.666672],[121.339503,23.667033],[121.339307,23.667034],[121.339112,23.667395],[121.338916,23.667396],[121.338917,23.667757],[121.338525,23.667938],[121.338526,23.66848],[121.338722,23.66848],[121.338724,23.669202],[121.338528,23.669203],[121.338529,23.669564],[121.338333,23.669564],[121.338336,23.670648],[121.338532,23.670647],[121.338539,23.673356],[121.338735,23.673356],[121.338736,23.673717],[121.338932,23.673717],[121.338936,23.675342],[121.339132,23.675342],[121.339133,23.675522],[121.339329,23.675522],[121.339526,23.675883],[121.339722,23.675882],[121.339725,23.676966],[121.339921,23.676965],[121.339922,23.677507],[121.340118,23.677507],[121.34012,23.678229],[121.340513,23.678409],[121.340514,23.678951],[121.34071,23.67895],[121.340515,23.679312],[121.340711,23.679311],[121.340908,23.679672],[121.341104,23.679672],[121.341105,23.680033],[121.341301,23.680032],[121.341302,23.680213],[121.341498,23.680213],[121.341695,23.680573],[121.342479,23.680572],[121.34248,23.680752],[121.342676,23.680752],[121.342873,23.681112],[121.343069,23.681112],[121.34307,23.681473],[121.342874,23.681474],[121.342679,23.681835],[121.342483,23.681836],[121.342288,23.682559],[121.342092,23.682559],[121.341897,23.682921],[121.341701,23.682921],[121.341702,23.683282],[121.34131,23.683464],[121.341311,23.683825],[121.341115,23.683825],[121.341117,23.684728],[121.340921,23.684729],[121.340922,23.68509],[121.340726,23.68509],[121.340728,23.685632],[121.340531,23.685633],[121.340532,23.685994],[121.340336,23.685994],[121.340338,23.686536],[121.340142,23.686536],[121.340143,23.686898],[121.339359,23.68726],[121.33936,23.687622],[121.339556,23.687621],[121.339558,23.688163],[121.339361,23.688163],[121.339363,23.688886],[121.339167,23.688886],[121.339168,23.689247],[121.338972,23.689248],[121.338973,23.68979],[121.338582,23.689971],[121.338584,23.690694],[121.338387,23.690694],[121.338586,23.691777],[121.33839,23.691778],[121.338392,23.692319],[121.338196,23.69232],[121.338196,23.692681],[121.338,23.692681],[121.338002,23.693404],[121.338198,23.693403],[121.3382,23.693945],[121.338396,23.693945],[121.338201,23.694306],[121.338397,23.694306],[121.338399,23.695209],[121.338595,23.695208],[121.338597,23.69575],[121.3384,23.695751],[121.338403,23.696654],[121.338207,23.696654],[121.338208,23.697196],[121.338012,23.697196],[121.338013,23.697557],[121.337817,23.697558],[121.337818,23.697919],[121.337426,23.698101],[121.337427,23.698462],[121.337623,23.698461],[121.337626,23.699725],[121.33743,23.699726],[121.337431,23.699906],[121.337627,23.699906],[121.337628,23.700267],[121.337431,23.700268],[121.337433,23.700809],[121.337237,23.70081],[121.337238,23.701171],[121.336845,23.701172],[121.336846,23.701353],[121.33665,23.701353],[121.336652,23.702075],[121.336456,23.702076],[121.336458,23.703159],[121.336262,23.70316],[121.336459,23.703521],[121.336067,23.703702],[121.336068,23.703883],[121.336656,23.703881],[121.336657,23.704062],[121.336853,23.704061],[121.33705,23.704422],[121.337442,23.704421],[121.337443,23.704783],[121.337639,23.704782],[121.337837,23.705504],[121.338033,23.705504],[121.338035,23.706045],[121.338231,23.706045],[121.338429,23.706767],[121.338822,23.706947],[121.338823,23.707669],[121.33902,23.707669],[121.339021,23.70821],[121.339217,23.70821],[121.339414,23.708571],[121.339806,23.70857],[121.339807,23.70875],[121.340199,23.70875],[121.3402,23.70893],[121.340788,23.708929],[121.340789,23.70911],[121.341181,23.709109],[121.341181,23.709289],[121.342162,23.709287],[121.342162,23.709468],[121.342555,23.709467],[121.342555,23.709647],[121.342947,23.709647],[121.342947,23.709466],[121.344124,23.709463],[121.344124,23.709644],[121.34432,23.709644],[121.34432,23.709463],[121.344712,23.709462],[121.344712,23.709281],[121.344908,23.709281],[121.344907,23.70892],[121.345103,23.708919],[121.345298,23.708558],[121.34569,23.708557],[121.34569,23.708376],[121.346082,23.708375],[121.346082,23.708195],[121.346278,23.708194],[121.346277,23.707833],[121.346473,23.707833],[121.346472,23.707291],[121.346668,23.707291],[121.346863,23.706929],[121.347255,23.706928],[121.347255,23.706747],[121.347451,23.706747],[121.347451,23.706928],[121.34804,23.706926],[121.348039,23.706746],[121.348628,23.706744],[121.348627,23.706564],[121.349412,23.706562],[121.349411,23.706381],[121.35,23.70638],[121.349999,23.706199],[121.350195,23.706199],[121.35039,23.705837],[121.351175,23.705836],[121.351175,23.706016],[121.351764,23.706015],[121.351959,23.705653],[121.353136,23.705651],[121.353136,23.705831],[121.353332,23.705831],[121.353332,23.70565],[121.355293,23.705646],[121.355293,23.705465],[121.355685,23.705464],[121.355684,23.705283],[121.355881,23.705283],[121.355881,23.705464],[121.35745,23.70546],[121.35745,23.705279],[121.357842,23.705279],[121.357841,23.705098],[121.358234,23.705097],[121.358234,23.705278],[121.35843,23.705277],[121.358627,23.705638],[121.359216,23.705637],[121.359216,23.705817],[121.360589,23.705814],[121.360589,23.705633],[121.360981,23.705632],[121.361176,23.705271],[121.361961,23.705269],[121.36196,23.705088],[121.362352,23.705087],[121.362352,23.704907],[121.363332,23.704905],[121.363332,23.704724],[121.363724,23.704723],[121.363724,23.704542],[121.364508,23.704541],[121.364507,23.704179],[121.364899,23.704178],[121.364899,23.703998],[121.366076,23.703995],[121.366075,23.703814],[121.366467,23.703814],[121.366663,23.703452],[121.367251,23.703451],[121.36725,23.70327],[121.367643,23.703269],[121.367642,23.703088],[121.367838,23.703088],[121.367837,23.702727],[121.36823,23.702726],[121.368229,23.702545],[121.368817,23.702544],[121.368817,23.702363],[121.370386,23.702359],[121.370385,23.702179],[121.370974,23.702177],[121.370973,23.701997],[121.371366,23.701996],[121.371365,23.701815],[121.372346,23.701813],[121.372543,23.702174],[121.373131,23.702172],[121.373131,23.701992],[121.3747,23.701988],[121.374699,23.701807],[121.37568,23.701805],[121.375679,23.701624],[121.376071,23.701623],[121.376071,23.701443],[121.376463,23.701442],[121.376463,23.701261],[121.377247,23.701259],[121.377247,23.701079],[121.377443,23.701078],[121.37764,23.701439],[121.378621,23.701437],[121.378621,23.701617],[121.378817,23.701617],[121.378818,23.701797],[121.37921,23.701796],[121.37921,23.701977],[121.379602,23.701795],[121.379603,23.701976],[121.380191,23.701975],[121.380192,23.702155],[121.380583,23.701974],[121.380584,23.702154],[121.382349,23.70215],[121.382349,23.70233],[121.383134,23.702328],[121.383135,23.702509],[121.38392,23.702688],[121.384117,23.703048],[121.384509,23.703047],[121.384509,23.703228],[121.384706,23.703228],[121.384706,23.703408],[121.384902,23.703408],[121.385099,23.703768],[121.385688,23.703767],[121.385687,23.703586],[121.385883,23.703586],[121.385882,23.703225],[121.386078,23.703224],[121.386078,23.703044],[121.386274,23.703043],[121.386274,23.702862],[121.38647,23.702862],[121.386469,23.702681],[121.386665,23.702681],[121.386665,23.7025],[121.386861,23.7025],[121.38686,23.702319],[121.387056,23.702319],[121.387056,23.702138],[121.387252,23.702138],[121.387252,23.701957],[121.387448,23.701957],[121.387447,23.701776],[121.387643,23.701775],[121.387838,23.701414],[121.388034,23.701413],[121.388228,23.70069],[121.38862,23.700509],[121.388617,23.699606],[121.388814,23.699605],[121.389009,23.699244],[121.389205,23.699243],[121.389399,23.69852],[121.389595,23.69852],[121.38979,23.698158],[121.389986,23.698158],[121.39018,23.697435],[121.390376,23.697434],[121.390571,23.697073],[121.390767,23.697072],[121.390766,23.69653],[121.391157,23.696349],[121.391155,23.695626],[121.390959,23.695627],[121.390762,23.695266],[121.390566,23.695267],[121.390564,23.694544],[121.390367,23.694545],[121.390367,23.694364],[121.390563,23.694364],[121.390561,23.693822],[121.390365,23.693822],[121.390364,23.693281],[121.389971,23.693101],[121.389969,23.692379],[121.389773,23.692379],[121.389771,23.691657],[121.389967,23.691656],[121.389966,23.691476],[121.390162,23.691475],[121.390162,23.691295],[121.390358,23.691294],[121.390357,23.691113],[121.390553,23.691113],[121.390748,23.690751],[121.391533,23.690749],[121.391533,23.69093],[121.395063,23.690921],[121.395063,23.69074],[121.397024,23.690735],[121.397023,23.690555],[121.398984,23.69055],[121.398984,23.690369],[121.400749,23.690365],[121.400748,23.690184],[121.402513,23.690179],[121.402513,23.689999],[121.404866,23.689993],[121.404865,23.689812],[121.40565,23.689991],[121.40565,23.68981],[121.406042,23.689809],[121.406042,23.68999],[121.406435,23.689989],[121.406435,23.690169],[121.406631,23.690169],[121.406632,23.690349],[121.407024,23.690348],[121.407025,23.690529],[121.408593,23.690525],[121.408594,23.690705],[121.409182,23.690704],[121.409183,23.690884],[121.41036,23.690881],[121.410359,23.690701],[121.411928,23.690696],[121.411927,23.690516],[121.413888,23.69033],[121.413887,23.690149],[121.414672,23.690147],[121.414671,23.689967],[121.415848,23.689964],[121.415847,23.689783],[121.416828,23.68978],[121.416827,23.6896],[121.418787,23.689414],[121.418787,23.689233],[121.419571,23.689231],[121.419571,23.689051],[121.420355,23.689048],[121.420355,23.688868],[121.421139,23.688866],[121.421138,23.688685],[121.421727,23.688683],[121.421726,23.688503],[121.422314,23.688501],[121.422314,23.688321],[121.422902,23.688319],[121.422902,23.688138],[121.42349,23.688137],[121.423489,23.687956],[121.424078,23.687955],[121.424077,23.687774],[121.424665,23.687772],[121.424665,23.687592],[121.425253,23.68759],[121.425252,23.68741],[121.425841,23.687408],[121.42584,23.687227],[121.426428,23.687226],[121.426428,23.687045],[121.427016,23.687044],[121.427016,23.686863],[121.427604,23.686861],[121.427603,23.686681],[121.428192,23.686679],[121.428191,23.686499],[121.428779,23.686497],[121.428779,23.686316],[121.429367,23.686315],[121.429366,23.686134],[121.429955,23.686132],[121.429954,23.685952],[121.430542,23.68595],[121.430542,23.68577],[121.43113,23.685768],[121.43113,23.685587],[121.431718,23.685586],[121.431717,23.685405],[121.432306,23.685404],[121.432305,23.685223],[121.432893,23.685221],[121.432893,23.685041],[121.433481,23.685039],[121.43348,23.684858],[121.434069,23.684857],[121.434068,23.684676],[121.43446,23.684675],[121.43446,23.684495],[121.435048,23.684493],[121.435047,23.684312],[121.435439,23.684311],[121.435439,23.684131],[121.435831,23.68413],[121.43583,23.683949],[121.436419,23.683947],[121.436418,23.683767],[121.43681,23.683766],[121.43681,23.683585],[121.437398,23.683583],[121.437397,23.683403],[121.43779,23.683402],[121.437789,23.683221],[121.438377,23.683219],[121.438377,23.683039],[121.438769,23.683038],[121.438768,23.682857],[121.43916,23.682856],[121.43916,23.682675],[121.439748,23.682674],[121.439748,23.682493],[121.44014,23.682492],[121.440139,23.682311],[121.440727,23.68231],[121.440727,23.682129],[121.441119,23.682128],[121.441118,23.681947],[121.441511,23.681946],[121.44151,23.681766],[121.442098,23.681764],[121.442098,23.681583],[121.44249,23.681582],[121.442489,23.681402],[121.443077,23.6814],[121.443077,23.681219],[121.443469,23.681218],[121.443468,23.681038],[121.444057,23.681036],[121.444056,23.680855],[121.444448,23.680854],[121.444448,23.680674],[121.44484,23.680673],[121.444839,23.680492],[121.445427,23.68049],[121.445427,23.68031],[121.445819,23.680309],[121.445818,23.680128],[121.446407,23.680126],[121.446406,23.679946],[121.446994,23.679944],[121.446994,23.679763],[121.447582,23.679762],[121.447581,23.679581],[121.44817,23.679579],[121.448169,23.679399],[121.448757,23.679397],[121.448757,23.679217],[121.449541,23.679214],[121.44954,23.679034],[121.450325,23.679031],[121.450324,23.678851],[121.451108,23.678849],[121.451108,23.678668],[121.451892,23.678666],[121.451892,23.678485],[121.452872,23.678482],[121.452871,23.678302],[121.454048,23.678298],[121.454047,23.678118],[121.456204,23.678111],[121.456204,23.677931],[121.460517,23.677918],[121.460518,23.678098],[121.461302,23.678096],[121.461303,23.678277],[121.462284,23.678274],[121.462284,23.678454],[121.462872,23.678453],[121.462873,23.678633],[121.463658,23.678811],[121.463659,23.678992],[121.463855,23.678991],[121.464052,23.679352],[121.46464,23.67935],[121.46464,23.67917],[121.465228,23.679168],[121.465227,23.678987],[121.465816,23.678986],[121.465816,23.679166],[121.466012,23.679166],[121.46621,23.679526],[121.466602,23.679525],[121.466799,23.679886],[121.466995,23.679885],[121.466996,23.680066],[121.467388,23.680064],[121.467586,23.680425],[121.468174,23.680423],[121.468171,23.67952],[121.468563,23.679519],[121.468563,23.6797],[121.46974,23.679696],[121.469741,23.679877],[121.470132,23.679695],[121.469935,23.679334],[121.469543,23.679336],[121.469543,23.679516],[121.469347,23.679517],[121.46915,23.679156],[121.467973,23.67916],[121.467972,23.678798],[121.467384,23.6788],[121.467383,23.67862],[121.466599,23.678622],[121.466597,23.67808],[121.466008,23.678082],[121.466008,23.677901],[121.465616,23.677903],[121.465418,23.677542],[121.465222,23.677543],[121.46522,23.677001],[121.464435,23.676823],[121.464238,23.676462],[121.463846,23.676463],[121.463845,23.676283],[121.463257,23.676284],[121.463256,23.676104],[121.462864,23.676105],[121.462863,23.675924],[121.462471,23.675925],[121.46247,23.675564],[121.462274,23.675565],[121.462273,23.675384],[121.461881,23.675385],[121.461882,23.675566],[121.461686,23.675567],[121.461488,23.675206],[121.461292,23.675207],[121.461292,23.675026],[121.461096,23.675027],[121.461095,23.674846],[121.460507,23.674848],[121.460309,23.674487],[121.458937,23.674491],[121.458937,23.674672],[121.458153,23.674674],[121.458154,23.675035],[121.45737,23.675038],[121.457371,23.675218],[121.455214,23.675225],[121.455016,23.674864],[121.454428,23.674866],[121.454429,23.675046],[121.454233,23.675047],[121.454035,23.674686],[121.453839,23.674687],[121.453839,23.674506],[121.453054,23.674509],[121.453054,23.674328],[121.452662,23.674329],[121.452661,23.674149],[121.451288,23.674153],[121.451288,23.673972],[121.4507,23.673974]]]}},{"type":"Feature","properties":{"id":"debris","name":"崩積區","area_ha":563.1},"geometry":{"type":"Polygon","coordinates":[[[121.3039,23.727975],[121.303805,23.727793],[121.302922,23.727783],[121.302826,23.727602],[121.30214,23.727594],[121.302044,23.727412],[121.30175,23.727409],[121.301654,23.727228],[121.301164,23.727222],[121.300678,23.726856],[121.298619,23.726833],[121.298523,23.726651],[121.296169,23.726625],[121.296069,23.726805],[121.294598,23.726789],[121.294497,23.726968],[121.29283,23.72695],[121.29273,23.727129],[121.29067,23.727106],[121.290185,23.72674],[121.289694,23.726735],[121.289599,23.726553],[121.288915,23.726365],[121.288431,23.725818],[121.288137,23.725814],[121.287848,23.72545],[121.287164,23.725262],[121.286874,23.724897],[121.28658,23.724894],[121.286484,23.724712],[121.285994,23.724707],[121.285898,23.724525],[121.285016,23.724516],[121.28492,23.724334],[121.284429,23.724328],[121.284334,23.724147],[121.283255,23.724135],[121.283159,23.723953],[121.282669,23.723948],[121.281605,23.722852],[121.280134,23.722836],[121.279746,23.72247],[121.279764,23.721116],[121.280162,23.720669],[121.280371,23.719678],[121.280967,23.719143],[121.281261,23.719146],[121.282751,23.717718],[121.283045,23.717721],[121.28374,23.717097],[121.283743,23.716826],[121.284337,23.716381],[121.284341,23.71611],[121.284539,23.715932],[121.284834,23.715935],[121.285132,23.715577],[121.285427,23.715581],[121.285527,23.715401],[121.285821,23.715404],[121.285922,23.715225],[121.286216,23.715228],[121.286316,23.715049],[121.28661,23.715052],[121.286711,23.714872],[121.287005,23.714876],[121.287105,23.714696],[121.2874,23.714699],[121.2875,23.71452],[121.287794,23.714523],[121.287895,23.714344],[121.288189,23.714347],[121.288289,23.714167],[121.288978,23.713994],[121.289277,23.713637],[121.289571,23.71364],[121.290365,23.712926],[121.290368,23.712655],[121.290764,23.712389],[121.290768,23.712118],[121.291163,23.711851],[121.291167,23.711581],[121.291563,23.711314],[121.291566,23.711043],[121.291962,23.710777],[121.291966,23.710506],[121.292957,23.709704],[121.29296,23.709433],[121.293554,23.708988],[121.293558,23.708717],[121.293954,23.708451],[121.293957,23.70818],[121.294154,23.708092],[121.294158,23.707821],[121.294556,23.707374],[121.294562,23.706923],[121.294759,23.706834],[121.294767,23.706202],[121.294965,23.706114],[121.294968,23.705843],[121.295166,23.705755],[121.295169,23.705484],[121.295567,23.705037],[121.295573,23.704586],[121.29577,23.704498],[121.295781,23.703685],[121.295978,23.703597],[121.29599,23.702694],[121.295795,23.702602],[121.2958,23.702241],[121.295998,23.702062],[121.296292,23.702065],[121.296591,23.701708],[121.296885,23.701711],[121.296986,23.701531],[121.29728,23.701534],[121.29738,23.701355],[121.297674,23.701358],[121.298169,23.701002],[121.298363,23.701185],[121.299049,23.701193],[121.299145,23.701374],[121.302185,23.701408],[121.302285,23.701228],[121.302775,23.701234],[121.304363,23.699806],[121.304366,23.699535],[121.304764,23.699088],[121.30477,23.698637],[121.304967,23.698549],[121.304973,23.698097],[121.305668,23.697473],[121.306354,23.69748],[121.306454,23.697301],[121.306944,23.697306],[121.307342,23.696859],[121.307539,23.696861],[121.307927,23.697136],[121.308221,23.69714],[121.308512,23.697414],[121.308509,23.697684],[121.308704,23.697777],[121.3087,23.698048],[121.309086,23.698503],[121.309083,23.698774],[121.308886,23.698862],[121.30888,23.699314],[121.308683,23.699402],[121.308677,23.699853],[121.308479,23.699942],[121.308476,23.700212],[121.308078,23.70066],[121.308072,23.701111],[121.308267,23.701203],[121.308253,23.702287],[121.308448,23.702379],[121.308442,23.702831],[121.308637,23.702923],[121.308634,23.703194],[121.30902,23.70365],[121.30901,23.704462],[121.309205,23.704555],[121.309192,23.705548],[121.309387,23.70564],[121.309383,23.705911],[121.309578,23.706004],[121.309575,23.706275],[121.309961,23.70673],[121.309932,23.708987],[121.310127,23.70908],[121.310105,23.710795],[121.309908,23.710883],[121.309904,23.711154],[121.309707,23.711242],[121.309703,23.711513],[121.309506,23.711601],[121.309302,23.712231],[121.308906,23.712498],[121.308903,23.712769],[121.307713,23.713749],[121.307509,23.714379],[121.307113,23.714645],[121.307109,23.714916],[121.306912,23.715004],[121.306909,23.715275],[121.306711,23.715363],[121.306507,23.715993],[121.306111,23.71626],[121.306108,23.716531],[121.305315,23.717154],[121.305312,23.717425],[121.304518,23.718139],[121.304224,23.718136],[121.303529,23.71876],[121.303523,23.719211],[121.303326,23.7193],[121.303318,23.719932],[121.30312,23.72002],[121.303308,23.720654],[121.303696,23.721019],[121.303789,23.721382],[121.304855,23.722387],[121.304853,23.722567],[121.306017,23.723573],[121.306207,23.724027],[121.306596,23.724302],[121.306587,23.725024],[121.306782,23.725117],[121.306772,23.725839],[121.306575,23.725927],[121.306366,23.726918],[121.306168,23.727096],[121.305873,23.727093],[121.305574,23.727451],[121.30528,23.727448],[121.30518,23.727627],[121.304491,23.7278],[121.304391,23.72798],[121.3039,23.727975]]]}},{"type":"Feature","properties":{"id":"residual","name":"殘壩區","area_ha":184.8},"geometry":{"type":"Polygon","coordinates":[[[121.294044,23.701499],[121.293948,23.701317],[121.293458,23.701312],[121.292877,23.700764],[121.292897,23.699229],[121.292702,23.699136],[121.292708,23.698685],[121.292513,23.698592],[121.292421,23.69814],[121.292521,23.69796],[121.292326,23.697868],[121.292339,23.696875],[121.292536,23.696787],[121.29254,23.696516],[121.292838,23.696248],[121.293524,23.696256],[121.293624,23.696076],[121.294115,23.696082],[121.294215,23.695902],[121.294901,23.69591],[121.295002,23.69573],[121.295884,23.69574],[121.295984,23.69556],[121.296673,23.695387],[121.297467,23.694674],[121.297473,23.694222],[121.29767,23.694134],[121.297689,23.69269],[121.297494,23.692597],[121.297522,23.69043],[121.298117,23.689895],[121.298607,23.6899],[121.298708,23.689721],[121.301355,23.68975],[121.30145,23.689932],[121.302137,23.689939],[121.302237,23.68976],[121.302531,23.689763],[121.30283,23.689405],[121.303124,23.689408],[121.303423,23.68905],[121.303717,23.689054],[121.303817,23.688874],[121.304308,23.688879],[121.304408,23.6887],[121.304898,23.688705],[121.304999,23.688526],[121.305687,23.688353],[121.305986,23.687995],[121.30628,23.687998],[121.306579,23.68764],[121.306873,23.687643],[121.308261,23.686485],[121.308468,23.685584],[121.308766,23.685316],[121.309256,23.685322],[121.309357,23.685142],[121.309651,23.685145],[121.309751,23.684966],[121.311516,23.684985],[121.311611,23.685167],[121.311906,23.68517],[121.312001,23.685352],[121.312685,23.68554],[121.313557,23.686362],[121.313554,23.686633],[121.313749,23.686725],[121.313735,23.687809],[121.313537,23.687897],[121.313527,23.688709],[121.312338,23.68969],[121.312334,23.68996],[121.312137,23.690049],[121.312133,23.690319],[121.311936,23.690408],[121.311933,23.690678],[121.311535,23.691126],[121.311529,23.691577],[121.310636,23.69238],[121.310342,23.692377],[121.310242,23.692556],[121.309947,23.692553],[121.309847,23.692733],[121.309553,23.692729],[121.309453,23.692909],[121.309159,23.692906],[121.309058,23.693085],[121.308764,23.693082],[121.308664,23.693261],[121.307975,23.693435],[121.306983,23.694327],[121.306968,23.6955],[121.307163,23.695593],[121.306964,23.695771],[121.306956,23.696403],[121.306758,23.696582],[121.306267,23.696576],[121.306167,23.696756],[121.305481,23.696748],[121.304191,23.697908],[121.304185,23.69836],[121.303988,23.698448],[121.303982,23.698899],[121.303785,23.698987],[121.303581,23.699617],[121.302588,23.700509],[121.302294,23.700506],[121.302194,23.700685],[121.29935,23.700654],[121.299255,23.700473],[121.297686,23.700455],[121.297586,23.700635],[121.296897,23.700808],[121.296796,23.700987],[121.2966,23.700985],[121.296204,23.701342],[121.295909,23.701339],[121.295809,23.701518],[121.294044,23.701499]]]}},{"type":"Feature","properties":{"id":"lake_max","name":"2025堰塞湖觀測最大範圍(+100m)","area_ha":156.7},"geometry":{"type":"Polygon","coordinates":[[[121.291365,23.703907],[121.291171,23.703725],[121.290779,23.70372],[121.289713,23.702715],[121.289717,23.702444],[121.29051,23.701821],[121.290518,23.701189],[121.290227,23.700915],[121.290528,23.700376],[121.290042,23.7001],[121.288767,23.700086],[121.287798,23.699172],[121.287607,23.698809],[121.287618,23.697997],[121.287029,23.69799],[121.285867,23.696894],[121.285573,23.69689],[121.285283,23.696526],[121.284796,23.69634],[121.28373,23.695335],[121.283637,23.694973],[121.28384,23.694433],[121.283548,23.694249],[121.283357,23.693886],[121.283363,23.693434],[121.28278,23.692976],[121.282111,23.691705],[121.281324,23.691877],[121.281025,23.692235],[121.28034,23.692137],[121.280049,23.691863],[121.279853,23.69186],[121.279357,23.692306],[121.278182,23.692203],[121.277116,23.691198],[121.277125,23.690566],[121.278117,23.689674],[121.278698,23.690222],[121.278991,23.690316],[121.279386,23.69014],[121.279684,23.689782],[121.280077,23.689786],[121.280269,23.690059],[121.280953,23.690247],[121.281351,23.6898],[121.282331,23.689811],[121.283022,23.689458],[121.2837,23.690097],[121.284093,23.690101],[121.285061,23.691015],[121.285059,23.691196],[121.285255,23.691198],[121.286514,23.692386],[121.286604,23.693019],[121.286799,23.693111],[121.286892,23.693474],[121.287482,23.69339],[121.287582,23.69321],[121.28817,23.693217],[121.28856,23.693402],[121.288958,23.692955],[121.289154,23.692957],[121.28925,23.693138],[121.290232,23.693059],[121.290424,23.693332],[121.29101,23.693519],[121.291301,23.693793],[121.290917,23.693157],[121.291909,23.692265],[121.292301,23.692269],[121.292397,23.692451],[121.292691,23.692454],[121.29298,23.692818],[121.293274,23.692822],[121.294243,23.693735],[121.29424,23.694006],[121.294434,23.694099],[121.294431,23.694369],[121.29482,23.694645],[121.295009,23.695189],[121.295795,23.695017],[121.296472,23.695746],[121.296863,23.695841],[121.296964,23.695662],[121.29716,23.695664],[121.298805,23.697307],[121.299395,23.697223],[121.299495,23.697044],[121.30028,23.697053],[121.300375,23.697234],[121.300866,23.69724],[121.302222,23.698519],[121.302313,23.699061],[121.302799,23.699428],[121.302793,23.699879],[121.302988,23.699972],[121.302974,23.701055],[121.302577,23.701412],[121.302086,23.701407],[121.301888,23.701585],[121.299633,23.70156],[121.299439,23.701378],[121.298753,23.70137],[121.298657,23.701188],[121.297971,23.701181],[121.295798,23.702331],[121.295793,23.702782],[121.295987,23.702875],[121.295985,23.703055],[121.295695,23.702781],[121.2954,23.702778],[121.295012,23.702503],[121.293933,23.702491],[121.293437,23.702937],[121.293046,23.702842],[121.292449,23.703468],[121.292155,23.703465],[121.291757,23.703912],[121.291365,23.703907]]]}},{"type":"Feature","properties":{"id":"dam_water_zone","name":"壩區水域判釋範圍","area_ha":293.4},"geometry":{"type":"Polygon","coordinates":[[[121.303581,23.699617],[121.303584,23.699346],[121.303982,23.698899],[121.303988,23.698448],[121.304185,23.69836],[121.304191,23.697908],[121.305481,23.696748],[121.306167,23.696756],[121.306267,23.696576],[121.306758,23.696582],[121.306956,23.696403],[121.306964,23.695771],[121.307163,23.695593],[121.306968,23.6955],[121.306983,23.694327],[121.307975,23.693435],[121.308269,23.693438],[121.30837,23.693258],[121.308664,23.693261],[121.308764,23.693082],[121.309058,23.693085],[121.309159,23.692906],[121.309453,23.692909],[121.309553,23.692729],[121.309847,23.692733],[121.309947,23.692553],[121.310636,23.69238],[121.311529,23.691577],[121.311535,23.691126],[121.311732,23.691037],[121.311736,23.690767],[121.311933,23.690678],[121.311936,23.690408],[121.312133,23.690319],[121.312338,23.68969],[121.313527,23.688709],[121.313537,23.687897],[121.313735,23.687809],[121.313749,23.686725],[121.313554,23.686633],[121.313557,23.686362],[121.312685,23.68554],[121.312391,23.685536],[121.312295,23.685355],[121.312001,23.685352],[121.311516,23.684985],[121.309751,23.684966],[121.309651,23.685145],[121.309357,23.685142],[121.309256,23.685322],[121.308766,23.685316],[121.308468,23.685584],[121.308261,23.686485],[121.306873,23.687643],[121.306579,23.68764],[121.30628,23.687998],[121.305986,23.687995],[121.305687,23.688353],[121.305393,23.68835],[121.304898,23.688705],[121.304408,23.6887],[121.304308,23.688879],[121.303817,23.688874],[121.303717,23.689054],[121.303423,23.68905],[121.303124,23.689408],[121.30283,23.689405],[121.302531,23.689763],[121.302237,23.68976],[121.302137,23.689939],[121.30145,23.689932],[121.301355,23.68975],[121.298708,23.689721],[121.298607,23.6899],[121.298117,23.689895],[121.297522,23.69043],[121.297494,23.692597],[121.297689,23.69269],[121.29767,23.694134],[121.297473,23.694222],[121.297467,23.694674],[121.296673,23.695387],[121.296279,23.695538],[121.295795,23.695017],[121.295009,23.695189],[121.29482,23.694645],[121.294431,23.694369],[121.294243,23.693735],[121.293274,23.692822],[121.29298,23.692818],[121.292691,23.692454],[121.292397,23.692451],[121.292301,23.692269],[121.291909,23.692265],[121.290917,23.693157],[121.291301,23.693793],[121.29101,23.693519],[121.290424,23.693332],[121.290232,23.693059],[121.28925,23.693138],[121.289154,23.692957],[121.288958,23.692955],[121.28856,23.693402],[121.28817,23.693217],[121.287582,23.69321],[121.287482,23.69339],[121.286892,23.693474],[121.286799,23.693111],[121.286604,23.693019],[121.286514,23.692386],[121.285255,23.691198],[121.285059,23.691196],[121.285061,23.691015],[121.284093,23.690101],[121.2837,23.690097],[121.283022,23.689458],[121.282331,23.689811],[121.281351,23.6898],[121.280953,23.690247],[121.280269,23.690059],[121.280077,23.689786],[121.279684,23.689782],[121.279386,23.69014],[121.278991,23.690316],[121.278698,23.690222],[121.278117,23.689674],[121.277125,23.690566],[121.277116,23.691198],[121.278182,23.692203],[121.279357,23.692306],[121.279853,23.69186],[121.280049,23.691863],[121.28034,23.692137],[121.281025,23.692235],[121.281324,23.691877],[121.282111,23.691705],[121.28278,23.692976],[121.283363,23.693434],[121.283357,23.693886],[121.283548,23.694249],[121.28384,23.694433],[121.283637,23.694973],[121.28373,23.695335],[121.284796,23.69634],[121.285283,23.696526],[121.285573,23.69689],[121.285867,23.696894],[121.287029,23.69799],[121.287618,23.697997],[121.287607,23.698809],[121.287798,23.699172],[121.288767,23.700086],[121.290042,23.7001],[121.290528,23.700376],[121.290227,23.700915],[121.290518,23.701189],[121.29051,23.701821],[121.289717,23.702444],[121.289713,23.702715],[121.290779,23.70372],[121.291757,23.703912],[121.292155,23.703465],[121.292449,23.703468],[121.293046,23.702842],[121.293437,23.702937],[121.293933,23.702491],[121.295012,23.702503],[121.2954,23.702778],[121.295695,23.702781],[121.295985,23.703055],[121.295987,23.702875],[121.295793,23.702782],[121.295798,23.702331],[121.297971,23.701181],[121.298657,23.701188],[121.298753,23.70137],[121.299439,23.701378],[121.299633,23.70156],[121.301888,23.701585],[121.302086,23.701407],[121.302577,23.701412],[121.302974,23.701055],[121.302985,23.700152],[121.303581,23.699617]]]}}]}